Model Marker Errors from IK
version=1
nRows=329
nColumns=4
inDegrees=no
endheader
time	total_squared_error	marker_error_RMS	marker_error_max
      0.00000000	      0.01731611	      0.02532464	      0.04569586
      0.02564103	      0.01677377	      0.02492490	      0.03998737
      0.05128205	      0.01669109	      0.02486340	      0.03696873
      0.07692308	      0.01675304	      0.02490950	      0.03697771
      0.10256410	      0.01679349	      0.02493955	      0.03701509
      0.12820513	      0.01678890	      0.02493614	      0.03690712
      0.15384615	      0.01676934	      0.02492161	      0.03757909
      0.17948718	      0.01657115	      0.02477390	      0.03804856
      0.20512821	      0.01628401	      0.02455833	      0.03799762
      0.23076923	      0.01600385	      0.02434616	      0.03810658
      0.25641026	      0.01573609	      0.02414162	      0.03829316
      0.28205128	      0.01547120	      0.02393757	      0.03853130
      0.30769231	      0.01526413	      0.02377684	      0.03891994
      0.33333333	      0.01514766	      0.02368595	      0.03933046
      0.35897436	      0.01518736	      0.02371697	      0.03971182
      0.38461538	      0.01531387	      0.02381555	      0.04043514
      0.41025641	      0.01544740	      0.02391916	      0.04119258
      0.43589744	      0.01552969	      0.02398278	      0.04123149
      0.46153846	      0.01558845	      0.02402811	      0.04070432
      0.48717949	      0.01556535	      0.02401030	      0.04013995
      0.51282051	      0.01557791	      0.02401998	      0.04078374
      0.53846154	      0.01568547	      0.02410277	      0.04094107
      0.56410256	      0.01596865	      0.02431936	      0.04092103
      0.58974359	      0.01642792	      0.02466661	      0.04110242
      0.61538462	      0.01704187	      0.02512331	      0.04153759
      0.64102564	      0.01774033	      0.02563297	      0.04358666
      0.66666667	      0.01853811	      0.02620299	      0.04661949
      0.69230769	      0.01947938	      0.02685998	      0.04893813
      0.71794872	      0.02065670	      0.02765977	      0.04958761
      0.74358974	      0.02195657	      0.02851677	      0.05056593
      0.76923077	      0.02323051	      0.02933239	      0.05594163
      0.79487179	      0.02409633	      0.02987401	      0.05990415
      0.82051282	      0.02409585	      0.02987371	      0.06190934
      0.84615385	      0.02291627	      0.02913333	      0.05971290
      0.87179487	      0.02112851	      0.02797387	      0.05633451
      0.89743590	      0.01956381	      0.02691812	      0.05279055
      0.92307692	      0.01863462	      0.02627111	      0.05074485
      0.94871795	      0.01810876	      0.02589778	      0.04986425
      0.97435897	      0.01783477	      0.02570111	      0.04944268
      1.00000000	      0.01788339	      0.02573612	      0.04937595
      1.02564103	      0.01811142	      0.02589968	      0.04868469
      1.05128205	      0.01818555	      0.02595262	      0.04778980
      1.07692308	      0.01802877	      0.02584052	      0.04583536
      1.10256410	      0.01782811	      0.02569631	      0.04493937
      1.12820513	      0.01781353	      0.02568580	      0.04363080
      1.15384615	      0.01803920	      0.02584799	      0.04255838
      1.17948718	      0.01859222	      0.02624120	      0.04324616
      1.20512821	      0.01883078	      0.02640902	      0.04369301
      1.23076923	      0.01836734	      0.02608202	      0.04415512
      1.25641026	      0.01811683	      0.02590354	      0.04559297
      1.28205128	      0.01784556	      0.02570888	      0.04926688
      1.30769231	      0.01756992	      0.02550956	      0.05424705
      1.33333333	      0.01769522	      0.02560036	      0.05809497
      1.35897436	      0.01887729	      0.02644162	      0.05922270
      1.38461538	      0.02067443	      0.02767164	      0.05719659
      1.41025641	      0.02110302	      0.02795699	      0.05017287
      1.43589744	      0.01992953	      0.02716856	      0.04993505
      1.46153846	      0.01880027	      0.02638762	      0.04958823
      1.48717949	      0.01853019	      0.02619739	      0.04886843
      1.51282051	      0.01864166	      0.02627607	      0.04826941
      1.53846154	      0.01826010	      0.02600577	      0.04991996
      1.56410256	      0.01736708	      0.02536188	      0.04975131
      1.58974359	      0.01635517	      0.02461193	      0.05033869
      1.61538462	      0.01542203	      0.02389951	      0.05036036
      1.64102564	      0.01467476	      0.02331330	      0.04943662
      1.66666667	      0.01406617	      0.02282475	      0.04820407
      1.69230769	      0.01375350	      0.02256964	      0.04665971
      1.71794872	      0.01369439	      0.02252109	      0.04424487
      1.74358974	      0.01373924	      0.02255794	      0.04105141
      1.76923077	      0.01389874	      0.02268851	      0.04203783
      1.79487179	      0.01437769	      0.02307611	      0.04865244
      1.82051282	      0.01557264	      0.02401592	      0.05429672
      1.84615385	      0.01704872	      0.02512835	      0.05773183
      1.87179487	      0.01828456	      0.02602318	      0.05852350
      1.89743590	      0.01926710	      0.02671322	      0.05737763
      1.92307692	      0.01984138	      0.02710841	      0.05524089
      1.94871795	      0.01992953	      0.02716856	      0.05274216
      1.97435897	      0.01984457	      0.02711059	      0.04840065
      2.00000000	      0.01969655	      0.02700930	      0.04224984
      2.02564103	      0.01943919	      0.02683225	      0.04296928
      2.05128205	      0.01955172	      0.02690981	      0.04474174
      2.07692308	      0.02026097	      0.02739355	      0.04775156
      2.10256410	      0.02075261	      0.02772391	      0.04944531
      2.12820513	      0.02119934	      0.02802072	      0.05207775
      2.15384615	      0.02120580	      0.02802499	      0.05375044
      2.17948718	      0.02098047	      0.02787570	      0.05464137
      2.20512821	      0.02062533	      0.02763876	      0.05406821
      2.23076923	      0.02024086	      0.02737995	      0.05857849
      2.25641026	      0.02034674	      0.02745147	      0.06327095
      2.28205128	      0.02111813	      0.02796699	      0.06760459
      2.30769231	      0.02230506	      0.02874219	      0.07128863
      2.33333333	      0.02376844	      0.02967006	      0.07403051
      2.35897436	      0.02534132	      0.03063605	      0.07579548
      2.38461538	      0.02680404	      0.03150781	      0.07660034
      2.41025641	      0.02802113	      0.03221521	      0.07644068
      2.43589744	      0.02866146	      0.03258122	      0.07555777
      2.46153846	      0.02842229	      0.03244499	      0.07426975
      2.48717949	      0.02750747	      0.03191857	      0.07270149
      2.51282051	      0.02657763	      0.03137446	      0.07071647
      2.53846154	      0.02598929	      0.03102525	      0.06864481
      2.56410256	      0.02604106	      0.03105614	      0.06645304
      2.58974359	      0.02650606	      0.03133219	      0.06405355
      2.61538462	      0.02697225	      0.03160652	      0.06181868
      2.64102564	      0.02719425	      0.03173633	      0.06022540
      2.66666667	      0.02714599	      0.03170815	      0.05938965
      2.69230769	      0.02668208	      0.03143605	      0.05931823
      2.71794872	      0.02578451	      0.03090278	      0.05956953
      2.74358974	      0.02456975	      0.03016605	      0.05992337
      2.76923077	      0.02346374	      0.02947927	      0.06013783
      2.79487179	      0.02292084	      0.02913623	      0.06008632
      2.82051282	      0.02308898	      0.02924290	      0.05973133
      2.84615385	      0.02362319	      0.02957927	      0.05895226
      2.87179487	      0.02392557	      0.02976798	      0.05772008
      2.89743590	      0.02355387	      0.02953584	      0.05641047
      2.92307692	      0.02247455	      0.02885118	      0.05554031
      2.94871795	      0.02108459	      0.02794478	      0.05558430
      2.97435897	      0.01972941	      0.02703182	      0.05621783
      3.00000000	      0.01877271	      0.02636827	      0.05711454
      3.02564103	      0.01839923	      0.02610466	      0.05758074
      3.05128205	      0.01859835	      0.02624553	      0.05744860
      3.07692308	      0.01894374	      0.02648811	      0.05678751
      3.10256410	      0.01921774	      0.02667898	      0.05555025
      3.12820513	      0.01911365	      0.02660663	      0.05372797
      3.15384615	      0.01881065	      0.02639490	      0.05129233
      3.17948718	      0.01860995	      0.02625371	      0.04875858
      3.20512821	      0.01872943	      0.02633785	      0.04650287
      3.23076923	      0.01913310	      0.02662017	      0.04455329
      3.25641026	      0.01986336	      0.02712342	      0.04646477
      3.28205128	      0.02095879	      0.02786129	      0.05182362
      3.30769231	      0.02263096	      0.02895141	      0.05766996
      3.33333333	      0.02440918	      0.03006732	      0.06162191
      3.35897436	      0.02553288	      0.03075162	      0.06203701
      3.38461538	      0.02575432	      0.03088468	      0.05893639
      3.41025641	      0.02516976	      0.03053217	      0.05967693
      3.43589744	      0.02380462	      0.02969264	      0.05984062
      3.46153846	      0.02165903	      0.02832289	      0.05524761
      3.48717949	      0.01950385	      0.02687685	      0.04865679
      3.51282051	      0.01791234	      0.02575694	      0.04361884
      3.53846154	      0.01682968	      0.02496641	      0.04225472
      3.56410256	      0.01631497	      0.02458166	      0.04410229
      3.58974359	      0.01633376	      0.02459581	      0.04549395
      3.61538462	      0.01685523	      0.02498535	      0.04663100
      3.64102564	      0.01767136	      0.02558310	      0.04697997
      3.66666667	      0.01846760	      0.02615311	      0.04844000
      3.69230769	      0.01873457	      0.02634147	      0.04627884
      3.71794872	      0.01928217	      0.02672367	      0.04612028
      3.74358974	      0.02001293	      0.02722535	      0.04499966
      3.76923077	      0.02057327	      0.02760386	      0.04434633
      3.79487179	      0.02074072	      0.02771597	      0.04417078
      3.82051282	      0.02081295	      0.02776419	      0.04457458
      3.84615385	      0.02076174	      0.02773001	      0.04638631
      3.87179487	      0.02028096	      0.02740706	      0.04603520
      3.89743590	      0.01928893	      0.02672835	      0.04608636
      3.92307692	      0.01811277	      0.02590064	      0.04579301
      3.94871795	      0.01719730	      0.02523761	      0.04540820
      3.97435897	      0.01683690	      0.02497176	      0.04540909
      4.00000000	      0.01707000	      0.02514403	      0.04567502
      4.02564103	      0.01763130	      0.02555408	      0.04604748
      4.05128205	      0.01817552	      0.02594547	      0.04717243
      4.07692308	      0.01858446	      0.02623573	      0.04799987
      4.10256410	      0.01908434	      0.02658622	      0.05006751
      4.12820513	      0.01994147	      0.02717670	      0.05397548
      4.15384615	      0.02092981	      0.02784202	      0.05865454
      4.17948718	      0.02164550	      0.02831404	      0.06150644
      4.20512821	      0.02177475	      0.02839845	      0.06139778
      4.23076923	      0.02142318	      0.02816826	      0.06011165
      4.25641026	      0.02094481	      0.02785200	      0.05835615
      4.28205128	      0.02063249	      0.02764355	      0.05788775
      4.30769231	      0.02039085	      0.02748121	      0.05698309
      4.33333333	      0.02010113	      0.02728528	      0.05617838
      4.35897436	      0.01986844	      0.02712689	      0.05648341
      4.38461538	      0.01985463	      0.02711746	      0.05638088
      4.41025641	      0.01995474	      0.02718574	      0.05658987
      4.43589744	      0.02001534	      0.02722699	      0.05746838
      4.46153846	      0.01993372	      0.02717142	      0.05803858
      4.48717949	      0.01963594	      0.02696771	      0.05782662
      4.51282051	      0.01920920	      0.02667306	      0.05657056
      4.53846154	      0.01882937	      0.02640803	      0.05500919
      4.56410256	      0.01864300	      0.02627702	      0.05382383
      4.58974359	      0.01878897	      0.02637969	      0.05343303
      4.61538462	      0.01933266	      0.02675863	      0.05337491
      4.64102564	      0.02008269	      0.02727276	      0.05339535
      4.66666667	      0.02094140	      0.02784973	      0.05399028
      4.69230769	      0.02158730	      0.02827595	      0.05280276
      4.71794872	      0.02207966	      0.02859660	      0.05389337
      4.74358974	      0.02233500	      0.02876147	      0.05394918
      4.76923077	      0.02248585	      0.02885844	      0.05458606
      4.79487179	      0.02251260	      0.02887559	      0.05505774
      4.82051282	      0.02246789	      0.02884691	      0.05530444
      4.84615385	      0.02240301	      0.02880522	      0.05671514
      4.87179487	      0.02237062	      0.02878440	      0.05786870
      4.89743590	      0.02236094	      0.02877817	      0.05889823
      4.92307692	      0.02245014	      0.02883551	      0.05966967
      4.94871795	      0.02264822	      0.02896244	      0.06048643
      4.97435897	      0.02286539	      0.02910097	      0.06137789
      5.00000000	      0.02301544	      0.02919630	      0.06199552
      5.02564103	      0.02312833	      0.02926781	      0.06229693
      5.05128205	      0.02340848	      0.02944454	      0.06257123
      5.07692308	      0.02402824	      0.02983177	      0.06316512
      5.10256410	      0.02499945	      0.03042870	      0.06427585
      5.12820513	      0.02605056	      0.03106180	      0.06447024
      5.15384615	      0.02711711	      0.03169128	      0.06429334
      5.17948718	      0.02825363	      0.03234858	      0.06361536
      5.20512821	      0.02936443	      0.03297835	      0.06239604
      5.23076923	      0.03027519	      0.03348587	      0.06115720
      5.25641026	      0.03070159	      0.03372085	      0.05997758
      5.28205128	      0.03053954	      0.03363174	      0.05829776
      5.30769231	      0.02975853	      0.03319891	      0.05688888
      5.33333333	      0.02872021	      0.03261459	      0.05508120
      5.35897436	      0.02823627	      0.03233864	      0.05483457
      5.38461538	      0.02857377	      0.03253134	      0.05793168
      5.41025641	      0.02717881	      0.03172732	      0.05626988
      5.43589744	      0.02348300	      0.02949137	      0.04922580
      5.46153846	      0.02066816	      0.02766745	      0.04732041
      5.48717949	      0.01981222	      0.02708849	      0.04602620
      5.51282051	      0.01959051	      0.02693649	      0.04566396
      5.53846154	      0.01932517	      0.02675345	      0.04615713
      5.56410256	      0.02067544	      0.02767232	      0.04651198
      5.58974359	      0.02341798	      0.02945051	      0.04772095
      5.61538462	      0.02529091	      0.03060556	      0.04993464
      5.64102564	      0.02617078	      0.03113339	      0.05160150
      5.66666667	      0.02699793	      0.03162156	      0.05135620
      5.69230769	      0.02743573	      0.03187692	      0.05227647
      5.71794872	      0.02733312	      0.03181726	      0.05409703
      5.74358974	      0.02702000	      0.03163449	      0.05503568
      5.76923077	      0.02685200	      0.03153599	      0.05504219
      5.79487179	      0.02696423	      0.03160182	      0.05604402
      5.82051282	      0.02668234	      0.03143620	      0.05680848
      5.84615385	      0.02505541	      0.03046273	      0.05311177
      5.87179487	      0.02261856	      0.02894347	      0.04677836
      5.89743590	      0.02079253	      0.02775056	      0.04404724
      5.92307692	      0.02015556	      0.02732219	      0.04689485
      5.94871795	      0.02040064	      0.02748780	      0.04881738
      5.97435897	      0.02102940	      0.02790818	      0.04948679
      6.00000000	      0.02212114	      0.02862344	      0.04894779
      6.02564103	      0.02373716	      0.02965053	      0.04804069
      6.05128205	      0.02495736	      0.03040307	      0.04782178
      6.07692308	      0.02511093	      0.03049647	      0.04814739
      6.10256410	      0.02470651	      0.03024989	      0.04879571
      6.12820513	      0.02446196	      0.03009981	      0.04990315
      6.15384615	      0.02481170	      0.03031422	      0.05059974
      6.17948718	      0.02601461	      0.03104036	      0.05277055
      6.20512821	      0.02813169	      0.03227870	      0.05618096
      6.23076923	      0.03089840	      0.03382877	      0.05924943
      6.25641026	      0.03424237	      0.03561230	      0.06149520
      6.28205128	      0.03742024	      0.03722815	      0.06277192
      6.30769231	      0.03898055	      0.03799637	      0.06320420
      6.33333333	      0.03815899	      0.03759383	      0.06279889
      6.35897436	      0.03618128	      0.03660666	      0.06204813
      6.38461538	      0.03431167	      0.03564832	      0.06132136
      6.41025641	      0.03279456	      0.03485130	      0.06059914
      6.43589744	      0.03165725	      0.03424165	      0.06008317
      6.46153846	      0.03083870	      0.03379607	      0.05961197
      6.48717949	      0.03038406	      0.03354602	      0.05857856
      6.51282051	      0.03035809	      0.03353168	      0.05686667
      6.53846154	      0.03030664	      0.03350326	      0.05702343
      6.56410256	      0.02968705	      0.03315902	      0.05882376
      6.58974359	      0.02853697	      0.03251038	      0.06030642
      6.61538462	      0.02706445	      0.03166050	      0.06095428
      6.64102564	      0.02543857	      0.03069477	      0.06082832
      6.66666667	      0.02396741	      0.02979399	      0.06021227
      6.69230769	      0.02274202	      0.02902236	      0.05984567
      6.71794872	      0.02196428	      0.02852178	      0.05942207
      6.74358974	      0.02182356	      0.02843027	      0.05888069
      6.76923077	      0.02205016	      0.02857748	      0.05847709
      6.79487179	      0.02235561	      0.02877474	      0.05865986
      6.82051282	      0.02284232	      0.02908628	      0.06010764
      6.84615385	      0.02348946	      0.02949542	      0.06285023
      6.87179487	      0.02409864	      0.02987544	      0.06575586
      6.89743590	      0.02464876	      0.03021452	      0.06772022
      6.92307692	      0.02534743	      0.03063974	      0.06799903
      6.94871795	      0.02610895	      0.03109660	      0.06821288
      6.97435897	      0.02692603	      0.03157943	      0.06674925
      7.00000000	      0.02699811	      0.03162167	      0.06381211
      7.02564103	      0.02582362	      0.03092621	      0.05895891
      7.05128205	      0.02416280	      0.02991519	      0.05497570
      7.07692308	      0.02318283	      0.02930228	      0.05420342
      7.10256410	      0.02300916	      0.02919231	      0.05312202
      7.12820513	      0.02273168	      0.02901576	      0.05224568
      7.15384615	      0.02198993	      0.02853843	      0.05668509
      7.17948718	      0.02127476	      0.02807052	      0.05695668
      7.20512821	      0.02055196	      0.02758956	      0.05192594
      7.23076923	      0.01967432	      0.02699405	      0.04816698
      7.25641026	      0.01942887	      0.02682513	      0.04888276
      7.28205128	      0.02105273	      0.02792366	      0.05550920
      7.30769231	      0.02446406	      0.03010110	      0.06415537
      7.33333333	      0.02658569	      0.03137921	      0.06213253
      7.35897436	      0.02599206	      0.03102690	      0.06115379
      7.38461538	      0.02446698	      0.03010290	      0.06182014
      7.41025641	      0.02318771	      0.02930536	      0.05983471
      7.43589744	      0.02207572	      0.02859404	      0.05494033
      7.46153846	      0.02142968	      0.02817254	      0.05149156
      7.48717949	      0.02151580	      0.02822909	      0.05233420
      7.51282051	      0.02222187	      0.02868854	      0.05338479
      7.53846154	      0.02285359	      0.02909346	      0.05345875
      7.56410256	      0.02376062	      0.02966518	      0.05439641
      7.58974359	      0.02483717	      0.03032977	      0.05812761
      7.61538462	      0.02610751	      0.03109574	      0.06132907
      7.64102564	      0.02684518	      0.03153198	      0.06422780
      7.66666667	      0.02709930	      0.03168088	      0.06684389
      7.69230769	      0.02735089	      0.03182760	      0.06929766
      7.71794872	      0.02791285	      0.03215290	      0.07136369
      7.74358974	      0.02924065	      0.03290877	      0.07303777
      7.76923077	      0.03107134	      0.03392330	      0.07468664
      7.79487179	      0.03237291	      0.03462653	      0.07591808
      7.82051282	      0.03277535	      0.03484109	      0.07680041
      7.84615385	      0.03280554	      0.03485714	      0.07769203
      7.87179487	      0.03278226	      0.03484477	      0.07812809
      7.89743590	      0.03276732	      0.03483682	      0.07831648
      7.92307692	      0.03274521	      0.03482507	      0.07769689
      7.94871795	      0.03254041	      0.03471599	      0.07603570
      7.97435897	      0.03207631	      0.03446754	      0.07336011
      8.00000000	      0.03150697	      0.03416028	      0.07053559
      8.02564103	      0.03109081	      0.03393393	      0.06800009
      8.05128205	      0.03068279	      0.03371053	      0.06574556
      8.07692308	      0.03015078	      0.03341699	      0.06354374
      8.10256410	      0.02960120	      0.03311103	      0.06160323
      8.12820513	      0.02908599	      0.03282162	      0.05998830
      8.15384615	      0.02881319	      0.03266734	      0.05891812
      8.17948718	      0.02858185	      0.03253593	      0.05836078
      8.20512821	      0.02832176	      0.03238756	      0.05808206
      8.23076923	      0.02834562	      0.03240120	      0.05793749
      8.25641026	      0.02873422	      0.03262255	      0.05790945
      8.28205128	      0.02940797	      0.03300279	      0.05793829
      8.30769231	      0.03017390	      0.03342981	      0.05893611
      8.33333333	      0.03088339	      0.03382055	      0.05969520
      8.35897436	      0.03130293	      0.03404949	      0.06079977
      8.38461538	      0.03127134	      0.03403231	      0.06339420
      8.41025641	      0.03085910	      0.03380724	      0.06715390
