Model Marker Errors from IK
version=1
nRows=270
nColumns=4
inDegrees=no
endheader
time	total_squared_error	marker_error_RMS	marker_error_max
      0.00000000	      0.02142690	      0.02817071	      0.05132516
      0.01666667	      0.02062437	      0.02763812	      0.05138885
      0.03333333	      0.02059976	      0.02762162	      0.05181215
      0.05000000	      0.02071832	      0.02770100	      0.05238698
      0.06666667	      0.02079510	      0.02775228	      0.05297573
      0.08333333	      0.02086132	      0.02779643	      0.05336103
      0.10000000	      0.02104160	      0.02791628	      0.05370392
      0.11666667	      0.02134992	      0.02812006	      0.05414714
      0.13333333	      0.02174570	      0.02837950	      0.05453352
      0.15000000	      0.02209163	      0.02860434	      0.05475323
      0.16666667	      0.02222260	      0.02868901	      0.05469511
      0.18333333	      0.02207058	      0.02859071	      0.05450952
      0.20000000	      0.02171724	      0.02836093	      0.05428596
      0.21666667	      0.02129890	      0.02808644	      0.05404221
      0.23333333	      0.02097521	      0.02787220	      0.05389388
      0.25000000	      0.02077808	      0.02774092	      0.05386222
      0.26666667	      0.02067081	      0.02766922	      0.05388865
      0.28333333	      0.02056161	      0.02759603	      0.05393330
      0.30000000	      0.02037295	      0.02746914	      0.05394901
      0.31666667	      0.02005838	      0.02725625	      0.05400575
      0.33333333	      0.01962220	      0.02695827	      0.05407389
      0.35000000	      0.01915870	      0.02663797	      0.05410426
      0.36666667	      0.01875902	      0.02635865	      0.05415340
      0.38333333	      0.01849243	      0.02617069	      0.05430981
      0.40000000	      0.01839298	      0.02610022	      0.05440717
      0.41666667	      0.01846530	      0.02615148	      0.05460375
      0.43333333	      0.01870450	      0.02632032	      0.05478254
      0.45000000	      0.01907646	      0.02658074	      0.05481616
      0.46666667	      0.01953291	      0.02689686	      0.05472195
      0.48333333	      0.02005428	      0.02725346	      0.05429213
      0.50000000	      0.02048556	      0.02754495	      0.05373106
      0.51666667	      0.02084095	      0.02778285	      0.05301673
      0.53333333	      0.02106785	      0.02793368	      0.05229893
      0.55000000	      0.02121424	      0.02803057	      0.05296349
      0.56666667	      0.02127576	      0.02807118	      0.05453825
      0.58333333	      0.02105935	      0.02792805	      0.05560045
      0.60000000	      0.02040141	      0.02748832	      0.05591864
      0.61666667	      0.01929906	      0.02673537	      0.05587597
      0.63333333	      0.01825333	      0.02600095	      0.05511332
      0.65000000	      0.01756058	      0.02550278	      0.05364028
      0.66666667	      0.01731819	      0.02532616	      0.05200839
      0.68333333	      0.01737941	      0.02537088	      0.05038112
      0.70000000	      0.01749317	      0.02545378	      0.04896244
      0.71666667	      0.01750202	      0.02546022	      0.04802326
      0.73333333	      0.01726117	      0.02528444	      0.04765587
      0.75000000	      0.01707435	      0.02514723	      0.04785262
      0.76666667	      0.01716457	      0.02521358	      0.04839766
      0.78333333	      0.01761612	      0.02554308	      0.04911695
      0.80000000	      0.01819427	      0.02595885	      0.04939571
      0.81666667	      0.01860910	      0.02625311	      0.04955924
      0.83333333	      0.01891846	      0.02647043	      0.04988866
      0.85000000	      0.01961129	      0.02695077	      0.05072970
      0.86666667	      0.02093007	      0.02784219	      0.05195212
      0.88333333	      0.02323248	      0.02933363	      0.05780422
      0.90000000	      0.02631160	      0.03121704	      0.06378204
      0.91666667	      0.02925293	      0.03291568	      0.06872283
      0.93333333	      0.03089228	      0.03382541	      0.07106224
      0.95000000	      0.03084473	      0.03379937	      0.07003295
      0.96666667	      0.02950832	      0.03305905	      0.06600390
      0.98333333	      0.02776816	      0.03206946	      0.06005060
      1.00000000	      0.02635263	      0.03124137	      0.05384044
      1.01666667	      0.02569414	      0.03084858	      0.05213432
      1.03333333	      0.02601902	      0.03104299	      0.05083184
      1.05000000	      0.02726133	      0.03177544	      0.05543677
      1.06666667	      0.02901743	      0.03278292	      0.06075252
      1.08333333	      0.03091848	      0.03383976	      0.06425392
      1.10000000	      0.03269842	      0.03480018	      0.06706641
      1.11666667	      0.03409900	      0.03553767	      0.06846821
      1.13333333	      0.03489188	      0.03594846	      0.06849987
      1.15000000	      0.03495857	      0.03598280	      0.06788969
      1.16666667	      0.03431891	      0.03565208	      0.06575263
      1.18333333	      0.03325469	      0.03509494	      0.06384338
      1.20000000	      0.03208680	      0.03447318	      0.06174560
      1.21666667	      0.03100538	      0.03388727	      0.05950733
      1.23333333	      0.03017807	      0.03343212	      0.05771690
      1.25000000	      0.02967419	      0.03315184	      0.05970973
      1.26666667	      0.02933065	      0.03295937	      0.06151058
      1.28333333	      0.02890313	      0.03271829	      0.06229444
      1.30000000	      0.02836154	      0.03241030	      0.06098426
      1.31666667	      0.02780387	      0.03209008	      0.05726563
      1.33333333	      0.02721836	      0.03175039	      0.05467359
      1.35000000	      0.02669527	      0.03144382	      0.05585504
      1.36666667	      0.02619953	      0.03115049	      0.05690566
      1.38333333	      0.02593599	      0.03099342	      0.05786509
      1.40000000	      0.02623798	      0.03117334	      0.05889644
      1.41666667	      0.02690458	      0.03156685	      0.05970205
      1.43333333	      0.02756407	      0.03195139	      0.06054006
      1.45000000	      0.02774146	      0.03205404	      0.06113669
      1.46666667	      0.02746953	      0.03189655	      0.06141302
      1.48333333	      0.02720754	      0.03174408	      0.06132100
      1.50000000	      0.02741466	      0.03186468	      0.06116594
      1.51666667	      0.02810642	      0.03226420	      0.06116317
      1.53333333	      0.02893253	      0.03273493	      0.06123853
      1.55000000	      0.02956470	      0.03309062	      0.06161165
      1.56666667	      0.02985912	      0.03325497	      0.06196592
      1.58333333	      0.02984037	      0.03324453	      0.06216979
      1.60000000	      0.02964723	      0.03313677	      0.06218183
      1.61666667	      0.02944244	      0.03302212	      0.06209579
      1.63333333	      0.02940686	      0.03300217	      0.06190861
      1.65000000	      0.02960199	      0.03311148	      0.06165530
      1.66666667	      0.03000391	      0.03333551	      0.06174315
      1.68333333	      0.03047755	      0.03359759	      0.06193938
      1.70000000	      0.03091368	      0.03383713	      0.06229732
      1.71666667	      0.03118669	      0.03398621	      0.06304199
      1.73333333	      0.03127485	      0.03403422	      0.06371682
      1.75000000	      0.03121823	      0.03400339	      0.06416516
      1.76666667	      0.03115567	      0.03396930	      0.06467761
      1.78333333	      0.03112186	      0.03395087	      0.06473920
      1.80000000	      0.03116597	      0.03397492	      0.06511350
      1.81666667	      0.03118355	      0.03398450	      0.06477702
      1.83333333	      0.03136374	      0.03408254	      0.06453472
      1.85000000	      0.03164373	      0.03423434	      0.06428912
      1.86666667	      0.03205224	      0.03445461	      0.06401975
      1.88333333	      0.03260197	      0.03474882	      0.06409162
      1.90000000	      0.03327430	      0.03510529	      0.06378187
      1.91666667	      0.03391677	      0.03544258	      0.06362608
      1.93333333	      0.03440101	      0.03569470	      0.06335398
      1.95000000	      0.03461231	      0.03580416	      0.06277217
      1.96666667	      0.03458382	      0.03578942	      0.06209385
      1.98333333	      0.03437353	      0.03568044	      0.06148391
      2.00000000	      0.03416817	      0.03557370	      0.06095255
      2.01666667	      0.03410117	      0.03553880	      0.06059214
      2.03333333	      0.03420602	      0.03559339	      0.06043652
      2.05000000	      0.03445490	      0.03572264	      0.06018549
      2.06666667	      0.03468819	      0.03584338	      0.06037362
      2.08333333	      0.03475426	      0.03587750	      0.05989382
      2.10000000	      0.03463655	      0.03581669	      0.05962878
      2.11666667	      0.03430090	      0.03564272	      0.05944452
      2.13333333	      0.03363315	      0.03529408	      0.05843627
      2.15000000	      0.03266805	      0.03478402	      0.05796406
      2.16666667	      0.03147248	      0.03414158	      0.05743495
      2.18333333	      0.03017577	      0.03343084	      0.05655975
      2.20000000	      0.02896129	      0.03275119	      0.05567871
      2.21666667	      0.02784373	      0.03211307	      0.05478815
      2.23333333	      0.02690683	      0.03156817	      0.05397611
      2.25000000	      0.02623555	      0.03117190	      0.05323066
      2.26666667	      0.02598064	      0.03102009	      0.05241212
      2.28333333	      0.02602596	      0.03104713	      0.05139833
      2.30000000	      0.02613296	      0.03111089	      0.05034434
      2.31666667	      0.02611275	      0.03109886	      0.04933237
      2.33333333	      0.02590455	      0.03097463	      0.04842748
      2.35000000	      0.02569385	      0.03084841	      0.04801965
      2.36666667	      0.02569210	      0.03084735	      0.04772721
      2.38333333	      0.02586261	      0.03094955	      0.04765438
      2.40000000	      0.02618458	      0.03114160	      0.04777954
      2.41666667	      0.02661519	      0.03139662	      0.04856497
      2.43333333	      0.02713532	      0.03170192	      0.04952627
      2.45000000	      0.02760172	      0.03197321	      0.05126936
      2.46666667	      0.02784543	      0.03211405	      0.05468545
      2.48333333	      0.02777239	      0.03207191	      0.05508193
      2.50000000	      0.02725098	      0.03176941	      0.05222800
      2.51666667	      0.02632260	      0.03122357	      0.05211627
      2.53333333	      0.02512390	      0.03050434	      0.05211044
      2.55000000	      0.02394137	      0.02977780	      0.05187667
      2.56666667	      0.02294060	      0.02914879	      0.05124244
      2.58333333	      0.02209155	      0.02860429	      0.05018597
      2.60000000	      0.02125342	      0.02805644	      0.04936665
      2.61666667	      0.02043730	      0.02751249	      0.04779206
      2.63333333	      0.01975225	      0.02704746	      0.04594301
      2.65000000	      0.01934467	      0.02676694	      0.04689411
      2.66666667	      0.01918507	      0.02665630	      0.04787332
      2.68333333	      0.01914906	      0.02663127	      0.04836262
      2.70000000	      0.01913093	      0.02661866	      0.04874662
      2.71666667	      0.01896788	      0.02650498	      0.04909557
      2.73333333	      0.01863614	      0.02627218	      0.04897345
      2.75000000	      0.01831340	      0.02604369	      0.04886315
      2.76666667	      0.01821510	      0.02597370	      0.04851560
      2.78333333	      0.01835910	      0.02607617	      0.04799403
      2.80000000	      0.01850056	      0.02617644	      0.04729986
      2.81666667	      0.01835640	      0.02607425	      0.04623618
      2.83333333	      0.01800810	      0.02582570	      0.04500672
      2.85000000	      0.01787376	      0.02572918	      0.04362475
      2.86666667	      0.01825732	      0.02600379	      0.04247041
      2.88333333	      0.01893244	      0.02648021	      0.04154499
      2.90000000	      0.01933254	      0.02675855	      0.04272235
      2.91666667	      0.01917828	      0.02665158	      0.04462221
      2.93333333	      0.01877099	      0.02636706	      0.04625390
      2.95000000	      0.01858863	      0.02623867	      0.04757524
      2.96666667	      0.01883993	      0.02641543	      0.04790103
      2.98333333	      0.01931650	      0.02674745	      0.04675707
      3.00000000	      0.01964862	      0.02697641	      0.04603922
      3.01666667	      0.01964938	      0.02697693	      0.04712014
      3.03333333	      0.01940594	      0.02680930	      0.04785857
      3.05000000	      0.01908139	      0.02658417	      0.04810714
      3.06666667	      0.01876105	      0.02636008	      0.04792346
      3.08333333	      0.01854374	      0.02620697	      0.04767758
      3.10000000	      0.01844615	      0.02613792	      0.04756840
      3.11666667	      0.01842579	      0.02612349	      0.04750059
      3.13333333	      0.01838780	      0.02609654	      0.04769481
      3.15000000	      0.01827817	      0.02601863	      0.04819504
      3.16666667	      0.01788617	      0.02573812	      0.04927370
      3.18333333	      0.01749729	      0.02545678	      0.05051912
      3.20000000	      0.01713094	      0.02518887	      0.05166265
      3.21666667	      0.01688009	      0.02500377	      0.05236717
      3.23333333	      0.01674437	      0.02490305	      0.05241052
      3.25000000	      0.01653851	      0.02474949	      0.05194658
      3.26666667	      0.01622044	      0.02451035	      0.05081137
      3.28333333	      0.01578456	      0.02417878	      0.04972288
      3.30000000	      0.01544042	      0.02391375	      0.04850091
      3.31666667	      0.01528831	      0.02379567	      0.04746782
      3.33333333	      0.01542644	      0.02390292	      0.04698138
      3.35000000	      0.01597515	      0.02432431	      0.04680011
      3.36666667	      0.01685390	      0.02498436	      0.04702457
      3.38333333	      0.01773151	      0.02562660	      0.04729774
      3.40000000	      0.01829362	      0.02602962	      0.04848411
      3.41666667	      0.01836067	      0.02607729	      0.04878709
      3.43333333	      0.01784006	      0.02570492	      0.04622899
      3.45000000	      0.01689089	      0.02501176	      0.04476512
      3.46666667	      0.01604405	      0.02437671	      0.04368540
      3.48333333	      0.01567774	      0.02409683	      0.04351879
      3.50000000	      0.01574462	      0.02414817	      0.04366028
      3.51666667	      0.01603393	      0.02436903	      0.04436618
      3.53333333	      0.01650843	      0.02472698	      0.04559137
      3.55000000	      0.01707611	      0.02514853	      0.04705715
      3.56666667	      0.01777460	      0.02565772	      0.04859023
      3.58333333	      0.01883662	      0.02641311	      0.04967992
      3.60000000	      0.02029300	      0.02741519	      0.05041629
      3.61666667	      0.02188548	      0.02847057	      0.05068049
      3.63333333	      0.02322793	      0.02933076	      0.05056030
      3.65000000	      0.02419922	      0.02993773	      0.05354198
      3.66666667	      0.02522640	      0.03056650	      0.05666952
      3.68333333	      0.02566416	      0.03083057	      0.05282323
      3.70000000	      0.02835774	      0.03240813	      0.06101199
      3.71666667	      0.03175601	      0.03429502	      0.06767800
      3.73333333	      0.03482845	      0.03591577	      0.07254263
      3.75000000	      0.03661738	      0.03682661	      0.07503054
      3.76666667	      0.03690826	      0.03697259	      0.07632465
      3.78333333	      0.03625535	      0.03664411	      0.07715748
      3.80000000	      0.03543332	      0.03622630	      0.07764061
      3.81666667	      0.03509962	      0.03605532	      0.07892789
      3.83333333	      0.03525896	      0.03613706	      0.08082081
      3.85000000	      0.03550499	      0.03626292	      0.08227720
      3.86666667	      0.03551532	      0.03626820	      0.08340450
      3.88333333	      0.03525824	      0.03613669	      0.08489546
      3.90000000	      0.03395219	      0.03546108	      0.08578971
      3.91666667	      0.03374815	      0.03535437	      0.08848704
      3.93333333	      0.03395603	      0.03546309	      0.09191668
      3.95000000	      0.03437768	      0.03568259	      0.09512213
      3.96666667	      0.03469811	      0.03584850	      0.09747084
      3.98333333	      0.03469564	      0.03584723	      0.09816127
      4.00000000	      0.03444039	      0.03571512	      0.09860282
      4.01666667	      0.03385844	      0.03541209	      0.09835048
      4.03333333	      0.03270370	      0.03480299	      0.09494488
      4.05000000	      0.03114843	      0.03396536	      0.08844356
      4.06666667	      0.02956557	      0.03309110	      0.07943030
      4.08333333	      0.02801133	      0.03220957	      0.06922611
      4.10000000	      0.02715295	      0.03171222	      0.06070262
      4.11666667	      0.02696062	      0.03159971	      0.06087390
      4.13333333	      0.02730472	      0.03180072	      0.07543113
      4.15000000	      0.02782023	      0.03209952	      0.08647945
      4.16666667	      0.02882971	      0.03267670	      0.09648406
      4.18333333	      0.03076765	      0.03375711	      0.10594694
      4.20000000	      0.03397404	      0.03547249	      0.11487544
      4.21666667	      0.03887921	      0.03794694	      0.12384406
      4.23333333	      0.04561956	      0.04110490	      0.13290914
      4.25000000	      0.05372325	      0.04460662	      0.14164533
      4.26666667	      0.06332390	      0.04842860	      0.15137432
      4.28333333	      0.07509473	      0.05273790	      0.15974950
      4.30000000	      0.08938690	      0.05753804	      0.16676027
      4.31666667	      0.10574993	      0.06258326	      0.17233080
      4.33333333	      0.07161236	      0.05150058	      0.11669911
      4.35000000	      0.08061744	      0.05464276	      0.12617412
      4.36666667	      0.08846854	      0.05724170	      0.13429787
      4.38333333	      0.09502478	      0.05932484	      0.13948597
      4.40000000	      0.10020482	      0.06092035	      0.14255225
      4.41666667	      0.10407626	      0.06208604	      0.14441205
      4.43333333	      0.10659317	      0.06283228	      0.14499480
      4.45000000	      0.10808086	      0.06326922	      0.14493322
      4.46666667	      0.10900179	      0.06353821	      0.14498730
      4.48333333	      0.10981082	      0.06377356	      0.14595650
