Model Marker Errors from IK
version=1
nRows=1085
nColumns=4
inDegrees=no
endheader
time	total_squared_error	marker_error_RMS	marker_error_max
      0.00000000	      0.01484867	      0.02345103	      0.04536672
      0.01694915	      0.01389374	      0.02268442	      0.04768762
      0.03389831	      0.01368387	      0.02251244	      0.04959839
      0.05084746	      0.01379644	      0.02260485	      0.05085805
      0.06779661	      0.01402419	      0.02279067	      0.05180806
      0.08474576	      0.01436977	      0.02306976	      0.05211676
      0.10169492	      0.01468071	      0.02331802	      0.05205420
      0.11864407	      0.01499884	      0.02356932	      0.05140544
      0.13559322	      0.01518935	      0.02371852	      0.04995022
      0.15254237	      0.01519637	      0.02372401	      0.04874459
      0.16949153	      0.01509454	      0.02364439	      0.04705102
      0.18644068	      0.01492643	      0.02351235	      0.04527529
      0.20338983	      0.01471570	      0.02334579	      0.04419643
      0.22033898	      0.01455452	      0.02321758	      0.04281543
      0.23728814	      0.01437748	      0.02307594	      0.04211629
      0.25423729	      0.01429104	      0.02300647	      0.04112533
      0.27118644	      0.01414990	      0.02289258	      0.04069206
      0.28813559	      0.01408789	      0.02284237	      0.03996351
      0.30508475	      0.01405297	      0.02281404	      0.03956241
      0.32203390	      0.01402991	      0.02279532	      0.04008333
      0.33898305	      0.01406866	      0.02282677	      0.04065263
      0.35593220	      0.01414041	      0.02288491	      0.04167658
      0.37288136	      0.01424828	      0.02297203	      0.04278504
      0.38983051	      0.01443058	      0.02311852	      0.04413421
      0.40677966	      0.01467860	      0.02331635	      0.04492075
      0.42372881	      0.01486196	      0.02346152	      0.04503625
      0.44067797	      0.01498563	      0.02355893	      0.04450596
      0.45762712	      0.01492890	      0.02351430	      0.04341494
      0.47457627	      0.01475825	      0.02337951	      0.04189551
      0.49152542	      0.01455004	      0.02321401	      0.04045832
      0.50847458	      0.01438162	      0.02307927	      0.03958982
      0.52542373	      0.01424852	      0.02297222	      0.03909607
      0.54237288	      0.01417492	      0.02291281	      0.03923230
      0.55932203	      0.01419881	      0.02293211	      0.03990953
      0.57627119	      0.01432373	      0.02303277	      0.04109766
      0.59322034	      0.01456663	      0.02322725	      0.04223088
      0.61016949	      0.01487989	      0.02347567	      0.04331517
      0.62711864	      0.01513783	      0.02367826	      0.04422239
      0.64406780	      0.01528662	      0.02379435	      0.04525244
      0.66101695	      0.01529141	      0.02379808	      0.04528722
      0.67796610	      0.01524289	      0.02376029	      0.04490327
      0.69491525	      0.01522768	      0.02374844	      0.04509617
      0.71186441	      0.01521589	      0.02373924	      0.04557413
      0.72881356	      0.01531937	      0.02381983	      0.04553960
      0.74576271	      0.01540814	      0.02388874	      0.04464677
      0.76271186	      0.01549186	      0.02395355	      0.04524048
      0.77966102	      0.01553499	      0.02398687	      0.04483581
      0.79661017	      0.01543463	      0.02390927	      0.04415750
      0.81355932	      0.01501218	      0.02357980	      0.04569732
      0.83050847	      0.01452085	      0.02319071	      0.04445542
      0.84745763	      0.01403247	      0.02279739	      0.04298915
      0.86440678	      0.01365150	      0.02248580	      0.04155304
      0.88135593	      0.01343821	      0.02230945	      0.04069142
      0.89830508	      0.01341035	      0.02228631	      0.04063373
      0.91525424	      0.01354773	      0.02240018	      0.04144230
      0.93220339	      0.01381570	      0.02262063	      0.04263402
      0.94915254	      0.01406974	      0.02282765	      0.04367450
      0.96610169	      0.01423330	      0.02295995	      0.04475119
      0.98305085	      0.01418868	      0.02292393	      0.04463080
      1.00000000	      0.01402045	      0.02278763	      0.04569672
      1.01694915	      0.01369384	      0.02252064	      0.04626185
      1.03389831	      0.01330503	      0.02219862	      0.04587341
      1.05084746	      0.01290302	      0.02186068	      0.04578764
      1.06779661	      0.01256470	      0.02157219	      0.04431639
      1.08474576	      0.01226959	      0.02131735	      0.04427536
      1.10169492	      0.01202958	      0.02110782	      0.04312887
      1.11864407	      0.01179091	      0.02089738	      0.04309974
      1.13559322	      0.01163877	      0.02076212	      0.04270298
      1.15254237	      0.01161472	      0.02074066	      0.04224519
      1.16949153	      0.01171749	      0.02083221	      0.04198536
      1.18644068	      0.01183233	      0.02093405	      0.04246697
      1.20338983	      0.01202393	      0.02110286	      0.04235811
      1.22033898	      0.01221219	      0.02126742	      0.04215036
      1.23728814	      0.01239277	      0.02142408	      0.04181988
      1.25423729	      0.01251910	      0.02153301	      0.04180987
      1.27118644	      0.01258064	      0.02158587	      0.04150368
      1.28813559	      0.01257615	      0.02158201	      0.04107538
      1.30508475	      0.01253457	      0.02154631	      0.04096903
      1.32203390	      0.01248483	      0.02150351	      0.04154248
      1.33898305	      0.01248702	      0.02150540	      0.04167973
      1.35593220	      0.01246778	      0.02148883	      0.04202850
      1.37288136	      0.01235789	      0.02139391	      0.04248483
      1.38983051	      0.01219241	      0.02125019	      0.04300569
      1.40677966	      0.01201447	      0.02109456	      0.04361307
      1.42372881	      0.01187228	      0.02096936	      0.04421915
      1.44067797	      0.01180975	      0.02091406	      0.04444369
      1.45762712	      0.01186008	      0.02095858	      0.04434552
      1.47457627	      0.01203953	      0.02111655	      0.04391596
      1.49152542	      0.01233741	      0.02137618	      0.04313913
      1.50847458	      0.01262844	      0.02162683	      0.04279551
      1.52542373	      0.01283139	      0.02179992	      0.04239964
      1.54237288	      0.01288380	      0.02184440	      0.04221960
      1.55932203	      0.01280367	      0.02177637	      0.04217655
      1.57627119	      0.01263372	      0.02163136	      0.04226329
      1.59322034	      0.01244102	      0.02146575	      0.04221094
      1.61016949	      0.01227074	      0.02131835	      0.04243057
      1.62711864	      0.01217493	      0.02123496	      0.04264922
      1.64406780	      0.01217018	      0.02123081	      0.04331556
      1.66101695	      0.01225246	      0.02130246	      0.04351612
      1.67796610	      0.01235287	      0.02138957	      0.04408968
      1.69491525	      0.01246714	      0.02148828	      0.04428829
      1.71186441	      0.01253030	      0.02154264	      0.04423514
      1.72881356	      0.01260456	      0.02160638	      0.04383466
      1.74576271	      0.01264783	      0.02164343	      0.04272264
      1.76271186	      0.01271493	      0.02170077	      0.04170327
      1.77966102	      0.01279335	      0.02176759	      0.04128103
      1.79661017	      0.01280567	      0.02177807	      0.04122611
      1.81355932	      0.01284938	      0.02181520	      0.04161778
      1.83050847	      0.01290263	      0.02186036	      0.04161275
      1.84745763	      0.01303600	      0.02197305	      0.04211945
      1.86440678	      0.01318269	      0.02209633	      0.04207770
      1.88135593	      0.01337667	      0.02225830	      0.04244246
      1.89830508	      0.01363940	      0.02247583	      0.04260321
      1.91525424	      0.01396192	      0.02274001	      0.04294817
      1.93220339	      0.01434831	      0.02305252	      0.04332456
      1.94915254	      0.01471659	      0.02334649	      0.04377159
      1.96610169	      0.01496382	      0.02354179	      0.04463785
      1.98305085	      0.01486457	      0.02346358	      0.04468193
      2.00000000	      0.01458277	      0.02324011	      0.04467510
      2.01694915	      0.01420954	      0.02294078	      0.04424063
      2.03389831	      0.01386887	      0.02266411	      0.04374083
      2.05084746	      0.01369970	      0.02252546	      0.04353267
      2.06779661	      0.01358824	      0.02243364	      0.04374113
      2.08474576	      0.01361029	      0.02245183	      0.04435466
      2.10169492	      0.01368497	      0.02251335	      0.04513819
      2.11864407	      0.01380281	      0.02261007	      0.04582805
      2.13559322	      0.01392592	      0.02271067	      0.04650237
      2.15254237	      0.01398265	      0.02275688	      0.04721284
      2.16949153	      0.01403348	      0.02279821	      0.04767369
      2.18644068	      0.01410107	      0.02285305	      0.04785633
      2.20338983	      0.01408726	      0.02284186	      0.04644073
      2.22033898	      0.01415842	      0.02289948	      0.04610154
      2.23728814	      0.01416345	      0.02290354	      0.04523942
      2.25423729	      0.01432163	      0.02303108	      0.04571038
      2.27118644	      0.01454607	      0.02321085	      0.04610717
      2.28813559	      0.01474372	      0.02336801	      0.04639061
      2.30508475	      0.01483630	      0.02344126	      0.04670132
      2.32203390	      0.01483265	      0.02343837	      0.04668953
      2.33898305	      0.01477831	      0.02339540	      0.04642574
      2.35593220	      0.01467636	      0.02331456	      0.04670052
      2.37288136	      0.01452608	      0.02319489	      0.04654915
      2.38983051	      0.01429449	      0.02300925	      0.04638110
      2.40677966	      0.01421163	      0.02294247	      0.04564697
      2.42372881	      0.01425296	      0.02297580	      0.04530741
      2.44067797	      0.01435722	      0.02305968	      0.04511051
      2.45762712	      0.01436001	      0.02306192	      0.04534749
      2.47457627	      0.01422151	      0.02295043	      0.04501337
      2.49152542	      0.01395892	      0.02273757	      0.04505141
      2.50847458	      0.01373633	      0.02255555	      0.04464252
      2.52542373	      0.01361334	      0.02245435	      0.04443409
      2.54237288	      0.01354750	      0.02239998	      0.04354897
      2.55932203	      0.01363997	      0.02247630	      0.04297479
      2.57627119	      0.01390337	      0.02269228	      0.04265295
      2.59322034	      0.01427370	      0.02299251	      0.04242179
      2.61016949	      0.01470924	      0.02334067	      0.04437114
      2.62711864	      0.01515052	      0.02368819	      0.04592780
      2.64406780	      0.01558982	      0.02402916	      0.04707234
      2.66101695	      0.01599008	      0.02433567	      0.04791686
      2.67796610	      0.01625191	      0.02453411	      0.04842559
      2.69491525	      0.01627926	      0.02455474	      0.04836963
      2.71186441	      0.01609886	      0.02441831	      0.04792092
      2.72881356	      0.01582325	      0.02420839	      0.04738198
      2.74576271	      0.01560310	      0.02403940	      0.04664213
      2.76271186	      0.01542945	      0.02390526	      0.04599386
      2.77966102	      0.01526355	      0.02377639	      0.04547628
      2.79661017	      0.01504073	      0.02360221	      0.04486481
      2.81355932	      0.01474494	      0.02336897	      0.04440517
      2.83050847	      0.01450567	      0.02317859	      0.04408015
      2.84745763	      0.01420778	      0.02293935	      0.04374740
      2.86440678	      0.01397200	      0.02274822	      0.04361249
      2.88135593	      0.01376417	      0.02257840	      0.04337103
      2.89830508	      0.01367800	      0.02250762	      0.04346617
      2.91525424	      0.01372989	      0.02255027	      0.04368633
      2.93220339	      0.01385439	      0.02265227	      0.04404123
      2.94915254	      0.01398812	      0.02276133	      0.04437025
      2.96610169	      0.01409007	      0.02284413	      0.04460633
      2.98305085	      0.01411008	      0.02286035	      0.04466637
      3.00000000	      0.01401374	      0.02278217	      0.04410106
      3.01694915	      0.01379519	      0.02260383	      0.04329545
      3.03389831	      0.01341878	      0.02229331	      0.04477117
      3.05084746	      0.01293860	      0.02189081	      0.04500742
      3.06779661	      0.01252841	      0.02154101	      0.04439731
      3.08474576	      0.01219128	      0.02124921	      0.04456358
      3.10169492	      0.01200610	      0.02108721	      0.04439424
      3.11864407	      0.01195812	      0.02104503	      0.04424465
      3.13559322	      0.01202704	      0.02110559	      0.04399120
      3.15254237	      0.01218438	      0.02124320	      0.04378394
      3.16949153	      0.01243034	      0.02145653	      0.04379207
      3.18644068	      0.01274286	      0.02172459	      0.04389478
      3.20338983	      0.01308082	      0.02201079	      0.04431759
      3.22033898	      0.01334638	      0.02223309	      0.04464573
      3.23728814	      0.01349830	      0.02235927	      0.04521051
      3.25423729	      0.01351702	      0.02237477	      0.04579262
      3.27118644	      0.01344007	      0.02231099	      0.04597970
      3.28813559	      0.01333829	      0.02222635	      0.04604646
      3.30508475	      0.01325833	      0.02215963	      0.04588574
      3.32203390	      0.01324622	      0.02214951	      0.04561016
      3.33898305	      0.01332661	      0.02221662	      0.04520820
      3.35593220	      0.01345979	      0.02232735	      0.04482138
      3.37288136	      0.01349894	      0.02235980	      0.04375514
      3.38983051	      0.01349583	      0.02235723	      0.04335314
      3.40677966	      0.01343734	      0.02230872	      0.04345613
      3.42372881	      0.01335821	      0.02224294	      0.04388617
      3.44067797	      0.01334543	      0.02223230	      0.04464604
      3.45762712	      0.01343936	      0.02231040	      0.04549114
      3.47457627	      0.01367040	      0.02250136	      0.04624946
      3.49152542	      0.01395927	      0.02273785	      0.04701358
      3.50847458	      0.01423105	      0.02295813	      0.04762418
      3.52542373	      0.01439089	      0.02308671	      0.04812022
      3.54237288	      0.01438843	      0.02308473	      0.04817919
      3.55932203	      0.01415189	      0.02289420	      0.04785022
      3.57627119	      0.01380906	      0.02261519	      0.04754165
      3.59322034	      0.01350939	      0.02236845	      0.04738936
      3.61016949	      0.01324839	      0.02215132	      0.04749339
      3.62711864	      0.01307860	      0.02200892	      0.04767344
      3.64406780	      0.01296690	      0.02191473	      0.04696848
      3.66101695	      0.01301693	      0.02195697	      0.04735422
      3.67796610	      0.01325783	      0.02215922	      0.04749576
      3.69491525	      0.01375979	      0.02257480	      0.04769949
      3.71186441	      0.01442366	      0.02311298	      0.04702616
      3.72881356	      0.01548642	      0.02394935	      0.04546793
      3.74576271	      0.01690721	      0.02502385	      0.04298159
      3.76271186	      0.01856650	      0.02622304	      0.04147007
      3.77966102	      0.02008681	      0.02727556	      0.04468528
      3.79661017	      0.02131149	      0.02809474	      0.04810692
      3.81355932	      0.02201787	      0.02855655	      0.05123863
      3.83050847	      0.02217019	      0.02865516	      0.05441504
      3.84745763	      0.02204811	      0.02857616	      0.05806946
      3.86440678	      0.02198148	      0.02853295	      0.06107545
      3.88135593	      0.02234312	      0.02876670	      0.06395341
      3.89830508	      0.02307599	      0.02923468	      0.06713833
      3.91525424	      0.02378155	      0.02967824	      0.07010887
      3.93220339	      0.02380533	      0.02969308	      0.07099704
      3.94915254	      0.02310858	      0.02925531	      0.07062417
      3.96610169	      0.02186248	      0.02845560	      0.06857507
      3.98305085	      0.02053455	      0.02757787	      0.06505824
      4.00000000	      0.01962888	      0.02696286	      0.06068639
      4.01694915	      0.01924139	      0.02669539	      0.05619210
      4.03389831	      0.01922667	      0.02668518	      0.05187207
      4.05084746	      0.01940000	      0.02680520	      0.04805487
      4.06779661	      0.01983637	      0.02710499	      0.04710855
      4.08474576	      0.02051612	      0.02756549	      0.04900196
      4.10169492	      0.02091970	      0.02783530	      0.04930442
      4.11864407	      0.02099728	      0.02788686	      0.04994234
      4.13559322	      0.02141703	      0.02816422	      0.05140924
      4.15254237	      0.02328807	      0.02936871	      0.05654014
      4.16949153	      0.02701414	      0.03163105	      0.06986735
      4.18644068	      0.03168724	      0.03425787	      0.08356245
      4.20338983	      0.03541140	      0.03621510	      0.09364519
      4.22033898	      0.03618230	      0.03660717	      0.09685639
      4.23728814	      0.03282724	      0.03486866	      0.09176094
      4.25423729	      0.02617492	      0.03113585	      0.07928829
      4.27118644	      0.01906594	      0.02657341	      0.06403508
      4.28813559	      0.01420298	      0.02293548	      0.05189576
      4.30508475	      0.01223402	      0.02128642	      0.04705156
      4.32203390	      0.01207812	      0.02115036	      0.04928287
      4.33898305	      0.01263365	      0.02163129	      0.05457349
      4.35593220	      0.01317461	      0.02208956	      0.05889707
      4.37288136	      0.01329709	      0.02219200	      0.06065416
      4.38983051	      0.01303020	      0.02196816	      0.05946232
      4.40677966	      0.01286275	      0.02182655	      0.05684053
      4.42372881	      0.01292536	      0.02187961	      0.05473605
      4.44067797	      0.01316524	      0.02208170	      0.05193660
      4.45762712	      0.01321532	      0.02212366	      0.04817931
      4.47457627	      0.01286301	      0.02182677	      0.04360994
      4.49152542	      0.01233997	      0.02137840	      0.04552985
      4.50847458	      0.01205010	      0.02112582	      0.04772045
      4.52542373	      0.01240575	      0.02143530	      0.04837316
      4.54237288	      0.01367396	      0.02250429	      0.04769047
      4.55932203	      0.01593216	      0.02429156	      0.05262250
      4.57627119	      0.01869140	      0.02631110	      0.06231253
      4.59322034	      0.02099351	      0.02788436	      0.07064440
      4.61016949	      0.02206538	      0.02858734	      0.07641727
      4.62711864	      0.02203081	      0.02856494	      0.07911805
      4.64406780	      0.02103813	      0.02791397	      0.07909474
      4.66101695	      0.02024197	      0.02738069	      0.07680941
      4.67796610	      0.01972226	      0.02702691	      0.07317514
      4.69491525	      0.01944860	      0.02683875	      0.06895772
      4.71186441	      0.01937896	      0.02679065	      0.06468422
      4.72881356	      0.01945764	      0.02684499	      0.06137317
      4.74576271	      0.01964378	      0.02697308	      0.05855438
      4.76271186	      0.01984215	      0.02710894	      0.05585682
      4.77966102	      0.02003400	      0.02723967	      0.05679648
      4.79661017	      0.02014667	      0.02731616	      0.05893767
      4.81355932	      0.02023498	      0.02737597	      0.06055796
      4.83050847	      0.02019175	      0.02734671	      0.06152254
      4.84745763	      0.02006561	      0.02726116	      0.06129032
      4.86440678	      0.01993959	      0.02717542	      0.05994160
      4.88135593	      0.01992610	      0.02716622	      0.05768168
      4.89830508	      0.01997386	      0.02719876	      0.05524177
      4.91525424	      0.01976668	      0.02705733	      0.05618552
      4.93220339	      0.01916183	      0.02664015	      0.05537315
      4.94915254	      0.01831304	      0.02604344	      0.05209937
      4.96610169	      0.01749477	      0.02545495	      0.04899589
      4.98305085	      0.01691319	      0.02502827	      0.05143004
      5.00000000	      0.01664749	      0.02483091	      0.05400611
      5.01694915	      0.01663910	      0.02482465	      0.05528041
      5.03389831	      0.01663698	      0.02482306	      0.05367618
      5.05084746	      0.01675028	      0.02490744	      0.05040878
      5.06779661	      0.01691206	      0.02502744	      0.04772573
      5.08474576	      0.01721950	      0.02525389	      0.04866712
      5.10169492	      0.01785946	      0.02571890	      0.04958779
      5.11864407	      0.01879568	      0.02638439	      0.04994168
      5.13559322	      0.01965253	      0.02697910	      0.04988410
      5.15254237	      0.01999970	      0.02721635	      0.05244895
      5.16949153	      0.01979930	      0.02707965	      0.05119055
      5.18644068	      0.01905347	      0.02656471	      0.04804211
      5.20338983	      0.01828636	      0.02602446	      0.04602972
      5.22033898	      0.01779930	      0.02567554	      0.04626223
      5.23728814	      0.01784851	      0.02571101	      0.04562385
      5.25423729	      0.01848152	      0.02616296	      0.04643273
      5.27118644	      0.01946483	      0.02684995	      0.05054242
      5.28813559	      0.02039367	      0.02748310	      0.05282535
      5.30508475	      0.02092450	      0.02783849	      0.05324444
      5.32203390	      0.02090353	      0.02782453	      0.05121390
      5.33898305	      0.02019145	      0.02734651	      0.04851641
      5.35593220	      0.01844861	      0.02613966	      0.04618385
      5.37288136	      0.01619116	      0.02448821	      0.04620578
      5.38983051	      0.01437344	      0.02307270	      0.04780035
      5.40677966	      0.01356088	      0.02241104	      0.05087397
      5.42372881	      0.01337529	      0.02225716	      0.05076709
      5.44067797	      0.01365497	      0.02248866	      0.05703081
      5.45762712	      0.01427491	      0.02299348	      0.06397529
      5.47457627	      0.01564293	      0.02407006	      0.07010271
      5.49152542	      0.01686466	      0.02499234	      0.07182822
      5.50847458	      0.01731994	      0.02532744	      0.07260750
      5.52542373	      0.01743433	      0.02541094	      0.07326225
      5.54237288	      0.01745491	      0.02542594	      0.07294440
      5.55932203	      0.01758768	      0.02552245	      0.07322209
      5.57627119	      0.01783814	      0.02570354	      0.07362955
      5.59322034	      0.01832603	      0.02605268	      0.07115119
      5.61016949	      0.01913936	      0.02662452	      0.07047192
      5.62711864	      0.02006928	      0.02726365	      0.07238448
      5.64406780	      0.02060854	      0.02762751	      0.07445840
      5.66101695	      0.02049656	      0.02755235	      0.07415730
      5.67796610	      0.02016713	      0.02733003	      0.07096273
      5.69491525	      0.02012274	      0.02729994	      0.06560771
      5.71186441	      0.02052376	      0.02757062	      0.05808209
      5.72881356	      0.02091079	      0.02782937	      0.05564126
      5.74576271	      0.02112933	      0.02797441	      0.05480398
      5.76271186	      0.02127859	      0.02807305	      0.05890952
      5.77966102	      0.02198037	      0.02853222	      0.05528477
      5.79661017	      0.02247871	      0.02885385	      0.05228128
      5.81355932	      0.02244000	      0.02882900	      0.05800245
      5.83050847	      0.02175329	      0.02838446	      0.05967866
      5.84745763	      0.02072490	      0.02770539	      0.05879546
      5.86440678	      0.01965244	      0.02697903	      0.05652863
      5.88135593	      0.01881337	      0.02639681	      0.05526370
      5.89830508	      0.01834240	      0.02606431	      0.05726968
      5.91525424	      0.01811121	      0.02589952	      0.05959042
      5.93220339	      0.01788558	      0.02573769	      0.06215651
      5.94915254	      0.01746127	      0.02543057	      0.06393414
      5.96610169	      0.01682162	      0.02496043	      0.06445632
      5.98305085	      0.01588979	      0.02425924	      0.06293010
      6.00000000	      0.01504848	      0.02360828	      0.06016021
      6.01694915	      0.01430819	      0.02302027	      0.05621714
      6.03389831	      0.01353577	      0.02239029	      0.05616915
      6.05084746	      0.01265741	      0.02165163	      0.05566327
      6.06779661	      0.01180851	      0.02091297	      0.05312214
      6.08474576	      0.01124487	      0.02040776	      0.04927123
      6.10169492	      0.01098519	      0.02017074	      0.04469937
      6.11864407	      0.01081273	      0.02001178	      0.04214141
      6.13559322	      0.01068315	      0.01989151	      0.04191865
      6.15254237	      0.01080274	      0.02000254	      0.04284105
      6.16949153	      0.01124783	      0.02041045	      0.04569700
      6.18644068	      0.01186735	      0.02096501	      0.05055469
      6.20338983	      0.01226437	      0.02131281	      0.05247482
      6.22033898	      0.01235940	      0.02139522	      0.05312606
      6.23728814	      0.01207998	      0.02115199	      0.05005444
      6.25423729	      0.01176293	      0.02087257	      0.04453169
      6.27118644	      0.01174503	      0.02085668	      0.04973835
      6.28813559	      0.01223464	      0.02128696	      0.05589390
      6.30508475	      0.01312955	      0.02205175	      0.06102655
      6.32203390	      0.01411073	      0.02286088	      0.06427706
      6.33898305	      0.01507965	      0.02363273	      0.06552116
      6.35593220	      0.01602723	      0.02436393	      0.06493507
      6.37288136	      0.01690845	      0.02502476	      0.06257622
      6.38983051	      0.01776519	      0.02565092	      0.05857476
      6.40677966	      0.01872647	      0.02633577	      0.05271682
      6.42372881	      0.02031373	      0.02742919	      0.05118300
      6.44067797	      0.02334314	      0.02940342	      0.05948857
      6.45762712	      0.02753568	      0.03193493	      0.06443945
      6.47457627	      0.03399181	      0.03548177	      0.07039166
      6.49152542	      0.04006633	      0.03852192	      0.08004809
      6.50847458	      0.04515156	      0.04089352	      0.08888621
      6.52542373	      0.04821511	      0.04225808	      0.09418926
      6.54237288	      0.04879459	      0.04251126	      0.09661164
      6.55932203	      0.04700249	      0.04172329	      0.09604909
      6.57627119	      0.04345450	      0.04011765	      0.09327946
      6.59322034	      0.03940579	      0.03820306	      0.08956619
      6.61016949	      0.03620203	      0.03661715	      0.08655997
      6.62711864	      0.03488813	      0.03594653	      0.08578341
      6.64406780	      0.03584114	      0.03643418	      0.08805908
      6.66101695	      0.03898002	      0.03799611	      0.09239880
      6.67796610	      0.04381342	      0.04028299	      0.09691554
      6.69491525	      0.04617491	      0.04135434	      0.09854322
      6.71186441	      0.04970598	      0.04290644	      0.10869991
      6.72881356	      0.05195353	      0.04386576	      0.11605238
      6.74576271	      0.05202587	      0.04389629	      0.11926366
      6.76271186	      0.04987566	      0.04297961	      0.11870779
      6.77966102	      0.04707627	      0.04175602	      0.11568994
      6.79661017	      0.04543353	      0.04102101	      0.11298799
      6.81355932	      0.04510460	      0.04087225	      0.11116225
      6.83050847	      0.04437090	      0.04053846	      0.10687474
      6.84745763	      0.04090018	      0.03892071	      0.09954390
      6.86440678	      0.03470926	      0.03585426	      0.08605635
      6.88135593	      0.02828441	      0.03236620	      0.06994118
      6.89830508	      0.02286001	      0.02909754	      0.05463005
      6.91525424	      0.01879532	      0.02638414	      0.04476141
      6.93220339	      0.01634677	      0.02460560	      0.04106488
      6.94915254	      0.01509014	      0.02364094	      0.04047442
      6.96610169	      0.01496437	      0.02354221	      0.04253678
      6.98305085	      0.01518704	      0.02371672	      0.04589008
      7.00000000	      0.01535346	      0.02384632	      0.04691899
      7.01694915	      0.01542287	      0.02390015	      0.04815152
      7.03389831	      0.01545302	      0.02392350	      0.04801103
      7.05084746	      0.01547903	      0.02394363	      0.04923131
      7.06779661	      0.01588782	      0.02425774	      0.05170677
      7.08474576	      0.01646320	      0.02469308	      0.05478235
      7.10169492	      0.01716314	      0.02521254	      0.05754889
      7.11864407	      0.01791174	      0.02575651	      0.05977874
      7.13559322	      0.01877506	      0.02636992	      0.06160656
      7.15254237	      0.01971970	      0.02702516	      0.06253152
      7.16949153	      0.02071483	      0.02769866	      0.06302355
      7.18644068	      0.02182552	      0.02843154	      0.06282043
      7.20338983	      0.02329595	      0.02937368	      0.06339457
      7.22033898	      0.02509759	      0.03048836	      0.06420898
      7.23728814	      0.02697076	      0.03160565	      0.06527315
      7.25423729	      0.02854875	      0.03251709	      0.06633168
      7.27118644	      0.02967839	      0.03315418	      0.06736736
      7.28813559	      0.03032185	      0.03351166	      0.06824350
      7.30508475	      0.03057148	      0.03364932	      0.06889391
      7.32203390	      0.03065042	      0.03369274	      0.06920645
      7.33898305	      0.03071625	      0.03372890	      0.07012640
      7.35593220	      0.03092184	      0.03384159	      0.07134397
      7.37288136	      0.03123247	      0.03401115	      0.07284738
      7.38983051	      0.03158002	      0.03419986	      0.07461976
      7.40677966	      0.03193963	      0.03439403	      0.07657327
      7.42372881	      0.03242905	      0.03465654	      0.07865124
      7.44067797	      0.03314962	      0.03503946	      0.08095697
      7.45762712	      0.03413653	      0.03555722	      0.08326619
      7.47457627	      0.03489410	      0.03594960	      0.08547254
      7.49152542	      0.03556533	      0.03629372	      0.08757832
      7.50847458	      0.03607578	      0.03655325	      0.09047250
      7.52542373	      0.03636121	      0.03669757	      0.09225964
      7.54237288	      0.03626323	      0.03664809	      0.09331575
      7.55932203	      0.03575254	      0.03638912	      0.09213697
      7.57627119	      0.03485625	      0.03593010	      0.08923678
      7.59322034	      0.03393419	      0.03545168	      0.08585607
      7.61016949	      0.03323923	      0.03508679	      0.08298452
      7.62711864	      0.03286348	      0.03488791	      0.08100229
      7.64406780	      0.03268225	      0.03479158	      0.07982245
      7.66101695	      0.03248977	      0.03468897	      0.07873520
      7.67796610	      0.03242991	      0.03465700	      0.07778569
      7.69491525	      0.03244733	      0.03466631	      0.07641229
      7.71186441	      0.03244585	      0.03466552	      0.07495830
      7.72881356	      0.03237978	      0.03463020	      0.07333724
      7.74576271	      0.03225257	      0.03456211	      0.07188922
      7.76271186	      0.03201220	      0.03443308	      0.07084993
      7.77966102	      0.03169042	      0.03425959	      0.07017922
      7.79661017	      0.03136484	      0.03408314	      0.06990487
      7.81355932	      0.03114274	      0.03396226	      0.06986486
      7.83050847	      0.03112109	      0.03395045	      0.07008004
      7.84745763	      0.03119993	      0.03399342	      0.07061202
      7.86440678	      0.03149290	      0.03415265	      0.07143936
      7.88135593	      0.03185325	      0.03434749	      0.07246250
      7.89830508	      0.03219037	      0.03452877	      0.07353967
      7.91525424	      0.03245184	      0.03466872	      0.07433161
      7.93220339	      0.03262275	      0.03475989	      0.07474454
      7.94915254	      0.03270813	      0.03480535	      0.07491189
      7.96610169	      0.03273054	      0.03481727	      0.07508476
      7.98305085	      0.03272040	      0.03481187	      0.07538101
      8.00000000	      0.03270543	      0.03480391	      0.07587283
      8.01694915	      0.03266704	      0.03478348	      0.07645659
      8.03389831	      0.03268482	      0.03479294	      0.07682143
      8.05084746	      0.03246929	      0.03467804	      0.07719983
      8.06779661	      0.03225935	      0.03456575	      0.07694773
      8.08474576	      0.03199804	      0.03442546	      0.07614585
      8.10169492	      0.03156896	      0.03419387	      0.07509545
      8.11864407	      0.03122337	      0.03400619	      0.07401439
      8.13559322	      0.03101465	      0.03389234	      0.07331931
      8.15254237	      0.03099193	      0.03387992	      0.07306040
      8.16949153	      0.03114365	      0.03396275	      0.07331239
      8.18644068	      0.03139705	      0.03410064	      0.07386488
      8.20338983	      0.03164573	      0.03423542	      0.07449868
      8.22033898	      0.03180390	      0.03432087	      0.07496320
      8.23728814	      0.03184134	      0.03434107	      0.07508068
      8.25423729	      0.03173170	      0.03428189	      0.07482676
      8.27118644	      0.03152704	      0.03417116	      0.07429204
      8.28813559	      0.03128065	      0.03403737	      0.07367912
      8.30508475	      0.03105639	      0.03391514	      0.07328248
      8.32203390	      0.03090914	      0.03383464	      0.07309324
      8.33898305	      0.03082109	      0.03378642	      0.07329635
      8.35593220	      0.03075635	      0.03375091	      0.07367938
      8.37288136	      0.03064516	      0.03368985	      0.07405789
      8.38983051	      0.03045952	      0.03358765	      0.07424044
      8.40677966	      0.03021511	      0.03345263	      0.07417793
      8.42372881	      0.02995661	      0.03330922	      0.07385829
      8.44067797	      0.02981285	      0.03322920	      0.07342352
      8.45762712	      0.02985684	      0.03325370	      0.07306348
      8.47457627	      0.03007319	      0.03337397	      0.07304925
      8.49152542	      0.03046016	      0.03358801	      0.07338341
      8.50847458	      0.03096217	      0.03386366	      0.07406126
      8.52542373	      0.03149021	      0.03415119	      0.07492026
      8.54237288	      0.03197440	      0.03441275	      0.07583969
      8.55932203	      0.03227511	      0.03457419	      0.07660134
      8.57627119	      0.03238712	      0.03463413	      0.07709701
      8.59322034	      0.03232675	      0.03460184	      0.07719163
      8.61016949	      0.03220294	      0.03453551	      0.07704592
      8.62711864	      0.03209925	      0.03447986	      0.07689356
      8.64406780	      0.03203058	      0.03444297	      0.07669056
      8.66101695	      0.03194943	      0.03439931	      0.07662797
      8.67796610	      0.03178200	      0.03430905	      0.07660449
      8.69491525	      0.03145800	      0.03413372	      0.07669169
      8.71186441	      0.03099310	      0.03388056	      0.07674542
      8.72881356	      0.03046619	      0.03359133	      0.07685789
      8.74576271	      0.02997196	      0.03331775	      0.07695675
      8.76271186	      0.02959428	      0.03310716	      0.07697658
      8.77966102	      0.02941323	      0.03300574	      0.07691659
      8.79661017	      0.02943205	      0.03301630	      0.07672240
      8.81355932	      0.02962904	      0.03312660	      0.07650835
      8.83050847	      0.02991781	      0.03328764	      0.07628990
      8.84745763	      0.03018173	      0.03343414	      0.07613198
      8.86440678	      0.03029097	      0.03349459	      0.07586671
      8.88135593	      0.03021508	      0.03345261	      0.07543543
      8.89830508	      0.02999200	      0.03332889	      0.07496571
      8.91525424	      0.02988512	      0.03326945	      0.07432821
      8.93220339	      0.02941989	      0.03300948	      0.07420264
      8.94915254	      0.02921614	      0.03289497	      0.07394590
      8.96610169	      0.02911751	      0.03283940	      0.07371181
      8.98305085	      0.02917202	      0.03287012	      0.07364300
      9.00000000	      0.02934911	      0.03296975	      0.07369752
      9.01694915	      0.02961545	      0.03311900	      0.07391540
      9.03389831	      0.02986828	      0.03326008	      0.07414004
      9.05084746	      0.03010284	      0.03339042	      0.07429203
      9.06779661	      0.03013109	      0.03340608	      0.07477132
      9.08474576	      0.03020226	      0.03344551	      0.07505573
      9.10169492	      0.03032331	      0.03351247	      0.07532438
      9.11864407	      0.03051555	      0.03361853	      0.07553316
      9.13559322	      0.03079734	      0.03377340	      0.07564049
      9.15254237	      0.03116695	      0.03397545	      0.07569705
      9.16949153	      0.03156965	      0.03419424	      0.07576384
      9.18644068	      0.03190521	      0.03437549	      0.07579717
      9.20338983	      0.03209147	      0.03447568	      0.07585672
      9.22033898	      0.03211907	      0.03449051	      0.07587865
      9.23728814	      0.03207676	      0.03446779	      0.07585139
      9.25423729	      0.03206235	      0.03446004	      0.07576731
      9.27118644	      0.03210398	      0.03448241	      0.07556521
      9.28813559	      0.03215801	      0.03451141	      0.07537703
      9.30508475	      0.03216403	      0.03451464	      0.07518640
      9.32203390	      0.03216112	      0.03451308	      0.07502141
      9.33898305	      0.03220870	      0.03453860	      0.07492598
      9.35593220	      0.03230379	      0.03458955	      0.07498030
      9.37288136	      0.03238985	      0.03463559	      0.07517481
      9.38983051	      0.03241759	      0.03465042	      0.07537457
      9.40677966	      0.03234470	      0.03461144	      0.07552711
      9.42372881	      0.03217518	      0.03452062	      0.07545548
      9.44067797	      0.03193985	      0.03439415	      0.07511752
      9.45762712	      0.03167963	      0.03425375	      0.07468446
      9.47457627	      0.03142969	      0.03411836	      0.07423200
      9.49152542	      0.03126688	      0.03402988	      0.07393979
      9.50847458	      0.03120153	      0.03399430	      0.07380804
      9.52542373	      0.03121322	      0.03400066	      0.07396070
      9.54237288	      0.03123309	      0.03401148	      0.07420166
      9.55932203	      0.03119578	      0.03399116	      0.07453136
      9.57627119	      0.03109798	      0.03393784	      0.07448234
      9.59322034	      0.03103864	      0.03390544	      0.07465979
      9.61016949	      0.03101359	      0.03389176	      0.07424766
      9.62711864	      0.03114155	      0.03396161	      0.07421187
      9.64406780	      0.03135429	      0.03407741	      0.07438439
      9.66101695	      0.03157980	      0.03419974	      0.07483317
      9.67796610	      0.03179430	      0.03431569	      0.07526151
      9.69491525	      0.03200917	      0.03443145	      0.07591599
      9.71186441	      0.03227040	      0.03457166	      0.07647658
      9.72881356	      0.03261064	      0.03475344	      0.07678380
      9.74576271	      0.03298228	      0.03495091	      0.07722919
      9.76271186	      0.03335700	      0.03514889	      0.07737327
      9.77966102	      0.03384486	      0.03540499	      0.07703999
      9.79661017	      0.03435724	      0.03567199	      0.07767653
      9.81355932	      0.03452745	      0.03576023	      0.07782844
      9.83050847	      0.03467642	      0.03583730	      0.07781630
      9.84745763	      0.03468263	      0.03584051	      0.07779778
      9.86440678	      0.03466465	      0.03583121	      0.07759875
      9.88135593	      0.03463641	      0.03581661	      0.07766969
      9.89830508	      0.03445228	      0.03572129	      0.07757789
      9.91525424	      0.03419985	      0.03559018	      0.07780209
      9.93220339	      0.03389281	      0.03543006	      0.07844156
      9.94915254	      0.03355311	      0.03525206	      0.07850418
      9.96610169	      0.03328845	      0.03511275	      0.07914627
      9.98305085	      0.03303688	      0.03497983	      0.07907557
     10.00000000	      0.03282881	      0.03486950	      0.07933035
     10.01694915	      0.03262139	      0.03475917	      0.07885379
     10.03389831	      0.03247383	      0.03468046	      0.07860104
     10.05084746	      0.03236781	      0.03462380	      0.07839088
     10.06779661	      0.03228755	      0.03458085	      0.07841917
     10.08474576	      0.03221084	      0.03453975	      0.07844642
     10.10169492	      0.03202655	      0.03444080	      0.07821431
     10.11864407	      0.03174262	      0.03428779	      0.07757635
     10.13559322	      0.03140611	      0.03410556	      0.07648182
     10.15254237	      0.03109779	      0.03393774	      0.07518834
     10.16949153	      0.03083830	      0.03379585	      0.07376072
     10.18644068	      0.03065660	      0.03369614	      0.07246859
     10.20338983	      0.03050517	      0.03361281	      0.07147090
     10.22033898	      0.03042974	      0.03357123	      0.07105958
     10.23728814	      0.03046653	      0.03359152	      0.07120389
     10.25423729	      0.03064082	      0.03368746	      0.07180067
     10.27118644	      0.03090805	      0.03383405	      0.07258707
     10.28813559	      0.03119687	      0.03399176	      0.07335533
     10.30508475	      0.03144703	      0.03412777	      0.07407395
     10.32203390	      0.03162047	      0.03422176	      0.07477107
     10.33898305	      0.03172219	      0.03427676	      0.07534940
     10.35593220	      0.03179373	      0.03431538	      0.07583646
     10.37288136	      0.03189685	      0.03437099	      0.07608704
     10.38983051	      0.03199421	      0.03442340	      0.07645679
     10.40677966	      0.03217459	      0.03452031	      0.07667327
     10.42372881	      0.03240493	      0.03464365	      0.07695279
     10.44067797	      0.03259231	      0.03474367	      0.07724784
     10.45762712	      0.03264072	      0.03476946	      0.07750503
     10.47457627	      0.03250378	      0.03469645	      0.07751837
     10.49152542	      0.03225751	      0.03456476	      0.07724214
     10.50847458	      0.03195092	      0.03440011	      0.07709804
     10.52542373	      0.03168072	      0.03425434	      0.07658716
     10.54237288	      0.03149999	      0.03415650	      0.07572610
     10.55932203	      0.03151596	      0.03416515	      0.07499520
     10.57627119	      0.03170601	      0.03426801	      0.07466594
     10.59322034	      0.03200200	      0.03442760	      0.07481208
     10.61016949	      0.03225569	      0.03456378	      0.07525842
     10.62711864	      0.03235184	      0.03461526	      0.07592950
     10.64406780	      0.03238721	      0.03463418	      0.07635962
     10.66101695	      0.03244014	      0.03466247	      0.07646083
     10.67796610	      0.03249711	      0.03469289	      0.07616818
     10.69491525	      0.03246727	      0.03467696	      0.07550795
     10.71186441	      0.03233651	      0.03460706	      0.07451349
     10.72881356	      0.03217657	      0.03452137	      0.07358766
     10.74576271	      0.03209214	      0.03447605	      0.07330814
     10.76271186	      0.03216848	      0.03451703	      0.07364779
     10.77966102	      0.03231253	      0.03459423	      0.07418074
     10.79661017	      0.03245529	      0.03467056	      0.07516272
     10.81355932	      0.03254174	      0.03471670	      0.07599951
     10.83050847	      0.03246119	      0.03467371	      0.07551336
     10.84745763	      0.03229019	      0.03458226	      0.07525185
     10.86440678	      0.03196677	      0.03440864	      0.07455526
     10.88135593	      0.03162802	      0.03422584	      0.07378003
     10.89830508	      0.03137355	      0.03408788	      0.07321845
     10.91525424	      0.03121773	      0.03400312	      0.07295808
     10.93220339	      0.03118735	      0.03398657	      0.07329693
     10.94915254	      0.03126200	      0.03402722	      0.07394402
     10.96610169	      0.03139627	      0.03410022	      0.07467915
     10.98305085	      0.03166728	      0.03424708	      0.07529887
     11.00000000	      0.03165719	      0.03424162	      0.07588423
     11.01694915	      0.03173270	      0.03428243	      0.07621706
     11.03389831	      0.03177770	      0.03430673	      0.07634673
     11.05084746	      0.03180321	      0.03432050	      0.07634740
     11.06779661	      0.03182701	      0.03433334	      0.07629787
     11.08474576	      0.03186497	      0.03435381	      0.07614039
     11.10169492	      0.03195276	      0.03440110	      0.07601722
     11.11864407	      0.03207823	      0.03446857	      0.07593245
     11.13559322	      0.03226304	      0.03456772	      0.07576546
     11.15254237	      0.03246180	      0.03467404	      0.07555486
     11.16949153	      0.03261468	      0.03475559	      0.07529668
     11.18644068	      0.03268755	      0.03479439	      0.07495866
     11.20338983	      0.03273573	      0.03482003	      0.07461026
     11.22033898	      0.03257057	      0.03473208	      0.07452739
     11.23728814	      0.03243911	      0.03466192	      0.07447274
     11.25423729	      0.03235165	      0.03461516	      0.07456709
     11.27118644	      0.03235333	      0.03461606	      0.07464902
     11.28813559	      0.03241327	      0.03464811	      0.07478049
     11.30508475	      0.03258017	      0.03473720	      0.07488778
     11.32203390	      0.03249790	      0.03469331	      0.07513114
     11.33898305	      0.03249892	      0.03469386	      0.07525326
     11.35593220	      0.03254728	      0.03471966	      0.07542339
     11.37288136	      0.03266547	      0.03478265	      0.07555090
     11.38983051	      0.03286327	      0.03488780	      0.07580209
     11.40677966	      0.03311646	      0.03502193	      0.07602196
     11.42372881	      0.03335884	      0.03514986	      0.07619070
     11.44067797	      0.03356010	      0.03525573	      0.07622482
     11.45762712	      0.03365374	      0.03530488	      0.07623699
     11.47457627	      0.03362764	      0.03529119	      0.07640729
     11.49152542	      0.03351257	      0.03523076	      0.07627832
     11.50847458	      0.03336317	      0.03515214	      0.07644037
     11.52542373	      0.03317944	      0.03505522	      0.07641692
     11.54237288	      0.03299839	      0.03495944	      0.07667344
     11.55932203	      0.03288296	      0.03489824	      0.07693315
     11.57627119	      0.03285828	      0.03488514	      0.07717866
     11.59322034	      0.03296159	      0.03493994	      0.07726978
     11.61016949	      0.03316529	      0.03504774	      0.07761112
     11.62711864	      0.03342497	      0.03518468	      0.07802033
     11.64406780	      0.03366148	      0.03530894	      0.07835801
     11.66101695	      0.03381663	      0.03539022	      0.07846007
     11.67796610	      0.03388117	      0.03542398	      0.07812843
     11.69491525	      0.03378959	      0.03537607	      0.07745434
     11.71186441	      0.03351911	      0.03523420	      0.07697527
     11.72881356	      0.03305611	      0.03499001	      0.07656494
     11.74576271	      0.03250600	      0.03469763	      0.07598942
     11.76271186	      0.03200347	      0.03442838	      0.07563481
     11.77966102	      0.03160850	      0.03421528	      0.07545412
     11.79661017	      0.03138601	      0.03409464	      0.07543485
     11.81355932	      0.03132566	      0.03406185	      0.07569142
     11.83050847	      0.03144832	      0.03412847	      0.07589044
     11.84745763	      0.03171584	      0.03427333	      0.07574175
     11.86440678	      0.03210243	      0.03448158	      0.07584971
     11.88135593	      0.03246083	      0.03467352	      0.07564944
     11.89830508	      0.03274373	      0.03482428	      0.07564779
     11.91525424	      0.03292000	      0.03491789	      0.07554911
     11.93220339	      0.03298987	      0.03495493	      0.07544516
     11.94915254	      0.03292397	      0.03492000	      0.07539555
     11.96610169	      0.03274225	      0.03482350	      0.07547100
     11.98305085	      0.03254275	      0.03471724	      0.07542603
     12.00000000	      0.03237872	      0.03462964	      0.07526632
     12.01694915	      0.03224330	      0.03455714	      0.07552061
     12.03389831	      0.03214716	      0.03450559	      0.07544651
     12.05084746	      0.03206739	      0.03446275	      0.07552704
     12.06779661	      0.03200879	      0.03443125	      0.07558450
     12.08474576	      0.03198191	      0.03441679	      0.07573657
     12.10169492	      0.03196271	      0.03440645	      0.07584083
     12.11864407	      0.03191253	      0.03437944	      0.07579154
     12.13559322	      0.03195306	      0.03440126	      0.07596365
     12.15254237	      0.03171902	      0.03427504	      0.07503671
     12.16949153	      0.03158266	      0.03420129	      0.07438460
     12.18644068	      0.03141166	      0.03410857	      0.07374546
     12.20338983	      0.03119569	      0.03399112	      0.07312685
     12.22033898	      0.03117165	      0.03397801	      0.07282648
     12.23728814	      0.03098246	      0.03387475	      0.07229151
     12.25423729	      0.03097300	      0.03386958	      0.07233431
     12.27118644	      0.03101617	      0.03389317	      0.07243699
     12.28813559	      0.03101824	      0.03389430	      0.07213938
     12.30508475	      0.03102372	      0.03389730	      0.07217437
     12.32203390	      0.03097132	      0.03386866	      0.07220480
     12.33898305	      0.03088062	      0.03381903	      0.07216861
     12.35593220	      0.03078224	      0.03376512	      0.07211645
     12.37288136	      0.03071276	      0.03372699	      0.07209943
     12.38983051	      0.03065919	      0.03369756	      0.07250900
     12.40677966	      0.03060999	      0.03367051	      0.07272002
     12.42372881	      0.03058601	      0.03365732	      0.07242639
     12.44067797	      0.03063694	      0.03368533	      0.07281534
     12.45762712	      0.03076334	      0.03375475	      0.07251046
     12.47457627	      0.03095925	      0.03386206	      0.07244459
     12.49152542	      0.03118540	      0.03398551	      0.07242260
     12.50847458	      0.03141202	      0.03410877	      0.07261595
     12.52542373	      0.03157296	      0.03419604	      0.07261806
     12.54237288	      0.03160821	      0.03421512	      0.07264246
     12.55932203	      0.03152012	      0.03416741	      0.07231854
     12.57627119	      0.03131927	      0.03405838	      0.07149808
     12.59322034	      0.03106260	      0.03391853	      0.07034403
     12.61016949	      0.03078645	      0.03376742	      0.06925725
     12.62711864	      0.03053135	      0.03362723	      0.06838903
     12.64406780	      0.03034389	      0.03352384	      0.06781706
     12.66101695	      0.03026194	      0.03347854	      0.06759257
     12.67796610	      0.03033837	      0.03352079	      0.06780454
     12.69491525	      0.03057355	      0.03365046	      0.06827368
     12.71186441	      0.03089814	      0.03382862	      0.06873489
     12.72881356	      0.03123384	      0.03401189	      0.06883085
     12.74576271	      0.03148103	      0.03414622	      0.06888111
     12.76271186	      0.03157431	      0.03419677	      0.06877920
     12.77966102	      0.03151095	      0.03416244	      0.06871012
     12.79661017	      0.03135001	      0.03407509	      0.06874830
     12.81355932	      0.03119104	      0.03398858	      0.06914993
     12.83050847	      0.03098323	      0.03387517	      0.06918079
     12.84745763	      0.03085706	      0.03380612	      0.06979481
     12.86440678	      0.03074455	      0.03374444	      0.06987527
     12.88135593	      0.03072241	      0.03373229	      0.07014457
     12.89830508	      0.03081002	      0.03378035	      0.07036546
     12.91525424	      0.03097764	      0.03387211	      0.07010626
     12.93220339	      0.03120272	      0.03399495	      0.06993378
     12.94915254	      0.03150292	      0.03415809	      0.07020303
     12.96610169	      0.03138931	      0.03409644	      0.06989789
     12.98305085	      0.03130312	      0.03404960	      0.06986376
     13.00000000	      0.03110296	      0.03394056	      0.07008989
     13.01694915	      0.03087465	      0.03381576	      0.07033012
     13.03389831	      0.03068792	      0.03371335	      0.07045152
     13.05084746	      0.03061426	      0.03367286	      0.07076631
     13.06779661	      0.03062994	      0.03368148	      0.07098560
     13.08474576	      0.03066431	      0.03370038	      0.07103633
     13.10169492	      0.03063734	      0.03368555	      0.07094686
     13.11864407	      0.03050392	      0.03361212	      0.07078301
     13.13559322	      0.03029302	      0.03349572	      0.07049437
     13.15254237	      0.03006220	      0.03336787	      0.07024976
     13.16949153	      0.02987383	      0.03326316	      0.07032156
     13.18644068	      0.02974406	      0.03319084	      0.07022288
     13.20338983	      0.02971298	      0.03317350	      0.07054342
     13.22033898	      0.02978070	      0.03321128	      0.07099071
     13.23728814	      0.02993295	      0.03329606	      0.07141362
     13.25423729	      0.03016480	      0.03342476	      0.07178185
     13.27118644	      0.03044705	      0.03358077	      0.07224250
     13.28813559	      0.03069563	      0.03371758	      0.07205668
     13.30508475	      0.03098829	      0.03387793	      0.07196895
     13.32203390	      0.03132025	      0.03405891	      0.07182459
     13.33898305	      0.03169042	      0.03425958	      0.07173701
     13.35593220	      0.03209191	      0.03447592	      0.07185996
     13.37288136	      0.03242570	      0.03465475	      0.07217298
     13.38983051	      0.03271508	      0.03480905	      0.07293522
     13.40677966	      0.03295816	      0.03493812	      0.07381800
     13.42372881	      0.03309796	      0.03501215	      0.07472291
     13.44067797	      0.03317778	      0.03505434	      0.07556399
     13.45762712	      0.03321536	      0.03507419	      0.07613784
     13.47457627	      0.03317588	      0.03505334	      0.07637845
     13.49152542	      0.03322598	      0.03507979	      0.07638356
     13.50847458	      0.03335911	      0.03515000	      0.07644768
     13.52542373	      0.03359083	      0.03527187	      0.07652619
     13.54237288	      0.03389441	      0.03543090	      0.07649533
     13.55932203	      0.03418670	      0.03558334	      0.07638050
     13.57627119	      0.03448671	      0.03573913	      0.07642899
     13.59322034	      0.03478999	      0.03589593	      0.07639027
     13.61016949	      0.03510837	      0.03605981	      0.07654755
     13.62711864	      0.03544346	      0.03623149	      0.07645614
     13.64406780	      0.03579182	      0.03640911	      0.07649333
     13.66101695	      0.03617676	      0.03660437	      0.07645269
     13.67796610	      0.03651196	      0.03677356	      0.07660261
     13.69491525	      0.03689139	      0.03696414	      0.07662239
     13.71186441	      0.03722330	      0.03713005	      0.07664934
     13.72881356	      0.03756335	      0.03729927	      0.07691432
     13.74576271	      0.03776730	      0.03740039	      0.07709139
     13.76271186	      0.03781579	      0.03742439	      0.07759262
     13.77966102	      0.03774774	      0.03739070	      0.07819512
     13.79661017	      0.03762986	      0.03733227	      0.07878498
     13.81355932	      0.03745526	      0.03724556	      0.07891530
     13.83050847	      0.03718669	      0.03711179	      0.07872382
     13.84745763	      0.03683060	      0.03693367	      0.07823593
     13.86440678	      0.03638062	      0.03670736	      0.07752329
     13.88135593	      0.03586700	      0.03644732	      0.07677496
     13.89830508	      0.03532596	      0.03617138	      0.07605324
     13.91525424	      0.03471994	      0.03585978	      0.07531759
     13.93220339	      0.03412972	      0.03555368	      0.07478149
     13.94915254	      0.03358458	      0.03526859	      0.07439775
     13.96610169	      0.03307856	      0.03500189	      0.07433753
     13.98305085	      0.03259226	      0.03474364	      0.07435422
     14.00000000	      0.03212940	      0.03449606	      0.07468105
     14.01694915	      0.03170827	      0.03426923	      0.07466058
     14.03389831	      0.03128292	      0.03403861	      0.07487827
     14.05084746	      0.03088973	      0.03382402	      0.07408164
     14.06779661	      0.03056246	      0.03364436	      0.07353493
     14.08474576	      0.03041295	      0.03356197	      0.07288945
     14.10169492	      0.03041412	      0.03356261	      0.07228297
     14.11864407	      0.03064410	      0.03368926	      0.07180430
     14.13559322	      0.03105587	      0.03391485	      0.07153495
     14.15254237	      0.03151858	      0.03416658	      0.07160094
     14.16949153	      0.03194061	      0.03439455	      0.07167404
     14.18644068	      0.03202767	      0.03444140	      0.07183643
     14.20338983	      0.03208520	      0.03447232	      0.07157061
     14.22033898	      0.03204211	      0.03444916	      0.07103324
     14.23728814	      0.03201592	      0.03443508	      0.07044582
     14.25423729	      0.03197855	      0.03441498	      0.07020473
     14.27118644	      0.03208338	      0.03447134	      0.07006098
     14.28813559	      0.03221694	      0.03454302	      0.07019698
     14.30508475	      0.03225619	      0.03456405	      0.07005064
     14.32203390	      0.03220985	      0.03453922	      0.06975205
     14.33898305	      0.03197073	      0.03441077	      0.06921945
     14.35593220	      0.03175197	      0.03429284	      0.06840179
     14.37288136	      0.03144427	      0.03412628	      0.06795084
     14.38983051	      0.03124357	      0.03401719	      0.06749895
     14.40677966	      0.03106272	      0.03391860	      0.06721495
     14.42372881	      0.03094854	      0.03385620	      0.06750939
     14.44067797	      0.03099613	      0.03388222	      0.06841745
     14.45762712	      0.03115193	      0.03396726	      0.06964705
     14.47457627	      0.03141276	      0.03410917	      0.07091428
     14.49152542	      0.03174273	      0.03428785	      0.07186457
     14.50847458	      0.03212421	      0.03449327	      0.07243271
     14.52542373	      0.03247582	      0.03468152	      0.07270082
     14.54237288	      0.03260191	      0.03474878	      0.07292931
     14.55932203	      0.03234486	      0.03461153	      0.07207526
     14.57627119	      0.03169469	      0.03426189	      0.07091419
     14.59322034	      0.03074521	      0.03374480	      0.06922576
     14.61016949	      0.02974234	      0.03318988	      0.06769330
     14.62711864	      0.02886378	      0.03269601	      0.06575036
     14.64406780	      0.02826822	      0.03235693	      0.06470615
     14.66101695	      0.02796494	      0.03218289	      0.06393701
     14.67796610	      0.02794314	      0.03217035	      0.06362121
     14.69491525	      0.02805391	      0.03223405	      0.06361767
     14.71186441	      0.02824663	      0.03234458	      0.06375916
     14.72881356	      0.02836047	      0.03240969	      0.06421787
     14.74576271	      0.02872510	      0.03261737	      0.06455276
     14.76271186	      0.02912241	      0.03284217	      0.06520428
     14.77966102	      0.02969826	      0.03316528	      0.06584869
     14.79661017	      0.03019187	      0.03343976	      0.06652870
     14.81355932	      0.03049028	      0.03360461	      0.06734188
     14.83050847	      0.03058532	      0.03365694	      0.06804268
     14.84745763	      0.03050389	      0.03361211	      0.06857017
     14.86440678	      0.03033004	      0.03351619	      0.06890794
     14.88135593	      0.03009434	      0.03338570	      0.06897411
     14.89830508	      0.02996149	      0.03331193	      0.06852919
     14.91525424	      0.02973503	      0.03318580	      0.06851543
     14.93220339	      0.02970594	      0.03316957	      0.06806860
     14.94915254	      0.02976467	      0.03320234	      0.06772661
     14.96610169	      0.02978986	      0.03321639	      0.06713451
     14.98305085	      0.02974081	      0.03318903	      0.06660249
     15.00000000	      0.02955646	      0.03308601	      0.06574493
     15.01694915	      0.02913708	      0.03285043	      0.06499001
     15.03389831	      0.02870037	      0.03260332	      0.06404164
     15.05084746	      0.02822667	      0.03233314	      0.06346367
     15.06779661	      0.02788845	      0.03213885	      0.06320907
     15.08474576	      0.02759639	      0.03197012	      0.06307580
     15.10169492	      0.02729948	      0.03179767	      0.06310124
     15.11864407	      0.02699891	      0.03162214	      0.06308978
     15.13559322	      0.02675491	      0.03147892	      0.06343296
     15.15254237	      0.02672861	      0.03146345	      0.06352946
     15.16949153	      0.02686286	      0.03154236	      0.06388892
     15.18644068	      0.02716653	      0.03172015	      0.06446190
     15.20338983	      0.02772718	      0.03204579	      0.06559274
     15.22033898	      0.02867438	      0.03258856	      0.06655909
     15.23728814	      0.02986616	      0.03325890	      0.06760978
     15.25423729	      0.03105957	      0.03391687	      0.06832454
     15.27118644	      0.03202224	      0.03443848	      0.06875057
     15.28813559	      0.03266261	      0.03478112	      0.06944972
     15.30508475	      0.03309457	      0.03501035	      0.07088780
     15.32203390	      0.03357356	      0.03526280	      0.07356933
     15.33898305	      0.03441155	      0.03570016	      0.07678130
     15.35593220	      0.03563647	      0.03633000	      0.08003028
     15.37288136	      0.03694773	      0.03699236	      0.08205415
     15.38983051	      0.03770613	      0.03737009	      0.08273760
     15.40677966	      0.03756350	      0.03729934	      0.08141816
     15.42372881	      0.03677642	      0.03690650	      0.07882984
     15.44067797	      0.03603998	      0.03653511	      0.07661759
     15.45762712	      0.03574486	      0.03638521	      0.07618545
     15.47457627	      0.03599014	      0.03650984	      0.07674511
     15.49152542	      0.03671058	      0.03687345	      0.07843952
     15.50847458	      0.03746422	      0.03725001	      0.08036194
     15.52542373	      0.03797902	      0.03750507	      0.08174141
     15.54237288	      0.03821209	      0.03761997	      0.08256004
     15.55932203	      0.03822125	      0.03762448	      0.08278949
     15.57627119	      0.03807096	      0.03755044	      0.08288920
     15.59322034	      0.03789434	      0.03746324	      0.08284143
     15.61016949	      0.03775684	      0.03739520	      0.08313616
     15.62711864	      0.03765310	      0.03734380	      0.08346926
     15.64406780	      0.03749808	      0.03726685	      0.08371005
     15.66101695	      0.03733932	      0.03718787	      0.08415461
     15.67796610	      0.03716527	      0.03710110	      0.08417309
     15.69491525	      0.03700601	      0.03702152	      0.08411858
     15.71186441	      0.03676894	      0.03690274	      0.08434519
     15.72881356	      0.03645643	      0.03674559	      0.08406250
     15.74576271	      0.03604773	      0.03653904	      0.08356056
     15.76271186	      0.03562537	      0.03632435	      0.08305389
     15.77966102	      0.03529522	      0.03615564	      0.08274017
     15.79661017	      0.03499920	      0.03600370	      0.08275089
     15.81355932	      0.03479134	      0.03589663	      0.08295257
     15.83050847	      0.03485434	      0.03592912	      0.08331512
     15.84745763	      0.03521101	      0.03611249	      0.08323280
     15.86440678	      0.03592250	      0.03647551	      0.08358074
     15.88135593	      0.03678817	      0.03691239	      0.08378621
     15.89830508	      0.03761698	      0.03732588	      0.08404115
     15.91525424	      0.03815152	      0.03759015	      0.08414054
     15.93220339	      0.03845766	      0.03774066	      0.08418663
     15.94915254	      0.03846928	      0.03774637	      0.08435475
     15.96610169	      0.03855551	      0.03778865	      0.08463641
     15.98305085	      0.03860986	      0.03781527	      0.08509760
     16.00000000	      0.03854035	      0.03778122	      0.08570903
     16.01694915	      0.03816646	      0.03759751	      0.08661399
     16.03389831	      0.03767083	      0.03735259	      0.08757631
     16.05084746	      0.03716998	      0.03710345	      0.08866531
     16.06779661	      0.03685263	      0.03694472	      0.08970957
     16.08474576	      0.03675986	      0.03689819	      0.09047783
     16.10169492	      0.03682832	      0.03693253	      0.09088512
     16.11864407	      0.03699255	      0.03701479	      0.09080616
     16.13559322	      0.03721348	      0.03712515	      0.09052818
     16.15254237	      0.03744494	      0.03724043	      0.09016752
     16.16949153	      0.03762059	      0.03732767	      0.08993719
     16.18644068	      0.03778955	      0.03741140	      0.08971999
     16.20338983	      0.03806765	      0.03754881	      0.08949834
     16.22033898	      0.03843014	      0.03772716	      0.08920895
     16.23728814	      0.03895836	      0.03798555	      0.08853898
     16.25423729	      0.03954035	      0.03826823	      0.08742166
     16.27118644	      0.04021504	      0.03859334	      0.08607413
     16.28813559	      0.04086948	      0.03890610	      0.08455816
     16.30508475	      0.04132719	      0.03912335	      0.08347241
     16.32203390	      0.04152462	      0.03921669	      0.08243939
     16.33898305	      0.04135087	      0.03913456	      0.08206744
     16.35593220	      0.04106416	      0.03899865	      0.08194541
     16.37288136	      0.04091832	      0.03892934	      0.08196861
     16.38983051	      0.04095729	      0.03894787	      0.08215102
     16.40677966	      0.04109401	      0.03901282	      0.08227642
     16.42372881	      0.04111634	      0.03902342	      0.08236474
     16.44067797	      0.04091722	      0.03892881	      0.08244445
     16.45762712	      0.04047107	      0.03871600	      0.08253931
     16.47457627	      0.03980872	      0.03839788	      0.08264458
     16.49152542	      0.03903079	      0.03802085	      0.08295134
     16.50847458	      0.03833919	      0.03768249	      0.08359291
     16.52542373	      0.03793352	      0.03748260	      0.08481843
     16.54237288	      0.03795654	      0.03749397	      0.08650629
     16.55932203	      0.03827691	      0.03765187	      0.08869676
     16.57627119	      0.03877537	      0.03789624	      0.09064658
     16.59322034	      0.03917763	      0.03809230	      0.09178937
     16.61016949	      0.03934148	      0.03817187	      0.09145933
     16.62711864	      0.03879570	      0.03790617	      0.08970680
     16.64406780	      0.03744950	      0.03724270	      0.08717275
     16.66101695	      0.03629145	      0.03666235	      0.08543255
     16.67796610	      0.03678230	      0.03690945	      0.08640548
     16.69491525	      0.04048935	      0.03872474	      0.09052207
     16.71186441	      0.04809149	      0.04220387	      0.09842790
     16.72881356	      0.05801985	      0.04635605	      0.10982984
     16.74576271	      0.06818767	      0.05025405	      0.12174288
     16.76271186	      0.07326177	      0.05209029	      0.13266896
     16.77966102	      0.08686189	      0.05671955	      0.14203118
     16.79661017	      0.10152551	      0.06132050	      0.14157211
     16.81355932	      0.11850229	      0.06624933	      0.19070516
     16.83050847	      0.13699235	      0.07123055	      0.25105655
     16.84745763	      0.14461281	      0.07318490	      0.28099464
     16.86440678	      0.13010019	      0.06941560	      0.26899838
     16.88135593	      0.09896903	      0.06054354	      0.22284055
     16.89830508	      0.06710888	      0.04985493	      0.16149267
     16.91525424	      0.04512230	      0.04088027	      0.10520319
     16.93220339	      0.03310841	      0.03501767	      0.08183285
     16.94915254	      0.02904076	      0.03279609	      0.08151818
     16.96610169	      0.03142132	      0.03411382	      0.08376607
     16.98305085	      0.04088249	      0.03891229	      0.08847962
     17.00000000	      0.05575886	      0.04544385	      0.10656254
     17.01694915	      0.07307516	      0.05202391	      0.13753822
     17.03389831	      0.09009287	      0.05776481	      0.15789244
     17.05084746	      0.10464422	      0.06225522	      0.18347991
     17.06779661	      0.11153260	      0.06427159	      0.22641371
     17.08474576	      0.10390126	      0.06203382	      0.23882428
     17.10169492	      0.08167987	      0.05500164	      0.21523331
     17.11864407	      0.05529528	      0.04525454	      0.16202410
     17.13559322	      0.03256375	      0.03472844	      0.08900812
     17.15254237	      0.02684253	      0.03153043	      0.06786080
     17.16949153	      0.03235820	      0.03461866	      0.07039795
     17.18644068	      0.04192975	      0.03940753	      0.07564781
     17.20338983	      0.04644802	      0.04147646	      0.08108241
     17.22033898	      0.04558325	      0.04108854	      0.07866055
     17.23728814	      0.04363892	      0.04020269	      0.07618311
     17.25423729	      0.04218102	      0.03952544	      0.08263450
     17.27118644	      0.04033875	      0.03865265	      0.08441011
     17.28813559	      0.03769780	      0.03736596	      0.08271258
     17.30508475	      0.03460260	      0.03579913	      0.07821815
     17.32203390	      0.03181955	      0.03432931	      0.07300132
     17.33898305	      0.02965128	      0.03313903	      0.06847148
     17.35593220	      0.02801081	      0.03220928	      0.06487196
     17.37288136	      0.02676285	      0.03148360	      0.06285924
     17.38983051	      0.02562815	      0.03080894	      0.06218234
     17.40677966	      0.02423937	      0.02996255	      0.06191417
     17.42372881	      0.02282367	      0.02907440	      0.06220333
     17.44067797	      0.02173973	      0.02837561	      0.06257377
     17.45762712	      0.02120296	      0.02802311	      0.06297877
     17.47457627	      0.02107183	      0.02793632	      0.06330316
     17.49152542	      0.02075141	      0.02772311	      0.05133296
     17.50847458	      0.02122070	      0.02803483	      0.05116176
     17.52542373	      0.02133807	      0.02811225	      0.05091681
     17.54237288	      0.02159134	      0.02827860	      0.04999045
     17.55932203	      0.02178905	      0.02840778	      0.04984641
     17.57627119	      0.02209897	      0.02860910	      0.05075075
     17.59322034	      0.02228227	      0.02872750	      0.05128875
     17.61016949	      0.02248806	      0.02885985	      0.05307688
     17.62711864	      0.02277651	      0.02904435	      0.05502102
     17.64406780	      0.02308520	      0.02924051	      0.05666652
     17.66101695	      0.02384025	      0.02971485	      0.05814185
     17.67796610	      0.02488063	      0.03035630	      0.05987478
     17.69491525	      0.02617726	      0.03113725	      0.06120193
     17.71186441	      0.02730168	      0.03179895	      0.06253684
     17.72881356	      0.02818824	      0.03231112	      0.06353601
     17.74576271	      0.02892476	      0.03273053	      0.06318244
     17.76271186	      0.02952106	      0.03306619	      0.06272416
     17.77966102	      0.03000949	      0.03333860	      0.06262076
     17.79661017	      0.03033712	      0.03352010	      0.06233365
     17.81355932	      0.03066829	      0.03370256	      0.06102126
     17.83050847	      0.03101566	      0.03389289	      0.06215217
     17.84745763	      0.03137578	      0.03408909	      0.06358693
     17.86440678	      0.03164616	      0.03423565	      0.06437202
     17.88135593	      0.03180070	      0.03431914	      0.06468231
     17.89830508	      0.03184958	      0.03434551	      0.06479747
     17.91525424	      0.03179339	      0.03431520	      0.06488310
     17.93220339	      0.03163237	      0.03422820	      0.06482688
     17.94915254	      0.03138462	      0.03409389	      0.06456190
     17.96610169	      0.03103009	      0.03390078	      0.06404815
     17.98305085	      0.03070411	      0.03372223	      0.06367918
     18.00000000	      0.03030849	      0.03350428	      0.06340676
     18.01694915	      0.02981424	      0.03322998	      0.06299538
     18.03389831	      0.02920614	      0.03288934	      0.06175151
     18.05084746	      0.02870124	      0.03260382	      0.05991384
     18.06779661	      0.02840874	      0.03243726	      0.06067354
     18.08474576	      0.02816368	      0.03229704	      0.06238467
     18.10169492	      0.02752957	      0.03193139	      0.06357865
     18.11864407	      0.02646799	      0.03130968	      0.06344979
     18.13559322	      0.02520294	      0.03055229	      0.06175465
     18.15254237	      0.02410654	      0.02988034	      0.05970182
     18.16949153	      0.02357334	      0.02954804	      0.05891869
     18.18644068	      0.02375681	      0.02966280	      0.05955360
     18.20338983	      0.02399263	      0.02980966	      0.05941134
     18.22033898	      0.02379806	      0.02968855	      0.05692011
     18.23728814	      0.02310815	      0.02925504	      0.05529252
     18.25423729	      0.02230299	      0.02874085	      0.05869982
     18.27118644	      0.02151388	      0.02822783	      0.05865663
     18.28813559	      0.02074133	      0.02771637	      0.05681469
     18.30508475	      0.01988973	      0.02714142	      0.05495246
     18.32203390	      0.01930347	      0.02673843	      0.05312006
     18.33898305	      0.01507178	      0.02362655	      0.05057017
     18.35593220	      0.01416739	      0.02290672	      0.04969779
     18.37288136	      0.01366705	      0.02249860	      0.04975283
