Model Marker Errors from IK
version=1
nRows=299
nColumns=4
inDegrees=no
endheader
time	total_squared_error	marker_error_RMS	marker_error_max
      0.00000000	      0.01837287	      0.02608595	      0.03912174
      0.01754386	      0.01796679	      0.02579606	      0.03915574
      0.03508772	      0.01783309	      0.02569990	      0.03916211
      0.05263158	      0.01778760	      0.02566710	      0.03967068
      0.07017544	      0.01769468	      0.02559997	      0.04016414
      0.08771930	      0.01760241	      0.02553314	      0.04045473
      0.10526316	      0.01755267	      0.02549704	      0.04056895
      0.12280702	      0.01749515	      0.02545522	      0.04035213
      0.14035088	      0.01741907	      0.02539982	      0.03980465
      0.15789474	      0.01725911	      0.02528293	      0.03904444
      0.17543860	      0.01703573	      0.02511878	      0.03831777
      0.19298246	      0.01678664	      0.02493447	      0.03799054
      0.21052632	      0.01652547	      0.02473973	      0.03781454
      0.22807018	      0.01624004	      0.02452515	      0.03747380
      0.24561404	      0.01602050	      0.02435881	      0.03727893
      0.26315789	      0.01580781	      0.02419658	      0.03713560
      0.28070175	      0.01555114	      0.02399934	      0.03694403
      0.29824561	      0.01533336	      0.02383070	      0.03678040
      0.31578947	      0.01515424	      0.02369110	      0.03663029
      0.33333333	      0.01505883	      0.02361640	      0.03645942
      0.35087719	      0.01515752	      0.02369366	      0.03625357
      0.36842105	      0.01557925	      0.02402102	      0.03603978
      0.38596491	      0.01620562	      0.02449914	      0.03560990
      0.40350877	      0.01692784	      0.02503911	      0.03522023
      0.42105263	      0.01759248	      0.02552593	      0.03915736
      0.43859649	      0.01805412	      0.02585868	      0.04153015
      0.45614035	      0.01835048	      0.02607005	      0.04293794
      0.47368421	      0.01838645	      0.02609558	      0.04212430
      0.49122807	      0.01826519	      0.02600939	      0.04190882
      0.50877193	      0.01800151	      0.02582097	      0.04072197
      0.52631579	      0.01771554	      0.02561506	      0.04164810
      0.54385965	      0.01741502	      0.02539687	      0.04594319
      0.56140351	      0.01713087	      0.02518882	      0.04964597
      0.57894737	      0.01663073	      0.02481840	      0.05146275
      0.59649123	      0.01601411	      0.02435396	      0.05134874
      0.61403509	      0.01545803	      0.02392738	      0.05005344
      0.63157895	      0.01515811	      0.02369413	      0.04827403
      0.64912281	      0.01504063	      0.02360213	      0.04625194
      0.66666667	      0.01492983	      0.02351503	      0.04315152
      0.68421053	      0.01490309	      0.02349397	      0.04072793
      0.70175439	      0.01517526	      0.02370752	      0.04608801
      0.71929825	      0.01565741	      0.02408120	      0.05052936
      0.73684211	      0.01613283	      0.02444406	      0.05253153
      0.75438596	      0.01637175	      0.02462440	      0.05132909
      0.77192982	      0.01645655	      0.02468809	      0.04748714
      0.78947368	      0.01642394	      0.02466362	      0.04190114
      0.80701754	      0.01632517	      0.02458935	      0.04182091
      0.82456140	      0.01605197	      0.02438273	      0.04151769
      0.84210526	      0.01561066	      0.02404522	      0.04248457
      0.85964912	      0.01484333	      0.02344681	      0.04351054
      0.87719298	      0.01398486	      0.02275869	      0.04261264
      0.89473684	      0.01306724	      0.02199936	      0.04000382
      0.91228070	      0.01240508	      0.02143473	      0.03689471
      0.92982456	      0.01211611	      0.02118360	      0.03649100
      0.94736842	      0.01240451	      0.02143423	      0.03639327
      0.96491228	      0.01319095	      0.02210325	      0.03666966
      0.98245614	      0.01402805	      0.02279380	      0.03699776
      1.00000000	      0.01455872	      0.02322094	      0.03803695
      1.01754386	      0.01484551	      0.02344853	      0.03815161
      1.03508772	      0.01493448	      0.02351869	      0.04039499
      1.05263158	      0.01491771	      0.02350548	      0.04080185
      1.07017544	      0.01478150	      0.02339793	      0.04115318
      1.08771930	      0.01461597	      0.02326654	      0.04075469
      1.10526316	      0.01449439	      0.02316957	      0.04004757
      1.12280702	      0.01444475	      0.02312986	      0.03994547
      1.14035088	      0.01440603	      0.02309885	      0.03928548
      1.15789474	      0.01442187	      0.02311154	      0.03885122
      1.17543860	      0.01448813	      0.02316458	      0.03892140
      1.19298246	      0.01449820	      0.02317262	      0.03932360
      1.21052632	      0.01454196	      0.02320757	      0.03918917
      1.22807018	      0.01449330	      0.02316870	      0.03922724
      1.24561404	      0.01440427	      0.02309743	      0.03968937
      1.26315789	      0.01427681	      0.02299501	      0.03931920
      1.28070175	      0.01411621	      0.02286532	      0.03885873
      1.29824561	      0.01391806	      0.02270426	      0.03801287
      1.31578947	      0.01364499	      0.02248044	      0.03807513
      1.33333333	      0.01342973	      0.02230241	      0.03796256
      1.35087719	      0.01332906	      0.02221866	      0.03801942
      1.36842105	      0.01338445	      0.02226478	      0.03792757
      1.38596491	      0.01366456	      0.02249655	      0.03830280
      1.40350877	      0.01416534	      0.02290507	      0.03923461
      1.42105263	      0.01470667	      0.02333863	      0.03942874
      1.43859649	      0.01525616	      0.02377063	      0.03954561
      1.45614035	      0.01562200	      0.02405395	      0.03958358
      1.47368421	      0.01578074	      0.02417586	      0.04002883
      1.49122807	      0.01578448	      0.02417872	      0.03998624
      1.50877193	      0.01579451	      0.02418640	      0.04209631
      1.52631579	      0.01591840	      0.02428107	      0.04419422
      1.54385965	      0.01616357	      0.02446734	      0.04606764
      1.56140351	      0.01644534	      0.02467968	      0.04733705
      1.57894737	      0.01666632	      0.02484494	      0.04780091
      1.59649123	      0.01678482	      0.02493311	      0.04708208
      1.61403509	      0.01684169	      0.02497531	      0.04514726
      1.63157895	      0.01689376	      0.02501390	      0.04231091
      1.64912281	      0.01717279	      0.02521962	      0.04430198
      1.66666667	      0.01749621	      0.02545600	      0.04262943
      1.68421053	      0.01816541	      0.02593825	      0.04500086
      1.70175439	      0.01910585	      0.02660121	      0.04927772
      1.71929825	      0.02028963	      0.02741291	      0.05335691
      1.73684211	      0.02175753	      0.02838722	      0.05753129
      1.75438596	      0.02356058	      0.02954004	      0.06233286
      1.77192982	      0.02524586	      0.03057829	      0.06659412
      1.78947368	      0.02625329	      0.03118243	      0.06913256
      1.80701754	      0.02598120	      0.03102042	      0.06791246
      1.82456140	      0.02431660	      0.03001025	      0.06176601
      1.84210526	      0.02183457	      0.02843744	      0.06121345
      1.85964912	      0.01938929	      0.02679779	      0.06210268
      1.87719298	      0.01764956	      0.02556731	      0.06286705
      1.89473684	      0.01681045	      0.02495214	      0.06363911
      1.91228070	      0.01670848	      0.02487635	      0.06372870
      1.92982456	      0.01693370	      0.02504345	      0.06468380
      1.94736842	      0.01719540	      0.02523622	      0.06437593
      1.96491228	      0.01716286	      0.02521233	      0.06354716
      1.98245614	      0.01685366	      0.02498419	      0.06212143
      2.00000000	      0.01636913	      0.02462243	      0.06105506
      2.01754386	      0.01595940	      0.02431232	      0.06007916
      2.03508772	      0.01594269	      0.02429959	      0.06049598
      2.05263158	      0.01629932	      0.02456987	      0.06203071
      2.07017544	      0.01671319	      0.02487985	      0.06377844
      2.08771930	      0.01680531	      0.02494833	      0.06423126
      2.10526316	      0.01640803	      0.02465167	      0.06221751
      2.12280702	      0.01559102	      0.02403009	      0.05783618
      2.14035088	      0.01462524	      0.02327392	      0.05125495
      2.15789474	      0.01388242	      0.02267518	      0.04476982
      2.17543860	      0.01375472	      0.02257065	      0.04308473
      2.19298246	      0.01452744	      0.02319597	      0.05205329
      2.21052632	      0.01620735	      0.02450045	      0.06253548
      2.22807018	      0.01826332	      0.02600806	      0.07178353
      2.24561404	      0.01969799	      0.02701028	      0.07700541
      2.26315789	      0.01979387	      0.02707593	      0.07749239
      2.28070175	      0.01876303	      0.02636147	      0.07459476
      2.29824561	      0.01737950	      0.02537095	      0.06991491
      2.31578947	      0.01623280	      0.02451969	      0.06503547
      2.33333333	      0.01547321	      0.02393913	      0.06125353
      2.35087719	      0.01503844	      0.02360040	      0.05874522
      2.36842105	      0.01495857	      0.02353765	      0.05754817
      2.38596491	      0.01517997	      0.02371120	      0.05740982
      2.40350877	      0.01562219	      0.02405410	      0.05745629
      2.42105263	      0.01598601	      0.02433258	      0.05707145
      2.43859649	      0.01601257	      0.02435279	      0.05602731
      2.45614035	      0.01586207	      0.02423807	      0.05470976
      2.47368421	      0.01570030	      0.02411415	      0.05368505
      2.49122807	      0.01575921	      0.02415936	      0.05289420
      2.50877193	      0.01595449	      0.02430858	      0.05320692
      2.52631579	      0.01623987	      0.02452502	      0.05394321
      2.54385965	      0.01644416	      0.02467879	      0.05525332
      2.56140351	      0.01648784	      0.02471155	      0.05679453
      2.57894737	      0.01632898	      0.02459222	      0.05680837
      2.59649123	      0.01611587	      0.02443121	      0.05600936
      2.61403509	      0.01587165	      0.02424539	      0.05394750
      2.63157895	      0.01558759	      0.02402745	      0.05078069
      2.64912281	      0.01522287	      0.02374468	      0.05290780
      2.66666667	      0.01486694	      0.02346545	      0.05512170
      2.68421053	      0.01473873	      0.02336405	      0.05589315
      2.70175439	      0.01497197	      0.02354820	      0.05646471
      2.71929825	      0.01548110	      0.02394523	      0.05739930
      2.73684211	      0.01604632	      0.02437843	      0.05857614
      2.75438596	      0.01653312	      0.02474546	      0.05946504
      2.77192982	      0.01680862	      0.02495078	      0.05946491
      2.78947368	      0.01712062	      0.02518128	      0.05773791
      2.80701754	      0.01746691	      0.02543467	      0.05466526
      2.82456140	      0.01757152	      0.02551072	      0.05128654
      2.84210526	      0.01719345	      0.02523479	      0.04818569
      2.85964912	      0.01654854	      0.02475700	      0.04629319
      2.87719298	      0.01593655	      0.02429491	      0.04425634
      2.89473684	      0.01554636	      0.02399565	      0.04277104
      2.91228070	      0.01528513	      0.02379319	      0.04299722
      2.92982456	      0.01525855	      0.02377249	      0.04387853
      2.94736842	      0.01536905	      0.02385842	      0.04507386
      2.96491228	      0.01564183	      0.02406922	      0.04589969
      2.98245614	      0.01587647	      0.02424907	      0.04614709
      3.00000000	      0.01596565	      0.02431708	      0.04563625
      3.01754386	      0.01603013	      0.02436614	      0.04436392
      3.03508772	      0.01627134	      0.02454877	      0.04319914
      3.05263158	      0.01669095	      0.02486329	      0.04197085
      3.07017544	      0.01705736	      0.02513472	      0.04121902
      3.08771930	      0.01705335	      0.02513177	      0.04029544
      3.10526316	      0.01650430	      0.02472389	      0.04400074
      3.12280702	      0.01556565	      0.02401053	      0.04626411
      3.14035088	      0.01455502	      0.02321799	      0.04560997
      3.15789474	      0.01373921	      0.02255792	      0.04150475
      3.17543860	      0.01326758	      0.02216736	      0.03487454
      3.19298246	      0.01312016	      0.02204386	      0.03397703
      3.21052632	      0.01311511	      0.02203962	      0.03313874
      3.22807018	      0.01309098	      0.02201933	      0.03314823
      3.24561404	      0.01313391	      0.02205541	      0.03625902
      3.26315789	      0.01332413	      0.02221455	      0.03880797
      3.28070175	      0.01322919	      0.02213526	      0.03943998
      3.29824561	      0.01317430	      0.02208930	      0.04105549
      3.31578947	      0.01293713	      0.02188956	      0.04225549
      3.33333333	      0.01282873	      0.02179766	      0.04460186
      3.35087719	      0.01290638	      0.02186353	      0.04707260
      3.36842105	      0.01322942	      0.02213546	      0.04909845
      3.38596491	      0.01394605	      0.02272709	      0.05083783
      3.40350877	      0.01516938	      0.02370293	      0.05196486
      3.42105263	      0.01673951	      0.02489944	      0.06140329
      3.43859649	      0.01811492	      0.02590218	      0.06847801
      3.45614035	      0.01884073	      0.02641600	      0.07197176
      3.47368421	      0.01901572	      0.02653839	      0.07294614
      3.49122807	      0.01904837	      0.02656116	      0.07352242
      3.50877193	      0.01909426	      0.02659314	      0.07428071
      3.52631579	      0.01901075	      0.02653492	      0.07402464
      3.54385965	      0.01872598	      0.02633543	      0.07181011
      3.56140351	      0.01843809	      0.02613221	      0.06754252
      3.57894737	      0.01824111	      0.02599224	      0.06152786
      3.59649123	      0.01799539	      0.02581658	      0.05349567
      3.61403509	      0.01763344	      0.02555563	      0.04937569
      3.63157895	      0.01751666	      0.02547087	      0.05212243
      3.64912281	      0.01769638	      0.02560120	      0.05367561
      3.66666667	      0.01773605	      0.02562988	      0.05213584
      3.68421053	      0.01738385	      0.02537412	      0.04775955
      3.70175439	      0.01683155	      0.02496780	      0.04278224
      3.71929825	      0.01636859	      0.02462203	      0.04014514
      3.73684211	      0.01612977	      0.02444175	      0.03933183
      3.75438596	      0.01620578	      0.02449926	      0.03758814
      3.77192982	      0.01649087	      0.02471382	      0.03729190
      3.78947368	      0.01679974	      0.02494419	      0.03744169
      3.80701754	      0.01711034	      0.02517372	      0.03873534
      3.82456140	      0.01749346	      0.02545400	      0.04043476
      3.84210526	      0.01805606	      0.02586007	      0.04179862
      3.85964912	      0.01890271	      0.02645941	      0.04190667
      3.87719298	      0.01953771	      0.02690017	      0.04188449
      3.89473684	      0.02056535	      0.02759855	      0.04151428
      3.91228070	      0.02195897	      0.02851833	      0.04553926
      3.92982456	      0.02366973	      0.02960839	      0.05223938
      3.94736842	      0.02516655	      0.03053022	      0.05859543
      3.96491228	      0.02591047	      0.03097817	      0.06366970
      3.98245614	      0.02554041	      0.03075616	      0.06614193
      4.00000000	      0.02426031	      0.02997549	      0.06564726
      4.01754386	      0.02255007	      0.02889961	      0.06207315
      4.03508772	      0.02094133	      0.02784968	      0.05651316
      4.05263158	      0.01975603	      0.02705004	      0.04986277
      4.07017544	      0.01898069	      0.02651393	      0.04926861
      4.08771930	      0.01848246	      0.02616363	      0.04949768
      4.10526316	      0.01824253	      0.02599325	      0.04929553
      4.12280702	      0.01828728	      0.02602511	      0.04901855
      4.14035088	      0.01863286	      0.02626987	      0.04849941
      4.15789474	      0.01917843	      0.02665168	      0.04776365
      4.17543860	      0.01964956	      0.02697706	      0.04728589
      4.19298246	      0.02005071	      0.02725104	      0.04645488
      4.21052632	      0.02057822	      0.02760718	      0.04544673
      4.22807018	      0.02140862	      0.02815869	      0.04402414
      4.24561404	      0.02240473	      0.02880633	      0.04477932
      4.26315789	      0.02363305	      0.02958544	      0.04709374
      4.28070175	      0.02487975	      0.03035576	      0.05056460
      4.29824561	      0.02592122	      0.03098460	      0.05480005
      4.31578947	      0.02655766	      0.03136267	      0.05729274
      4.33333333	      0.02677927	      0.03149325	      0.05920137
      4.35087719	      0.02669489	      0.03144359	      0.05952800
      4.36842105	      0.02656162	      0.03136501	      0.05992917
      4.38596491	      0.02657412	      0.03137238	      0.06041992
      4.40350877	      0.02675240	      0.03147745	      0.06059767
      4.42105263	      0.02704891	      0.03165140	      0.06064692
      4.43859649	      0.02734584	      0.03182466	      0.05993638
      4.45614035	      0.02755652	      0.03194701	      0.05930764
      4.47368421	      0.02754375	      0.03193961	      0.05810676
      4.49122807	      0.02738001	      0.03184453	      0.05725455
      4.50877193	      0.02714810	      0.03170939	      0.05739094
      4.52631579	      0.02670780	      0.03145119	      0.05586043
      4.54385965	      0.02625912	      0.03118589	      0.05484995
      4.56140351	      0.02580819	      0.03091696	      0.05463263
      4.57894737	      0.02510510	      0.03049292	      0.05363123
      4.59649123	      0.02432764	      0.03001706	      0.05279757
      4.61403509	      0.02360456	      0.02956760	      0.05228264
      4.63157895	      0.02327785	      0.02936226	      0.05178961
      4.64912281	      0.02349104	      0.02949641	      0.05154637
      4.66666667	      0.02405556	      0.02984873	      0.05304814
      4.68421053	      0.02471536	      0.03025531	      0.05639599
      4.70175439	      0.02533706	      0.03063347	      0.05941931
      4.71929825	      0.02595183	      0.03100289	      0.06157775
      4.73684211	      0.02660148	      0.03138853	      0.06290180
      4.75438596	      0.02717033	      0.03172237	      0.06306850
      4.77192982	      0.02759337	      0.03196837	      0.06237340
      4.78947368	      0.02792134	      0.03215779	      0.06124865
      4.80701754	      0.02828640	      0.03236734	      0.06072916
      4.82456140	      0.02876879	      0.03264216	      0.06027817
      4.84210526	      0.02928686	      0.03293476	      0.06060806
      4.85964912	      0.02967604	      0.03315287	      0.06041374
      4.87719298	      0.02995036	      0.03330575	      0.06044994
      4.89473684	      0.02996722	      0.03331511	      0.06023033
      4.91228070	      0.02986315	      0.03325722	      0.05981084
      4.92982456	      0.02975823	      0.03319874	      0.05968652
      4.94736842	      0.02955625	      0.03308588	      0.05951034
      4.96491228	      0.02901750	      0.03278295	      0.05949864
      4.98245614	      0.02814884	      0.03228854	      0.05963776
      5.00000000	      0.02694931	      0.03159308	      0.05880175
      5.01754386	      0.02556134	      0.03076875	      0.05772317
      5.03508772	      0.02413018	      0.02989499	      0.05567331
      5.05263158	      0.02282777	      0.02907702	      0.05365131
      5.07017544	      0.02153872	      0.02824412	      0.05098634
      5.08771930	      0.02030281	      0.02742182	      0.04864302
      5.10526316	      0.01914667	      0.02662961	      0.04653381
      5.12280702	      0.01818470	      0.02595202	      0.04458894
      5.14035088	      0.01747182	      0.02543825	      0.04253090
      5.15789474	      0.01716776	      0.02521593	      0.04107439
      5.17543860	      0.01710941	      0.02517303	      0.03966439
      5.19298246	      0.01717353	      0.02522016	      0.03880121
      5.21052632	      0.01754387	      0.02549065	      0.03936342
      5.22807018	      0.01824840	      0.02599744	      0.04119807
