Model Marker Errors from IK
version=1
nRows=162
nColumns=4
inDegrees=no
endheader
time	total_squared_error	marker_error_RMS	marker_error_max
      0.00000000	      0.02122278	      0.02803621	      0.05446390
      0.01694915	      0.02208791	      0.02860194	      0.05738814
      0.03389831	      0.02292204	      0.02913699	      0.05999060
      0.05084746	      0.02344519	      0.02946761	      0.06245840
      0.06779661	      0.02352167	      0.02951564	      0.06297014
      0.08474576	      0.02333325	      0.02939718	      0.06359360
      0.10169492	      0.02302353	      0.02920142	      0.06397383
      0.11864407	      0.02263005	      0.02895082	      0.06393125
      0.13559322	      0.02224360	      0.02870256	      0.06358645
      0.15254237	      0.02189042	      0.02847378	      0.06345939
      0.16949153	      0.02150404	      0.02822137	      0.06246329
      0.18644068	      0.02099057	      0.02788240	      0.06131740
      0.20338983	      0.02022619	      0.02737003	      0.05847133
      0.22033898	      0.01940538	      0.02680891	      0.05558537
      0.23728814	      0.01852136	      0.02619115	      0.05222517
      0.25423729	      0.01750637	      0.02546339	      0.04961398
      0.27118644	      0.01671914	      0.02488428	      0.04824912
      0.28813559	      0.01607207	      0.02439799	      0.04840058
      0.30508475	      0.01610332	      0.02442169	      0.05116368
      0.32203390	      0.01708635	      0.02515606	      0.05621228
      0.33898305	      0.01892457	      0.02647470	      0.06215083
      0.35593220	      0.02106587	      0.02793237	      0.06837877
      0.37288136	      0.02257450	      0.02891526	      0.07335930
      0.38983051	      0.02286297	      0.02909943	      0.07687351
      0.40677966	      0.02178945	      0.02840804	      0.07697495
      0.42372881	      0.01989401	      0.02714434	      0.07319687
      0.44067797	      0.01806220	      0.02586446	      0.06669576
      0.45762712	      0.01680719	      0.02494972	      0.05914425
      0.47457627	      0.01619259	      0.02448929	      0.05161418
      0.49152542	      0.01585467	      0.02423242	      0.04533307
      0.50847458	      0.01564576	      0.02407224	      0.04115409
      0.52542373	      0.01545489	      0.02392495	      0.04032466
      0.54237288	      0.01511459	      0.02366008	      0.03801837
      0.55932203	      0.01465036	      0.02329391	      0.03889006
      0.57627119	      0.01408538	      0.02284033	      0.03971983
      0.59322034	      0.01355401	      0.02240536	      0.04069844
      0.61016949	      0.01331613	      0.02220788	      0.04214920
      0.62711864	      0.01339408	      0.02227279	      0.04502324
      0.64406780	      0.01376213	      0.02257672	      0.04858773
      0.66101695	      0.01430645	      0.02301887	      0.05279767
      0.67796610	      0.01471922	      0.02334858	      0.05523221
      0.69491525	      0.01489503	      0.02348761	      0.05482199
      0.71186441	      0.01493754	      0.02352110	      0.05064578
      0.72881356	      0.01471270	      0.02334341	      0.04370146
      0.74576271	      0.01449268	      0.02316821	      0.04338715
      0.76271186	      0.01483403	      0.02343946	      0.04355801
      0.77966102	      0.01528780	      0.02379527	      0.04433034
      0.79661017	      0.01524580	      0.02376256	      0.04440532
      0.81355932	      0.01524810	      0.02376435	      0.05029377
      0.83050847	      0.01600366	      0.02434601	      0.05871174
      0.84745763	      0.01704975	      0.02512911	      0.06566060
      0.86440678	      0.01761762	      0.02554417	      0.06769400
      0.88135593	      0.01815960	      0.02593410	      0.06735785
      0.89830508	      0.01924787	      0.02669989	      0.06776993
      0.91525424	      0.02007445	      0.02726717	      0.06669172
      0.93220339	      0.01921089	      0.02667423	      0.05870054
      0.94915254	      0.01674337	      0.02490231	      0.04259124
      0.96610169	      0.01434388	      0.02304896	      0.04146611
      0.98305085	      0.01293437	      0.02188723	      0.04060322
      1.00000000	      0.01216076	      0.02122260	      0.03958311
      1.01694915	      0.01164426	      0.02076701	      0.03779972
      1.03389831	      0.01143382	      0.02057850	      0.03565587
      1.05084746	      0.01153717	      0.02067130	      0.03576051
      1.06779661	      0.01185593	      0.02095492	      0.03944315
      1.08474576	      0.01245678	      0.02147935	      0.04311268
      1.10169492	      0.01337554	      0.02225737	      0.04648277
      1.11864407	      0.01440256	      0.02309607	      0.04911993
      1.13559322	      0.01526841	      0.02378017	      0.05074267
      1.15254237	      0.01598924	      0.02433503	      0.05100076
      1.16949153	      0.01682103	      0.02495999	      0.04995085
      1.18644068	      0.01790633	      0.02575262	      0.05926389
      1.20338983	      0.01888541	      0.02644730	      0.06797035
      1.22033898	      0.01914794	      0.02663049	      0.07090502
      1.23728814	      0.01831438	      0.02604439	      0.06770577
      1.25423729	      0.01661159	      0.02480411	      0.06003171
      1.27118644	      0.01492559	      0.02351169	      0.05012623
      1.28813559	      0.01378734	      0.02259739	      0.03987020
      1.30508475	      0.01318701	      0.02209995	      0.04065930
      1.32203390	      0.01295946	      0.02190845	      0.04081965
      1.33898305	      0.01317563	      0.02209041	      0.03985336
      1.35593220	      0.01383981	      0.02264035	      0.04072617
      1.37288136	      0.01478748	      0.02340266	      0.04513308
      1.38983051	      0.01555989	      0.02400609	      0.04836332
      1.40677966	      0.01616172	      0.02446594	      0.05075852
      1.42372881	      0.01656056	      0.02476599	      0.05363151
      1.44067797	      0.01695365	      0.02505819	      0.05848985
      1.45762712	      0.01760220	      0.02553298	      0.06567454
      1.47457627	      0.01873828	      0.02634408	      0.07368681
      1.49152542	      0.02043653	      0.02751197	      0.08048435
      1.50847458	      0.02264412	      0.02895982	      0.08489046
      1.52542373	      0.02535391	      0.03064366	      0.08649152
      1.54237288	      0.02829637	      0.03237304	      0.08446863
      1.55932203	      0.03081484	      0.03378299	      0.07989227
      1.57627119	      0.03187029	      0.03435667	      0.08754595
      1.59322034	      0.03117462	      0.03397964	      0.09060075
      1.61016949	      0.02915973	      0.03286320	      0.08561495
      1.62711864	      0.02643001	      0.03128721	      0.07530438
      1.64406780	      0.02391625	      0.02976217	      0.06429293
      1.66101695	      0.02224343	      0.02870245	      0.05621945
      1.67796610	      0.02109257	      0.02795007	      0.05147658
      1.69491525	      0.02011732	      0.02729626	      0.04902657
      1.71186441	      0.01938286	      0.02679335	      0.04822179
      1.72881356	      0.01914907	      0.02663128	      0.04788637
      1.74576271	      0.01921571	      0.02667757	      0.04751343
      1.76271186	      0.01944094	      0.02683346	      0.04906360
      1.77966102	      0.01994214	      0.02717715	      0.05110164
      1.79661017	      0.02084211	      0.02778363	      0.05412658
      1.81355932	      0.02213369	      0.02863156	      0.05690113
      1.83050847	      0.02376174	      0.02966588	      0.05947958
      1.84745763	      0.02541791	      0.03068231	      0.06083535
      1.86440678	      0.02706216	      0.03165916	      0.06205505
      1.88135593	      0.02879375	      0.03265632	      0.06444354
      1.89830508	      0.03076512	      0.03375572	      0.06848474
      1.91525424	      0.03293433	      0.03492549	      0.07306171
      1.93220339	      0.03506227	      0.03603613	      0.07748721
      1.94915254	      0.03699963	      0.03701833	      0.07908212
      1.96610169	      0.03903923	      0.03802496	      0.07796142
      1.98305085	      0.03945051	      0.03822473	      0.06722043
      2.00000000	      0.04255968	      0.03970245	      0.07035070
      2.01694915	      0.04593290	      0.04124583	      0.07884330
      2.03389831	      0.04984491	      0.04296636	      0.08683260
      2.05084746	      0.05217499	      0.04395915	      0.09319874
      2.06779661	      0.05796504	      0.04633415	      0.09804563
      2.08474576	      0.06384259	      0.04862654	      0.10114684
      2.10169492	      0.06848389	      0.05036308	      0.10294279
      2.11864407	      0.07131562	      0.05139377	      0.10383233
      2.13559322	      0.07224655	      0.05172812	      0.10519947
      2.15254237	      0.07165121	      0.05151455	      0.10734230
      2.16949153	      0.07010916	      0.05095719	      0.10946791
      2.18644068	      0.06815909	      0.05024351	      0.11030383
      2.20338983	      0.06603893	      0.04945590	      0.11033562
      2.22033898	      0.06405721	      0.04870820	      0.10911174
      2.23728814	      0.06215610	      0.04797997	      0.10676580
      2.25423729	      0.06019053	      0.04721524	      0.10333733
      2.27118644	      0.05806691	      0.04637485	      0.09901921
      2.28813559	      0.05570967	      0.04542379	      0.09498371
      2.30508475	      0.05352842	      0.04452566	      0.09151428
      2.32203390	      0.05174725	      0.04377859	      0.08853381
      2.33898305	      0.05046824	      0.04323418	      0.08733783
      2.35593220	      0.04921523	      0.04269410	      0.08639993
      2.37288136	      0.04774604	      0.04205202	      0.08606291
      2.38983051	      0.04614347	      0.04134027	      0.08444757
      2.40677966	      0.04466175	      0.04067110	      0.08097064
      2.42372881	      0.04383487	      0.04029285	      0.07751690
      2.44067797	      0.04394439	      0.04034315	      0.07558616
      2.45762712	      0.04449429	      0.04059479	      0.07456967
      2.47457627	      0.04452917	      0.04061070	      0.07505345
      2.49152542	      0.04341795	      0.04010077	      0.07624889
      2.50847458	      0.04131459	      0.03911739	      0.07731944
      2.52542373	      0.03942667	      0.03821318	      0.07553236
      2.54237288	      0.03633739	      0.03668554	      0.07200395
      2.55932203	      0.03379527	      0.03537904	      0.06749685
      2.57627119	      0.03242029	      0.03465186	      0.06414934
      2.59322034	      0.03248870	      0.03468840	      0.06284330
      2.61016949	      0.03350528	      0.03522693	      0.06162666
      2.62711864	      0.03463272	      0.03581471	      0.06198335
      2.64406780	      0.03521688	      0.03611549	      0.06211101
      2.66101695	      0.03511939	      0.03606547	      0.06215405
      2.67796610	      0.03469701	      0.03584794	      0.06162106
      2.69491525	      0.03409692	      0.03553658	      0.06082216
      2.71186441	      0.03341650	      0.03518022	      0.05956238
      2.72881356	      0.03283677	      0.03487373	      0.06072945
