Model Marker Errors from IK
version=1
nRows=282
nColumns=4
inDegrees=no
endheader
time	total_squared_error	marker_error_RMS	marker_error_max
      0.00000000	      0.02214129	      0.02863648	      0.05162646
      0.01694915	      0.02157894	      0.02827048	      0.04937457
      0.03389831	      0.02097484	      0.02787196	      0.04801040
      0.05084746	      0.02022217	      0.02736730	      0.04697049
      0.06779661	      0.01945999	      0.02684661	      0.04629506
      0.08474576	      0.01877279	      0.02636833	      0.04594048
      0.10169492	      0.01833825	      0.02606136	      0.04573685
      0.11864407	      0.01811226	      0.02590028	      0.04557164
      0.13559322	      0.01812466	      0.02590915	      0.04538451
      0.15254237	      0.01825838	      0.02600454	      0.04499462
      0.16949153	      0.01839131	      0.02609903	      0.04453203
      0.18644068	      0.01835888	      0.02607602	      0.04480223
      0.20338983	      0.01801906	      0.02583355	      0.04450685
      0.22033898	      0.01748577	      0.02544840	      0.04413585
      0.23728814	      0.01696897	      0.02506951	      0.04323281
      0.25423729	      0.01665923	      0.02483966	      0.04186347
      0.27118644	      0.01652412	      0.02473873	      0.04111680
      0.28813559	      0.01658859	      0.02478693	      0.04088363
      0.30508475	      0.01664775	      0.02483110	      0.04109123
      0.32203390	      0.01678649	      0.02493435	      0.04132552
      0.33898305	      0.01684979	      0.02498132	      0.04151537
      0.35593220	      0.01681585	      0.02495615	      0.04182223
      0.37288136	      0.01667853	      0.02485404	      0.04233498
      0.38983051	      0.01648262	      0.02470764	      0.04270836
      0.40677966	      0.01624159	      0.02452632	      0.04309695
      0.42372881	      0.01610534	      0.02442323	      0.04356326
      0.44067797	      0.01608004	      0.02440403	      0.04392876
      0.45762712	      0.01620175	      0.02449622	      0.04443564
      0.47457627	      0.01647497	      0.02470191	      0.04494966
      0.49152542	      0.01677012	      0.02492219	      0.04563006
      0.50847458	      0.01711577	      0.02517771	      0.04574666
      0.52542373	      0.01743604	      0.02541219	      0.04579008
      0.54237288	      0.01760662	      0.02553619	      0.04507590
      0.55932203	      0.01763313	      0.02555541	      0.04396907
      0.57627119	      0.01759292	      0.02552626	      0.04301830
      0.59322034	      0.01755767	      0.02550067	      0.04249606
      0.61016949	      0.01755092	      0.02549577	      0.04232834
      0.62711864	      0.01761194	      0.02554005	      0.04233895
      0.64406780	      0.01773170	      0.02562673	      0.04218516
      0.66101695	      0.01791993	      0.02576240	      0.04225695
      0.67796610	      0.01819296	      0.02595791	      0.04422724
      0.69491525	      0.01852418	      0.02619314	      0.04597422
      0.71186441	      0.01886027	      0.02642969	      0.04774007
      0.72881356	      0.01912462	      0.02661427	      0.04889210
      0.74576271	      0.01931019	      0.02674308	      0.04942523
      0.76271186	      0.01939149	      0.02679931	      0.04934582
      0.77966102	      0.01946163	      0.02684774	      0.04914531
      0.79661017	      0.01960050	      0.02694336	      0.04897906
      0.81355932	      0.01988178	      0.02713599	      0.04945123
      0.83050847	      0.02035769	      0.02745885	      0.05054500
      0.84745763	      0.02105316	      0.02792394	      0.05222901
      0.86440678	      0.02192768	      0.02849800	      0.05424094
      0.88135593	      0.02298338	      0.02917596	      0.05671157
      0.89830508	      0.02413294	      0.02989670	      0.05918842
      0.91525424	      0.02523630	      0.03057250	      0.06182185
      0.93220339	      0.02594573	      0.03099924	      0.06403226
      0.94915254	      0.02607287	      0.03107510	      0.06535364
      0.96610169	      0.02572762	      0.03086867	      0.06544504
      0.98305085	      0.02515804	      0.03052506	      0.06395071
      1.00000000	      0.02446692	      0.03010286	      0.06087105
      1.01694915	      0.02362418	      0.02957988	      0.05887674
      1.03389831	      0.02271980	      0.02900817	      0.05813186
      1.05084746	      0.02212820	      0.02862801	      0.05772520
      1.06779661	      0.02206199	      0.02858515	      0.05734387
      1.08474576	      0.02249082	      0.02886163	      0.05685040
      1.10169492	      0.02322248	      0.02932733	      0.05635951
      1.11864407	      0.02425411	      0.02997166	      0.05627500
      1.13559322	      0.02533887	      0.03063457	      0.06165193
      1.15254237	      0.02617714	      0.03113718	      0.06643986
      1.16949153	      0.02667262	      0.03143048	      0.06946119
      1.18644068	      0.02686429	      0.03154320	      0.07133238
      1.20338983	      0.02711067	      0.03168752	      0.07316133
      1.22033898	      0.02765859	      0.03200613	      0.07510703
      1.23728814	      0.02859416	      0.03254294	      0.07812610
      1.25423729	      0.02984955	      0.03324964	      0.08192939
      1.27118644	      0.03107835	      0.03392713	      0.08595207
      1.28813559	      0.03202554	      0.03444026	      0.08851342
      1.30508475	      0.03279287	      0.03485041	      0.09066602
      1.32203390	      0.03326811	      0.03510203	      0.09073409
      1.33898305	      0.03366590	      0.03531126	      0.09063619
      1.35593220	      0.03368294	      0.03532020	      0.09004628
      1.37288136	      0.03295572	      0.03493683	      0.08874024
      1.38983051	      0.03180375	      0.03432079	      0.08437960
      1.40677966	      0.03064231	      0.03368828	      0.08260544
      1.42372881	      0.02975627	      0.03319765	      0.08155489
      1.44067797	      0.02933406	      0.03296129	      0.08082210
      1.45762712	      0.02938608	      0.03299050	      0.07986840
      1.47457627	      0.02984010	      0.03324438	      0.07929686
      1.49152542	      0.03051317	      0.03361722	      0.07916410
      1.50847458	      0.03111890	      0.03394925	      0.07955703
      1.52542373	      0.03156450	      0.03419145	      0.08018435
      1.54237288	      0.03195273	      0.03440108	      0.08179471
      1.55932203	      0.03240448	      0.03464341	      0.08391599
      1.57627119	      0.03284977	      0.03488063	      0.08565789
      1.59322034	      0.03328117	      0.03510892	      0.08787106
      1.61016949	      0.03385770	      0.03541171	      0.08875889
      1.62711864	      0.03447641	      0.03573379	      0.09089678
      1.64406780	      0.03511602	      0.03606374	      0.09229035
      1.66101695	      0.03571577	      0.03637040	      0.09273366
      1.67796610	      0.03609425	      0.03656261	      0.09491705
      1.69491525	      0.03517581	      0.03609443	      0.08976157
      1.71186441	      0.03505720	      0.03603352	      0.08995983
      1.72881356	      0.03481619	      0.03590945	      0.09024437
      1.74576271	      0.03418202	      0.03558090	      0.09042608
      1.76271186	      0.03395782	      0.03546402	      0.09116720
      1.77966102	      0.03376370	      0.03536251	      0.09194463
      1.79661017	      0.03391167	      0.03543992	      0.09264194
      1.81355932	      0.03431779	      0.03565150	      0.09450363
      1.83050847	      0.03485931	      0.03593168	      0.09465586
      1.84745763	      0.03521350	      0.03611376	      0.09478289
      1.86440678	      0.03535955	      0.03618858	      0.09399774
      1.88135593	      0.03546804	      0.03624405	      0.09405860
      1.89830508	      0.03567116	      0.03634768	      0.09394970
      1.91525424	      0.03609082	      0.03656087	      0.09373800
      1.93220339	      0.03675812	      0.03689732	      0.09336842
      1.94915254	      0.03743149	      0.03723374	      0.09334737
      1.96610169	      0.03809926	      0.03756439	      0.09399686
      1.98305085	      0.03851782	      0.03777017	      0.09409987
      2.00000000	      0.03881593	      0.03791605	      0.09480400
      2.01694915	      0.03894124	      0.03797721	      0.09487914
      2.03389831	      0.03892685	      0.03797019	      0.09604390
      2.05084746	      0.03882199	      0.03791901	      0.09594847
      2.06779661	      0.03856691	      0.03779423	      0.09642559
      2.08474576	      0.03825182	      0.03763953	      0.09564204
      2.10169492	      0.03803219	      0.03753132	      0.09446471
      2.11864407	      0.03803933	      0.03753484	      0.09364746
      2.13559322	      0.03822960	      0.03762859	      0.09217656
      2.15254237	      0.03854835	      0.03778514	      0.09157958
      2.16949153	      0.03873661	      0.03787729	      0.09014162
      2.18644068	      0.03895468	      0.03798376	      0.08993355
      2.20338983	      0.03900509	      0.03800833	      0.08979895
      2.22033898	      0.03902637	      0.03801869	      0.09098195
      2.23728814	      0.03888973	      0.03795208	      0.09169953
      2.25423729	      0.03864500	      0.03783248	      0.09146829
      2.27118644	      0.03838666	      0.03770581	      0.09089675
      2.28813559	      0.03814815	      0.03758849	      0.08983563
      2.30508475	      0.03788337	      0.03745781	      0.08862173
      2.32203390	      0.03748465	      0.03726017	      0.08920341
      2.33898305	      0.03700985	      0.03702344	      0.08991579
      2.35593220	      0.03648734	      0.03676116	      0.08988053
      2.37288136	      0.03583818	      0.03643268	      0.08877091
      2.38983051	      0.03534422	      0.03618073	      0.08792287
      2.40677966	      0.03489494	      0.03595004	      0.08659959
      2.42372881	      0.03463662	      0.03581673	      0.08522341
      2.44067797	      0.03449766	      0.03574481	      0.08409845
      2.45762712	      0.03452874	      0.03576090	      0.08301898
      2.47457627	      0.03463321	      0.03581496	      0.08209770
      2.49152542	      0.03468242	      0.03584040	      0.08151380
      2.50847458	      0.03469807	      0.03584848	      0.08112950
      2.52542373	      0.03470715	      0.03585317	      0.08128075
      2.54237288	      0.03473502	      0.03586757	      0.08126094
      2.55932203	      0.03488230	      0.03594353	      0.08219027
      2.57627119	      0.03531422	      0.03616537	      0.08255973
      2.59322034	      0.03614276	      0.03658717	      0.08285886
      2.61016949	      0.03733500	      0.03718572	      0.08267235
      2.62711864	      0.03872735	      0.03787277	      0.08334216
      2.64406780	      0.04000855	      0.03849413	      0.08309234
      2.66101695	      0.04099831	      0.03896737	      0.08396021
      2.67796610	      0.04155040	      0.03922886	      0.08427619
      2.69491525	      0.04172830	      0.03931275	      0.08474891
      2.71186441	      0.04157462	      0.03924029	      0.08493781
      2.72881356	      0.04105846	      0.03899594	      0.08521535
      2.74576271	      0.04037336	      0.03866924	      0.08524415
      2.76271186	      0.03959217	      0.03829330	      0.08481603
      2.77966102	      0.03888809	      0.03795128	      0.08367321
      2.79661017	      0.03825191	      0.03763957	      0.08258758
      2.81355932	      0.03767467	      0.03735450	      0.08165937
      2.83050847	      0.03720330	      0.03712008	      0.08153925
      2.84745763	      0.03689191	      0.03696440	      0.08173568
      2.86440678	      0.03682026	      0.03692849	      0.08194822
      2.88135593	      0.03603743	      0.03653381	      0.08144285
      2.89830508	      0.03593392	      0.03648131	      0.08207772
      2.91525424	      0.03580028	      0.03641341	      0.08264700
      2.93220339	      0.03559538	      0.03630905	      0.08311044
      2.94915254	      0.03537189	      0.03619489	      0.08329198
      2.96610169	      0.03524511	      0.03612997	      0.08338214
      2.98305085	      0.03525437	      0.03613471	      0.08398497
      3.00000000	      0.03321039	      0.03507156	      0.07652836
      3.01694915	      0.03294987	      0.03493373	      0.07530838
      3.03389831	      0.03296656	      0.03494258	      0.07465741
      3.05084746	      0.03320820	      0.03507041	      0.07423092
      3.06779661	      0.03356482	      0.03525821	      0.07424664
      3.08474576	      0.03401568	      0.03549423	      0.07483216
      3.10169492	      0.03467289	      0.03583547	      0.07507947
      3.11864407	      0.03540115	      0.03620986	      0.07604351
      3.13559322	      0.03583590	      0.03643152	      0.07654310
      3.15254237	      0.03509233	      0.03605157	      0.07961247
      3.16949153	      0.03478643	      0.03589410	      0.07872364
      3.18644068	      0.03431992	      0.03565261	      0.07692598
      3.20338983	      0.03394875	      0.03545929	      0.07323357
      3.22033898	      0.03337509	      0.03515842	      0.06927659
      3.23728814	      0.03272111	      0.03481225	      0.06651902
      3.25423729	      0.03226579	      0.03456920	      0.06308070
      3.27118644	      0.03230575	      0.03459060	      0.05945325
      3.28813559	      0.03321537	      0.03507419	      0.05631168
      3.30508475	      0.03476822	      0.03588470	      0.06449627
      3.32203390	      0.03666882	      0.03685247	      0.07541055
      3.33898305	      0.03848553	      0.03775434	      0.08445995
      3.35593220	      0.03995855	      0.03847007	      0.09095895
      3.37288136	      0.04076973	      0.03885859	      0.09486829
      3.38983051	      0.04099646	      0.03896649	      0.09597615
      3.40677966	      0.04073787	      0.03884340	      0.09475639
      3.42372881	      0.04033095	      0.03864892	      0.09192784
      3.44067797	      0.03984593	      0.03841582	      0.08793098
      3.45762712	      0.03929174	      0.03814774	      0.08322476
      3.47457627	      0.03863056	      0.03782541	      0.07816163
      3.49152542	      0.03782081	      0.03742687	      0.07311278
      3.50847458	      0.03690421	      0.03697056	      0.06839875
      3.52542373	      0.03592287	      0.03647570	      0.06446533
      3.54237288	      0.03500377	      0.03600605	      0.06220195
      3.55932203	      0.03414033	      0.03555920	      0.06139552
      3.57627119	      0.03355795	      0.03525460	      0.06134450
      3.59322034	      0.03348533	      0.03521643	      0.06194579
      3.61016949	      0.03395828	      0.03546427	      0.06284968
      3.62711864	      0.03472098	      0.03586031	      0.06393317
      3.64406780	      0.03538985	      0.03620407	      0.06500604
      3.66101695	      0.03565468	      0.03633929	      0.06554373
      3.67796610	      0.03534716	      0.03618223	      0.06525981
      3.69491525	      0.03457370	      0.03578418	      0.06392920
      3.71186441	      0.03336071	      0.03515084	      0.06286546
      3.72881356	      0.03211758	      0.03448971	      0.06192544
      3.74576271	      0.03152328	      0.03416912	      0.06157137
      3.76271186	      0.03189695	      0.03437104	      0.06102224
      3.77966102	      0.03311229	      0.03501973	      0.06086009
      3.79661017	      0.03460872	      0.03580230	      0.06366415
      3.81355932	      0.03576407	      0.03639499	      0.06948341
      3.83050847	      0.03611341	      0.03657231	      0.07498958
      3.84745763	      0.03567284	      0.03634854	      0.07749766
      3.86440678	      0.03474745	      0.03587398	      0.07555217
      3.88135593	      0.03342219	      0.03518322	      0.07086212
      3.89830508	      0.03196320	      0.03440672	      0.06439791
      3.91525424	      0.03084102	      0.03379734	      0.06185316
      3.93220339	      0.03054783	      0.03363630	      0.06174211
      3.94915254	      0.03116492	      0.03397435	      0.06175645
      3.96610169	      0.03244378	      0.03466441	      0.06203473
      3.98305085	      0.03383675	      0.03540075	      0.06510083
      4.00000000	      0.03459474	      0.03579507	      0.07388437
      4.01694915	      0.03429892	      0.03564169	      0.07935995
      4.03389831	      0.03335368	      0.03514714	      0.08172740
      4.05084746	      0.03247286	      0.03467994	      0.08182475
      4.06779661	      0.03191012	      0.03437814	      0.08016203
      4.08474576	      0.03144855	      0.03412860	      0.07659342
      4.10169492	      0.03097773	      0.03387216	      0.07140494
      4.11864407	      0.03074283	      0.03374349	      0.06557854
      4.13559322	      0.03103225	      0.03390196	      0.06118949
      4.15254237	      0.03190071	      0.03437307	      0.06506108
      4.16949153	      0.03318957	      0.03506057	      0.07342013
      4.18644068	      0.03445908	      0.03572481	      0.07975108
      4.20338983	      0.03498006	      0.03599386	      0.08175488
      4.22033898	      0.03424008	      0.03561111	      0.07807438
      4.23728814	      0.03240288	      0.03464256	      0.06938525
      4.25423729	      0.03002932	      0.03334962	      0.06152554
      4.27118644	      0.02814869	      0.03228845	      0.06133808
      4.28813559	      0.02695299	      0.03159524	      0.06162012
      4.30508475	      0.02636940	      0.03125131	      0.06257737
      4.32203390	      0.02627668	      0.03119632	      0.06305092
      4.33898305	      0.02677690	      0.03149185	      0.06258636
      4.35593220	      0.02763433	      0.03199209	      0.06130639
      4.37288136	      0.02834157	      0.03239889	      0.06581454
      4.38983051	      0.02824956	      0.03234625	      0.06829306
      4.40677966	      0.02720855	      0.03174467	      0.06718042
      4.42372881	      0.02580738	      0.03091648	      0.06361244
      4.44067797	      0.02466842	      0.03022656	      0.06342013
      4.45762712	      0.02398931	      0.02980760	      0.06741012
      4.47457627	      0.02367090	      0.02960912	      0.07064250
      4.49152542	      0.02355772	      0.02953825	      0.07239868
      4.50847458	      0.02346101	      0.02947756	      0.07223212
      4.52542373	      0.02317806	      0.02929926	      0.06993100
      4.54237288	      0.02263418	      0.02895346	      0.06551984
      4.55932203	      0.02200400	      0.02854756	      0.05978828
      4.57627119	      0.02163861	      0.02830954	      0.05404630
      4.59322034	      0.02159395	      0.02828031	      0.04927079
      4.61016949	      0.02178039	      0.02840213	      0.04647833
      4.62711864	      0.02198708	      0.02853658	      0.04766468
      4.64406780	      0.02197492	      0.02852869	      0.04876334
      4.66101695	      0.02169061	      0.02834353	      0.04906568
      4.67796610	      0.02133892	      0.02811282	      0.04898640
      4.69491525	      0.02111453	      0.02796461	      0.04880707
      4.71186441	      0.02103735	      0.02791346	      0.04867301
      4.72881356	      0.02107279	      0.02793696	      0.04856447
      4.74576271	      0.02124908	      0.02805357	      0.04899263
      4.76271186	      0.02171752	      0.02836111	      0.04821447
