Model Marker Errors from IK
version=1
nRows=546
nColumns=4
inDegrees=no
endheader
time	total_squared_error	marker_error_RMS	marker_error_max
      0.00000000	      0.01338724	      0.02226710	      0.03927879
      0.01851852	      0.01310393	      0.02203022	      0.03743499
      0.03703704	      0.01304961	      0.02198452	      0.03629196
      0.05555556	      0.01302165	      0.02196095	      0.03474666
      0.07407407	      0.01299061	      0.02193476	      0.03524138
      0.09259259	      0.01296577	      0.02191378	      0.03548891
      0.11111111	      0.01303130	      0.02196908	      0.03587116
      0.12962963	      0.01300268	      0.02194495	      0.03588888
      0.14814815	      0.01299241	      0.02193628	      0.03586965
      0.16666667	      0.01291960	      0.02187472	      0.03546041
      0.18518519	      0.01278513	      0.02176059	      0.03474324
      0.20370370	      0.01265198	      0.02164698	      0.03470734
      0.22222222	      0.01255321	      0.02156232	      0.03515424
      0.24074074	      0.01250428	      0.02152026	      0.03620127
      0.25925926	      0.01235824	      0.02139422	      0.03663078
      0.27777778	      0.01223302	      0.02128556	      0.03653723
      0.29629630	      0.01216835	      0.02122922	      0.03626898
      0.31481481	      0.01227020	      0.02131788	      0.03525993
      0.33333333	      0.01248732	      0.02150565	      0.03475372
      0.35185185	      0.01266293	      0.02165634	      0.03490115
      0.37037037	      0.01295106	      0.02190134	      0.03584337
      0.38888889	      0.01332887	      0.02221850	      0.03854181
      0.40740741	      0.01373786	      0.02255681	      0.04094928
      0.42592593	      0.01414833	      0.02289131	      0.04389548
      0.44444444	      0.01473266	      0.02335924	      0.04746293
      0.46296296	      0.01583711	      0.02421899	      0.05182093
      0.48148148	      0.01740187	      0.02538727	      0.05674787
      0.50000000	      0.01899162	      0.02652157	      0.06088353
      0.51851852	      0.02005603	      0.02725465	      0.06272889
      0.53703704	      0.02025269	      0.02738795	      0.06314028
      0.55555556	      0.01975613	      0.02705011	      0.06252059
      0.57407407	      0.01920151	      0.02666771	      0.06201670
      0.59259259	      0.01897717	      0.02651147	      0.06164261
      0.61111111	      0.01916407	      0.02664170	      0.06059246
      0.62962963	      0.01953414	      0.02689771	      0.05972610
      0.64814815	      0.02000951	      0.02722302	      0.05792577
      0.66666667	      0.02063478	      0.02764509	      0.05587313
      0.68518519	      0.02139744	      0.02815134	      0.05326067
      0.70370370	      0.02213419	      0.02863188	      0.05511421
      0.72222222	      0.02203917	      0.02857036	      0.05041979
      0.74074074	      0.02244087	      0.02882956	      0.05085696
      0.75925926	      0.02280684	      0.02906369	      0.05358835
      0.77777778	      0.02293460	      0.02914497	      0.05571345
      0.79629630	      0.02285642	      0.02909526	      0.05721033
      0.81481481	      0.02274372	      0.02902344	      0.05731704
      0.83333333	      0.02225863	      0.02871226	      0.05564863
      0.85185185	      0.02082165	      0.02776999	      0.05206490
      0.87037037	      0.01890195	      0.02645888	      0.05247964
      0.88888889	      0.01701134	      0.02510079	      0.05285758
      0.90740741	      0.01561069	      0.02404524	      0.05006801
      0.92592593	      0.01454195	      0.02320756	      0.04556007
      0.94444444	      0.01565734	      0.02408114	      0.05072111
      0.96296296	      0.01975302	      0.02704798	      0.06645533
      0.98148148	      0.02682375	      0.03151939	      0.08257426
      1.00000000	      0.03619008	      0.03661111	      0.09522950
      1.01851852	      0.04578654	      0.04118006	      0.10267662
      1.03703704	      0.05711852	      0.04599457	      0.10636553
      1.05555556	      0.06994789	      0.05089855	      0.10674890
      1.07407407	      0.08367134	      0.05566811	      0.12166188
      1.09259259	      0.09795210	      0.06023168	      0.14579658
      1.11111111	      0.11291552	      0.06466882	      0.16558517
      1.12962963	      0.12816902	      0.06889848	      0.18106556
      1.14814815	      0.14283095	      0.07273263	      0.19332769
      1.16666667	      0.15670090	      0.07618226	      0.20380148
      1.18518519	      0.17000564	      0.07935052	      0.21280027
      1.20370370	      0.18278516	      0.08227892	      0.22040563
      1.22222222	      0.19459849	      0.08489612	      0.22649113
      1.24074074	      0.20498717	      0.08713276	      0.23062149
      1.25925926	      0.21376622	      0.08897903	      0.23285008
      1.27777778	      0.22146465	      0.09056707	      0.23379710
      1.29629630	      0.22972480	      0.09224059	      0.23469550
      1.31481481	      0.23950742	      0.09418410	      0.23591835
      1.33333333	      0.25143996	      0.09650177	      0.23777576
      1.35185185	      0.26368818	      0.09882423	      0.23977078
      1.37037037	      0.27358306	      0.10066134	      0.24065654
      1.38888889	      0.27807394	      0.10148416	      0.24044924
      1.40740741	      0.27574043	      0.10105745	      0.23815376
      1.42592593	      0.26773494	      0.09957966	      0.23478050
      1.44444444	      0.25743768	      0.09764594	      0.23144701
      1.46296296	      0.24850591	      0.09593708	      0.22902520
      1.48148148	      0.24315948	      0.09489946	      0.22837548
      1.50000000	      0.24202595	      0.09467800	      0.22900064
      1.51851852	      0.24435674	      0.09513280	      0.22982296
      1.53703704	      0.24891479	      0.09601597	      0.22972010
      1.55555556	      0.25440796	      0.09706965	      0.22845156
      1.57407407	      0.26023727	      0.09817544	      0.22859086
      1.59259259	      0.26587683	      0.09923351	      0.23387082
      1.61111111	      0.27033091	      0.10006126	      0.23746721
      1.62962963	      0.27223041	      0.10041219	      0.23808454
      1.64814815	      0.27073748	      0.10013648	      0.23540103
      1.66666667	      0.26634742	      0.09932129	      0.23023343
      1.68518519	      0.26071398	      0.09826532	      0.22702065
      1.70370370	      0.25517106	      0.09721512	      0.22547346
      1.72222222	      0.25000710	      0.09622641	      0.22489899
      1.74074074	      0.24507153	      0.09527184	      0.22545482
      1.75925926	      0.24031388	      0.09434254	      0.22610132
      1.77777778	      0.23627948	      0.09354727	      0.22694338
      1.79629630	      0.23328287	      0.09295217	      0.22765975
      1.81481481	      0.23116306	      0.09252889	      0.22842137
      1.83333333	      0.22976761	      0.09224918	      0.22841340
      1.85185185	      0.22905706	      0.09210643	      0.22729158
      1.87037037	      0.22879111	      0.09205295	      0.22476254
      1.88888889	      0.22834512	      0.09196318	      0.22135481
      1.90740741	      0.22755829	      0.09180460	      0.21909825
      1.92592593	      0.22591608	      0.09147274	      0.21594173
      1.94444444	      0.22421058	      0.09112681	      0.21377982
      1.96296296	      0.22296419	      0.09087317	      0.21363379
      1.98148148	      0.22286705	      0.09085337	      0.21528983
      2.00000000	      0.22426134	      0.09113712	      0.21892398
      2.01851852	      0.22736384	      0.09176537	      0.22400756
      2.03703704	      0.23108138	      0.09251254	      0.22983490
      2.05555556	      0.23364129	      0.09302355	      0.23341360
      2.07407407	      0.23343473	      0.09298242	      0.23294746
      2.09259259	      0.23056121	      0.09240835	      0.22923527
      2.11111111	      0.22606056	      0.09150199	      0.22441004
      2.12962963	      0.22129682	      0.09053275	      0.22072010
      2.14814815	      0.21714419	      0.08967930	      0.21904302
      2.16666667	      0.21378856	      0.08898368	      0.21880465
      2.18518519	      0.21066270	      0.08833075	      0.21909662
      2.20370370	      0.20708469	      0.08757741	      0.21866762
      2.22222222	      0.20292515	      0.08669340	      0.21677428
      2.24074074	      0.19874450	      0.08579573	      0.21296849
      2.25925926	      0.19508374	      0.08500190	      0.20731622
      2.27777778	      0.19195967	      0.08431855	      0.20603042
      2.29629630	      0.18916846	      0.08370328	      0.20541871
      2.31481481	      0.18699671	      0.08322142	      0.20413376
      2.33333333	      0.18555991	      0.08290108	      0.20333441
      2.35185185	      0.18419934	      0.08259660	      0.20536226
      2.37037037	      0.18169701	      0.08203364	      0.20478279
      2.38888889	      0.17758370	      0.08109978	      0.20613915
      2.40740741	      0.17228840	      0.07988149	      0.20739271
      2.42592593	      0.16667721	      0.07856990	      0.20691095
      2.44444444	      0.16121703	      0.07727225	      0.20452201
      2.46296296	      0.15593722	      0.07599640	      0.20138973
      2.48148148	      0.15064781	      0.07469638	      0.19882776
      2.50000000	      0.14517057	      0.07332590	      0.19741573
      2.51851852	      0.13895505	      0.07173899	      0.19665667
      2.53703704	      0.13111376	      0.06968547	      0.19561279
      2.55555556	      0.12152313	      0.06708842	      0.19388277
      2.57407407	      0.11117851	      0.06416948	      0.19138358
      2.59259259	      0.10091353	      0.06113541	      0.18680524
      2.61111111	      0.09079050	      0.05798803	      0.17794780
      2.62962963	      0.08018011	      0.05449435	      0.16280273
      2.64814815	      0.06924858	      0.05064348	      0.14209573
      2.66666667	      0.05907233	      0.04677461	      0.13169933
      2.68518519	      0.05074447	      0.04335233	      0.12467293
      2.70370370	      0.04447578	      0.04058634	      0.11565276
      2.72222222	      0.04011067	      0.03854323	      0.10808935
      2.74074074	      0.03785982	      0.03744617	      0.10078196
      2.75925926	      0.03736702	      0.03720166	      0.09515365
      2.77777778	      0.03814700	      0.03758792	      0.09166369
      2.79629630	      0.03930593	      0.03815462	      0.09085915
      2.81481481	      0.04006368	      0.03852065	      0.09192260
      2.83333333	      0.04040796	      0.03868580	      0.09427776
      2.85185185	      0.04108032	      0.03900633	      0.09733170
      2.87037037	      0.04260821	      0.03972508	      0.10067280
      2.88888889	      0.04450659	      0.04060040	      0.10374251
      2.90740741	      0.04572334	      0.04115163	      0.10617167
      2.92592593	      0.04640637	      0.04145786	      0.10857982
      2.94444444	      0.04777095	      0.04206298	      0.11126614
      2.96296296	      0.05069627	      0.04333174	      0.11406085
      2.98148148	      0.05504707	      0.04515286	      0.11690852
      3.00000000	      0.06010873	      0.04718315	      0.11952283
      3.01851852	      0.06452968	      0.04888751	      0.12238637
      3.03703704	      0.06671930	      0.04971001	      0.12849332
      3.05555556	      0.06605781	      0.04946297	      0.12700919
      3.07407407	      0.06230622	      0.04803788	      0.12914257
      3.09259259	      0.05977147	      0.04705059	      0.13056465
      3.11111111	      0.05863614	      0.04660160	      0.13316078
      3.12962963	      0.05920981	      0.04682901	      0.13742670
      3.14814815	      0.06134887	      0.04766739	      0.14300917
      3.16666667	      0.06439232	      0.04883545	      0.14931283
      3.18518519	      0.06764107	      0.05005222	      0.15541023
      3.20370370	      0.07081031	      0.05121137	      0.16056727
      3.22222222	      0.07372340	      0.05225415	      0.16410023
      3.24074074	      0.07589146	      0.05301693	      0.16566545
      3.25925926	      0.07703446	      0.05341468	      0.16566768
      3.27777778	      0.07790451	      0.05371547	      0.16550233
      3.29629630	      0.07967463	      0.05432230	      0.16627738
      3.31481481	      0.08272718	      0.05535313	      0.16819348
      3.33333333	      0.08654561	      0.05661619	      0.17087855
      3.35185185	      0.09035759	      0.05784961	      0.17363605
      3.37037037	      0.09360767	      0.05888082	      0.17582244
      3.38888889	      0.09605601	      0.05964587	      0.17723249
      3.40740741	      0.09774377	      0.06016760	      0.17747117
      3.42592593	      0.09873891	      0.06047311	      0.17672088
      3.44444444	      0.09940141	      0.06067564	      0.17548442
      3.46296296	      0.10044903	      0.06099454	      0.17401427
      3.48148148	      0.10188173	      0.06142798	      0.17280966
      3.50000000	      0.10307342	      0.06178620	      0.17139955
      3.51851852	      0.10358121	      0.06193820	      0.16986348
      3.53703704	      0.10332358	      0.06186113	      0.16815399
      3.55555556	      0.10233076	      0.06156320	      0.16616568
      3.57407407	      0.10079221	      0.06109865	      0.16397330
      3.59259259	      0.09916360	      0.06060302	      0.16161590
      3.61111111	      0.09774947	      0.06016935	      0.15905170
      3.62962963	      0.09674961	      0.05986083	      0.15676874
      3.64814815	      0.09644638	      0.05976695	      0.15498961
      3.66666667	      0.09700356	      0.05993934	      0.15439721
      3.68518519	      0.09824954	      0.06032306	      0.15520002
      3.70370370	      0.09987336	      0.06081952	      0.15659103
      3.72222222	      0.10148147	      0.06130720	      0.15830945
      3.74074074	      0.10263649	      0.06165510	      0.15948124
      3.75925926	      0.10262662	      0.06165214	      0.16004160
      3.77777778	      0.10064878	      0.06105516	      0.15964447
      3.79629630	      0.09678796	      0.05987269	      0.15822821
      3.81481481	      0.09196790	      0.05836282	      0.15600910
      3.83333333	      0.08716866	      0.05681962	      0.15372406
      3.85185185	      0.08330764	      0.05554699	      0.15220525
      3.87037037	      0.08100589	      0.05477425	      0.15169989
      3.88888889	      0.08020029	      0.05450120	      0.15219338
      3.90740741	      0.08055835	      0.05462273	      0.15266027
      3.92592593	      0.08184107	      0.05505589	      0.15353407
      3.94444444	      0.08403823	      0.05579003	      0.15575655
      3.96296296	      0.08679939	      0.05669914	      0.15690924
      3.98148148	      0.08963951	      0.05761928	      0.15870112
      4.00000000	      0.09227174	      0.05845915	      0.15978800
      4.01851852	      0.09463879	      0.05920423	      0.16154208
      4.03703704	      0.09695922	      0.05992564	      0.16306378
      4.05555556	      0.09977921	      0.06079084	      0.16440189
      4.07407407	      0.10350354	      0.06191498	      0.16556251
      4.09259259	      0.10766114	      0.06314625	      0.16670620
      4.11111111	      0.11124882	      0.06418977	      0.16782872
      4.12962963	      0.11363445	      0.06487436	      0.16915604
      4.14814815	      0.11500033	      0.06526309	      0.17036779
      4.16666667	      0.11597048	      0.06553780	      0.17324311
      4.18518519	      0.11715712	      0.06587225	      0.17552107
      4.20370370	      0.11863994	      0.06628779	      0.17754614
      4.22222222	      0.11995407	      0.06665391	      0.17910066
      4.24074074	      0.12047555	      0.06679863	      0.17987894
      4.25925926	      0.11979769	      0.06661045	      0.18057484
      4.27777778	      0.11789070	      0.06607815	      0.18027504
      4.29629630	      0.11529560	      0.06534682	      0.17978840
      4.31481481	      0.11309594	      0.06472046	      0.17909527
      4.33333333	      0.11201273	      0.06440978	      0.17850979
      4.35185185	      0.11217566	      0.06445661	      0.17816434
      4.37037037	      0.11331893	      0.06478424	      0.17788787
      4.38888889	      0.11512442	      0.06529829	      0.17761196
      4.40740741	      0.11725501	      0.06589976	      0.17728258
      4.42592593	      0.11925280	      0.06645879	      0.17676614
      4.44444444	      0.12065684	      0.06684887	      0.17592759
      4.46296296	      0.12120612	      0.06700086	      0.17483103
      4.48148148	      0.12101721	      0.06694863	      0.17336272
      4.50000000	      0.12055531	      0.06682074	      0.17151598
      4.51851852	      0.12065075	      0.06684719	      0.16919186
      4.53703704	      0.12184776	      0.06717797	      0.16632093
      4.55555556	      0.12439838	      0.06787744	      0.16329229
      4.57407407	      0.12815083	      0.06889359	      0.16063321
      4.59259259	      0.13272605	      0.07011262	      0.15860595
      4.61111111	      0.13735506	      0.07132478	      0.15696873
      4.62962963	      0.14126274	      0.07233224	      0.15579967
      4.64814815	      0.14386700	      0.07299594	      0.15994746
      4.66666667	      0.14530515	      0.07335988	      0.16276015
      4.68518519	      0.14609465	      0.07355891	      0.16495066
      4.70370370	      0.14631264	      0.07361377	      0.16614629
      4.72222222	      0.14560514	      0.07343557	      0.16517113
      4.74074074	      0.14396074	      0.07301972	      0.16217469
      4.75925926	      0.14190466	      0.07249640	      0.15825082
      4.77777778	      0.13993476	      0.07199145	      0.15498437
      4.79629630	      0.13839182	      0.07159346	      0.15329484
      4.81481481	      0.13743384	      0.07134523	      0.15324843
      4.83333333	      0.13675871	      0.07116978	      0.15471523
      4.85185185	      0.13604716	      0.07098439	      0.15678418
      4.87037037	      0.13519040	      0.07076052	      0.15898866
      4.88888889	      0.13433597	      0.07053656	      0.16074817
      4.90740741	      0.13373134	      0.07037764	      0.16288085
      4.92592593	      0.13354903	      0.07032966	      0.16498495
      4.94444444	      0.13367708	      0.07036336	      0.16659348
      4.96296296	      0.13379361	      0.07039403	      0.16711706
      4.98148148	      0.13371318	      0.07037286	      0.16641205
      5.00000000	      0.13332470	      0.07027056	      0.16454296
      5.01851852	      0.13240721	      0.07002836	      0.16183903
      5.03703704	      0.13061053	      0.06955161	      0.15757784
      5.05555556	      0.12774985	      0.06878573	      0.15350648
      5.07407407	      0.12411059	      0.06779888	      0.15288316
      5.09259259	      0.12010859	      0.06669682	      0.15222116
      5.11111111	      0.11583212	      0.06549869	      0.15241294
      5.12962963	      0.11153864	      0.06427333	      0.15175640
      5.14814815	      0.10757483	      0.06312094	      0.15162664
      5.16666667	      0.10467837	      0.06226537	      0.15183283
      5.18518519	      0.10328939	      0.06185089	      0.15248175
      5.20370370	      0.10322062	      0.06183030	      0.15314083
      5.22222222	      0.10399440	      0.06206162	      0.15390026
      5.24074074	      0.10583574	      0.06260864	      0.15520855
      5.25925926	      0.10919003	      0.06359304	      0.15755931
      5.27777778	      0.11407173	      0.06499907	      0.16121202
      5.29629630	      0.11998189	      0.06666164	      0.16537814
      5.31481481	      0.12653151	      0.06845694	      0.17008373
      5.33333333	      0.13366158	      0.07035929	      0.17494572
      5.35185185	      0.14102026	      0.07227014	      0.17956885
      5.37037037	      0.14762367	      0.07394284	      0.18342600
      5.38888889	      0.15242433	      0.07513552	      0.18598681
      5.40740741	      0.15538784	      0.07586241	      0.18737098
      5.42592593	      0.15750727	      0.07637802	      0.18797851
      5.44444444	      0.15944527	      0.07684647	      0.18817699
      5.46296296	      0.16102210	      0.07722552	      0.18793209
      5.48148148	      0.16210148	      0.07748392	      0.18703981
      5.50000000	      0.16314407	      0.07773270	      0.18566075
      5.51851852	      0.16466085	      0.07809321	      0.18400017
      5.53703704	      0.16667887	      0.07857030	      0.18231044
      5.55555556	      0.16903079	      0.07912269	      0.18060873
      5.57407407	      0.17192420	      0.07979701	      0.17907308
      5.59259259	      0.17573544	      0.08067664	      0.17779248
      5.61111111	      0.18035385	      0.08172987	      0.18455857
      5.62962963	      0.18505045	      0.08278720	      0.18989942
      5.64814815	      0.18901846	      0.08367009	      0.19306773
      5.66666667	      0.19159341	      0.08423807	      0.19402098
      5.68518519	      0.19263212	      0.08446610	      0.19284225
      5.70370370	      0.19257164	      0.08445284	      0.19017164
      5.72222222	      0.19195830	      0.08431825	      0.18773042
      5.74074074	      0.19141432	      0.08419869	      0.18692789
      5.75925926	      0.19093665	      0.08409357	      0.18700409
      5.77777778	      0.19042947	      0.08398180	      0.18628347
      5.79629630	      0.18971382	      0.08382385	      0.18370346
      5.81481481	      0.18889665	      0.08364312	      0.17955547
      5.83333333	      0.18806381	      0.08345853	      0.17461518
      5.85185185	      0.18736473	      0.08330327	      0.17040747
      5.87037037	      0.18713201	      0.08325152	      0.17071698
      5.88888889	      0.18797111	      0.08343796	      0.17109202
      5.90740741	      0.19017888	      0.08392653	      0.17199720
      5.92592593	      0.19353593	      0.08466403	      0.17388288
      5.94444444	      0.19724404	      0.08547125	      0.17731578
      5.96296296	      0.20076465	      0.08623067	      0.17835013
      5.98148148	      0.20342865	      0.08680089	      0.17963150
      6.00000000	      0.20521843	      0.08718189	      0.18075727
      6.01851852	      0.20564416	      0.08727228	      0.18113175
      6.03703704	      0.20488831	      0.08711174	      0.18095506
      6.05555556	      0.20339895	      0.08679455	      0.18049677
      6.07407407	      0.20171398	      0.08643430	      0.17979125
      6.09259259	      0.20012055	      0.08609223	      0.17933241
      6.11111111	      0.19881016	      0.08580990	      0.17910687
      6.12962963	      0.19786816	      0.08560637	      0.17908373
      6.14814815	      0.19729047	      0.08548131	      0.17928167
      6.16666667	      0.19729976	      0.08548332	      0.17965717
      6.18518519	      0.19823336	      0.08568533	      0.18023020
      6.20370370	      0.20022103	      0.08611384	      0.18082998
      6.22222222	      0.20273271	      0.08665229	      0.18117988
      6.24074074	      0.20476362	      0.08708523	      0.18106338
      6.25925926	      0.20546462	      0.08723417	      0.18060985
      6.27777778	      0.20476101	      0.08708468	      0.18741819
      6.29629630	      0.20322330	      0.08675707	      0.19336420
      6.31481481	      0.20138148	      0.08636303	      0.19681327
      6.33333333	      0.19979469	      0.08602211	      0.19697770
      6.35185185	      0.19894682	      0.08583939	      0.19455069
      6.37037037	      0.19928016	      0.08591127	      0.19102489
      6.38888889	      0.20058987	      0.08619312	      0.18751538
      6.40740741	      0.20176199	      0.08644459	      0.18491530
      6.42592593	      0.20173130	      0.08643801	      0.18350075
      6.44444444	      0.20020734	      0.08611090	      0.18313580
      6.46296296	      0.19753687	      0.08553467	      0.18450716
      6.48148148	      0.19413604	      0.08479519	      0.18533569
      6.50000000	      0.18991619	      0.08386855	      0.18617075
      6.51851852	      0.18493250	      0.08276081	      0.18719424
      6.53703704	      0.17934452	      0.08150086	      0.18782917
      6.55555556	      0.17356175	      0.08017614	      0.18862042
      6.57407407	      0.16836937	      0.07896773	      0.18897098
      6.59259259	      0.16439466	      0.07803007	      0.18899831
      6.61111111	      0.16217911	      0.07750247	      0.18893975
      6.62962963	      0.16201914	      0.07746424	      0.18926807
      6.64814815	      0.16368178	      0.07786070	      0.19014118
      6.66666667	      0.16645368	      0.07851720	      0.19147434
      6.68518519	      0.16947887	      0.07922749	      0.19321749
      6.70370370	      0.17233300	      0.07989183	      0.19468276
      6.72222222	      0.17483039	      0.08046863	      0.19600911
      6.74074074	      0.17725841	      0.08102547	      0.19666802
      6.75925926	      0.17969432	      0.08158030	      0.19677357
      6.77777778	      0.18178861	      0.08205432	      0.19689818
      6.79629630	      0.18318176	      0.08236814	      0.19661105
      6.81481481	      0.18366894	      0.08247759	      0.19678237
      6.83333333	      0.18342169	      0.08242206	      0.19763260
      6.85185185	      0.18261215	      0.08223997	      0.19906997
      6.87037037	      0.18149725	      0.08198854	      0.20121597
      6.88888889	      0.18049821	      0.08176258	      0.20334346
      6.90740741	      0.17981343	      0.08160733	      0.20522468
      6.92592593	      0.17947731	      0.08153102	      0.20673220
      6.94444444	      0.17935534	      0.08150332	      0.20783669
      6.96296296	      0.17931108	      0.08149326	      0.20879668
      6.98148148	      0.17927087	      0.08148412	      0.20979889
      7.00000000	      0.17930093	      0.08149095	      0.21077295
      7.01851852	      0.17933667	      0.08149907	      0.21176195
      7.03703704	      0.17915378	      0.08145750	      0.21248220
      7.05555556	      0.17867589	      0.08134879	      0.21307574
      7.07407407	      0.17804727	      0.08120556	      0.21304506
      7.09259259	      0.17760752	      0.08110522	      0.21272462
      7.11111111	      0.17771024	      0.08112867	      0.21202810
      7.12962963	      0.17853958	      0.08131775	      0.21124206
      7.14814815	      0.17985506	      0.08161678	      0.21070048
      7.16666667	      0.18131139	      0.08194655	      0.21034614
      7.18518519	      0.18267604	      0.08225436	      0.21034758
      7.20370370	      0.18387357	      0.08252353	      0.21040622
      7.22222222	      0.18489968	      0.08275347	      0.21055917
      7.24074074	      0.18588644	      0.08297399	      0.21003089
      7.25925926	      0.18669998	      0.08315536	      0.20947985
      7.27777778	      0.18680018	      0.08317767	      0.20896095
      7.29629630	      0.18646829	      0.08310375	      0.20882610
      7.31481481	      0.18620123	      0.08304422	      0.20870252
      7.33333333	      0.18634466	      0.08307619	      0.20901638
      7.35185185	      0.18697731	      0.08321710	      0.20961070
      7.37037037	      0.18781463	      0.08340322	      0.21073047
      7.38888889	      0.18838058	      0.08352879	      0.21163548
      7.40740741	      0.18798928	      0.08344199	      0.21261479
      7.42592593	      0.18636611	      0.08308098	      0.21350671
      7.44444444	      0.18422915	      0.08260328	      0.21397487
      7.46296296	      0.18259261	      0.08223557	      0.21362790
      7.48148148	      0.18152059	      0.08199381	      0.21279597
      7.50000000	      0.18047290	      0.08175684	      0.21143562
      7.51851852	      0.17928503	      0.08148734	      0.20992785
      7.53703704	      0.17829216	      0.08126139	      0.20816125
      7.55555556	      0.17811693	      0.08122145	      0.20667863
      7.57407407	      0.17858986	      0.08132920	      0.20541372
      7.59259259	      0.17945116	      0.08152508	      0.20470049
      7.61111111	      0.18041793	      0.08174439	      0.20455809
      7.62962963	      0.18161125	      0.08201428	      0.20465975
      7.64814815	      0.18307733	      0.08234465	      0.20508944
      7.66666667	      0.18482309	      0.08273633	      0.20576654
      7.68518519	      0.18654058	      0.08311986	      0.20662259
      7.70370370	      0.18762041	      0.08336009	      0.20733672
      7.72222222	      0.18712892	      0.08325083	      0.20753776
      7.74074074	      0.18483353	      0.08273866	      0.20696908
      7.75925926	      0.18125768	      0.08193441	      0.20591144
      7.77777778	      0.17781910	      0.08115351	      0.20424207
      7.79629630	      0.17542048	      0.08060431	      0.20283846
      7.81481481	      0.17461536	      0.08041912	      0.20173855
      7.83333333	      0.17541693	      0.08060349	      0.20125440
      7.85185185	      0.17752197	      0.08108568	      0.20141229
      7.87037037	      0.18033092	      0.08172468	      0.20214636
      7.88888889	      0.18324978	      0.08238343	      0.20305859
      7.90740741	      0.18568493	      0.08292900	      0.20396643
      7.92592593	      0.18734005	      0.08329778	      0.20428729
      7.94444444	      0.18843084	      0.08353993	      0.20418051
      7.96296296	      0.18913676	      0.08369627	      0.20359151
      7.98148148	      0.18982796	      0.08384906	      0.20296350
      8.00000000	      0.19075533	      0.08405363	      0.20224399
      8.01851852	      0.19210399	      0.08435024	      0.20132806
      8.03703704	      0.19340915	      0.08463629	      0.20031641
      8.05555556	      0.19426601	      0.08482357	      0.19946956
      8.07407407	      0.19415664	      0.08479969	      0.19877969
      8.09259259	      0.19304081	      0.08455566	      0.19855030
      8.11111111	      0.19100961	      0.08410963	      0.19815295
      8.12962963	      0.18789128	      0.08342024	      0.19812501
      8.14814815	      0.18404702	      0.08256244	      0.19798257
      8.16666667	      0.18021031	      0.08169734	      0.19767388
      8.18518519	      0.17700529	      0.08096760	      0.19651113
      8.20370370	      0.17498865	      0.08050504	      0.19522677
      8.22222222	      0.17407489	      0.08029457	      0.19373830
      8.24074074	      0.17379903	      0.08023092	      0.19243002
      8.25925926	      0.17392817	      0.08026073	      0.19120388
      8.27777778	      0.17454208	      0.08040225	      0.19035487
      8.29629630	      0.17541005	      0.08060191	      0.18983581
      8.31481481	      0.17641532	      0.08083255	      0.18956168
      8.33333333	      0.17738201	      0.08105371	      0.18964925
      8.35185185	      0.17821956	      0.08124484	      0.18933227
      8.37037037	      0.17890272	      0.08140041	      0.18917297
      8.38888889	      0.17955706	      0.08154914	      0.18922408
      8.40740741	      0.18040231	      0.08174085	      0.18982024
      8.42592593	      0.18160574	      0.08201304	      0.19179652
      8.44444444	      0.18294943	      0.08231588	      0.19399421
      8.46296296	      0.18404332	      0.08256161	      0.19642078
      8.48148148	      0.18457825	      0.08268151	      0.19877098
      8.50000000	      0.18457264	      0.08268025	      0.20076615
      8.51851852	      0.18418032	      0.08259233	      0.20215540
      8.53703704	      0.18368319	      0.08248079	      0.20264501
      8.55555556	      0.18327129	      0.08238826	      0.20241117
      8.57407407	      0.18302023	      0.08233181	      0.20178825
      8.59259259	      0.18295008	      0.08231603	      0.20102272
      8.61111111	      0.18324082	      0.08238141	      0.20050815
      8.62962963	      0.18399825	      0.08255150	      0.20002973
      8.64814815	      0.18519774	      0.08282014	      0.19993554
      8.66666667	      0.18660995	      0.08313531	      0.20017319
      8.68518519	      0.18762760	      0.08336168	      0.20028292
      8.70370370	      0.18780023	      0.08340003	      0.20024943
      8.72222222	      0.18702407	      0.08322750	      0.19923271
      8.74074074	      0.18584864	      0.08296555	      0.19792510
      8.75925926	      0.18473656	      0.08271696	      0.19613704
      8.77777778	      0.18384849	      0.08251790	      0.19419829
      8.79629630	      0.18298524	      0.08232394	      0.19419283
      8.81481481	      0.18205648	      0.08211475	      0.19426823
      8.83333333	      0.18112841	      0.08190519	      0.19389086
      8.85185185	      0.18019703	      0.08169433	      0.19274210
      8.87037037	      0.17900069	      0.08142269	      0.19052933
      8.88888889	      0.17761395	      0.08110669	      0.18825939
      8.90740741	      0.17607332	      0.08075416	      0.18824855
      8.92592593	      0.17510386	      0.08053154	      0.18825989
      8.94444444	      0.17503756	      0.08051629	      0.18925858
      8.96296296	      0.17557532	      0.08063988	      0.18985730
      8.98148148	      0.17591707	      0.08071832	      0.19091005
      9.00000000	      0.17556614	      0.08063777	      0.19172642
      9.01851852	      0.17464428	      0.08042578	      0.19217845
      9.03703704	      0.17332071	      0.08012044	      0.19237291
      9.05555556	      0.17158636	      0.07971857	      0.19224715
      9.07407407	      0.16957040	      0.07924888	      0.19199546
      9.09259259	      0.16785332	      0.07884662	      0.19207009
      9.11111111	      0.16709278	      0.07866779	      0.19303205
      9.12962963	      0.16752448	      0.07876935	      0.19493892
      9.14814815	      0.16880258	      0.07906926	      0.19738255
      9.16666667	      0.17023721	      0.07940455	      0.20012100
      9.18518519	      0.17102914	      0.07958902	      0.20290305
      9.20370370	      0.17073583	      0.07952075	      0.20527685
      9.22222222	      0.16907490	      0.07913301	      0.20672881
      9.24074074	      0.16563069	      0.07832286	      0.20626493
      9.25925926	      0.16019267	      0.07702637	      0.20502633
      9.27777778	      0.15300163	      0.07527767	      0.20153056
      9.29629630	      0.14444805	      0.07314320	      0.19619184
      9.31481481	      0.13471119	      0.07063500	      0.18879115
      9.33333333	      0.12397113	      0.06776078	      0.17891479
      9.35185185	      0.11258927	      0.06457533	      0.16697224
      9.37037037	      0.10091679	      0.06113639	      0.15280456
      9.38888889	      0.08879102	      0.05734594	      0.13682689
      9.40740741	      0.07621506	      0.05312984	      0.13101013
      9.42592593	      0.06375822	      0.04859440	      0.12364232
      9.44444444	      0.05222854	      0.04398170	      0.11495605
      9.46296296	      0.04306142	      0.03993579	      0.10506940
      9.48148148	      0.03705942	      0.03704823	      0.09391770
      9.50000000	      0.03376649	      0.03536398	      0.08331874
      9.51851852	      0.03251947	      0.03470483	      0.07402382
      9.53703704	      0.03252175	      0.03470604	      0.06348463
      9.55555556	      0.03216954	      0.03451760	      0.06961458
      9.57407407	      0.03096801	      0.03386685	      0.07613426
      9.59259259	      0.02903019	      0.03279012	      0.07658584
      9.61111111	      0.02620048	      0.03115105	      0.07102543
      9.62962963	      0.02332106	      0.02938950	      0.06224174
      9.64814815	      0.02146944	      0.02819866	      0.05395592
      9.66666667	      0.02074327	      0.02771767	      0.04866779
      9.68518519	      0.02033329	      0.02744239	      0.04704447
      9.70370370	      0.01987562	      0.02713179	      0.04769248
      9.72222222	      0.01931280	      0.02674488	      0.04836508
      9.74074074	      0.01873129	      0.02633916	      0.04775053
      9.75925926	      0.01852812	      0.02619593	      0.05687844
      9.77777778	      0.01910174	      0.02659834	      0.06532173
      9.79629630	      0.02133562	      0.02811064	      0.07775695
      9.81481481	      0.02507676	      0.03047571	      0.09155943
      9.83333333	      0.02962708	      0.03312551	      0.10453712
      9.85185185	      0.03365636	      0.03530626	      0.11474219
      9.87037037	      0.03507676	      0.03604357	      0.12053147
      9.88888889	      0.03440914	      0.03569891	      0.12206189
      9.90740741	      0.03210539	      0.03448316	      0.12033204
      9.92592593	      0.02952057	      0.03306591	      0.11673503
      9.94444444	      0.02750467	      0.03191695	      0.11251711
      9.96296296	      0.02603213	      0.03105081	      0.10735756
      9.98148148	      0.02460336	      0.03018668	      0.10097685
     10.00000000	      0.01654489	      0.02475426	      0.04961590
     10.01851852	      0.01544735	      0.02391912	      0.04406351
     10.03703704	      0.01484122	      0.02344515	      0.03944465
     10.05555556	      0.01494306	      0.02352545	      0.03633540
     10.07407407	      0.01609430	      0.02441486	      0.03839461
     10.09259259	      0.01941951	      0.02681867	      0.04631731
