Model Marker Errors from IK
version=1
nRows=381
nColumns=4
inDegrees=no
endheader
time	total_squared_error	marker_error_RMS	marker_error_max
      0.00000000	      0.04185886	      0.03937421	      0.07738329
      0.01754386	      0.03905084	      0.03803061	      0.07700526
      0.03508772	      0.03762898	      0.03733184	      0.07725729
      0.05263158	      0.03767679	      0.03735554	      0.07796394
      0.07017544	      0.03807644	      0.03755314	      0.07941333
      0.08771930	      0.03901806	      0.03801465	      0.08081769
      0.10526316	      0.03988208	      0.03843324	      0.08188706
      0.12280702	      0.04025906	      0.03861446	      0.08285729
      0.14035088	      0.04016925	      0.03857136	      0.08321863
      0.15789474	      0.03956165	      0.03827854	      0.08299049
      0.17543860	      0.03876310	      0.03789024	      0.08268445
      0.19298246	      0.03818357	      0.03760593	      0.08232879
      0.21052632	      0.03799079	      0.03751088	      0.08235070
      0.22807018	      0.03831326	      0.03766975	      0.08279090
      0.24561404	      0.03888159	      0.03794811	      0.08314860
      0.26315789	      0.03939099	      0.03819588	      0.08350497
      0.28070175	      0.03965008	      0.03832129	      0.08369475
      0.29824561	      0.03963536	      0.03831418	      0.08365211
      0.31578947	      0.03940619	      0.03820325	      0.08320075
      0.33333333	      0.03915019	      0.03807896	      0.08260559
      0.35087719	      0.03909631	      0.03805275	      0.08219243
      0.36842105	      0.03894237	      0.03797776	      0.08234931
      0.38596491	      0.03891337	      0.03796361	      0.08305401
      0.40350877	      0.03895521	      0.03798402	      0.08409745
      0.42105263	      0.03892592	      0.03796973	      0.08550702
      0.43859649	      0.03891157	      0.03796273	      0.08678993
      0.45614035	      0.03877793	      0.03789749	      0.08774547
      0.47368421	      0.03849577	      0.03775936	      0.08801404
      0.49122807	      0.03803415	      0.03753228	      0.08768878
      0.50877193	      0.03744087	      0.03723841	      0.08714179
      0.52631579	      0.03681035	      0.03692352	      0.08676891
      0.54385965	      0.03618091	      0.03660647	      0.08661923
      0.56140351	      0.03559448	      0.03630860	      0.08662823
      0.57894737	      0.03509315	      0.03605199	      0.08687273
      0.59649123	      0.03473656	      0.03586836	      0.08726207
      0.61403509	      0.03451707	      0.03575486	      0.08766098
      0.63157895	      0.03439417	      0.03569115	      0.08783323
      0.64912281	      0.03429564	      0.03563999	      0.08792826
      0.66666667	      0.03416784	      0.03557352	      0.08787451
      0.68421053	      0.03391500	      0.03544166	      0.08748217
      0.70175439	      0.03357008	      0.03526097	      0.08696232
      0.71929825	      0.03310990	      0.03501846	      0.08597454
      0.73684211	      0.03265871	      0.03477904	      0.08498577
      0.75438596	      0.03224305	      0.03455701	      0.08391545
      0.77192982	      0.03190053	      0.03437297	      0.08306082
      0.78947368	      0.03165190	      0.03423876	      0.08237579
      0.80701754	      0.03151483	      0.03416454	      0.08203335
      0.82456140	      0.03145254	      0.03413076	      0.08197500
      0.84210526	      0.03144720	      0.03412787	      0.08203842
      0.85964912	      0.03147853	      0.03414486	      0.08203885
      0.87719298	      0.03159256	      0.03420665	      0.08187028
      0.89473684	      0.03181635	      0.03432759	      0.08163045
      0.91228070	      0.03208089	      0.03447000	      0.08138384
      0.92982456	      0.03231752	      0.03459689	      0.08117484
      0.94736842	      0.03247495	      0.03468106	      0.08088038
      0.96491228	      0.03261762	      0.03475716	      0.08085294
      0.98245614	      0.03267754	      0.03478907	      0.07945354
      1.00000000	      0.03280057	      0.03485450	      0.07864939
      1.01754386	      0.03310438	      0.03501554	      0.07813739
      1.03508772	      0.03350473	      0.03522663	      0.07707954
      1.05263158	      0.03422919	      0.03560545	      0.07697118
      1.07017544	      0.03514875	      0.03608054	      0.07880776
      1.08771930	      0.03605022	      0.03654030	      0.08452870
      1.10526316	      0.03675320	      0.03689485	      0.08821700
      1.12280702	      0.03744323	      0.03723958	      0.09234124
      1.14035088	      0.03816125	      0.03759494	      0.09564002
      1.15789474	      0.03901066	      0.03801104	      0.09879938
      1.17543860	      0.03986810	      0.03842650	      0.10087648
      1.19298246	      0.04073851	      0.03884371	      0.10433085
      1.21052632	      0.04126945	      0.03909601	      0.10716060
      1.22807018	      0.04123527	      0.03907982	      0.11022033
      1.24561404	      0.04045177	      0.03870677	      0.11348045
      1.26315789	      0.03910532	      0.03805713	      0.11658634
      1.28070175	      0.03768828	      0.03736124	      0.11901912
      1.29824561	      0.03673122	      0.03688381	      0.12064424
      1.31578947	      0.03644771	      0.03674119	      0.12077342
      1.33333333	      0.03665705	      0.03684655	      0.11840509
      1.35087719	      0.03714282	      0.03708989	      0.11535422
      1.36842105	      0.03795214	      0.03749180	      0.11300430
      1.38596491	      0.03934683	      0.03817447	      0.11137326
      1.40350877	      0.04119888	      0.03906257	      0.11009678
      1.42105263	      0.04303379	      0.03992298	      0.10875158
      1.43859649	      0.04456564	      0.04062732	      0.10690911
      1.45614035	      0.04602052	      0.04128515	      0.10476187
      1.47368421	      0.04774556	      0.04205180	      0.10270710
      1.49122807	      0.04998521	      0.04302678	      0.10091616
      1.50877193	      0.05322789	      0.04440049	      0.09896214
      1.52631579	      0.05841210	      0.04651248	      0.10565936
      1.54385965	      0.06613473	      0.04949176	      0.11530678
      1.56140351	      0.07543253	      0.05285638	      0.12660332
      1.57894737	      0.08459649	      0.05597503	      0.13689262
      1.59649123	      0.09340302	      0.05881642	      0.14552024
      1.61403509	      0.10315911	      0.06181187	      0.15167791
      1.63157895	      0.11531440	      0.06535215	      0.15932329
      1.64912281	      0.13041717	      0.06950011	      0.16862671
      1.66666667	      0.14797361	      0.07403043	      0.17745181
      1.68421053	      0.16592370	      0.07839210	      0.18534179
      1.70175439	      0.18129987	      0.08194395	      0.19089675
      1.71929825	      0.19121913	      0.08415575	      0.19370762
      1.73684211	      0.19518937	      0.08502491	      0.19399128
      1.75438596	      0.19388987	      0.08474141	      0.19227160
      1.77192982	      0.18865833	      0.08359034	      0.18938063
      1.78947368	      0.18089838	      0.08185316	      0.18566696
      1.80701754	      0.17199849	      0.07981425	      0.18175415
      1.82456140	      0.16328152	      0.07776544	      0.17830052
      1.84210526	      0.15579646	      0.07596209	      0.17603349
      1.85964912	      0.14969582	      0.07445999	      0.17581855
      1.87719298	      0.14460051	      0.07318179	      0.17525608
      1.89473684	      0.14003302	      0.07201672	      0.17560936
      1.91228070	      0.13573630	      0.07090325	      0.17541240
      1.92982456	      0.13131026	      0.06973767	      0.17417371
      1.94736842	      0.12646867	      0.06843993	      0.17192353
      1.96491228	      0.12152124	      0.06708790	      0.16912793
      1.98245614	      0.11742237	      0.06594677	      0.16570430
      2.00000000	      0.11478969	      0.06520330	      0.16177039
      2.01754386	      0.11324882	      0.06476419	      0.15801502
      2.03508772	      0.11175532	      0.06433573	      0.15563111
      2.05263158	      0.10974417	      0.06375421	      0.15504235
      2.07017544	      0.10734742	      0.06305419	      0.15738487
      2.08771930	      0.10528886	      0.06244668	      0.16079754
      2.10526316	      0.10409401	      0.06209133	      0.16414164
      2.12280702	      0.10404604	      0.06207702	      0.16697183
      2.14035088	      0.10512173	      0.06239709	      0.16963412
      2.15789474	      0.10757439	      0.06312081	      0.17291072
      2.17543860	      0.11217782	      0.06445723	      0.17759083
      2.19298246	      0.11948143	      0.06652246	      0.18364394
      2.21052632	      0.12926956	      0.06919365	      0.19040992
      2.22807018	      0.14097056	      0.07225740	      0.19709195
      2.24561404	      0.15294521	      0.07526379	      0.20285228
      2.26315789	      0.16202018	      0.07746449	      0.20608575
      2.28070175	      0.16583529	      0.07837122	      0.20646060
      2.29824561	      0.16529641	      0.07824378	      0.20499229
      2.31578947	      0.16346381	      0.07780884	      0.20360277
      2.33333333	      0.16228944	      0.07752883	      0.20344972
      2.35087719	      0.16195699	      0.07744938	      0.20441046
      2.36842105	      0.16140760	      0.07731791	      0.20504185
      2.38596491	      0.15969301	      0.07690615	      0.20448849
      2.40350877	      0.15564314	      0.07592470	      0.20284383
      2.42105263	      0.14864116	      0.07419723	      0.20054438
      2.43859649	      0.13957356	      0.07189848	      0.19811085
      2.45614035	      0.13033015	      0.06947692	      0.19596333
      2.47368421	      0.12302679	      0.06750221	      0.19423250
      2.49122807	      0.11865632	      0.06629237	      0.19271591
      2.50877193	      0.11680357	      0.06577278	      0.19132243
      2.52631579	      0.11679586	      0.06577061	      0.18920919
      2.54385965	      0.11753216	      0.06597760	      0.18607681
      2.56140351	      0.11836272	      0.06621031	      0.18242238
      2.57894737	      0.11912639	      0.06642355	      0.17916645
      2.59649123	      0.11996503	      0.06665695	      0.17705025
      2.61403509	      0.12109322	      0.06696965	      0.17646392
      2.63157895	      0.12254242	      0.06736919	      0.17706697
      2.64912281	      0.12409548	      0.06779476	      0.17876687
      2.66666667	      0.12538305	      0.06814556	      0.18104264
      2.68421053	      0.12698251	      0.06857883	      0.18399748
      2.70175439	      0.12960718	      0.06928395	      0.18721450
      2.71929825	      0.13421107	      0.07050376	      0.19040549
      2.73684211	      0.14126095	      0.07233179	      0.19270028
      2.75438596	      0.14956630	      0.07442777	      0.19529962
      2.77192982	      0.15742807	      0.07635882	      0.19838078
      2.78947368	      0.16317031	      0.07773895	      0.20118425
      2.80701754	      0.16662016	      0.07855646	      0.20377027
      2.82456140	      0.16867867	      0.07904023	      0.20595389
      2.84210526	      0.17043464	      0.07945058	      0.20778795
      2.85964912	      0.17233592	      0.07989250	      0.20890425
      2.87719298	      0.17429645	      0.08034565	      0.20879578
      2.89473684	      0.17631490	      0.08080954	      0.20793742
      2.91228070	      0.17844993	      0.08129733	      0.20740413
      2.92982456	      0.18040957	      0.08174250	      0.20847655
      2.94736842	      0.18183166	      0.08206403	      0.21075350
      2.96491228	      0.18307497	      0.08234412	      0.21380630
      2.98245614	      0.18452170	      0.08266884	      0.21639703
      3.00000000	      0.18638851	      0.08308597	      0.21855773
      3.01754386	      0.18809675	      0.08346584	      0.22002324
      3.03508772	      0.18876033	      0.08361294	      0.22060323
      3.05263158	      0.18772424	      0.08338315	      0.22008175
      3.07017544	      0.18518460	      0.08281720	      0.21854485
      3.08771930	      0.18125844	      0.08193458	      0.21581152
      3.10526316	      0.17558012	      0.08064098	      0.21202952
      3.12280702	      0.16758780	      0.07878424	      0.20714642
      3.14035088	      0.15776913	      0.07644149	      0.20138180
      3.15789474	      0.14744357	      0.07389772	      0.19532158
      3.17543860	      0.13820738	      0.07154573	      0.18872783
      3.19298246	      0.13065378	      0.06956313	      0.18252197
      3.21052632	      0.12514454	      0.06808071	      0.17681148
      3.22807018	      0.12163128	      0.06711827	      0.17193892
      3.24561404	      0.11974222	      0.06659502	      0.16890588
      3.26315789	      0.11919576	      0.06644289	      0.16753047
      3.28070175	      0.11937602	      0.06649311	      0.16728170
      3.29824561	      0.11945805	      0.06651595	      0.16784623
      3.31578947	      0.11942616	      0.06650707	      0.16829412
      3.33333333	      0.11934180	      0.06648358	      0.16899826
      3.35087719	      0.11995132	      0.06665314	      0.17001823
      3.36842105	      0.12199931	      0.06721974	      0.17161864
      3.38596491	      0.12584692	      0.06827149	      0.17372510
      3.40350877	      0.13140267	      0.06976221	      0.17596633
      3.42105263	      0.13799594	      0.07149098	      0.17814713
      3.43859649	      0.14450649	      0.07315800	      0.18675386
      3.45614035	      0.14959014	      0.07443370	      0.19700043
      3.47368421	      0.15241884	      0.07513416	      0.20388550
      3.49122807	      0.15313927	      0.07531152	      0.20737143
      3.50877193	      0.15222581	      0.07508657	      0.20847902
      3.52631579	      0.15041298	      0.07463813	      0.20797335
      3.54385965	      0.14873754	      0.07422128	      0.20657087
      3.56140351	      0.14808685	      0.07405875	      0.20452374
      3.57894737	      0.14887045	      0.07425443	      0.20218584
      3.59649123	      0.15122139	      0.07483844	      0.20029796
      3.61403509	      0.15476764	      0.07571086	      0.19934484
      3.63157895	      0.15924050	      0.07679711	      0.19949029
      3.64912281	      0.16448608	      0.07805176	      0.20063485
      3.66666667	      0.17011438	      0.07937589	      0.20197238
      3.68421053	      0.17540874	      0.08060161	      0.20319075
      3.70175439	      0.17850026	      0.08130880	      0.20301142
      3.71929825	      0.17776643	      0.08114149	      0.20071129
      3.73684211	      0.17263183	      0.07996106	      0.19661178
      3.75438596	      0.16412882	      0.07796695	      0.19156528
      3.77192982	      0.15395101	      0.07551086	      0.18647605
      3.78947368	      0.14383534	      0.07298791	      0.18202831
      3.80701754	      0.13474196	      0.07064307	      0.17791780
      3.82456140	      0.12661020	      0.06847822	      0.17363396
      3.84210526	      0.11894129	      0.06637193	      0.16864453
      3.85964912	      0.11141023	      0.06423632	      0.16288303
      3.87719298	      0.10383732	      0.06201473	      0.15682999
      3.89473684	      0.09641570	      0.05975744	      0.15168174
      3.91228070	      0.08974567	      0.05765339	      0.14886193
      3.92982456	      0.08448328	      0.05593756	      0.14893586
      3.94736842	      0.08104709	      0.05478817	      0.15124351
      3.96491228	      0.07900867	      0.05409480	      0.15437046
      3.98245614	      0.07735553	      0.05352588	      0.15694411
      4.00000000	      0.07543006	      0.05285552	      0.15865430
      4.01754386	      0.07362537	      0.05221940	      0.15904561
      4.03508772	      0.07270349	      0.05189144	      0.15933439
      4.05263158	      0.07274675	      0.05190688	      0.15913509
      4.07017544	      0.07332556	      0.05211297	      0.15852503
      4.08771930	      0.07404417	      0.05236771	      0.15756076
      4.10526316	      0.07480638	      0.05263655	      0.15624921
      4.12280702	      0.07570748	      0.05295263	      0.15475383
      4.14035088	      0.07682228	      0.05334107	      0.15350612
      4.15789474	      0.07802088	      0.05375558	      0.15205214
      4.17543860	      0.07933057	      0.05420488	      0.15068714
      4.19298246	      0.08075816	      0.05469043	      0.14940939
      4.21052632	      0.08230647	      0.05521221	      0.14801865
      4.22807018	      0.08401056	      0.05578084	      0.14689527
      4.24561404	      0.08596704	      0.05642663	      0.14613518
      4.26315789	      0.08847501	      0.05724380	      0.14592368
      4.28070175	      0.09191192	      0.05834505	      0.14674589
      4.29824561	      0.09616551	      0.05967986	      0.14912912
      4.31578947	      0.10055449	      0.06102656	      0.15279447
      4.33333333	      0.10451386	      0.06221643	      0.15722063
      4.35087719	      0.10777980	      0.06318105	      0.16180785
      4.36842105	      0.11047759	      0.06396689	      0.16608138
      4.38596491	      0.11321699	      0.06475509	      0.16970944
      4.40350877	      0.11669907	      0.06574335	      0.17264956
      4.42105263	      0.12133112	      0.06703540	      0.17474092
      4.43859649	      0.12731439	      0.06866839	      0.17579350
      4.45614035	      0.13406791	      0.07046615	      0.17576890
      4.47368421	      0.14036983	      0.07210328	      0.17513582
      4.49122807	      0.14488595	      0.07325398	      0.17454547
      4.50877193	      0.14766384	      0.07395290	      0.17591055
      4.52631579	      0.14877721	      0.07423117	      0.17498483
      4.54385965	      0.14766602	      0.07395344	      0.17545364
      4.56140351	      0.14345623	      0.07289166	      0.17487609
      4.57894737	      0.13627755	      0.07104447	      0.17307143
      4.59649123	      0.12751088	      0.06872136	      0.17001623
      4.61403509	      0.11875420	      0.06631971	      0.16641542
      4.63157895	      0.11094722	      0.06410270	      0.16131252
      4.64912281	      0.10459904	      0.06224178	      0.15568069
      4.66666667	      0.09982015	      0.06080331	      0.14900184
      4.68421053	      0.09616036	      0.05967826	      0.14077407
      4.70175439	      0.09252976	      0.05854082	      0.13726675
      4.71929825	      0.08783176	      0.05703532	      0.14771333
      4.73684211	      0.08186320	      0.05506333	      0.15181839
      4.75438596	      0.07550757	      0.05288267	      0.15088317
      4.77192982	      0.06987123	      0.05087065	      0.14760311
      4.78947368	      0.06518405	      0.04913475	      0.14576189
      4.80701754	      0.06231881	      0.04804273	      0.14588472
      4.82456140	      0.06170268	      0.04780465	      0.14787136
      4.84210526	      0.06226836	      0.04802328	      0.14929736
      4.85964912	      0.06283472	      0.04824118	      0.14797411
      4.87719298	      0.06302924	      0.04831580	      0.14351483
      4.89473684	      0.06229322	      0.04803287	      0.13666885
      4.91228070	      0.06216988	      0.04798529	      0.12978366
      4.92982456	      0.06178617	      0.04783698	      0.12344078
      4.94736842	      0.06154722	      0.04774439	      0.11862737
      4.96491228	      0.06151350	      0.04773131	      0.11642178
      4.98245614	      0.06216621	      0.04798387	      0.11740478
      5.00000000	      0.06304170	      0.04832057	      0.12105973
      5.01754386	      0.06388887	      0.04864416	      0.12605202
      5.03508772	      0.06444234	      0.04885441	      0.13131172
      5.05263158	      0.06452828	      0.04888697	      0.13592493
      5.07017544	      0.06406101	      0.04870965	      0.13940977
      5.08771930	      0.06313955	      0.04835806	      0.14185446
      5.10526316	      0.06233699	      0.04804974	      0.14420266
      5.12280702	      0.06264199	      0.04816714	      0.14792070
      5.14035088	      0.06510745	      0.04910588	      0.15426417
      5.15789474	      0.06990166	      0.05088173	      0.16328908
      5.17543860	      0.07590856	      0.05302290	      0.17356528
      5.19298246	      0.08183540	      0.05505398	      0.18327891
      5.21052632	      0.08671342	      0.05667105	      0.19105477
      5.22807018	      0.08967791	      0.05763162	      0.19573746
      5.24561404	      0.08983831	      0.05768314	      0.19585970
      5.26315789	      0.08700416	      0.05676598	      0.19095741
      5.28070175	      0.08216175	      0.05516365	      0.18293582
      5.29824561	      0.07732837	      0.05351648	      0.17511032
      5.31578947	      0.07390150	      0.05231723	      0.17008320
      5.33333333	      0.07252532	      0.05182782	      0.16870060
      5.35087719	      0.07319658	      0.05206711	      0.17066778
      5.36842105	      0.07541851	      0.05285147	      0.17466958
      5.38596491	      0.07824681	      0.05383335	      0.17875981
      5.40350877	      0.08036628	      0.05455757	      0.18032268
      5.42105263	      0.08058549	      0.05463193	      0.17730230
      5.43859649	      0.07864703	      0.05397085	      0.16962014
      5.45614035	      0.07535385	      0.05282881	      0.15928532
      5.47368421	      0.07197381	      0.05163038	      0.14985042
      5.49122807	      0.06908326	      0.05058299	      0.14314924
      5.50877193	      0.06678699	      0.04973522	      0.13927689
      5.52631579	      0.06520293	      0.04914187	      0.13854414
      5.54385965	      0.06457167	      0.04890341	      0.13952884
      5.56140351	      0.06474286	      0.04896819	      0.14147852
      5.57894737	      0.06525119	      0.04916005	      0.14322870
      5.59649123	      0.06555956	      0.04927608	      0.14351456
      5.61403509	      0.06557142	      0.04928054	      0.14263967
      5.63157895	      0.06542483	      0.04922542	      0.14204071
      5.64912281	      0.06530005	      0.04917845	      0.14268160
      5.66666667	      0.06519780	      0.04913994	      0.14521628
      5.68421053	      0.06521462	      0.04914627	      0.14879071
      5.70175439	      0.06538009	      0.04920858	      0.15257961
      5.71929825	      0.06537266	      0.04920579	      0.15511618
      5.73684211	      0.06466106	      0.04893725	      0.15506289
      5.75438596	      0.06291650	      0.04827257	      0.15164345
      5.77192982	      0.06027796	      0.04724952	      0.14484439
      5.78947368	      0.05721814	      0.04603467	      0.13579259
      5.80701754	      0.05405728	      0.04474507	      0.12566136
      5.82456140	      0.05118633	      0.04354067	      0.11643874
      5.84210526	      0.04859240	      0.04242309	      0.10917632
      5.85964912	      0.04629579	      0.04140844	      0.10377644
      5.87719298	      0.04431805	      0.04051431	      0.09978568
      5.89473684	      0.04254326	      0.03969479	      0.09650998
      5.91228070	      0.04101469	      0.03897515	      0.09406536
      5.92982456	      0.03979340	      0.03839049	      0.09261645
      5.94736842	      0.03882263	      0.03791932	      0.09190600
      5.96491228	      0.03806522	      0.03754761	      0.09135015
      5.98245614	      0.03760291	      0.03731890	      0.09077161
      6.00000000	      0.03762465	      0.03732969	      0.09002196
      6.01754386	      0.03826769	      0.03764734	      0.08933448
      6.03508772	      0.03938902	      0.03819493	      0.08905339
      6.05263158	      0.04078095	      0.03886393	      0.08982923
      6.07017544	      0.04178852	      0.03934111	      0.09122279
      6.08771930	      0.04259344	      0.03971819	      0.09328431
      6.10526316	      0.04353565	      0.04015509	      0.09561532
      6.12280702	      0.04409228	      0.04041098	      0.09767819
      6.14035088	      0.04370702	      0.04023405	      0.09886975
      6.15789474	      0.04297657	      0.03989642	      0.09876119
      6.17543860	      0.04203995	      0.03945928	      0.09745736
      6.19298246	      0.04081748	      0.03888134	      0.09544170
      6.21052632	      0.03937986	      0.03819049	      0.09321378
      6.22807018	      0.03802297	      0.03752677	      0.09093177
      6.24561404	      0.03707162	      0.03705432	      0.08874914
      6.26315789	      0.03676358	      0.03690006	      0.08759110
      6.28070175	      0.03687239	      0.03695462	      0.08659725
      6.29824561	      0.03715020	      0.03709357	      0.08591457
      6.31578947	      0.03741049	      0.03722330	      0.08547720
      6.33333333	      0.03776876	      0.03740111	      0.08472764
      6.35087719	      0.03856697	      0.03779426	      0.08498053
      6.36842105	      0.03977153	      0.03837994	      0.08580225
      6.38596491	      0.04112106	      0.03902566	      0.08726499
      6.40350877	      0.04223486	      0.03955065	      0.08911875
      6.42105263	      0.04289142	      0.03985688	      0.09091664
      6.43859649	      0.04312328	      0.03996447	      0.09271748
      6.45614035	      0.04301346	      0.03991355	      0.09431865
      6.47368421	      0.04252243	      0.03968507	      0.09542477
      6.49122807	      0.04185451	      0.03937216	      0.09558278
      6.50877193	      0.04106171	      0.03899749	      0.09498753
      6.52631579	      0.04033037	      0.03864864	      0.09374780
      6.54385965	      0.03971998	      0.03835506	      0.09225626
      6.56140351	      0.03923606	      0.03812069	      0.09095073
      6.57894737	      0.03887337	      0.03794410	      0.08994906
      6.59649123	      0.03862092	      0.03782069	      0.08937821
      6.61403509	      0.03842606	      0.03772515	      0.08920025
      6.63157895	      0.03825991	      0.03764351	      0.08940881
      6.64912281	      0.03817591	      0.03760216	      0.08998104
      6.66666667	      0.03838939	      0.03770715	      0.09120013
