Model Marker Errors from IK
version=1
nRows=209
nColumns=4
inDegrees=no
endheader
time	total_squared_error	marker_error_RMS	marker_error_max
      0.00000000	      0.01897992	      0.02651339	      0.04437378
      0.02173913	      0.01827896	      0.02601919	      0.04593723
      0.04347826	      0.01797071	      0.02579887	      0.04679397
      0.06521739	      0.01780991	      0.02568319	      0.04710149
      0.08695652	      0.01775356	      0.02564253	      0.04681927
      0.10869565	      0.01779704	      0.02567391	      0.04624435
      0.13043478	      0.01797218	      0.02579993	      0.04621144
      0.15217391	      0.01820981	      0.02596993	      0.04601085
      0.17391304	      0.01842565	      0.02612339	      0.04617518
      0.19565217	      0.01854347	      0.02620678	      0.04603045
      0.21739130	      0.01859579	      0.02624372	      0.04569676
      0.23913043	      0.01867240	      0.02629773	      0.04523083
      0.26086957	      0.01884783	      0.02642097	      0.04471340
      0.28260870	      0.01915661	      0.02663652	      0.04410891
      0.30434783	      0.01961312	      0.02695203	      0.04421817
      0.32608696	      0.02012263	      0.02729986	      0.04640015
      0.34782609	      0.02023433	      0.02737553	      0.04784845
      0.36956522	      0.01968395	      0.02700065	      0.04856309
      0.39130435	      0.01931975	      0.02674970	      0.04878911
      0.41304348	      0.01971633	      0.02702285	      0.04838752
      0.43478261	      0.02060301	      0.02762380	      0.04980151
      0.45652174	      0.02125677	      0.02805865	      0.05033554
      0.47826087	      0.02120332	      0.02802335	      0.04960335
      0.50000000	      0.02057221	      0.02760315	      0.04820223
      0.52173913	      0.01951482	      0.02688440	      0.04660071
      0.54347826	      0.01829811	      0.02603282	      0.04642597
      0.56521739	      0.01737932	      0.02537082	      0.04674924
      0.58695652	      0.01687669	      0.02500125	      0.04677173
      0.60869565	      0.01663259	      0.02481979	      0.04697459
      0.63043478	      0.01643413	      0.02467127	      0.04705653
      0.65217391	      0.01605682	      0.02438641	      0.04703594
      0.67391304	      0.01563973	      0.02406760	      0.04631606
      0.69565217	      0.01567032	      0.02409113	      0.04582144
      0.71739130	      0.01621650	      0.02450737	      0.04655997
      0.73913043	      0.01530779	      0.02381082	      0.04232538
      0.76086957	      0.01592753	      0.02428803	      0.04138119
      0.78260870	      0.01657295	      0.02477525	      0.04539709
      0.80434783	      0.01710059	      0.02516655	      0.04800827
      0.82608696	      0.01726317	      0.02528590	      0.04756214
      0.84782609	      0.01700269	      0.02509441	      0.04422715
      0.86956522	      0.01663403	      0.02482086	      0.03999034
      0.89130435	      0.01632538	      0.02458951	      0.03646494
      0.91304348	      0.01610784	      0.02442513	      0.03615997
      0.93478261	      0.01578876	      0.02418199	      0.03619726
      0.95652174	      0.01517923	      0.02371062	      0.03632741
      0.97826087	      0.01451411	      0.02318533	      0.03605845
      1.00000000	      0.01397258	      0.02274869	      0.03608698
      1.02173913	      0.01370651	      0.02253106	      0.03588885
      1.04347826	      0.01364376	      0.02247942	      0.03610793
      1.06521739	      0.01369807	      0.02252412	      0.03623702
      1.08695652	      0.01393228	      0.02271586	      0.03644832
      1.10869565	      0.01434856	      0.02305272	      0.03695569
      1.13043478	      0.01443602	      0.02312287	      0.03699947
      1.15217391	      0.01378924	      0.02259895	      0.03683828
      1.17391304	      0.01306982	      0.02200153	      0.03645160
      1.19565217	      0.01274637	      0.02172758	      0.03607223
      1.21739130	      0.01283133	      0.02179987	      0.03699756
      1.23913043	      0.01330046	      0.02219482	      0.03907171
      1.26086957	      0.01389823	      0.02268809	      0.04004986
      1.28260870	      0.01408421	      0.02283938	      0.03676178
      1.30434783	      0.01498009	      0.02355458	      0.03728711
      1.32608696	      0.01601053	      0.02435123	      0.03786372
      1.34782609	      0.01714211	      0.02519708	      0.04078718
      1.36956522	      0.01814098	      0.02592081	      0.04523383
      1.39130435	      0.01888487	      0.02644692	      0.04873915
      1.41304348	      0.01913111	      0.02661878	      0.05057498
      1.43478261	      0.01901398	      0.02653717	      0.05109794
      1.45652174	      0.01868025	      0.02630326	      0.05091966
      1.47826087	      0.01829309	      0.02602925	      0.05040975
      1.50000000	      0.01789791	      0.02574657	      0.04970976
      1.52173913	      0.01743305	      0.02541001	      0.04921000
      1.54347826	      0.01705600	      0.02513371	      0.04870316
      1.56521739	      0.01688551	      0.02500778	      0.04955014
      1.58695652	      0.01684689	      0.02497917	      0.05166635
      1.60869565	      0.01692444	      0.02503660	      0.05344640
      1.63043478	      0.01697080	      0.02507086	      0.05435804
      1.65217391	      0.01692086	      0.02503395	      0.05477491
      1.67391304	      0.01670932	      0.02487697	      0.05498981
      1.69565217	      0.01633899	      0.02459975	      0.05484993
      1.71739130	      0.01593882	      0.02429664	      0.05405146
      1.73913043	      0.01566381	      0.02408612	      0.05382757
      1.76086957	      0.01570845	      0.02412042	      0.05424285
      1.78260870	      0.01603453	      0.02436948	      0.05462028
      1.80434783	      0.01643037	      0.02466845	      0.05473433
      1.82608696	      0.01661045	      0.02480327	      0.05445256
      1.84782609	      0.01651658	      0.02473308	      0.05380733
      1.86956522	      0.01628899	      0.02456208	      0.05292084
      1.89130435	      0.01594892	      0.02430434	      0.05194294
      1.91304348	      0.01558157	      0.02402280	      0.05102318
      1.93478261	      0.01525773	      0.02377185	      0.05016412
      1.95652174	      0.01496731	      0.02354453	      0.04945810
      1.97826087	      0.01479625	      0.02340960	      0.04951076
      2.00000000	      0.01464249	      0.02328765	      0.05042021
      2.02173913	      0.01452065	      0.02319056	      0.05179311
      2.04347826	      0.01429295	      0.02300801	      0.05269256
      2.06521739	      0.01397098	      0.02274739	      0.05289955
      2.08695652	      0.01362429	      0.02246338	      0.05274616
      2.10869565	      0.01333187	      0.02222100	      0.05214074
      2.13043478	      0.01307175	      0.02200316	      0.05085674
      2.15217391	      0.01278150	      0.02175750	      0.04895491
      2.17391304	      0.01244286	      0.02146734	      0.04654181
      2.19565217	      0.01209768	      0.02116748	      0.04432944
      2.21739130	      0.01188696	      0.02098232	      0.04249618
      2.23913043	      0.01179186	      0.02089822	      0.04079489
      2.26086957	      0.01186179	      0.02096009	      0.03989328
      2.28260870	      0.01211609	      0.02118358	      0.03943890
      2.30434783	      0.01251877	      0.02153272	      0.03981206
      2.32608696	      0.01290557	      0.02186285	      0.04004697
      2.34782609	      0.01327464	      0.02217326	      0.03885919
      2.36956522	      0.01349174	      0.02235384	      0.03581233
      2.39130435	      0.01349440	      0.02235604	      0.03641328
      2.41304348	      0.01349861	      0.02235953	      0.03853096
      2.43478261	      0.01369580	      0.02252226	      0.04090880
      2.45652174	      0.01407111	      0.02282876	      0.04301960
      2.47826087	      0.01447331	      0.02315272	      0.04464127
      2.50000000	      0.01478186	      0.02339821	      0.04516105
      2.52173913	      0.01508734	      0.02363875	      0.04613965
      2.54347826	      0.01539258	      0.02387667	      0.04683511
      2.56521739	      0.01565459	      0.02407903	      0.04782764
      2.58695652	      0.01569086	      0.02410690	      0.04809306
      2.60869565	      0.01565254	      0.02407745	      0.04792993
      2.63043478	      0.01561701	      0.02405011	      0.04757939
      2.65217391	      0.01554482	      0.02399446	      0.04731780
      2.67391304	      0.01532508	      0.02382427	      0.04677319
      2.69565217	      0.01498876	      0.02356139	      0.04669358
      2.71739130	      0.01457119	      0.02323088	      0.04621934
      2.73913043	      0.01421002	      0.02294116	      0.04531594
      2.76086957	      0.01408864	      0.02284297	      0.04451489
      2.78260870	      0.01411752	      0.02286638	      0.04358633
      2.80434783	      0.01424560	      0.02296987	      0.04304094
      2.82608696	      0.01439932	      0.02309346	      0.04226175
      2.84782609	      0.01457912	      0.02323720	      0.04149740
      2.86956522	      0.01461306	      0.02326423	      0.04099850
      2.89130435	      0.01447527	      0.02315429	      0.04080096
      2.91304348	      0.01412764	      0.02287457	      0.04050933
      2.93478261	      0.01373297	      0.02255279	      0.03998257
      2.95652174	      0.01349440	      0.02235604	      0.03969018
      2.97826087	      0.01342504	      0.02229852	      0.03880859
      3.00000000	      0.01361856	      0.02245866	      0.03929099
      3.02173913	      0.01402454	      0.02279095	      0.03993516
      3.04347826	      0.01454010	      0.02320608	      0.04063096
      3.06521739	      0.01500571	      0.02357471	      0.04173200
      3.08695652	      0.01525005	      0.02376587	      0.04247303
      3.10869565	      0.01523368	      0.02375311	      0.04305976
      3.13043478	      0.01507828	      0.02363165	      0.04369422
      3.15217391	      0.01492263	      0.02350936	      0.04427152
      3.17391304	      0.01487512	      0.02347191	      0.04435534
      3.19565217	      0.01487009	      0.02346794	      0.04396526
      3.21739130	      0.01485244	      0.02345400	      0.04448177
      3.23913043	      0.01477722	      0.02339454	      0.04517798
      3.26086957	      0.01482921	      0.02343566	      0.04575283
      3.28260870	      0.01494877	      0.02352994	      0.04611422
      3.30434783	      0.01510444	      0.02365214	      0.04544605
      3.32608696	      0.01515572	      0.02369226	      0.04405366
      3.34782609	      0.01533785	      0.02383418	      0.04398545
      3.36956522	      0.01557805	      0.02402009	      0.04478345
      3.39130435	      0.01580434	      0.02419392	      0.04507243
      3.41304348	      0.01597877	      0.02432707	      0.04497070
      3.43478261	      0.01608799	      0.02441007	      0.04529942
      3.45652174	      0.01617155	      0.02447338	      0.04735878
      3.47826087	      0.01634960	      0.02460773	      0.04886291
      3.50000000	      0.01661420	      0.02480607	      0.05041760
      3.52173913	      0.01697390	      0.02507315	      0.05236825
      3.54347826	      0.01736014	      0.02535681	      0.05395828
      3.56521739	      0.01762675	      0.02555078	      0.05508766
      3.58695652	      0.01768342	      0.02559182	      0.05453332
      3.60869565	      0.01759664	      0.02552895	      0.05366049
      3.63043478	      0.01726787	      0.02528934	      0.04970385
      3.65217391	      0.01704399	      0.02512487	      0.04807807
      3.67391304	      0.01666274	      0.02484228	      0.04767350
      3.69565217	      0.01654394	      0.02475356	      0.04769491
      3.71739130	      0.01640851	      0.02465203	      0.04764131
      3.73913043	      0.01606597	      0.02439336	      0.04741961
      3.76086957	      0.01576888	      0.02416677	      0.04700220
      3.78260870	      0.01598810	      0.02433417	      0.04604181
      3.80434783	      0.01688876	      0.02501019	      0.04518825
      3.82608696	      0.01842172	      0.02612060	      0.04834995
      3.84782609	      0.02015120	      0.02731924	      0.05101308
      3.86956522	      0.02114180	      0.02798266	      0.05171458
      3.89130435	      0.02053488	      0.02757809	      0.05009194
      3.91304348	      0.01872906	      0.02633759	      0.04774471
      3.93478261	      0.01686316	      0.02499123	      0.04481193
      3.95652174	      0.01571560	      0.02412590	      0.04420067
      3.97826087	      0.01545836	      0.02392764	      0.04561273
      4.00000000	      0.01608199	      0.02440551	      0.04823571
      4.02173913	      0.01744617	      0.02541957	      0.05268779
      4.04347826	      0.01895550	      0.02649633	      0.05799502
      4.06521739	      0.01999445	      0.02721277	      0.06296241
      4.08695652	      0.02051336	      0.02756364	      0.06699736
      4.10869565	      0.02050474	      0.02755784	      0.06862779
      4.13043478	      0.01960802	      0.02694853	      0.06691739
      4.15217391	      0.01795188	      0.02578535	      0.06220528
      4.17391304	      0.01616301	      0.02446692	      0.05591434
      4.19565217	      0.01470923	      0.02334066	      0.04951908
      4.21739130	      0.01369418	      0.02252092	      0.04380381
      4.23913043	      0.01314472	      0.02206448	      0.03898401
      4.26086957	      0.01296439	      0.02191261	      0.03939665
      4.28260870	      0.01288042	      0.02184154	      0.03995061
      4.30434783	      0.01265741	      0.02165162	      0.03966323
      4.32608696	      0.01243721	      0.02146247	      0.03892461
      4.34782609	      0.01240071	      0.02143095	      0.03849075
      4.36956522	      0.01262342	      0.02162254	      0.03890168
      4.39130435	      0.01297505	      0.02192162	      0.03979935
      4.41304348	      0.01335363	      0.02223913	      0.04034902
      4.43478261	      0.01372732	      0.02254816	      0.04153725
      4.45652174	      0.01405829	      0.02281836	      0.04263377
      4.47826087	      0.01423737	      0.02296323	      0.04353183
      4.50000000	      0.01421103	      0.02294198	      0.04405064
      4.52173913	      0.01401929	      0.02278668	      0.04386060
