Model Marker Errors from IK
version=1
nRows=369
nColumns=4
inDegrees=no
endheader
time	total_squared_error	marker_error_RMS	marker_error_max
      0.00000000	      0.04528788	      0.04095520	      0.07116483
      0.01694915	      0.04421502	      0.04046719	      0.07150467
      0.03389831	      0.04374867	      0.04025321	      0.07199738
      0.05084746	      0.04358271	      0.04017679	      0.07235105
      0.06779661	      0.04361217	      0.04019037	      0.07253615
      0.08474576	      0.04376292	      0.04025977	      0.07262929
      0.10169492	      0.04394228	      0.04034218	      0.07257053
      0.11864407	      0.04408550	      0.04040788	      0.07241713
      0.13559322	      0.04418406	      0.04045302	      0.07229081
      0.15254237	      0.04428292	      0.04049825	      0.07217069
      0.16949153	      0.04445418	      0.04057648	      0.07218181
      0.18644068	      0.04472711	      0.04070085	      0.07226225
      0.20338983	      0.04509781	      0.04086917	      0.07257513
      0.22033898	      0.04542350	      0.04101648	      0.07276596
      0.23728814	      0.04571101	      0.04114609	      0.07286930
      0.25423729	      0.04596185	      0.04125883	      0.07273957
      0.27118644	      0.04617212	      0.04135309	      0.07279858
      0.28813559	      0.04643626	      0.04147121	      0.07280325
      0.30508475	      0.04673051	      0.04160240	      0.07268267
      0.32203390	      0.04703812	      0.04173910	      0.07266767
      0.33898305	      0.04737890	      0.04189002	      0.07259899
      0.35593220	      0.04776707	      0.04206127	      0.07236924
      0.37288136	      0.04817715	      0.04224144	      0.07268161
      0.38983051	      0.04864257	      0.04244498	      0.07296354
      0.40677966	      0.04897949	      0.04259173	      0.07289851
      0.42372881	      0.04936382	      0.04275850	      0.07297731
      0.44067797	      0.04971054	      0.04290841	      0.07321262
      0.45762712	      0.04995545	      0.04301397	      0.07347986
      0.47457627	      0.05004510	      0.04305255	      0.07348240
      0.49152542	      0.05005486	      0.04305675	      0.07344003
      0.50847458	      0.05003046	      0.04304626	      0.07324918
      0.52542373	      0.05000906	      0.04303705	      0.07290231
      0.54237288	      0.04993617	      0.04300567	      0.07260144
      0.55932203	      0.04977089	      0.04293444	      0.07230847
      0.57627119	      0.04952173	      0.04282684	      0.07208356
      0.59322034	      0.04924565	      0.04270730	      0.07208018
      0.61016949	      0.04897322	      0.04258900	      0.07184968
      0.62711864	      0.04873714	      0.04248623	      0.07188953
      0.64406780	      0.04861080	      0.04243112	      0.07212911
      0.66101695	      0.04856622	      0.04241166	      0.07223536
      0.67796610	      0.04865503	      0.04245042	      0.07241619
      0.69491525	      0.04884938	      0.04253512	      0.07263755
      0.71186441	      0.04905027	      0.04262249	      0.07280677
      0.72881356	      0.04911183	      0.04264923	      0.07317362
      0.74576271	      0.04889123	      0.04255334	      0.07353846
      0.76271186	      0.04835690	      0.04232016	      0.07340369
      0.77966102	      0.04765584	      0.04201227	      0.07348165
      0.79661017	      0.04701391	      0.04172836	      0.07350477
      0.81355932	      0.04662946	      0.04155740	      0.07330771
      0.83050847	      0.04647347	      0.04148782	      0.07351815
      0.84745763	      0.04632690	      0.04142235	      0.07400073
      0.86440678	      0.04598957	      0.04127127	      0.07462015
      0.88135593	      0.04550002	      0.04105101	      0.07563132
      0.89830508	      0.04505598	      0.04085022	      0.07679708
      0.91525424	      0.04505825	      0.04085124	      0.07794840
      0.93220339	      0.04563023	      0.04110971	      0.07968754
      0.94915254	      0.04674276	      0.04160785	      0.08072225
      0.96610169	      0.04851105	      0.04238757	      0.08189285
      0.98305085	      0.05068987	      0.04332900	      0.08359686
      1.00000000	      0.05274832	      0.04420002	      0.08595679
      1.01694915	      0.05450736	      0.04493096	      0.08937666
      1.03389831	      0.05564830	      0.04539877	      0.09248294
      1.05084746	      0.05600742	      0.04554502	      0.09504788
      1.06779661	      0.05556659	      0.04536542	      0.09667781
      1.08474576	      0.05424610	      0.04482315	      0.09693142
      1.10169492	      0.05170200	      0.04375944	      0.09513137
      1.11864407	      0.04785767	      0.04210114	      0.09173858
      1.13559322	      0.04331987	      0.04005546	      0.08887246
      1.15254237	      0.03908219	      0.03804588	      0.08530060
      1.16949153	      0.03579610	      0.03641128	      0.08160604
      1.18644068	      0.03376137	      0.03536129	      0.07880553
      1.20338983	      0.03289739	      0.03490590	      0.07719759
      1.22033898	      0.03262293	      0.03475998	      0.07665952
      1.23728814	      0.03195144	      0.03440039	      0.07593747
      1.25423729	      0.03030283	      0.03350115	      0.07336781
      1.27118644	      0.02794392	      0.03217079	      0.06841503
      1.28813559	      0.02554413	      0.03075840	      0.06179064
      1.30508475	      0.02364290	      0.02959160	      0.05482590
      1.32203390	      0.02250735	      0.02887223	      0.05252224
      1.33898305	      0.02219069	      0.02866840	      0.05291437
      1.35593220	      0.02256617	      0.02890993	      0.05367976
      1.37288136	      0.02336780	      0.02941894	      0.05499654
      1.38983051	      0.02411460	      0.02988533	      0.05664970
      1.40677966	      0.02432462	      0.03001519	      0.05816265
      1.42372881	      0.02396919	      0.02979510	      0.05924773
      1.44067797	      0.02348226	      0.02949090	      0.05945247
      1.45762712	      0.02334575	      0.02940506	      0.05882295
      1.47457627	      0.02367402	      0.02961107	      0.05838490
      1.49152542	      0.02420267	      0.02993986	      0.05962178
      1.50847458	      0.02464293	      0.03021095	      0.06091422
      1.52542373	      0.02494483	      0.03039544	      0.06279019
      1.54237288	      0.02523297	      0.03057048	      0.06558474
      1.55932203	      0.02552693	      0.03074804	      0.06879033
      1.57627119	      0.02573743	      0.03087456	      0.07221744
      1.59322034	      0.02587557	      0.03095730	      0.07574134
      1.61016949	      0.02602158	      0.03104452	      0.07984602
      1.62711864	      0.02649188	      0.03132380	      0.08398564
      1.64406780	      0.02766795	      0.03201154	      0.08891357
      1.66101695	      0.02912998	      0.03284643	      0.09233587
      1.67796610	      0.03039099	      0.03354985	      0.09395889
      1.69491525	      0.03081012	      0.03378040	      0.09254459
      1.71186441	      0.02993920	      0.03329954	      0.08795823
      1.72881356	      0.02761510	      0.03198095	      0.08084558
      1.74576271	      0.02414163	      0.02990208	      0.07201492
      1.76271186	      0.02033202	      0.02744153	      0.06194117
      1.77966102	      0.01726993	      0.02529085	      0.05146836
      1.79661017	      0.01522578	      0.02374696	      0.04070717
      1.81355932	      0.01347221	      0.02233765	      0.03700785
      1.83050847	      0.01256501	      0.02157245	      0.03528562
      1.84745763	      0.01225122	      0.02130138	      0.03437121
      1.86440678	      0.01250009	      0.02151665	      0.03438722
      1.88135593	      0.01288727	      0.02184734	      0.03608389
      1.89830508	      0.01324137	      0.02214546	      0.04041363
      1.91525424	      0.01436131	      0.02306296	      0.04692212
      1.93220339	      0.01584197	      0.02422271	      0.05344713
      1.94915254	      0.01707569	      0.02514822	      0.05709103
      1.96610169	      0.01775834	      0.02564598	      0.05661103
      1.98305085	      0.01823673	      0.02598912	      0.05495414
      2.00000000	      0.01870530	      0.02632088	      0.05410143
      2.01694915	      0.01902326	      0.02654365	      0.05291872
      2.03389831	      0.01932556	      0.02675372	      0.05211606
      2.05084746	      0.01972369	      0.02702790	      0.05373409
      2.06779661	      0.02008441	      0.02727392	      0.05478157
      2.08474576	      0.02025017	      0.02738624	      0.05568240
      2.10169492	      0.02053049	      0.02757514	      0.05494126
      2.11864407	      0.02074558	      0.02771922	      0.05564418
      2.13559322	      0.02050332	      0.02755689	      0.05565133
      2.15254237	      0.02046252	      0.02752946	      0.05456889
      2.16949153	      0.02166796	      0.02832873	      0.05590274
      2.18644068	      0.02390237	      0.02975354	      0.05883829
      2.20338983	      0.02562366	      0.03080624	      0.05991421
      2.22033898	      0.02566976	      0.03083394	      0.05815802
      2.23728814	      0.02412485	      0.02989169	      0.05469589
      2.25423729	      0.02201196	      0.02855272	      0.05257487
      2.27118644	      0.02034413	      0.02744970	      0.05422950
      2.28813559	      0.01947448	      0.02685660	      0.05575135
      2.30508475	      0.01907461	      0.02657945	      0.05678976
      2.32203390	      0.01867578	      0.02630011	      0.05706058
      2.33898305	      0.01810012	      0.02589160	      0.05630465
      2.35593220	      0.01756028	      0.02550256	      0.05474065
      2.37288136	      0.01761497	      0.02554225	      0.05295820
      2.38983051	      0.01872119	      0.02633206	      0.05120893
      2.40677966	      0.02054308	      0.02758359	      0.04916313
      2.42372881	      0.02234074	      0.02876516	      0.04695863
      2.44067797	      0.02343060	      0.02945844	      0.05040054
      2.45762712	      0.02343824	      0.02946325	      0.05283065
      2.47457627	      0.02254056	      0.02889352	      0.05414238
      2.49152542	      0.02145247	      0.02818751	      0.05438402
      2.50847458	      0.02103190	      0.02790984	      0.05400934
      2.52542373	      0.02105898	      0.02792780	      0.05334748
      2.54237288	      0.02128022	      0.02807412	      0.05406772
      2.55932203	      0.02167518	      0.02833345	      0.05444680
      2.57627119	      0.02191979	      0.02849287	      0.05310548
      2.59322034	      0.02189356	      0.02847583	      0.05303142
      2.61016949	      0.02180903	      0.02842080	      0.05310999
      2.62711864	      0.02216241	      0.02865013	      0.05288384
      2.64406780	      0.02282392	      0.02907457	      0.05242697
      2.66101695	      0.02357262	      0.02954759	      0.05176601
      2.67796610	      0.02457294	      0.03016801	      0.05334424
      2.69491525	      0.02558108	      0.03078063	      0.05547948
      2.71186441	      0.02601848	      0.03104267	      0.05457176
      2.72881356	      0.02528704	      0.03060322	      0.05194164
      2.74576271	      0.02381916	      0.02970170	      0.05303261
      2.76271186	      0.02255897	      0.02890532	      0.05426351
      2.77966102	      0.02203656	      0.02856867	      0.05572660
      2.79661017	      0.02207723	      0.02859502	      0.05702655
      2.81355932	      0.02215732	      0.02864684	      0.05843250
      2.83050847	      0.02202423	      0.02856068	      0.05942327
      2.84745763	      0.02204208	      0.02857225	      0.06019772
      2.86440678	      0.02266723	      0.02897459	      0.06081949
      2.88135593	      0.02357485	      0.02954899	      0.06146436
      2.89830508	      0.02428345	      0.02998978	      0.06217335
      2.91525424	      0.02481177	      0.03031426	      0.06293186
      2.93220339	      0.02534654	      0.03063920	      0.06365427
      2.94915254	      0.02583568	      0.03093343	      0.06429974
      2.96610169	      0.02636273	      0.03124736	      0.06488239
      2.98305085	      0.02723632	      0.03176087	      0.06529833
      3.00000000	      0.02849559	      0.03248680	      0.06545150
      3.01694915	      0.02965337	      0.03314020	      0.06522373
      3.03389831	      0.03043857	      0.03357610	      0.06470607
      3.05084746	      0.03113261	      0.03395673	      0.06395604
      3.06779661	      0.03097740	      0.03387198	      0.06340218
      3.08474576	      0.02918445	      0.03287713	      0.06357360
      3.10169492	      0.02747384	      0.03189906	      0.06434028
      3.11864407	      0.02621980	      0.03116254	      0.06543372
      3.13559322	      0.02603985	      0.03105542	      0.06651564
      3.15254237	      0.02696690	      0.03160339	      0.06769183
      3.16949153	      0.02834158	      0.03239889	      0.07247054
      3.18644068	      0.02937798	      0.03298596	      0.07546184
      3.20338983	      0.02996173	      0.03331207	      0.07614963
      3.22033898	      0.03089063	      0.03382451	      0.07609693
      3.23728814	      0.03275918	      0.03483250	      0.07673295
      3.25423729	      0.03485105	      0.03592742	      0.07839580
      3.27118644	      0.03619327	      0.03661273	      0.07917593
      3.28813559	      0.03571016	      0.03636755	      0.07605221
      3.30508475	      0.03319728	      0.03506464	      0.07490856
      3.32203390	      0.03008530	      0.03338069	      0.07406524
      3.33898305	      0.02743192	      0.03187471	      0.07207384
      3.35593220	      0.02532303	      0.03062499	      0.06617996
      3.37288136	      0.02392846	      0.02976977	      0.06189331
      3.38983051	      0.02271666	      0.02900617	      0.05625843
      3.40677966	      0.02138743	      0.02814475	      0.05303589
      3.42372881	      0.02000233	      0.02721814	      0.05000477
      3.44067797	      0.01888081	      0.02644408	      0.04700922
      3.45762712	      0.01837249	      0.02608568	      0.04581260
      3.47457627	      0.01854288	      0.02620636	      0.04635648
      3.49152542	      0.01922050	      0.02668090	      0.04718090
      3.50847458	      0.02012868	      0.02730397	      0.04745383
      3.52542373	      0.02096714	      0.02786684	      0.04940376
      3.54237288	      0.02158412	      0.02827387	      0.05241585
      3.55932203	      0.02165724	      0.02832172	      0.05564879
      3.57627119	      0.02088656	      0.02781324	      0.05682031
      3.59322034	      0.01923101	      0.02668819	      0.05385561
      3.61016949	      0.01711215	      0.02517506	      0.04668505
      3.62711864	      0.01540751	      0.02388825	      0.04186140
      3.64406780	      0.01480418	      0.02341587	      0.04213208
      3.66101695	      0.01511429	      0.02365985	      0.04075359
      3.67796610	      0.01655287	      0.02476023	      0.03942818
      3.69491525	      0.01819503	      0.02595939	      0.04072615
      3.71186441	      0.01916712	      0.02664382	      0.04424081
      3.72881356	      0.01948657	      0.02686494	      0.04482820
      3.74576271	      0.01968179	      0.02699917	      0.04832586
      3.76271186	      0.02005308	      0.02725265	      0.05141399
      3.77966102	      0.02052244	      0.02756974	      0.05444191
      3.79661017	      0.02092318	      0.02783761	      0.05602010
      3.81355932	      0.02108358	      0.02794411	      0.05592384
      3.83050847	      0.02075763	      0.02772727	      0.05493927
      3.84745763	      0.01989737	      0.02714663	      0.05417011
      3.86440678	      0.01892265	      0.02647337	      0.05374015
      3.88135593	      0.01818998	      0.02595579	      0.05378620
      3.89830508	      0.01782151	      0.02569155	      0.05430476
      3.91525424	      0.01785522	      0.02571584	      0.05538275
      3.93220339	      0.01829800	      0.02603274	      0.05683961
      3.94915254	      0.01899441	      0.02652351	      0.05829212
      3.96610169	      0.01966948	      0.02699073	      0.05948372
      3.98305085	      0.02010223	      0.02728602	      0.06024100
      4.00000000	      0.02023434	      0.02737553	      0.06041705
      4.01694915	      0.02009912	      0.02728391	      0.06006493
      4.03389831	      0.01977817	      0.02706519	      0.05931231
      4.05084746	      0.01958608	      0.02693345	      0.05833061
      4.06779661	      0.02009067	      0.02727818	      0.05981422
      4.08474576	      0.02089853	      0.02782121	      0.06196348
      4.10169492	      0.02110878	      0.02796081	      0.06334555
      4.11864407	      0.02141543	      0.02816317	      0.06361169
      4.13559322	      0.02127322	      0.02806950	      0.06233949
      4.15254237	      0.02049711	      0.02755272	      0.05925987
      4.16949153	      0.01910093	      0.02659778	      0.05522653
      4.18644068	      0.01707230	      0.02514573	      0.05020750
      4.20338983	      0.01580821	      0.02419688	      0.04477087
      4.22033898	      0.01533131	      0.02382911	      0.04382270
      4.23728814	      0.01550053	      0.02396025	      0.04390685
      4.25423729	      0.01607190	      0.02439786	      0.04254747
      4.27118644	      0.01685921	      0.02498830	      0.04120173
      4.28813559	      0.01804860	      0.02585472	      0.04707289
      4.30508475	      0.01989238	      0.02714323	      0.05201858
      4.32203390	      0.02254396	      0.02889570	      0.05647251
      4.33898305	      0.02583254	      0.03093155	      0.06840432
      4.35593220	      0.02934772	      0.03296897	      0.08159026
      4.37288136	      0.03255680	      0.03472474	      0.09431305
      4.38983051	      0.03530331	      0.03615979	      0.10441342
      4.40677966	      0.03747525	      0.03725550	      0.11122318
      4.42372881	      0.03891484	      0.03796433	      0.11456244
      4.44067797	      0.03969282	      0.03834194	      0.11531925
      4.45762712	      0.03992589	      0.03845435	      0.11398801
      4.47457627	      0.03978364	      0.03838578	      0.11123405
      4.49152542	      0.03914676	      0.03807729	      0.10692280
      4.50847458	      0.03772307	      0.03737848	      0.10107971
      4.52542373	      0.03545466	      0.03623721	      0.09425702
      4.54237288	      0.03291174	      0.03491351	      0.08862565
      4.55932203	      0.03100887	      0.03388918	      0.08641164
      4.57627119	      0.03041339	      0.03356221	      0.08847492
      4.59322034	      0.03107237	      0.03392386	      0.09309355
      4.61016949	      0.03237730	      0.03462888	      0.09769721
      4.62711864	      0.03345203	      0.03519892	      0.10007590
      4.64406780	      0.03327621	      0.03510630	      0.09880247
      4.66101695	      0.03087533	      0.03381613	      0.09258997
      4.67796610	      0.02621734	      0.03116107	      0.08073184
      4.69491525	      0.02074222	      0.02771697	      0.06440523
      4.71186441	      0.01639570	      0.02464241	      0.04626063
      4.72881356	      0.01418007	      0.02291698	      0.03871453
      4.74576271	      0.01365403	      0.02248788	      0.03834094
      4.76271186	      0.01359836	      0.02244199	      0.03990892
      4.77966102	      0.01348880	      0.02235140	      0.04427318
      4.79661017	      0.01378059	      0.02259187	      0.04812535
      4.81355932	      0.01499045	      0.02356272	      0.05209139
      4.83050847	      0.01698763	      0.02508329	      0.05595078
      4.84745763	      0.01938755	      0.02679659	      0.05933754
      4.86440678	      0.02165404	      0.02831963	      0.06223234
      4.88135593	      0.02346868	      0.02948237	      0.06501263
      4.89830508	      0.02475642	      0.03028043	      0.06831325
      4.91525424	      0.02582461	      0.03092680	      0.07165993
      4.93220339	      0.02688101	      0.03155302	      0.07363974
      4.94915254	      0.02763593	      0.03199301	      0.07232883
      4.96610169	      0.02762314	      0.03198561	      0.06623860
      4.98305085	      0.02687524	      0.03154963	      0.05477618
      5.00000000	      0.02590955	      0.03097762	      0.06071446
      5.01694915	      0.02534606	      0.03063891	      0.06586910
      5.03389831	      0.02541961	      0.03068333	      0.06663515
      5.05084746	      0.02589614	      0.03096961	      0.06308621
      5.06779661	      0.02631605	      0.03121968	      0.06138767
      5.08474576	      0.02627126	      0.03119310	      0.06207190
      5.10169492	      0.02582153	      0.03092496	      0.06240586
      5.11864407	      0.02565205	      0.03082330	      0.06343389
      5.13559322	      0.02667539	      0.03143211	      0.06367069
      5.15254237	      0.02924261	      0.03290987	      0.06363529
      5.16949153	      0.03212373	      0.03449301	      0.06343356
      5.18644068	      0.03340044	      0.03517177	      0.06323329
      5.20338983	      0.03219076	      0.03452898	      0.06182922
      5.22033898	      0.02918586	      0.03287792	      0.06061893
      5.23728814	      0.02599475	      0.03102851	      0.05941896
      5.25423729	      0.02422101	      0.02995120	      0.05849550
      5.27118644	      0.02436840	      0.03004219	      0.05761126
      5.28813559	      0.02531083	      0.03061761	      0.05724794
      5.30508475	      0.02539471	      0.03066831	      0.05715501
      5.32203390	      0.02417926	      0.02992538	      0.05709315
      5.33898305	      0.02262466	      0.02894737	      0.05669780
      5.35593220	      0.02163361	      0.02830627	      0.05496866
      5.37288136	      0.02127338	      0.02806961	      0.05367089
      5.38983051	      0.02090510	      0.02782558	      0.05150844
      5.40677966	      0.02011651	      0.02729571	      0.04850175
      5.42372881	      0.01908171	      0.02658440	      0.04461921
      5.44067797	      0.01861991	      0.02626074	      0.04743066
      5.45762712	      0.01906252	      0.02657102	      0.05168863
      5.47457627	      0.01952330	      0.02689025	      0.05310845
      5.49152542	      0.01891518	      0.02646814	      0.04867624
      5.50847458	      0.01750588	      0.02546303	      0.05321114
      5.52542373	      0.01648178	      0.02470701	      0.05761182
      5.54237288	      0.01631083	      0.02457855	      0.06138680
      5.55932203	      0.01668967	      0.02486234	      0.06344253
      5.57627119	      0.01728754	      0.02530374	      0.06506645
      5.59322034	      0.01772806	      0.02562410	      0.06518902
      5.61016949	      0.01823104	      0.02598507	      0.06422550
      5.62711864	      0.01901732	      0.02653950	      0.06163742
      5.64406780	      0.02006013	      0.02725744	      0.05857728
      5.66101695	      0.02092687	      0.02784006	      0.05559893
      5.67796610	      0.02143491	      0.02817597	      0.05243311
      5.69491525	      0.02175850	      0.02838786	      0.05592340
      5.71186441	      0.02244779	      0.02883400	      0.05912721
      5.72881356	      0.02397524	      0.02979886	      0.06056232
      5.74576271	      0.02624682	      0.03117859	      0.06041464
      5.76271186	      0.02851854	      0.03249988	      0.06950123
      5.77966102	      0.03000086	      0.03333381	      0.07668319
      5.79661017	      0.03062664	      0.03367967	      0.07846210
      5.81355932	      0.03084505	      0.03379955	      0.07760804
      5.83050847	      0.03081435	      0.03378272	      0.07735873
      5.84745763	      0.03043549	      0.03357440	      0.08165208
      5.86440678	      0.02988752	      0.03327079	      0.08480412
      5.88135593	      0.02942202	      0.03301067	      0.08607861
      5.89830508	      0.02915238	      0.03285906	      0.08558338
      5.91525424	      0.02908248	      0.03281964	      0.08369953
      5.93220339	      0.02917609	      0.03287242	      0.08101988
      5.94915254	      0.02940784	      0.03300272	      0.07798388
      5.96610169	      0.03017595	      0.03343094	      0.07485368
      5.98305085	      0.03249236	      0.03469035	      0.07199361
      6.00000000	      0.03685723	      0.03694702	      0.06952974
      6.01694915	      0.04178238	      0.03933822	      0.07183087
      6.03389831	      0.04745901	      0.04192542	      0.07582131
      6.05084746	      0.05222735	      0.04398120	      0.07983204
      6.06779661	      0.05570612	      0.04542235	      0.08342347
      6.08474576	      0.05777823	      0.04625943	      0.08656554
      6.10169492	      0.05848300	      0.04654070	      0.08889790
      6.11864407	      0.05794852	      0.04632754	      0.08979326
      6.13559322	      0.05277439	      0.04421094	      0.07823640
      6.15254237	      0.05078490	      0.04336960	      0.07649157
      6.16949153	      0.04876720	      0.04249932	      0.07359810
      6.18644068	      0.04685861	      0.04165938	      0.07572949
      6.20338983	      0.04494151	      0.04079829	      0.07845035
      6.22033898	      0.04332012	      0.04005557	      0.08023367
      6.23728814	      0.04301435	      0.03991396	      0.07980444
