Model Marker Errors from IK
version=1
nRows=344
nColumns=4
inDegrees=no
endheader
time	total_squared_error	marker_error_RMS	marker_error_max
      0.00000000	      0.02357330	      0.02954801	      0.05438664
      0.01666667	      0.02545050	      0.03070197	      0.05631792
      0.03333333	      0.02677286	      0.03148948	      0.05714449
      0.05000000	      0.02737549	      0.03184191	      0.05713261
      0.06666667	      0.02736838	      0.03183777	      0.05652039
      0.08333333	      0.02696149	      0.03160021	      0.05556831
      0.10000000	      0.02643113	      0.03128787	      0.05447113
      0.11666667	      0.02596344	      0.03100982	      0.05348709
      0.13333333	      0.02553500	      0.03075290	      0.05291830
      0.15000000	      0.02510529	      0.03049304	      0.05296900
      0.16666667	      0.02461356	      0.03019293	      0.05345043
      0.18333333	      0.02412165	      0.02988970	      0.05422701
      0.20000000	      0.02362638	      0.02958127	      0.05524502
      0.21666667	      0.02316053	      0.02928818	      0.05644573
      0.23333333	      0.02276432	      0.02903658	      0.05871750
      0.25000000	      0.02240226	      0.02880475	      0.06001549
      0.26666667	      0.02201663	      0.02855574	      0.06031392
      0.28333333	      0.02157419	      0.02826737	      0.05923014
      0.30000000	      0.02115808	      0.02799344	      0.05668836
      0.31666667	      0.02093232	      0.02784369	      0.05680678
      0.33333333	      0.02095770	      0.02786057	      0.05682709
      0.35000000	      0.02112795	      0.02797350	      0.05658580
      0.36666667	      0.02115074	      0.02798859	      0.05620136
      0.38333333	      0.02075211	      0.02772358	      0.05584171
      0.40000000	      0.01998912	      0.02720915	      0.05588744
      0.41666667	      0.01937885	      0.02679058	      0.05643613
      0.43333333	      0.01950641	      0.02687861	      0.05750358
      0.45000000	      0.02035549	      0.02745737	      0.05890351
      0.46666667	      0.02138275	      0.02814167	      0.06029895
      0.48333333	      0.02193371	      0.02850192	      0.06151201
      0.50000000	      0.02191309	      0.02848852	      0.06214662
      0.51666667	      0.02130642	      0.02809140	      0.06221315
      0.53333333	      0.02007564	      0.02726797	      0.06173228
      0.55000000	      0.01830199	      0.02603558	      0.06129322
      0.56666667	      0.01642586	      0.02466506	      0.06089196
      0.58333333	      0.01509271	      0.02364295	      0.06076401
      0.60000000	      0.01452019	      0.02319019	      0.06111330
      0.61666667	      0.01454796	      0.02321235	      0.06162671
      0.63333333	      0.01482907	      0.02343555	      0.06246697
      0.65000000	      0.01505491	      0.02361333	      0.06306942
      0.66666667	      0.01523257	      0.02375225	      0.06355328
      0.68333333	      0.01532896	      0.02382728	      0.06383950
      0.70000000	      0.01537922	      0.02386631	      0.06394167
      0.71666667	      0.01546344	      0.02393157	      0.06380444
      0.73333333	      0.01569606	      0.02411090	      0.06350266
      0.75000000	      0.01610084	      0.02441982	      0.06321437
      0.76666667	      0.01642036	      0.02466093	      0.06298709
      0.78333333	      0.01653093	      0.02474382	      0.06305577
      0.80000000	      0.01631603	      0.02458246	      0.06314350
      0.81666667	      0.01592228	      0.02428403	      0.06327591
      0.83333333	      0.01555682	      0.02400372	      0.06333849
      0.85000000	      0.01528498	      0.02379308	      0.06331452
      0.86666667	      0.01503908	      0.02360091	      0.06310005
      0.88333333	      0.01497949	      0.02355411	      0.06288766
      0.90000000	      0.01524335	      0.02376065	      0.06268332
      0.91666667	      0.01590486	      0.02427074	      0.06265145
      0.93333333	      0.01693083	      0.02504132	      0.06269165
      0.95000000	      0.01797630	      0.02580289	      0.06248027
      0.96666667	      0.01849119	      0.02616981	      0.06204282
      0.98333333	      0.01834068	      0.02606309	      0.06118936
      1.00000000	      0.01766498	      0.02557848	      0.06024070
      1.01666667	      0.01699885	      0.02509157	      0.05943569
      1.03333333	      0.01690336	      0.02502100	      0.05912977
      1.05000000	      0.01763595	      0.02555745	      0.05944188
      1.06666667	      0.01894200	      0.02648689	      0.06021246
      1.08333333	      0.02047644	      0.02753882	      0.06125712
      1.10000000	      0.02195031	      0.02851271	      0.06221277
      1.11666667	      0.02319991	      0.02931307	      0.06269736
      1.13333333	      0.02419545	      0.02993539	      0.06278610
      1.15000000	      0.02494541	      0.03039579	      0.06230964
      1.16666667	      0.02535293	      0.03064306	      0.06153818
      1.18333333	      0.02541009	      0.03067759	      0.06085549
      1.20000000	      0.02518982	      0.03054433	      0.06150914
      1.21666667	      0.02478432	      0.03029749	      0.05867697
      1.23333333	      0.02422246	      0.02995210	      0.05760064
      1.25000000	      0.02357325	      0.02954798	      0.05749185
      1.26666667	      0.02292883	      0.02914131	      0.05772066
      1.28333333	      0.02260742	      0.02893634	      0.05839131
      1.30000000	      0.02288874	      0.02911582	      0.05934403
      1.31666667	      0.02391844	      0.02976354	      0.06057249
      1.33333333	      0.02558163	      0.03078097	      0.06187076
      1.35000000	      0.02753195	      0.03193277	      0.06306865
      1.36666667	      0.02945200	      0.03302749	      0.06534290
      1.38333333	      0.03106790	      0.03392142	      0.07255882
      1.40000000	      0.03220812	      0.03453829	      0.07683619
      1.41666667	      0.03283562	      0.03487312	      0.08120590
      1.43333333	      0.03286159	      0.03488690	      0.08088292
      1.45000000	      0.03266490	      0.03478234	      0.07955509
      1.46666667	      0.03251513	      0.03470251	      0.07827966
      1.48333333	      0.03246429	      0.03467537	      0.07658667
      1.50000000	      0.03251635	      0.03470316	      0.07410582
      1.51666667	      0.03262474	      0.03476095	      0.07269336
      1.53333333	      0.03238162	      0.03463119	      0.06801126
      1.55000000	      0.03211901	      0.03449048	      0.06457844
      1.56666667	      0.03175930	      0.03429680	      0.06128649
      1.58333333	      0.03141362	      0.03410964	      0.06266548
      1.60000000	      0.03112474	      0.03395244	      0.06460406
      1.61666667	      0.03084348	      0.03379869	      0.06667932
      1.63333333	      0.03048937	      0.03360411	      0.06837121
      1.65000000	      0.02992022	      0.03328898	      0.07011388
      1.66666667	      0.02938296	      0.03298875	      0.07136776
      1.68333333	      0.02901805	      0.03278327	      0.07233301
      1.70000000	      0.02887544	      0.03270261	      0.07308642
      1.71666667	      0.02894718	      0.03274321	      0.07374727
      1.73333333	      0.02908942	      0.03282356	      0.07451497
      1.75000000	      0.02922206	      0.03289831	      0.07501322
      1.76666667	      0.02946342	      0.03303389	      0.07504541
      1.78333333	      0.02987679	      0.03326481	      0.07458748
      1.80000000	      0.03038409	      0.03354604	      0.07410589
      1.81666667	      0.03080903	      0.03377980	      0.07383675
      1.83333333	      0.03097583	      0.03387113	      0.07363048
      1.85000000	      0.03082543	      0.03378879	      0.07343425
      1.86666667	      0.03045596	      0.03358569	      0.07284991
      1.88333333	      0.03010456	      0.03339137	      0.07161110
      1.90000000	      0.02990398	      0.03327995	      0.07010142
      1.91666667	      0.02976460	      0.03320230	      0.06832547
      1.93333333	      0.02960000	      0.03311036	      0.06656114
      1.95000000	      0.02949894	      0.03305379	      0.06489311
      1.96666667	      0.02963291	      0.03312877	      0.06374115
      1.98333333	      0.02980362	      0.03322406	      0.06339468
      2.00000000	      0.03029202	      0.03349517	      0.06352871
      2.01666667	      0.03090021	      0.03382975	      0.06390981
      2.03333333	      0.03105571	      0.03391477	      0.06402730
      2.05000000	      0.03119670	      0.03399166	      0.06371719
      2.06666667	      0.03050178	      0.03361095	      0.06303314
      2.08333333	      0.02929711	      0.03294052	      0.06202539
      2.10000000	      0.02815620	      0.03229276	      0.06077028
      2.11666667	      0.02746981	      0.03189672	      0.05928203
      2.13333333	      0.02725907	      0.03177413	      0.05767132
      2.15000000	      0.02735643	      0.03183082	      0.05611609
      2.16666667	      0.02765440	      0.03200370	      0.05477969
      2.18333333	      0.02805831	      0.03223657	      0.05454573
      2.20000000	      0.02854991	      0.03251775	      0.05512434
      2.21666667	      0.02912526	      0.03284377	      0.05416581
      2.23333333	      0.02991407	      0.03328556	      0.05260053
      2.25000000	      0.03063578	      0.03368470	      0.05291371
      2.26666667	      0.03117884	      0.03398194	      0.05321883
      2.28333333	      0.03134667	      0.03407327	      0.05423395
      2.30000000	      0.03106967	      0.03392239	      0.05322480
      2.31666667	      0.03074784	      0.03374624	      0.05525533
      2.33333333	      0.03031582	      0.03350833	      0.05537971
      2.35000000	      0.03004657	      0.03335920	      0.05478565
      2.36666667	      0.02999823	      0.03333235	      0.05509487
      2.38333333	      0.03013963	      0.03341082	      0.05563402
      2.40000000	      0.03039336	      0.03355115	      0.05842825
      2.41666667	      0.03070960	      0.03372525	      0.06087303
      2.43333333	      0.03085616	      0.03380563	      0.06166648
      2.45000000	      0.03045739	      0.03358648	      0.06280303
      2.46666667	      0.02963480	      0.03312982	      0.06122829
      2.48333333	      0.02847183	      0.03247325	      0.06028519
      2.50000000	      0.02725558	      0.03177210	      0.06027623
      2.51666667	      0.02661811	      0.03139834	      0.06074945
      2.53333333	      0.02641274	      0.03127698	      0.06077614
      2.55000000	      0.02626021	      0.03118654	      0.05960381
      2.56666667	      0.02609933	      0.03109086	      0.05828139
      2.58333333	      0.02593484	      0.03099274	      0.05709060
      2.60000000	      0.02572443	      0.03086676	      0.05595391
      2.61666667	      0.02537182	      0.03065448	      0.05520136
      2.63333333	      0.02476361	      0.03028483	      0.05504785
      2.65000000	      0.02390080	      0.02975256	      0.05517734
      2.66666667	      0.02295786	      0.02915975	      0.05549250
      2.68333333	      0.02197146	      0.02852644	      0.05543868
      2.70000000	      0.02087706	      0.02780692	      0.05513631
      2.71666667	      0.01966528	      0.02698784	      0.05473952
      2.73333333	      0.01849827	      0.02617482	      0.05405012
      2.75000000	      0.01751906	      0.02547262	      0.05309483
      2.76666667	      0.01670467	      0.02487351	      0.05186378
      2.78333333	      0.01607233	      0.02439818	      0.05041343
      2.80000000	      0.01577328	      0.02417014	      0.04875012
      2.81666667	      0.01597588	      0.02432487	      0.04698701
      2.83333333	      0.01652078	      0.02473623	      0.04517923
      2.85000000	      0.01713980	      0.02519539	      0.04564635
      2.86666667	      0.01773333	      0.02562791	      0.04716790
      2.88333333	      0.01845014	      0.02614074	      0.04843612
      2.90000000	      0.01943476	      0.02682920	      0.04996586
      2.91666667	      0.02055581	      0.02759214	      0.05086376
      2.93333333	      0.02164033	      0.02831067	      0.05187401
      2.95000000	      0.02253651	      0.02889092	      0.05259598
      2.96666667	      0.02306615	      0.02922844	      0.05148074
      2.98333333	      0.02310385	      0.02925232	      0.05006862
      3.00000000	      0.02281756	      0.02907051	      0.05036561
      3.01666667	      0.02181699	      0.02842599	      0.05162116
      3.03333333	      0.02197186	      0.02852670	      0.05202707
      3.05000000	      0.02276014	      0.02903391	      0.05364306
      3.06666667	      0.02370250	      0.02962888	      0.05542619
      3.08333333	      0.02435384	      0.03003322	      0.05770937
      3.10000000	      0.02244218	      0.02883040	      0.05767047
      3.11666667	      0.02219746	      0.02867278	      0.05811953
      3.13333333	      0.02202349	      0.02856019	      0.05856801
      3.15000000	      0.02198989	      0.02853840	      0.05864134
      3.16666667	      0.02220631	      0.02867849	      0.05821318
      3.18333333	      0.02268346	      0.02898497	      0.05713520
      3.20000000	      0.02320518	      0.02931640	      0.05850935
      3.21666667	      0.02392865	      0.02976989	      0.06020777
      3.23333333	      0.02464517	      0.03021232	      0.06151461
      3.25000000	      0.02514445	      0.03051682	      0.06234232
      3.26666667	      0.02527764	      0.03059753	      0.06276848
      3.28333333	      0.02508197	      0.03047888	      0.06288891
      3.30000000	      0.02480330	      0.03030909	      0.06282617
      3.31666667	      0.02461594	      0.03019440	      0.06261371
      3.33333333	      0.02464061	      0.03020952	      0.06239037
      3.35000000	      0.02461068	      0.03019117	      0.06209415
      3.36666667	      0.02426880	      0.02998074	      0.06174054
      3.38333333	      0.02364543	      0.02959319	      0.06110073
      3.40000000	      0.02298433	      0.02917656	      0.06017076
      3.41666667	      0.02234314	      0.02876671	      0.05892447
      3.43333333	      0.02173546	      0.02837282	      0.05769371
      3.45000000	      0.02120263	      0.02802289	      0.06131237
      3.46666667	      0.01734562	      0.02534621	      0.05629913
      3.48333333	      0.01618485	      0.02448344	      0.05635593
      3.50000000	      0.01551730	      0.02397321	      0.05677020
      3.51666667	      0.01524080	      0.02375867	      0.05714643
      3.53333333	      0.01519919	      0.02372621	      0.05750233
      3.55000000	      0.01536630	      0.02385628	      0.05781337
      3.56666667	      0.01582680	      0.02421111	      0.05836834
      3.58333333	      0.01659158	      0.02478917	      0.05934375
      3.60000000	      0.01756060	      0.02550280	      0.06037148
      3.61666667	      0.01852635	      0.02619468	      0.06123273
      3.63333333	      0.01933477	      0.02676009	      0.06178095
      3.65000000	      0.01981247	      0.02708865	      0.06201610
      3.66666667	      0.02000097	      0.02721721	      0.06187382
      3.68333333	      0.01989782	      0.02714694	      0.06153083
      3.70000000	      0.01949119	      0.02686812	      0.06083164
      3.71666667	      0.01896938	      0.02650603	      0.05963194
      3.73333333	      0.01835149	      0.02607076	      0.05848078
      3.75000000	      0.01787130	      0.02572741	      0.05728472
      3.76666667	      0.01758091	      0.02551754	      0.05607067
      3.78333333	      0.01750358	      0.02546136	      0.05537398
      3.80000000	      0.01764688	      0.02556537	      0.05497531
      3.81666667	      0.01791629	      0.02575978	      0.05502154
      3.83333333	      0.01822909	      0.02598367	      0.05517929
      3.85000000	      0.01845959	      0.02614744	      0.05522530
      3.86666667	      0.01860680	      0.02625149	      0.05506888
      3.88333333	      0.01853880	      0.02620348	      0.05495806
      3.90000000	      0.01843461	      0.02612974	      0.05476269
      3.91666667	      0.01835628	      0.02607417	      0.05440805
      3.93333333	      0.01838619	      0.02609540	      0.05433643
      3.95000000	      0.01855179	      0.02621265	      0.05487818
      3.96666667	      0.01883623	      0.02641284	      0.05588769
      3.98333333	      0.01911370	      0.02660667	      0.05683336
      4.00000000	      0.01915844	      0.02663779	      0.05744827
      4.01666667	      0.01897141	      0.02650745	      0.05732118
      4.03333333	      0.01867577	      0.02630010	      0.05705165
      4.05000000	      0.01847004	      0.02615484	      0.05679941
      4.06666667	      0.01862320	      0.02626305	      0.05710097
      4.08333333	      0.01907947	      0.02658283	      0.05784870
      4.10000000	      0.01983819	      0.02710623	      0.05885425
      4.11666667	      0.02066904	      0.02766803	      0.05994996
      4.13333333	      0.02144923	      0.02818538	      0.06094080
      4.15000000	      0.02200509	      0.02854826	      0.06167963
      4.16666667	      0.02223278	      0.02869558	      0.06188609
      4.18333333	      0.02213262	      0.02863087	      0.06165963
      4.20000000	      0.02166160	      0.02832457	      0.06097764
      4.21666667	      0.02103139	      0.02790950	      0.05986633
      4.23333333	      0.02041183	      0.02749534	      0.05867806
      4.25000000	      0.02002885	      0.02723618	      0.05739532
      4.26666667	      0.01980059	      0.02708053	      0.05614665
      4.28333333	      0.01968009	      0.02699800	      0.05527962
      4.30000000	      0.01962020	      0.02695689	      0.05496259
      4.31666667	      0.01968355	      0.02700038	      0.05513673
      4.33333333	      0.02002154	      0.02723120	      0.05558241
      4.35000000	      0.02079023	      0.02774903	      0.05608148
      4.36666667	      0.02196504	      0.02852227	      0.05622634
      4.38333333	      0.02356760	      0.02954444	      0.05638817
      4.40000000	      0.02415092	      0.02990783	      0.05695804
      4.41666667	      0.02545777	      0.03070636	      0.05828790
      4.43333333	      0.02648060	      0.03131714	      0.05958483
      4.45000000	      0.02728025	      0.03178647	      0.06072971
      4.46666667	      0.02794797	      0.03217313	      0.06136805
      4.48333333	      0.02815968	      0.03229475	      0.06129190
      4.50000000	      0.02637906	      0.03125703	      0.06024220
      4.51666667	      0.02510307	      0.03049169	      0.05820010
      4.53333333	      0.02338327	      0.02942868	      0.05511752
      4.55000000	      0.02175911	      0.02838825	      0.05240683
      4.56666667	      0.02064311	      0.02765067	      0.04968350
      4.58333333	      0.01987907	      0.02713415	      0.04752474
      4.60000000	      0.01937889	      0.02679061	      0.04596394
      4.61666667	      0.01917636	      0.02665024	      0.04467294
      4.63333333	      0.01939759	      0.02680353	      0.04363883
      4.65000000	      0.02001507	      0.02722680	      0.04276731
      4.66666667	      0.02087571	      0.02780602	      0.04210094
      4.68333333	      0.02164641	      0.02831464	      0.04834763
      4.70000000	      0.02216266	      0.02865029	      0.05422774
      4.71666667	      0.02051126	      0.02756223	      0.04194126
      4.73333333	      0.02035221	      0.02745516	      0.04214322
      4.75000000	      0.01999590	      0.02721376	      0.04208266
      4.76666667	      0.01924398	      0.02669719	      0.04182427
      4.78333333	      0.01841793	      0.02611792	      0.04156547
      4.80000000	      0.01797082	      0.02579895	      0.04168123
      4.81666667	      0.01809152	      0.02588544	      0.04225208
      4.83333333	      0.01896729	      0.02650457	      0.04368561
      4.85000000	      0.02089737	      0.02782044	      0.05552688
      4.86666667	      0.02389463	      0.02974872	      0.06703234
      4.88333333	      0.02740234	      0.03185752	      0.07465844
      4.90000000	      0.03054294	      0.03363362	      0.08335040
      4.91666667	      0.03269399	      0.03479782	      0.08880485
      4.93333333	      0.03064055	      0.03368731	      0.08321349
      4.95000000	      0.03042519	      0.03356872	      0.08209979
      4.96666667	      0.02992139	      0.03328963	      0.08048708
      4.98333333	      0.02941572	      0.03300713	      0.07931014
      5.00000000	      0.02926528	      0.03292263	      0.07820723
      5.01666667	      0.02945558	      0.03302950	      0.07692700
      5.03333333	      0.03005805	      0.03336557	      0.07594342
      5.05000000	      0.03071161	      0.03372636	      0.07457712
      5.06666667	      0.03085507	      0.03380503	      0.07385576
      5.08333333	      0.03035802	      0.03353164	      0.07304758
      5.10000000	      0.02985760	      0.03325413	      0.07795374
      5.11666667	      0.03105934	      0.03391675	      0.07745100
      5.13333333	      0.03357102	      0.03526147	      0.07757674
      5.15000000	      0.03474485	      0.03587264	      0.08735254
      5.16666667	      0.03277876	      0.03484291	      0.08176931
      5.18333333	      0.02868639	      0.03259538	      0.07067946
      5.20000000	      0.02525708	      0.03058509	      0.06772753
      5.21666667	      0.02393718	      0.02977519	      0.06224809
      5.23333333	      0.02363302	      0.02958542	      0.05673631
      5.25000000	      0.02358223	      0.02955361	      0.05552204
      5.26666667	      0.02359072	      0.02955893	      0.05519412
      5.28333333	      0.02373342	      0.02964820	      0.05509284
      5.30000000	      0.02400487	      0.02981726	      0.05452569
      5.31666667	      0.02438006	      0.03004938	      0.05760885
      5.33333333	      0.02475662	      0.03028055	      0.05938716
      5.35000000	      0.02510664	      0.03049386	      0.05989053
      5.36666667	      0.02539655	      0.03066941	      0.05883586
      5.38333333	      0.02556000	      0.03076795	      0.05720387
      5.40000000	      0.02549535	      0.03072901	      0.05658502
      5.41666667	      0.02518504	      0.03054144	      0.05671400
      5.43333333	      0.02477591	      0.03029234	      0.05634183
      5.45000000	      0.02485079	      0.03033809	      0.05477541
      5.46666667	      0.02597984	      0.03101961	      0.05596539
      5.48333333	      0.02798284	      0.03219319	      0.05726050
      5.50000000	      0.02984661	      0.03324801	      0.06663420
      5.51666667	      0.03039977	      0.03355469	      0.07203624
      5.53333333	      0.02929388	      0.03293871	      0.06873423
      5.55000000	      0.02711051	      0.03168743	      0.06217746
      5.56666667	      0.02487895	      0.03035527	      0.05622542
      5.58333333	      0.02353135	      0.02952171	      0.05459642
      5.60000000	      0.02326530	      0.02935435	      0.05471799
      5.61666667	      0.02370617	      0.02963117	      0.05629680
      5.63333333	      0.02456711	      0.03016443	      0.05581723
      5.65000000	      0.02556573	      0.03077140	      0.05631115
      5.66666667	      0.02652213	      0.03134168	      0.05685722
      5.68333333	      0.02701599	      0.03163214	      0.05949731
      5.70000000	      0.02695651	      0.03159730	      0.06047803
      5.71666667	      0.02641157	      0.03127629	      0.05976542
