Coordinates
version=1
nRows=132
nColumns=63
inDegrees=yes

Units are S.I. units (second, meters, Newtons, ...)
If the header above contains a line with 'inDegrees', this indicates whether rotational values are in degrees (yes) or radians (no).

endheader
time	pelvis_tilt	pelvis_list	pelvis_rotation	pelvis_tx	pelvis_ty	pelvis_tz	hip_flexion_r	hip_adduction_r	hip_rotation_r	knee_angle_r	knee_angle_r_beta	ankle_angle_r	subtalar_angle_r	mtp_angle_r	hip_flexion_l	hip_adduction_l	hip_rotation_l	knee_angle_l	knee_angle_l_beta	ankle_angle_l	subtalar_angle_l	mtp_angle_l	L5_S1_Flex_Ext	L5_S1_Lat_Bending	L5_S1_axial_rotation	L4_L5_Flex_Ext	L4_L5_Lat_Bending	L4_L5_axial_rotation	L3_L4_Flex_Ext	L3_L4_Lat_Bending	L3_L4_axial_rotation	L2_L3_Flex_Ext	L2_L3_Lat_Bending	L2_L3_axial_rotation	L1_L2_Flex_Ext	L1_L2_Lat_Bending	L1_L2_axial_rotation	L1_T12_Flex_Ext	L1_T12_Lat_Bending	L1_T12_axial_rotation	Abs_r3	Abs_r2	Abs_r1	Abs_t1	Abs_t2	neck_flexion	neck_bending	neck_rotation	arm_flex_r	arm_add_r	arm_rot_r	elbow_flex_r	pro_sup_r	wrist_flex_r	wrist_dev_r	arm_flex_l	arm_add_l	arm_rot_l	elbow_flex_l	pro_sup_l	wrist_flex_l	wrist_dev_l
0.000000	-1.601881	-3.383570	89.589601	0.208526	0.658449	0.678169	3.715708	-1.410339	-15.351231	7.278893	0.127041	16.832985	16.210193	0.000000	4.551787	2.842513	-1.391302	5.430348	0.094777	11.307253	-12.778046	0.000000	-0.134510	0.101188	0.270688	-0.249798	0.134580	0.287606	-0.220986	0.246029	0.287606	-0.153731	0.246029	0.236852	-0.124906	0.206343	0.219934	-0.076859	0.156740	0.203016	-0.960791	1.144660	1.505487	0.000000	0.000000	24.261527	0.700007	11.134301	4.701920	-12.638416	125.564089	12.413236	0.856333	-3.221434	-11.312497	10.288364	-8.503161	168.475749	0.326237	3.244008	-13.909257	-3.490788
0.020000	-2.135270	-3.132506	90.018902	0.209793	0.660212	0.677890	3.677116	-2.052986	-16.261414	8.178308	0.142738	17.212303	15.891222	0.000000	4.286648	3.302168	-1.515448	5.460789	0.095309	11.725047	-11.867462	0.000000	-0.146678	-0.063558	0.325813	-0.272396	-0.084533	0.346177	-0.240977	-0.154536	0.346177	-0.167638	-0.154536	0.285087	-0.136205	-0.129608	0.264723	-0.083812	-0.098452	0.244360	-1.047707	-0.718986	1.812076	0.000000	0.000000	23.523786	2.691499	7.277205	5.719509	-13.014155	99.719534	11.073955	1.831624	-0.657704	-10.709419	9.193547	-11.808328	142.275484	1.696287	12.270950	-10.821542	-4.707151
0.040000	-2.520901	-2.878591	90.334294	0.210763	0.661785	0.677858	3.626811	-2.551125	-17.050556	8.978132	0.156698	17.551190	15.686758	0.000000	4.039135	3.632832	-1.639850	5.529173	0.096502	12.073273	-11.200267	0.000000	-0.162553	-0.191862	0.394331	-0.301877	-0.255176	0.418977	-0.267058	-0.466493	0.418977	-0.185782	-0.466493	0.345040	-0.150947	-0.391245	0.320394	-0.092883	-0.297194	0.295748	-1.161100	-2.170380	2.193152	0.000000	0.000000	22.834364	4.272564	4.004270	6.141957	-13.833885	82.773144	9.967120	3.338977	0.910091	-9.893852	8.388370	-15.350583	121.006045	2.879095	19.101942	-8.323373	-5.506234
0.060000	-2.775473	-2.627208	90.545325	0.211472	0.663176	0.678041	3.568662	-2.919083	-17.723152	9.681676	0.168977	17.850787	15.583619	0.000000	3.811440	3.848730	-1.766761	5.629160	0.098247	12.355989	-10.750281	0.000000	-0.181113	-0.287224	0.473577	-0.336345	-0.382008	0.503175	-0.297550	-0.698356	0.503175	-0.206994	-0.698356	0.414380	-0.168181	-0.585707	0.384781	-0.103488	-0.444910	0.355183	-1.293670	-3.249132	2.633892	0.000000	0.000000	22.194361	5.481079	1.278704	6.014832	-15.060922	73.907572	9.073163	5.287287	1.600387	-8.892987	7.803155	-19.088824	104.157720	3.884017	23.975873	-6.372494	-5.943369
0.080000	-2.915687	-2.383739	90.661547	0.211959	0.664395	0.678404	3.506536	-3.171184	-18.283697	10.292249	0.179634	18.112236	15.568620	0.000000	3.605758	3.964087	-1.898438	5.754412	0.100433	12.577254	-10.491327	0.000000	-0.201335	-0.353145	0.560884	-0.373899	-0.469683	0.595939	-0.330773	-0.858637	0.595939	-0.230106	-0.858637	0.490774	-0.186959	-0.720134	0.455718	-0.115043	-0.547022	0.420663	-1.438114	-3.994850	3.119470	0.000000	0.000000	21.604879	6.354921	-0.936288	5.383702	-16.658578	72.305469	8.372512	7.585449	1.531619	-7.734017	7.368220	-22.981949	91.220802	4.720409	27.131630	-4.926655	-6.073882
0.100000	-2.958242	-2.153568	90.692509	0.212261	0.665453	0.678912	3.444303	-3.321755	-18.736685	10.813159	0.188725	18.336677	15.628576	0.000000	3.424284	3.993129	-2.037133	5.898589	0.102950	12.741126	-10.397225	0.000000	-0.222197	-0.393128	0.653588	-0.412642	-0.522860	0.694437	-0.365047	-0.955851	0.694437	-0.253949	-0.955851	0.571890	-0.206332	-0.801667	0.531040	-0.126963	-0.608955	0.490191	-1.587130	-4.447142	3.635061	0.000000	0.000000	21.067020	6.931966	-2.677499	4.294135	-18.590169	77.149490	7.845598	10.142359	0.822222	-6.444132	7.013888	-26.988857	81.685579	5.397629	28.808099	-3.943599	-5.953104
0.120000	-2.919839	-1.942077	90.647762	0.212417	0.666359	0.679533	3.385831	-3.385120	-19.086611	11.247716	0.196310	18.525251	15.750306	0.000000	3.269213	3.950080	-2.185104	6.055351	0.105686	12.851664	-10.441797	0.000000	-0.242677	-0.410673	0.749023	-0.450675	-0.546195	0.795837	-0.398694	-0.998511	0.795837	-0.277355	-0.998511	0.655395	-0.225350	-0.837445	0.608581	-0.138665	-0.636133	0.561767	-1.733415	-4.645618	4.165840	0.000000	0.000000	20.581884	7.250091	-3.981723	2.791700	-20.819007	87.622285	7.472850	12.866912	-0.409368	-5.050525	6.670479	-31.068448	75.042343	5.925032	29.244168	-3.381074	-5.636363
0.140000	-2.817176	-1.754648	90.536856	0.212462	0.667122	0.680232	3.334988	-3.375606	-19.337970	11.599229	0.202445	18.679099	15.920624	0.000000	3.142738	3.849166	-2.344603	6.218360	0.108531	12.912925	-10.598864	0.000000	-0.261752	-0.409282	0.844523	-0.486100	-0.544346	0.897306	-0.430032	-0.995129	0.897306	-0.299156	-0.995129	0.738958	-0.243063	-0.834609	0.686175	-0.149565	-0.633978	0.633392	-1.869668	-4.629884	4.696983	0.000000	0.000000	20.150572	7.347173	-4.885754	0.921964	-23.308407	102.906509	7.234698	15.668002	-2.044717	-3.580387	6.268314	-35.179618	70.781383	6.311975	28.678724	-3.196827	-5.178987
0.160000	-2.666955	-1.596664	90.369340	0.212436	0.667753	0.680976	3.295643	-3.307537	-19.495255	11.871007	0.207188	18.799362	16.126347	0.000000	3.047055	3.704612	-2.517887	6.381276	0.111374	12.928968	-10.842247	0.000000	-0.278400	-0.392457	0.937423	-0.517017	-0.521968	0.996012	-0.457384	-0.954220	0.996012	-0.318184	-0.954220	0.820245	-0.258523	-0.800298	0.761656	-0.159078	-0.607916	0.703067	-1.988586	-4.439551	5.213665	0.000000	0.000000	19.774187	7.261088	-5.426385	-1.269503	-26.021684	122.184813	7.111573	18.454526	-3.965387	-2.060909	5.737713	-39.281268	68.392992	6.567814	27.350654	-3.348604	-4.636305
0.180000	-2.485875	-1.473507	90.154765	0.212377	0.668260	0.681730	3.271664	-3.195241	-19.562962	12.066361	0.210598	18.887181	16.354291	0.000000	2.984356	3.530642	-2.707209	6.537760	0.114105	12.903852	-11.145767	0.000000	-0.291600	-0.363698	1.025057	-0.541530	-0.483718	1.089123	-0.479069	-0.884296	1.089123	-0.333269	-0.884296	0.896925	-0.270779	-0.741653	0.832859	-0.166620	-0.563368	0.768793	-2.082867	-4.114226	5.701059	0.000000	0.000000	19.453830	7.029712	-5.640409	-3.737135	-28.922150	144.639850	7.083903	21.135378	-6.052946	-0.519283	5.008996	-43.332295	67.367457	6.701906	25.498845	-3.794151	-4.063647
0.200000	-2.290635	-1.390561	89.902681	0.212321	0.668654	0.682460	3.266921	-3.053041	-19.545585	12.188598	0.212731	18.943696	16.591272	0.000000	2.956838	3.341482	-2.914825	6.681473	0.116614	12.841634	-11.483246	0.000000	-0.300327	-0.326507	1.104760	-0.557738	-0.434255	1.173807	-0.493408	-0.793870	1.173807	-0.343244	-0.793870	0.966665	-0.278884	-0.665814	0.897617	-0.171607	-0.505760	0.828570	-2.145209	-3.693518	6.144343	0.000000	0.000000	19.190601	6.690923	-5.564621	-6.435361	-31.973120	169.454273	7.132120	23.619454	-8.188956	1.017300	4.012485	-47.291598	67.195072	6.723607	23.362184	-4.491214	-3.516342
0.220000	-2.174300	-1.357723	89.622345	0.212591	0.669017	0.683120	3.295424	-2.952737	-19.439910	12.235010	0.213541	19.062355	16.852168	0.000000	2.966081	3.206143	-3.245558	6.783908	0.118402	12.847562	-11.608700	0.000000	-0.300520	-0.298577	1.156564	-0.558095	-0.397107	1.228849	-0.493724	-0.725959	1.228849	-0.343464	-0.725959	1.011994	-0.279063	-0.608857	0.939708	-0.171717	-0.462495	0.867423	-2.146582	-3.377558	6.432462	0.000000	0.000000	18.936648	6.460501	-5.249534	-9.333229	-35.186891	195.870432	7.169096	24.911210	-9.347916	2.208346	2.211462	-51.201078	66.063445	6.656801	22.744103	-5.739243	-3.403757
0.240000	-2.099391	-1.418120	89.323222	0.212998	0.669137	0.683598	3.389578	-2.865652	-19.202444	12.215929	0.213208	19.134451	17.034912	0.000000	3.052109	3.104710	-3.571489	6.859083	0.119714	12.783259	-11.769814	0.000000	-0.290247	-0.271089	1.194473	-0.539018	-0.360549	1.269128	-0.476847	-0.659127	1.269128	-0.331724	-0.659127	1.045164	-0.269524	-0.552806	0.970510	-0.165847	-0.419918	0.895855	-2.073207	-3.066618	6.643302	0.000000	0.000000	18.834234	6.201370	-4.641890	-12.104022	-38.371593	222.418859	7.172108	26.169938	-10.413427	3.391023	-0.029280	-54.762720	63.989256	6.501377	21.762687	-6.855380	-3.772687
0.260000	-2.044767	-1.561355	89.010504	0.213443	0.669103	0.683884	3.540517	-2.779804	-18.858895	12.146571	0.211998	19.124171	17.139286	0.000000	3.198681	3.024813	-3.834949	6.894267	0.120328	12.620881	-12.042755	0.000000	-0.270048	-0.241169	1.227649	-0.501506	-0.320755	1.304377	-0.443662	-0.586378	1.304377	-0.308638	-0.586378	1.074192	-0.250766	-0.491792	0.997464	-0.154305	-0.373571	0.920736	-1.928925	-2.728152	6.827813	0.000000	0.000000	18.848224	5.861035	-3.862697	-14.931227	-41.527822	247.646179	7.201193	27.681746	-11.506779	4.681460	-2.395457	-57.989354	62.053371	6.201059	19.800431	-7.834267	-4.245276
0.280000	-2.025982	-1.771541	88.705019	0.213963	0.669007	0.683979	3.723479	-2.709135	-18.443003	12.018550	0.209763	19.022315	17.163575	0.000000	3.390400	2.976831	-4.081222	6.887818	0.120215	12.378520	-12.326509	0.000000	-0.240701	-0.213886	1.249397	-0.447005	-0.284469	1.327485	-0.395447	-0.520043	1.327485	-0.275097	-0.520043	1.093223	-0.223514	-0.436157	1.015135	-0.137536	-0.331310	0.937048	-1.719300	-2.419524	6.948773	0.000000	0.000000	18.930496	5.510921	-2.999281	-17.753916	-44.648159	271.124399	7.235613	29.142569	-12.680325	6.067729	-5.086157	-60.929480	58.917789	5.844480	18.314730	-8.857805	-4.675371
0.300000	-2.041001	-2.029267	88.422134	0.214535	0.668936	0.683895	3.914371	-2.654832	-18.003116	11.829155	0.206458	18.832542	17.130544	0.000000	3.611106	2.956090	-4.354244	6.844018	0.119451	12.093277	-12.523030	0.000000	-0.204001	-0.191257	1.257590	-0.378850	-0.254372	1.336189	-0.335153	-0.465023	1.336189	-0.233153	-0.465023	1.100391	-0.189435	-0.390012	1.021792	-0.116566	-0.296257	0.943193	-1.457158	-2.163539	6.994339	0.000000	0.000000	19.041147	5.185635	-2.141917	-20.649295	-47.749807	292.366915	7.306495	30.267568	-13.934286	7.518059	-8.236027	-63.662946	54.046165	5.457906	18.090839	-9.967065	-4.972989
0.320000	-2.087800	-2.317609	88.171208	0.215125	0.668942	0.683663	4.095284	-2.618748	-17.574617	11.576201	0.202043	18.574367	17.059412	0.000000	3.842991	2.964171	-4.633124	6.756115	0.117916	11.762705	-12.655585	0.000000	-0.161833	-0.175297	1.249930	-0.300540	-0.233145	1.328050	-0.265875	-0.426217	1.328050	-0.184959	-0.426217	1.093689	-0.150278	-0.357466	1.015568	-0.092471	-0.271535	0.937447	-1.155957	-1.982995	6.951735	0.000000	0.000000	19.151276	4.941581	-1.374143	-23.731390	-50.847838	310.760960	7.418105	30.805557	-15.121337	8.883502	-11.988058	-66.247527	48.280743	5.015897	18.740456	-11.129723	-5.041480
0.340000	-2.160453	-2.611024	87.958373	0.215735	0.669062	0.683331	4.243745	-2.598084	-17.206862	11.263097	0.196578	18.271423	16.985037	0.000000	4.071686	2.989374	-4.996367	6.644822	0.115974	11.449602	-12.584616	0.000000	-0.117348	-0.167952	1.226452	-0.217926	-0.223377	1.303105	-0.192790	-0.408360	1.303105	-0.134117	-0.408360	1.073145	-0.108969	-0.342489	0.996492	-0.067052	-0.260158	0.919839	-0.838202	-1.899912	6.821157	0.000000	0.000000	19.224613	4.844126	-0.760711	-26.881677	-53.955179	327.066574	7.320777	30.000815	-15.756658	9.824733	-16.678129	-68.601145	39.483871	4.559791	22.332915	-12.314657	-4.901066
0.360000	-2.246213	-2.888844	87.792577	0.216293	0.669269	0.682941	4.346939	-2.586729	-16.912316	10.904993	0.190328	17.970333	16.911612	0.000000	4.282525	3.023775	-5.423717	6.519820	0.113792	11.182439	-12.319740	0.000000	-0.073802	-0.167872	1.193874	-0.137057	-0.223270	1.268491	-0.121249	-0.408165	1.268491	-0.084348	-0.408165	1.044639	-0.068532	-0.342325	0.970022	-0.042170	-0.260034	0.895405	-0.527159	-1.899005	6.639966	0.000000	0.000000	19.262571	4.889830	-0.348410	-30.368775	-57.036937	340.334384	7.079977	28.215021	-15.664608	10.029207	-22.133959	-70.742442	29.108539	4.077188	27.774047	-13.439902	-4.568154
0.380000	-2.339604	-3.127281	87.661399	0.216788	0.669531	0.682547	4.398560	-2.586765	-16.686435	10.532330	0.183824	17.708156	16.847150	0.000000	4.452760	3.066343	-5.881623	6.381385	0.111376	10.972328	-11.914848	0.000000	-0.034680	-0.174892	1.160037	-0.064404	-0.232606	1.232540	-0.056976	-0.425232	1.232540	-0.039636	-0.425232	1.015033	-0.032204	-0.356639	0.942530	-0.019816	-0.270907	0.870028	-0.247716	-1.978410	6.451780	0.000000	0.000000	19.263204	5.088093	-0.163268	-34.212336	-60.121380	349.835051	6.835605	25.920236	-15.041198	9.341551	-28.201814	-72.657229	17.464613	3.620986	34.773599	-14.469408	-4.047247
0.400000	-2.419294	-3.308857	87.587110	0.217120	0.669834	0.682191	4.380093	-2.583108	-16.559888	10.150692	0.177163	17.472910	16.790971	0.000000	4.578161	3.100931	-6.330426	6.255099	0.109172	10.848080	-11.383978	0.000000	-0.002871	-0.185078	1.121103	-0.005332	-0.246154	1.191172	-0.004717	-0.449999	1.191172	-0.003281	-0.449999	0.980965	-0.002666	-0.377411	0.910896	-0.001641	-0.286686	0.840827	-0.020509	-2.093640	6.235237	0.000000	0.000000	19.227348	5.395755	-0.172467	-38.313234	-63.034303	356.597636	6.525437	23.317911	-14.501356	7.777196	-34.616048	-74.341306	5.404820	3.229482	42.423370	-15.325269	-3.360161
0.420000	-2.479093	-3.423884	87.559015	0.217285	0.670196	0.681897	4.287520	-2.573266	-16.525382	9.770294	0.170524	17.229783	16.745630	0.000000	4.646729	3.123853	-6.763671	6.136345	0.107099	10.789131	-10.746198	0.000000	0.020835	-0.195849	1.078945	0.038692	-0.260479	1.146379	0.034229	-0.476187	1.146379	0.023812	-0.476187	0.944076	0.019347	-0.399375	0.876642	0.011905	-0.303370	0.809208	0.148819	-2.215482	6.000766	0.000000	0.000000	19.124488	5.764695	-0.307010	-42.447315	-65.655353	360.107384	6.257196	21.330023	-14.598956	6.033656	-41.145491	-75.742040	-6.535358	2.917666	49.683473	-15.927760	-2.535855
0.440000	-2.507994	-3.469596	87.578967	0.217257	0.670629	0.681695	4.124784	-2.549452	-16.588820	9.402710	0.164108	16.943448	16.702932	0.000000	4.658748	3.126396	-7.164067	6.029505	0.105235	10.789951	-10.012919	0.000000	0.036178	-0.202945	1.034050	0.067186	-0.269917	1.098678	0.059436	-0.493440	1.098678	0.041348	-0.493440	0.904793	0.033595	-0.413845	0.840165	0.020672	-0.314362	0.775537	0.258414	-2.295754	5.751074	0.000000	0.000000	18.930388	6.092144	-0.493063	-46.446421	-67.977264	359.406466	6.060576	19.892006	-15.047672	4.475234	-47.623183	-76.799793	-18.631770	2.709782	56.616607	-16.232032	-1.544529
0.460000	-2.499746	-3.441095	87.634700	0.217043	0.671136	0.681587	3.891439	-2.506193	-16.730803	9.053011	0.158005	16.606315	16.666130	0.000000	4.609219	3.101560	-7.552484	5.941581	0.103700	10.856901	-9.168644	0.000000	0.042355	-0.202851	0.984943	0.078658	-0.269792	1.046502	0.069586	-0.493212	1.046502	0.048408	-0.493212	0.861826	0.039331	-0.413654	0.800267	0.024202	-0.314216	0.738708	0.302541	-2.294692	5.477960	0.000000	0.000000	18.631690	6.306706	-0.615849	-50.037308	-70.025078	353.737158	5.937666	18.939675	-15.668540	3.152823	-53.876279	-77.522848	-30.401905	2.600552	62.997612	-16.167403	-0.336290
0.480000	-2.453008	-3.352874	87.725874	0.216641	0.671705	0.681572	3.608589	-2.442571	-16.950457	8.726882	0.152313	16.238885	16.645279	0.000000	4.509803	3.052882	-7.870811	5.864111	0.102348	10.975345	-8.301481	0.000000	0.041199	-0.193835	0.923331	0.076510	-0.257801	0.981039	0.067685	-0.471291	0.981039	0.047086	-0.471291	0.807915	0.038257	-0.395269	0.750207	0.023541	-0.300251	0.692498	0.294277	-2.192704	5.135291	0.000000	0.000000	18.240962	6.372249	-0.583998	-53.188489	-71.863155	342.723836	5.815908	18.346550	-16.398224	2.101565	-59.739875	-77.950069	-41.407114	2.501067	68.792185	-15.736905	0.947379
0.500000	-2.377003	-3.222143	87.851850	0.216098	0.672301	0.681635	3.301114	-2.365391	-17.238968	8.429529	0.147123	15.878673	16.659286	0.000000	4.379325	2.984277	-8.140744	5.804557	0.101309	11.151418	-7.399358	0.000000	0.033983	-0.176947	0.838462	0.063110	-0.235340	0.890866	0.055831	-0.430229	0.890866	0.038839	-0.430229	0.733655	0.031557	-0.360831	0.681251	0.019418	-0.274091	0.628847	0.242739	-2.001662	4.663277	0.000000	0.000000	17.805106	6.295341	-0.312714	-55.458114	-73.538057	325.611359	5.649485	19.620449	-17.220279	1.583242	-65.132795	-78.113361	-50.862341	2.341194	73.884244	-15.080953	2.212312
0.520000	-2.318815	-3.078019	88.008207	0.215627	0.672898	0.681711	3.005430	-2.308412	-17.571346	8.164112	0.142491	15.558392	16.697021	0.000000	4.243001	2.927222	-8.444880	5.757720	0.100491	11.372836	-6.376940	0.000000	0.024121	-0.160035	0.734115	0.044794	-0.212847	0.779997	0.039628	-0.389110	0.779997	0.027567	-0.389110	0.642351	0.022398	-0.326344	0.596468	0.013782	-0.247895	0.550586	0.172291	-1.810351	4.082927	0.000000	0.000000	17.368487	6.124949	0.176762	-57.983472	-75.064943	318.432297	6.166144	17.311359	-16.747029	1.689641	-70.011017	-78.114538	-58.686719	2.179868	78.395304	-14.327393	3.306184
0.540000	-2.264348	-2.924179	88.160470	0.215191	0.673456	0.681824	2.742875	-2.260437	-17.889963	7.946025	0.138684	15.289825	16.748953	0.000000	4.102604	2.871524	-8.789741	5.720757	0.099846	11.650386	-5.297000	0.000000	0.012354	-0.140957	0.615777	0.022943	-0.187473	0.654263	0.020296	-0.342723	0.654263	0.014119	-0.342723	0.538805	0.011472	-0.287440	0.500319	0.007059	-0.218343	0.461833	0.088243	-1.594536	3.424768	0.000000	0.000000	16.948743	5.884343	0.874403	-60.004542	-76.537009	312.328688	6.804694	14.649541	-15.936680	1.895753	-74.428790	-77.946538	-64.783692	2.014172	82.253425	-13.500836	4.147324
0.560000	-2.210348	-2.749476	88.324467	0.214839	0.673951	0.682011	2.500721	-2.214456	-18.218362	7.775379	0.135706	15.094093	16.845298	0.000000	3.954893	2.808451	-9.149626	5.712112	0.099695	11.997682	-4.190564	0.000000	-0.004227	-0.120567	0.497769	-0.007850	-0.160355	0.528879	-0.006945	-0.293148	0.528879	-0.004831	-0.293148	0.435548	-0.003925	-0.245861	0.404437	-0.002415	-0.186759	0.373327	-0.030194	-1.363883	2.768441	0.000000	0.000000	16.601666	5.585432	1.661087	-61.557103	-77.834253	307.168414	7.474929	11.445363	-14.827031	2.298849	-78.080670	-77.641816	-68.573368	1.779877	85.053360	-12.544534	4.789851
0.580000	-2.184490	-2.583455	88.452313	0.214666	0.674357	0.682248	2.324981	-2.192678	-18.452969	7.670868	0.133882	14.930352	16.929873	0.000000	3.817051	2.763515	-9.564371	5.706999	0.099606	12.363269	-3.084589	0.000000	-0.019500	-0.103121	0.378216	-0.036214	-0.137151	0.401855	-0.032037	-0.250729	0.401855	-0.022287	-0.250729	0.330939	-0.018108	-0.210285	0.307301	-0.011143	-0.159735	0.283662	-0.139290	-1.166528	2.103526	0.000000	0.000000	16.298950	5.293183	2.574465	-62.562289	-78.863055	301.742369	8.153532	8.845124	-13.662907	2.915106	-81.372214	-77.202992	-71.399621	1.670387	87.310757	-11.673069	4.991787
0.600000	-2.174451	-2.419740	88.554433	0.214665	0.674709	0.682544	2.202096	-2.181386	-18.610723	7.630353	0.133175	14.761551	16.995353	0.000000	3.684560	2.725044	-9.994431	5.711207	0.099679	12.721124	-2.038714	0.000000	-0.034489	-0.088440	0.268306	-0.064050	-0.117625	0.285075	-0.056662	-0.215032	0.285075	-0.039418	-0.215032	0.234768	-0.032027	-0.180346	0.217999	-0.019707	-0.136993	0.201229	-0.246353	-1.000449	1.492237	0.000000	0.000000	16.040152	5.042485	3.495022	-62.958775	-79.604225	295.740417	8.727852	7.567098	-12.484439	3.764399	-84.043613	-76.675344	-72.847073	1.645035	88.711937	-10.919506	4.857137
0.620000	-2.198549	-2.267708	88.606869	0.214867	0.675007	0.682888	2.145995	-2.201142	-18.653296	7.666596	0.133807	14.561743	17.023288	0.000000	3.560620	2.713915	-10.419122	5.711873	0.099691	13.036199	-1.101483	0.000000	-0.047881	-0.080480	0.180900	-0.088920	-0.107038	0.192206	-0.078664	-0.195679	0.192206	-0.054723	-0.195679	0.158287	-0.044462	-0.164115	0.146981	-0.027359	-0.124663	0.135675	-0.342010	-0.910405	1.006111	0.000000	0.000000	15.837149	4.858595	4.280944	-62.782239	-80.096047	289.854284	9.159786	7.130805	-11.354169	4.829718	-86.138269	-76.120615	-72.944083	1.740778	88.885016	-10.433537	4.424841
0.640000	-2.243174	-2.132508	88.619142	0.215217	0.675282	0.683305	2.146885	-2.236564	-18.590017	7.755266	0.135355	14.302564	16.990986	0.000000	3.459572	2.712205	-10.915296	5.724956	0.099919	13.324659	-0.135149	0.000000	-0.058879	-0.077948	0.122995	-0.109345	-0.103671	0.130682	-0.096733	-0.189522	0.130682	-0.067293	-0.189522	0.107620	-0.054675	-0.158951	0.099933	-0.033644	-0.120741	0.092246	-0.420569	-0.881762	0.684060	0.000000	0.000000	15.662045	4.749003	4.877998	-62.474614	-80.347375	284.791138	9.470944	7.059284	-10.382343	6.015264	-87.332671	-75.598935	-73.011372	1.921429	89.460077	-10.235703	3.812966
0.660000	-2.295061	-2.013068	88.586666	0.215637	0.675535	0.683770	2.206609	-2.283353	-18.433217	7.913726	0.138121	13.993592	16.899902	0.000000	3.365033	2.726579	-11.253437	5.718718	0.099810	13.512858	0.535154	0.000000	-0.068128	-0.078683	0.100152	-0.126521	-0.104648	0.106412	-0.111928	-0.191309	0.106412	-0.077864	-0.191309	0.087633	-0.063264	-0.160450	0.081374	-0.038928	-0.121880	0.075114	-0.486633	-0.890075	0.557016	0.000000	0.000000	15.536809	4.671318	5.210367	-61.961673	-80.414373	280.311844	9.665570	7.940124	-9.655674	7.342404	-87.848392	-75.185235	-71.270517	2.161980	88.534394	-10.230153	3.244552
0.680000	-2.372221	-1.908136	88.502167	0.216207	0.675774	0.684281	2.312967	-2.355078	-18.204198	8.119995	0.141721	13.657212	16.781044	0.000000	3.286910	2.759113	-11.648386	5.720801	0.099847	13.656160	1.199995	0.000000	-0.075698	-0.087503	0.109280	-0.140578	-0.116378	0.116110	-0.124363	-0.212754	0.116110	-0.086515	-0.212754	0.095620	-0.070293	-0.178435	0.088790	-0.043254	-0.135541	0.081960	-0.540700	-0.989846	0.607784	0.000000	0.000000	15.464286	4.684021	5.249691	-61.459480	-80.292682	277.655293	9.772831	8.389193	-9.233205	8.604522	-88.028335	-74.866999	-70.540731	2.521354	88.870427	-10.509962	2.804438
0.700000	-2.448347	-1.818258	88.372215	0.216798	0.675980	0.684818	2.457560	-2.431678	-17.936289	8.362840	0.145959	13.308033	16.653676	0.000000	3.220813	2.797359	-11.973034	5.720496	0.099841	13.730779	1.680794	0.000000	-0.082201	-0.099385	0.146309	-0.152656	-0.132183	0.155453	-0.135048	-0.241646	0.155453	-0.093948	-0.241646	0.128020	-0.076332	-0.202667	0.118876	-0.046970	-0.153948	0.109732	-0.587154	-1.124267	0.813726	0.000000	0.000000	15.468900	4.749642	5.048725	-60.705622	-80.129370	275.862276	9.788455	9.314199	-9.109355	9.702423	-88.222646	-74.700970	-68.725473	2.950473	88.410245	-11.011880	2.535849
0.720000	-2.517639	-1.740790	88.205018	0.217361	0.676146	0.685360	2.627363	-2.509385	-17.661002	8.626673	0.150564	12.958989	16.539098	0.000000	3.159878	2.841547	-12.155382	5.707680	0.099618	13.721402	1.885831	0.000000	-0.087711	-0.112939	0.203977	-0.162888	-0.150208	0.216726	-0.144101	-0.274599	0.216726	-0.100245	-0.274599	0.178480	-0.081449	-0.230305	0.165732	-0.050118	-0.174942	0.152983	-0.626512	-1.277585	1.134460	0.000000	0.000000	15.548484	4.864831	4.675339	-59.754247	-79.992347	274.732463	9.717838	10.573174	-9.122334	10.480244	-88.622098	-74.641684	-65.791759	3.434529	87.130033	-11.705149	2.413705
0.740000	-2.583556	-1.672296	88.025436	0.217859	0.676260	0.685875	2.802031	-2.591036	-17.414026	8.889108	0.155144	12.622636	16.443672	0.000000	3.096914	2.900123	-12.110366	5.672487	0.099004	13.611452	1.736261	0.000000	-0.092296	-0.128122	0.271020	-0.171403	-0.170403	0.287959	-0.151634	-0.311516	0.287959	-0.105485	-0.311516	0.237143	-0.085706	-0.261267	0.220204	-0.052738	-0.198461	0.203265	-0.659263	-1.449344	1.507333	0.000000	0.000000	15.698999	5.016236	4.190364	-58.576477	-79.931782	274.001238	9.537701	12.243064	-9.072326	10.966600	-89.359391	-74.640095	-61.872957	3.979428	84.949589	-12.550638	2.362118
0.760000	-2.638557	-1.604827	87.831832	0.218255	0.676320	0.686353	2.968256	-2.669966	-17.184915	9.145133	0.159613	12.312736	16.359783	0.000000	3.024994	2.966188	-11.887278	5.618376	0.098059	13.437290	1.309861	0.000000	-0.096866	-0.142265	0.345381	-0.179890	-0.189213	0.366968	-0.159141	-0.345903	0.366968	-0.110708	-0.345903	0.302209	-0.089950	-0.290107	0.280622	-0.055349	-0.220369	0.259036	-0.691903	-1.609331	1.920907	0.000000	0.000000	15.910171	5.168731	3.681816	-57.420236	-79.908655	272.784154	9.358162	14.656162	-8.926720	11.261372	-90.157998	-74.669408	-57.409069	4.543221	82.435029	-13.599136	2.324058
0.780000	-2.697699	-1.538949	87.640353	0.218587	0.676325	0.686783	3.115207	-2.758147	-16.995277	9.382107	0.163749	12.036461	16.292086	0.000000	2.949765	3.049105	-11.521600	5.555090	0.096955	13.225414	0.689913	0.000000	-0.101272	-0.157668	0.420951	-0.188072	-0.209699	0.447260	-0.166380	-0.383355	0.447260	-0.115744	-0.383355	0.368332	-0.094041	-0.321517	0.342023	-0.057867	-0.244228	0.315713	-0.723376	-1.783576	2.341203	0.000000	0.000000	16.172443	5.331023	3.175303	-56.252736	-79.911440	271.406258	9.138300	17.424239	-8.695230	11.510746	-91.142892	-74.718483	-52.712263	5.133386	79.648166	-14.771154	2.293045
0.800000	-2.758678	-1.476503	87.460838	0.218819	0.676281	0.687158	3.236355	-2.854481	-16.854412	9.592746	0.167425	11.792696	16.244713	0.000000	2.875819	3.145589	-11.049299	5.487339	0.095772	13.008275	-0.039404	0.000000	-0.105477	-0.173050	0.493758	-0.195881	-0.230156	0.524618	-0.173288	-0.420753	0.524618	-0.120550	-0.420753	0.432038	-0.097946	-0.352883	0.401179	-0.060270	-0.268054	0.370319	-0.753412	-1.957571	2.746135	0.000000	0.000000	16.472429	5.482583	2.702802	-54.954458	-79.917921	269.253796	8.940016	20.660052	-8.442486	11.774190	-92.257007	-74.779246	-47.889074	5.734355	76.656159	-16.010702	2.275987
0.820000	-2.830780	-1.415303	87.297318	0.218985	0.676203	0.687477	3.327032	-2.965744	-16.751323	9.776659	0.170635	11.594738	16.195957	0.000000	2.800704	3.260890	-10.507513	5.414075	0.094493	12.805714	-0.802503	0.000000	-0.109911	-0.190031	0.558963	-0.204116	-0.252742	0.593898	-0.180573	-0.462042	0.593898	-0.125617	-0.462042	0.489092	-0.102063	-0.387512	0.454157	-0.062803	-0.294359	0.419222	-0.785084	-2.149673	3.108782	0.000000	0.000000	16.786157	5.641915	2.278640	-53.283475	-79.953786	266.466221	8.745039	24.072208	-8.238994	12.030073	-93.535433	-74.840031	-43.249686	6.328884	73.494798	-17.185681	2.294136
0.840000	-2.920626	-1.356914	87.164859	0.219090	0.676108	0.687732	3.384288	-3.097960	-16.701088	9.930615	0.173322	11.462470	16.157059	0.000000	2.727042	3.401662	-9.876430	5.336859	0.093146	12.622490	-1.602463	0.000000	-0.114074	-0.209736	0.606388	-0.211846	-0.278949	0.644287	-0.187411	-0.509952	0.644287	-0.130375	-0.509952	0.530590	-0.105929	-0.427694	0.492690	-0.065182	-0.324881	0.454791	-0.814816	-2.372577	3.372549	0.000000	0.000000	17.091579	5.820243	1.915999	-50.852519	-79.997890	264.224575	8.564908	26.531297	-8.130409	12.185922	-95.040251	-74.886191	-38.685107	6.916747	70.107334	-18.207668	2.434785
0.860000	-3.015524	-1.307196	87.069677	0.219106	0.675993	0.687904	3.412664	-3.237436	-16.691834	10.052590	0.175451	11.410706	16.127099	0.000000	2.667022	3.546338	-9.296077	5.279518	0.092145	12.505454	-2.259751	0.000000	-0.117821	-0.229385	0.639421	-0.218805	-0.305082	0.679385	-0.193568	-0.557726	0.679385	-0.134658	-0.557726	0.559494	-0.109409	-0.467762	0.519530	-0.067323	-0.355317	0.479566	-0.841584	-2.594847	3.556269	0.000000	0.000000	17.393817	5.983048	1.626227	-48.049060	-80.128924	260.782525	8.368878	29.250129	-8.149148	12.209770	-96.641030	-74.956757	-34.468135	7.454574	66.928421	-18.992065	2.774097
0.880000	-3.116793	-1.270815	87.002422	0.219047	0.675859	0.688007	3.428230	-3.385766	-16.711445	10.154209	0.177224	11.445837	16.115712	0.000000	2.622074	3.695773	-8.791801	5.235713	0.091380	12.439715	-2.789957	0.000000	-0.121041	-0.248781	0.658521	-0.224786	-0.330879	0.699679	-0.198859	-0.604887	0.699679	-0.138338	-0.604887	0.576206	-0.112399	-0.507315	0.535048	-0.069163	-0.385363	0.493891	-0.864586	-2.814266	3.662497	0.000000	0.000000	17.703459	6.090846	1.400919	-44.909947	-80.363116	256.357780	8.163722	31.955861	-8.322704	12.109070	-98.212082	-75.044357	-30.802728	7.908972	64.000013	-19.510401	3.268430
0.900000	-3.205961	-1.250705	86.971066	0.218922	0.675710	0.688014	3.430550	-3.520065	-16.752966	10.228294	0.178517	11.543483	16.128432	0.000000	2.600364	3.820522	-8.456649	5.226631	0.091222	12.454168	-3.071822	0.000000	-0.122708	-0.266221	0.661947	-0.227882	-0.354074	0.703319	-0.201597	-0.647290	0.703319	-0.140243	-0.647290	0.579204	-0.113947	-0.542878	0.537832	-0.070116	-0.412376	0.496460	-0.876493	-3.011545	3.681551	0.000000	0.000000	18.008875	6.210935	1.253914	-41.373581	-80.697475	251.023160	7.937204	34.774414	-8.649952	11.788967	-99.825683	-75.147206	-27.440378	8.293246	61.528579	-19.767262	3.975583
0.920000	-3.284796	-1.250232	86.965513	0.218719	0.675562	0.687931	3.423626	-3.640901	-16.798109	10.263037	0.179124	11.672523	16.164912	0.000000	2.599794	3.927293	-8.282698	5.237292	0.091408	12.515748	-3.166943	0.000000	-0.122483	-0.281838	0.655714	-0.227464	-0.374844	0.696696	-0.201228	-0.685260	0.696696	-0.139986	-0.685260	0.573750	-0.113738	-0.574723	0.532768	-0.069987	-0.436566	0.491786	-0.874886	-3.188203	3.646885	0.000000	0.000000	18.315579	6.306294	1.119276	-37.682978	-81.103277	245.114564	7.710285	37.527064	-9.032219	11.389354	-101.368403	-75.273405	-24.301602	8.591362	59.529251	-19.852832	4.870215
0.940000	-3.341844	-1.267121	86.973447	0.218452	0.675419	0.687766	3.414241	-3.735687	-16.827755	10.270093	0.179247	11.822342	16.209632	0.000000	2.615523	4.004685	-8.260346	5.263846	0.091871	12.610363	-3.109196	0.000000	-0.120643	-0.294574	0.645231	-0.224045	-0.391783	0.685558	-0.198204	-0.716227	0.685558	-0.137882	-0.716227	0.564577	-0.112029	-0.600695	0.524250	-0.068935	-0.456295	0.483923	-0.861738	-3.332280	3.588582	0.000000	0.000000	18.625499	6.393843	0.984023	-34.031065	-81.543327	238.989889	7.503004	40.231809	-9.456845	11.014375	-102.708377	-75.381467	-21.787212	8.804915	57.788313	-19.713598	5.675525
0.960000	-3.370269	-1.291996	87.016308	0.218100	0.675298	0.687552	3.390929	-3.798032	-16.874782	10.246082	0.178828	11.966504	16.278161	0.000000	2.646143	4.044439	-8.371482	5.319108	0.092836	12.740584	-2.887290	0.000000	-0.118622	-0.304348	0.631883	-0.220293	-0.404783	0.671376	-0.194884	-0.739992	0.671376	-0.135573	-0.739992	0.552898	-0.110152	-0.620627	0.513405	-0.067780	-0.471435	0.473912	-0.847304	-3.442846	3.514345	0.000000	0.000000	18.933607	6.517434	0.801884	-30.524944	-81.999215	232.785407	7.319513	42.650292	-9.947206	10.540079	-103.830622	-75.483794	-20.012551	8.965908	56.493442	-19.626936	6.305999
0.980000	-3.372502	-1.328673	87.062910	0.217684	0.675210	0.687308	3.369813	-3.828763	-16.885427	10.202214	0.178062	12.089551	16.327959	0.000000	2.686427	4.054672	-8.588267	5.379464	0.093889	12.871300	-2.584126	0.000000	-0.115287	-0.310503	0.623095	-0.214100	-0.412969	0.662039	-0.189405	-0.754957	0.662039	-0.131762	-0.754957	0.545209	-0.107056	-0.633177	0.506265	-0.065875	-0.480969	0.467322	-0.823484	-3.512471	3.465470	0.000000	0.000000	19.219978	6.656156	0.572808	-27.392554	-82.430041	226.770206	7.177025	44.960773	-10.408081	10.134203	-104.652485	-75.581750	-18.742970	9.058152	55.452805	-19.493958	6.764298
1.000000	-3.348676	-1.369955	87.112079	0.217250	0.675163	0.687084	3.354634	-3.828555	-16.885834	10.157064	0.177274	12.186090	16.371481	0.000000	2.737753	4.029511	-8.946597	5.457044	0.095243	13.021480	-2.135600	0.000000	-0.111645	-0.312895	0.620722	-0.207335	-0.416150	0.659517	-0.183421	-0.760773	0.659517	-0.127599	-0.760773	0.543132	-0.103673	-0.638056	0.504337	-0.063794	-0.484675	0.465541	-0.797467	-3.539532	3.452269	0.000000	0.000000	19.451273	6.800633	0.318914	-25.999115	-82.657332	222.026963	6.918126	48.162621	-10.556807	10.033820	-105.277478	-75.691882	-18.190450	9.142357	54.445462	-19.294306	7.019124
1.020000	-3.316901	-1.413882	87.141461	0.216862	0.675154	0.686919	3.352830	-3.814136	-16.834546	10.117487	0.176583	12.268257	16.397264	0.000000	2.796519	3.987523	-9.430667	5.542543	0.096736	13.177410	-1.568817	0.000000	-0.108084	-0.313754	0.626518	-0.200723	-0.417293	0.665675	-0.177572	-0.762862	0.665675	-0.123529	-0.762862	0.548203	-0.100367	-0.639808	0.509046	-0.061759	-0.486006	0.469888	-0.772035	-3.549253	3.484504	0.000000	0.000000	19.624330	6.943930	0.033568	-25.196906	-82.760806	218.295332	6.689924	50.936759	-10.635054	10.193312	-105.621003	-75.803433	-18.548087	9.195416	53.866703	-18.983503	7.131361
1.040000	-3.259815	-1.459868	87.161085	0.216472	0.675177	0.686826	3.358074	-3.767002	-16.746760	10.072838	0.175804	12.338012	16.400958	0.000000	2.865239	3.913770	-9.999162	5.641926	0.098470	13.339099	-0.919141	0.000000	-0.104288	-0.309361	0.628496	-0.193673	-0.411450	0.667777	-0.171335	-0.752181	0.667777	-0.119191	-0.752181	0.549934	-0.096842	-0.630850	0.510653	-0.059590	-0.479201	0.471372	-0.744919	-3.499557	3.495509	0.000000	0.000000	19.720992	7.078257	-0.152942	-26.439532	-82.657769	215.105917	6.601232	51.929030	-10.991087	10.482092	-105.686769	-75.872374	-19.370220	9.212298	53.613986	-18.478006	7.141824
1.060000	-3.192530	-1.507729	87.154943	0.216139	0.675214	0.686771	3.384729	-3.704253	-16.605971	10.052539	0.175450	12.412109	16.381849	0.000000	2.929688	3.833817	-10.496095	5.725809	0.099934	13.454642	-0.425628	0.000000	-0.100615	-0.301914	0.639249	-0.186852	-0.401545	0.679202	-0.165301	-0.734073	0.679202	-0.114993	-0.734073	0.559343	-0.093431	-0.615662	0.519390	-0.057491	-0.467664	0.479437	-0.718684	-3.415308	3.555313	0.000000	0.000000	19.784834	7.158844	-0.328699	-26.384196	-82.685422	212.247038	6.631170	51.901361	-11.548541	10.652834	-105.520426	-75.951381	-20.656330	9.195891	53.642391	-17.778339	7.083339
1.080000	-3.126505	-1.559348	87.124522	0.215926	0.675281	0.686740	3.426869	-3.632877	-16.427644	10.039809	0.175228	12.484475	16.359730	0.000000	3.000314	3.743404	-11.113968	5.813070	0.101457	13.582461	0.195710	0.000000	-0.096398	-0.293689	0.659995	-0.179021	-0.390606	0.701245	-0.158373	-0.714075	0.701245	-0.110174	-0.714075	0.577496	-0.089515	-0.598890	0.536246	-0.055082	-0.454924	0.494996	-0.688563	-3.322266	3.670694	0.000000	0.000000	19.823492	7.200403	-0.489115	-24.416493	-82.988690	209.101684	6.804480	50.401136	-12.071533	10.682204	-105.014949	-76.037577	-23.089649	9.115414	54.756044	-16.910586	6.938759
1.100000	-3.055694	-1.615737	87.090479	0.215762	0.675350	0.686709	3.481844	-3.550709	-16.239498	10.035213	0.175148	12.557113	16.324300	0.000000	3.067687	3.653098	-11.609038	5.873571	0.102513	13.673002	0.643948	0.000000	-0.091716	-0.283154	0.685169	-0.170325	-0.376595	0.727992	-0.150680	-0.688460	0.727992	-0.104822	-0.688460	0.599523	-0.085167	-0.577407	0.556700	-0.052406	-0.438605	0.513876	-0.655115	-3.203092	3.810702	0.000000	0.000000	19.864735	7.170399	-0.608357	-20.209282	-83.639351	204.690135	7.049596	48.659390	-12.413830	10.561490	-104.334538	-76.174745	-25.150203	8.974876	55.249475	-15.930336	6.628954
1.120000	-2.984462	-1.675075	87.058393	0.215652	0.675430	0.686660	3.542844	-3.462870	-16.067296	10.029809	0.175053	12.634515	16.295571	0.000000	3.128309	3.565451	-11.998068	5.904050	0.103045	13.734812	0.974726	0.000000	-0.086209	-0.271670	0.714046	-0.160100	-0.361321	0.758674	-0.141633	-0.660539	0.758674	-0.098529	-0.660539	0.624790	-0.080054	-0.553990	0.580162	-0.049260	-0.420817	0.535535	-0.615785	-3.073188	3.971310	0.000000	0.000000	19.910696	7.081632	-0.705225	-14.279156	-84.513725	199.814672	7.355434	45.992757	-12.403097	10.193316	-103.325350	-76.308837	-27.762557	8.785249	56.088688	-14.874452	6.126164
1.140000	-2.913557	-1.736713	87.037631	0.215576	0.675512	0.686579	3.603608	-3.370818	-15.930364	10.015752	0.174808	12.725733	16.279701	0.000000	3.180535	3.485144	-12.229163	5.903265	0.103031	13.758583	1.136555	0.000000	-0.079925	-0.259770	0.744293	-0.148429	-0.345494	0.790812	-0.131309	-0.631604	0.790812	-0.091346	-0.631604	0.651257	-0.074219	-0.529722	0.604738	-0.045669	-0.402383	0.558220	-0.570898	-2.938566	4.139537	0.000000	0.000000	19.969399	6.942369	-0.782719	-6.765597	-85.604283	194.277294	7.776829	43.077632	-11.989683	9.592816	-102.046874	-76.429851	-30.816621	8.584097	57.176047	-13.794152	5.485946
1.160000	-2.842546	-1.797927	87.018302	0.215537	0.675598	0.686469	3.662369	-3.273928	-15.810907	9.992483	0.174402	12.834083	16.273841	0.000000	3.225149	3.408214	-12.379715	5.883060	0.102679	13.768815	1.228012	0.000000	-0.073356	-0.247572	0.778377	-0.136229	-0.329270	0.827025	-0.120516	-0.601946	0.827025	-0.083838	-0.601946	0.681080	-0.068118	-0.504848	0.632431	-0.041915	-0.383489	0.583783	-0.523972	-2.800581	4.329098	0.000000	0.000000	20.036566	6.762919	-0.854156	1.989943	-86.863591	188.428768	8.339133	39.805934	-11.122378	8.751490	-100.455645	-76.549304	-34.363757	8.377754	58.663210	-12.706928	4.845260
1.180000	-2.772749	-1.859970	87.010865	0.215516	0.675671	0.686331	3.716194	-3.175614	-15.726775	9.958243	0.173804	12.958719	16.291703	0.000000	3.268398	3.334447	-12.465464	5.853680	0.102166	13.776622	1.274794	0.000000	-0.066373	-0.235486	0.815864	-0.123261	-0.313197	0.866856	-0.109044	-0.572561	0.866856	-0.075858	-0.572561	0.713881	-0.061634	-0.480204	0.662890	-0.037926	-0.364768	0.611898	-0.474096	-2.663868	4.537591	0.000000	0.000000	20.109967	6.559723	-0.927693	11.697283	-88.271391	182.407894	9.058478	36.051460	-9.848495	7.767531	-98.525754	-76.689583	-38.577271	8.191463	60.852721	-11.607845	4.297286
1.200000	-2.714996	-1.922366	87.018075	0.215519	0.675728	0.686147	3.763174	-3.088391	-15.671057	9.919247	0.173124	13.100633	16.326774	0.000000	3.307050	3.277316	-12.446053	5.810747	0.101417	13.760547	1.213745	0.000000	-0.058966	-0.225583	0.849354	-0.109505	-0.300025	0.902438	-0.096875	-0.548483	0.902438	-0.067392	-0.548483	0.743185	-0.054756	-0.460009	0.690100	-0.033693	-0.349428	0.637015	-0.421187	-2.551841	4.723851	0.000000	0.000000	20.186124	6.381596	-0.987960	22.463525	-89.832608	176.327127	9.897962	32.010897	-8.349699	6.753540	-96.779783	-76.835743	-42.673053	8.061599	62.777498	-10.486039	3.906418
1.220000	-2.671404	-1.980788	87.066245	0.215511	0.675765	0.685891	3.789501	-3.015389	-15.662489	9.874672	0.172346	13.251253	16.354766	0.000000	3.336001	3.238069	-12.332292	5.758222	0.100500	13.715846	1.086084	0.000000	-0.051483	-0.218462	0.874778	-0.095609	-0.290554	0.929452	-0.084581	-0.531168	0.929452	-0.058840	-0.531168	0.765431	-0.047807	-0.445488	0.710757	-0.029417	-0.338398	0.656084	-0.367737	-2.471286	4.865254	0.000000	0.000000	20.263363	6.223823	-1.069668	33.566990	-91.491127	170.936562	10.814367	27.464553	-6.607634	5.513167	-95.396342	-77.013389	-46.442030	7.989460	64.611590	-9.346854	3.714403
1.240000	-2.652783	-2.038614	87.160654	0.215510	0.675783	0.685549	3.795059	-2.969456	-15.714736	9.829556	0.171558	13.395315	16.384107	0.000000	3.360834	3.226085	-12.125640	5.704358	0.099560	13.630516	0.881667	0.000000	-0.043358	-0.215899	0.891988	-0.080520	-0.287146	0.947737	-0.071232	-0.524938	0.947737	-0.049554	-0.524938	0.780490	-0.040262	-0.440262	0.724740	-0.024775	-0.334428	0.668991	-0.309700	-2.442298	4.960970	0.000000	0.000000	20.349029	6.101939	-1.180041	44.508504	-93.324218	166.407700	11.890763	22.358542	-4.521732	4.152011	-94.499181	-77.235092	-49.674580	7.974211	66.445297	-8.249294	3.745715
1.260000	-2.675452	-2.076117	87.306725	0.215592	0.675866	0.685179	3.761184	-2.963618	-15.828263	9.789585	0.170860	13.501447	16.379829	0.000000	3.370391	3.244110	-11.966342	5.666054	0.098891	13.521988	0.798094	0.000000	-0.036084	-0.221028	0.891048	-0.067012	-0.293967	0.946738	-0.059283	-0.537407	0.946738	-0.041241	-0.537407	0.779667	-0.033508	-0.450720	0.723976	-0.020619	-0.342372	0.668286	-0.257746	-2.500310	4.955741	0.000000	0.000000	20.379775	6.051228	-1.289888	56.008702	-95.735436	165.761005	13.485743	13.896435	-2.440887	3.249507	-93.938857	-77.394415	-53.011712	7.985079	69.089988	-7.249878	3.969670
1.280000	-2.701194	-2.094296	87.490178	0.215591	0.675937	0.684765	3.692280	-2.972701	-16.013522	9.766512	0.170458	13.558313	16.356017	0.000000	3.361507	3.269496	-11.765345	5.632235	0.098301	13.412218	0.702018	0.000000	-0.030467	-0.225816	0.879486	-0.056581	-0.300336	0.934454	-0.050055	-0.549050	0.934454	-0.034821	-0.549050	0.769551	-0.028292	-0.460485	0.714583	-0.017409	-0.349789	0.659615	-0.217624	-2.554479	4.891439	0.000000	0.000000	20.400289	5.994175	-1.360417	68.287048	-97.909519	161.051888	14.687177	8.094051	-0.839614	2.850110	-93.668121	-77.551122	-55.275454	8.026579	71.128411	-6.437394	4.246338
1.300000	-2.724980	-2.094695	87.720288	0.215500	0.676001	0.684293	3.584074	-2.991387	-16.275823	9.754643	0.170251	13.562551	16.307723	0.000000	3.332669	3.298526	-11.504871	5.594172	0.097637	13.307267	0.596394	0.000000	-0.025644	-0.230083	0.856551	-0.047624	-0.306011	0.910085	-0.042131	-0.559424	0.910085	-0.029309	-0.559424	0.749482	-0.023813	-0.469186	0.695947	-0.014653	-0.356399	0.642413	-0.183175	-2.602748	4.763878	0.000000	0.000000	20.399567	5.953628	-1.405268	80.747495	-99.792424	153.004875	15.485618	4.883876	0.348468	3.017113	-93.680356	-77.690003	-56.456636	8.105250	72.571837	-5.933089	4.490244
1.320000	-2.753165	-2.077372	87.978627	0.215321	0.676077	0.683789	3.439133	-3.026031	-16.613288	9.744239	0.170069	13.503870	16.230128	0.000000	3.288580	3.336876	-11.208065	5.556847	0.096985	13.208896	0.511216	0.000000	-0.022550	-0.234872	0.827705	-0.041878	-0.312380	0.879437	-0.037048	-0.571069	0.879437	-0.025773	-0.571069	0.724242	-0.020940	-0.478952	0.672510	-0.012885	-0.363817	0.620779	-0.161074	-2.656923	4.603447	0.000000	0.000000	20.394694	5.907445	-1.478898	92.613906	-101.266103	140.958972	15.843686	4.000572	0.641720	3.840801	-93.947734	-77.802982	-56.637310	8.220435	72.935266	-5.680009	4.616004
1.340000	-2.755152	-2.027100	88.256405	0.214969	0.676155	0.683302	3.254847	-3.051969	-17.007696	9.751061	0.170188	13.401113	16.133389	0.000000	3.212723	3.360425	-10.847001	5.516023	0.096273	13.125204	0.390063	0.000000	-0.022996	-0.233810	0.787499	-0.042706	-0.310968	0.836718	-0.037781	-0.568487	0.836718	-0.026282	-0.568487	0.689062	-0.021354	-0.476786	0.639843	-0.013140	-0.362172	0.590624	-0.164260	-2.644910	4.379833	0.000000	0.000000	20.356986	5.844170	-1.441801	106.933603	-101.936432	121.298885	15.097770	10.005307	0.335662	6.953073	-94.125914	-77.805595	-55.846016	8.363861	72.014554	-5.701279	4.354148
1.360000	-2.765889	-1.967171	88.562309	0.214560	0.676255	0.682802	3.054695	-3.095518	-17.444284	9.769259	0.170506	13.257703	16.010016	0.000000	3.132665	3.395201	-10.457429	5.480231	0.095648	13.043276	0.281708	0.000000	-0.024768	-0.234111	0.748432	-0.045997	-0.311367	0.795209	-0.040692	-0.569216	0.795209	-0.028308	-0.569216	0.654878	-0.023000	-0.477398	0.608101	-0.014153	-0.362637	0.561324	-0.176919	-2.648305	4.162555	0.000000	0.000000	20.327401	5.787124	-1.457824	118.438804	-102.447421	104.369234	14.415846	15.720220	0.352975	9.914391	-94.379896	-77.795780	-54.529360	8.527060	70.511099	-6.122125	3.872648
1.380000	-2.779251	-1.907368	88.866462	0.214142	0.676358	0.682307	2.859829	-3.146475	-17.877276	9.805977	0.171147	13.094831	15.853227	0.000000	3.053481	3.432764	-10.080745	5.439354	0.094935	12.951445	0.182407	0.000000	-0.026354	-0.234754	0.711401	-0.048942	-0.312223	0.755863	-0.043297	-0.570781	0.755863	-0.030120	-0.570781	0.622476	-0.024472	-0.478711	0.578013	-0.015059	-0.363634	0.533551	-0.188244	-2.655587	3.956598	0.000000	0.000000	20.301642	5.734830	-1.488403	126.495403	-102.671271	90.774882	13.740960	21.605197	0.619841	12.698642	-94.808404	-77.782902	-52.704964	8.691963	68.412567	-6.657094	3.305788
1.400000	-2.791361	-1.845352	89.157670	0.213707	0.676452	0.681842	2.678942	-3.203366	-18.291785	9.874975	0.172351	12.924908	15.679303	0.000000	2.974941	3.469750	-9.733935	5.397961	0.094212	12.859076	0.089788	0.000000	-0.028037	-0.234640	0.672546	-0.052068	-0.312071	0.714580	-0.046062	-0.570504	0.714580	-0.032044	-0.570504	0.588477	-0.026035	-0.478478	0.546443	-0.016021	-0.363458	0.504409	-0.200268	-2.654296	3.740496	0.000000	0.000000	20.260809	5.678472	-1.465907	130.644388	-102.540680	80.828099	12.974541	27.840732	0.939078	15.352660	-95.506541	-77.763756	-50.188010	8.875368	65.838121	-7.376273	2.766124
1.420000	-2.797479	-1.780901	89.425771	0.213258	0.676542	0.681435	2.509318	-3.256427	-18.655320	9.960123	0.173837	12.758953	15.481505	0.000000	2.897658	3.501768	-9.412639	5.356703	0.093492	12.757373	-0.016579	0.000000	-0.030473	-0.233499	0.629813	-0.056591	-0.310554	0.669176	-0.050064	-0.567730	0.669176	-0.034827	-0.567730	0.551086	-0.028297	-0.476152	0.511723	-0.017412	-0.361690	0.472360	-0.217664	-2.641391	3.502831	0.000000	0.000000	20.219851	5.668150	-1.386078	132.567360	-102.262739	73.543882	12.323214	32.568239	0.808817	17.486165	-96.452431	-77.765144	-47.078408	9.022975	63.665943	-8.086255	2.457218
1.440000	-2.794192	-1.718783	89.648460	0.212829	0.676631	0.681105	2.361986	-3.300915	-18.967324	10.057408	0.175535	12.566697	15.287022	0.000000	2.827375	3.523609	-9.139926	5.318063	0.092818	12.664613	-0.133549	0.000000	-0.033396	-0.231607	0.580434	-0.062021	-0.308037	0.616711	-0.054867	-0.563129	0.616711	-0.038169	-0.563129	0.507880	-0.031012	-0.472293	0.471603	-0.019083	-0.358759	0.435326	-0.238548	-2.619986	3.228201	0.000000	0.000000	20.181402	5.684039	-1.309129	131.999892	-101.811248	68.609848	11.809627	35.738199	0.219039	19.053183	-97.507662	-77.709204	-43.587464	9.118177	61.859464	-8.909445	2.265618
1.460000	-2.794291	-1.665001	89.813797	0.212474	0.676730	0.680866	2.245077	-3.344662	-19.210011	10.157965	0.177290	12.360162	15.097761	0.000000	2.770914	3.544448	-8.947620	5.278411	0.092126	12.579905	-0.212475	0.000000	-0.036265	-0.230988	0.538156	-0.067347	-0.307214	0.571791	-0.059579	-0.561624	0.571791	-0.041447	-0.561624	0.470887	-0.033675	-0.471031	0.437252	-0.020722	-0.357800	0.403617	-0.259034	-2.612982	2.993062	0.000000	0.000000	20.152058	5.725498	-1.259488	131.943815	-101.484681	66.210154	11.341367	38.272339	-0.344680	19.694808	-98.523810	-77.682478	-40.743418	9.143660	61.411013	-9.608024	2.221214
1.480000	-2.801249	-1.617049	89.920989	0.212219	0.676844	0.680747	2.158040	-3.390929	-19.393356	10.255772	0.178997	12.146203	14.940073	0.000000	2.730706	3.560351	-8.936738	5.248058	0.091596	12.546728	-0.101444	0.000000	-0.039318	-0.232641	0.494231	-0.073017	-0.309413	0.525120	-0.064595	-0.565644	0.525120	-0.044936	-0.565644	0.432452	-0.036510	-0.474402	0.401563	-0.022466	-0.360361	0.370673	-0.280841	-2.631683	2.748764	0.000000	0.000000	20.118570	5.836295	-1.191011	131.089271	-101.147604	65.431236	10.955032	39.989117	-0.704540	19.412335	-99.638247	-77.632183	-38.085631	9.146129	61.444212	-10.200496	2.289567
1.500000	-2.805663	-1.572614	89.952102	0.212048	0.676962	0.680768	2.104230	-3.430476	-19.497145	10.347954	0.180606	11.934298	14.813943	0.000000	2.701966	3.567196	-9.056478	5.224384	0.091183	12.563810	0.116402	0.000000	-0.042965	-0.234582	0.451883	-0.079790	-0.311995	0.480125	-0.070587	-0.570364	0.480125	-0.049104	-0.570364	0.395397	-0.039897	-0.478361	0.367155	-0.024550	-0.363368	0.338912	-0.306892	-2.653644	2.513235	0.000000	0.000000	20.074985	5.984002	-1.103543	128.961601	-100.675044	66.740529	10.647718	40.726918	-0.743598	18.089173	-100.671813	-77.549903	-35.683344	9.121642	61.769411	-10.647090	2.417118
1.520000	-2.812742	-1.536115	89.897784	0.211993	0.677068	0.680933	2.089314	-3.464677	-19.509350	10.426014	0.181968	11.744749	14.721553	0.000000	2.683345	3.579786	-9.137138	5.195598	0.090680	12.535445	0.142001	0.000000	-0.046760	-0.237723	0.414184	-0.086838	-0.316172	0.440071	-0.076822	-0.578000	0.440071	-0.053442	-0.578000	0.362411	-0.043421	-0.484765	0.336525	-0.026719	-0.368233	0.310638	-0.334003	-2.689170	2.303569	0.000000	0.000000	20.031835	6.171432	-1.001746	125.812960	-100.093768	69.970392	10.524195	40.520537	-0.261593	15.848576	-101.569323	-77.425678	-33.896640	9.081670	62.497899	-10.838219	2.629155
1.540000	-2.815306	-1.509194	89.789122	0.211963	0.677154	0.681177	2.103052	-3.489556	-19.446249	10.484340	0.182986	11.585650	14.663973	0.000000	2.670796	3.591771	-9.195723	5.166222	0.090168	12.520133	0.079189	0.000000	-0.050512	-0.239839	0.383179	-0.093806	-0.318985	0.407128	-0.082986	-0.583144	0.407128	-0.057730	-0.583144	0.335282	-0.046905	-0.489079	0.311333	-0.028863	-0.371510	0.287384	-0.360802	-2.713102	2.131126	0.000000	0.000000	19.993976	6.365229	-0.888795	121.999774	-99.551572	74.565534	10.742578	39.372460	0.928129	13.030701	-102.376434	-77.325918	-32.260165	9.076413	63.427674	-10.987145	3.009792
1.560000	-2.821534	-1.493173	89.615841	0.212017	0.677216	0.681526	2.150005	-3.509963	-19.304167	10.525678	0.183708	11.455062	14.633558	0.000000	2.666989	3.611958	-9.184738	5.134443	0.089613	12.444980	-0.211102	0.000000	-0.054353	-0.242970	0.361423	-0.100938	-0.323149	0.384012	-0.089296	-0.590756	0.384012	-0.062119	-0.590756	0.316245	-0.050472	-0.495463	0.293656	-0.031057	-0.376360	0.271067	-0.388235	-2.748520	2.010128	0.000000	0.000000	19.970791	6.578614	-0.800300	117.354284	-99.001366	81.066066	11.213906	37.360748	2.443637	9.327163	-103.012608	-77.249704	-31.433812	9.062131	64.984946	-10.848019	3.649415
1.580000	-2.825406	-1.489821	89.378834	0.212145	0.677247	0.681938	2.228232	-3.522622	-19.097202	10.557383	0.184261	11.348048	14.637646	0.000000	2.669003	3.635994	-9.078484	5.096868	0.088957	12.291248	-0.780010	0.000000	-0.057039	-0.246316	0.341762	-0.105927	-0.327600	0.363122	-0.093709	-0.598892	0.363122	-0.065190	-0.598892	0.299042	-0.052966	-0.502287	0.277681	-0.032592	-0.381543	0.256321	-0.407422	-2.786372	1.900776	0.000000	0.000000	19.952261	6.815031	-0.708873	111.948190	-98.415324	89.631439	11.851289	34.263864	4.158914	4.994156	-103.670770	-77.176280	-30.734911	9.041508	66.955186	-10.351055	4.467354
1.600000	-2.847248	-1.497569	89.102629	0.212372	0.677255	0.682396	2.326895	-3.547045	-18.855103	10.577819	0.184618	11.263047	14.661474	0.000000	2.677738	3.680538	-8.905075	5.058106	0.088281	12.055232	-1.556838	0.000000	-0.058805	-0.253380	0.321199	-0.109206	-0.336995	0.341274	-0.096610	-0.616068	0.341274	-0.067208	-0.616068	0.281049	-0.054606	-0.516693	0.260974	-0.033601	-0.392486	0.240899	-0.420036	-2.866286	1.786413	0.000000	0.000000	19.945907	7.102571	-0.629913	106.121599	-97.896574	100.136184	12.653956	30.162171	5.966491	0.406746	-104.679254	-77.110391	-30.219841	9.016580	68.779084	-9.479412	5.493633
1.620000	-2.892165	-1.511046	88.813621	0.212687	0.677259	0.682888	2.434228	-3.588364	-18.599477	10.591771	0.184861	11.194565	14.679472	0.000000	2.690856	3.746213	-8.707827	5.023812	0.087682	11.747984	-2.434122	0.000000	-0.060321	-0.264715	0.302823	-0.112022	-0.352071	0.321749	-0.099101	-0.643628	0.321749	-0.068941	-0.643628	0.264970	-0.056014	-0.539807	0.246043	-0.034467	-0.410044	0.227117	-0.430867	-2.994510	1.684208	0.000000	0.000000	19.952635	7.412406	-0.608873	100.044010	-97.567493	112.290774	13.680778	25.147499	7.802185	-4.091685	-105.699030	-77.099916	-30.658143	8.921076	71.239507	-8.296629	6.669525
1.640000	-2.960780	-1.529195	88.507086	0.213116	0.677281	0.683406	2.547022	-3.647099	-18.333558	10.601772	0.185036	11.125428	14.700828	0.000000	2.706323	3.832913	-8.475421	4.991573	0.087119	11.364151	-3.426143	0.000000	-0.060665	-0.279969	0.283800	-0.112661	-0.372359	0.301538	-0.099667	-0.680718	0.301538	-0.069334	-0.680718	0.248325	-0.056334	-0.570914	0.230588	-0.034664	-0.433673	0.212850	-0.433324	-3.167071	1.578413	0.000000	0.000000	19.922715	7.755895	-0.559391	94.619324	-97.479485	125.173741	14.912264	19.170906	9.445054	-7.918204	-106.701544	-77.115995	-31.914440	8.741793	73.981869	-6.745419	7.871401
1.660000	-3.048440	-1.533136	88.206652	0.213621	0.677360	0.683975	2.642737	-3.719196	-18.068191	10.609528	0.185171	11.051806	14.706511	0.000000	2.710346	3.932210	-8.274500	4.968279	0.086713	10.929803	-4.393908	0.000000	-0.062252	-0.297723	0.253883	-0.115608	-0.395971	0.269751	-0.102273	-0.723883	0.269751	-0.071147	-0.723883	0.222148	-0.057807	-0.607116	0.206280	-0.035571	-0.461173	0.190412	-0.444657	-3.367901	1.412023	0.000000	0.000000	19.823551	8.133288	-0.418659	91.304598	-97.530714	137.720658	16.183172	12.429192	10.407925	-10.675895	-107.362076	-77.100106	-34.123855	8.469756	76.828055	-5.070692	9.015263
1.680000	-3.114610	-1.539281	87.914891	0.214015	0.677386	0.684504	2.733052	-3.773976	-17.809142	10.617207	0.185305	10.992822	14.712853	0.000000	2.713518	4.017468	-8.032571	4.948187	0.086362	10.479803	-5.419165	0.000000	-0.064292	-0.309010	0.230266	-0.119398	-0.410983	0.244658	-0.105626	-0.751327	0.244658	-0.073480	-0.751327	0.201483	-0.059702	-0.630133	0.187091	-0.036737	-0.478657	0.172699	-0.459235	-3.495583	1.280670	0.000000	0.000000	19.728367	8.432806	-0.171191	89.497390	-97.036754	141.030794	16.631506	11.818606	10.593535	-12.607137	-107.633839	-77.166023	-36.342751	8.130048	78.551898	-3.349426	9.920848
1.700000	-3.172770	-1.543572	87.648344	0.214365	0.677402	0.684979	2.808089	-3.817628	-17.551187	10.614372	0.185256	10.951804	14.708117	0.000000	2.706223	4.102261	-7.662606	4.917550	0.085827	9.973519	-6.602557	0.000000	-0.066456	-0.316973	0.211439	-0.123416	-0.421574	0.224654	-0.109181	-0.770688	0.224654	-0.075953	-0.770688	0.185009	-0.061711	-0.646371	0.171794	-0.037973	-0.490991	0.158579	-0.474692	-3.585662	1.175960	0.000000	0.000000	19.618447	8.663676	0.148619	88.817029	-96.482143	140.307024	16.842396	13.370704	10.241799	-13.631643	-107.445787	-77.245078	-39.238993	7.772333	79.845227	-1.690895	10.518900
1.720000	-3.221775	-1.543165	87.412873	0.214689	0.677433	0.685400	2.869673	-3.847513	-17.295138	10.606877	0.185125	10.925408	14.685268	0.000000	2.698433	4.169303	-7.370107	4.905167	0.085611	9.515819	-7.598832	0.000000	-0.069003	-0.322720	0.197586	-0.128145	-0.429218	0.209935	-0.113364	-0.784662	0.209935	-0.078863	-0.784662	0.172888	-0.064076	-0.658091	0.160539	-0.039428	-0.499894	0.148190	-0.492879	-3.650676	1.098916	0.000000	0.000000	19.495743	8.860333	0.512972	89.816760	-95.795560	135.776419	16.635680	16.989079	9.409536	-13.680653	-106.885780	-77.318757	-42.585964	7.408287	80.472739	-0.109213	10.810419
1.740000	-3.246031	-1.538657	87.218509	0.214923	0.677473	0.685766	2.920920	-3.852213	-17.039430	10.601861	0.185037	10.912110	14.654586	0.000000	2.686884	4.211223	-7.090695	4.895739	0.085447	9.113027	-8.502211	0.000000	-0.071860	-0.323258	0.191339	-0.133451	-0.429933	0.203297	-0.118059	-0.785969	0.203297	-0.082129	-0.785969	0.167421	-0.066729	-0.659187	0.155463	-0.041061	-0.500726	0.143504	-0.513288	-3.656756	1.064168	0.000000	0.000000	19.382301	8.977246	0.918646	93.152241	-95.095498	128.937063	16.097517	22.921465	8.995674	-12.422471	-105.717761	-77.358909	-46.465778	7.041215	80.888637	1.203546	10.722873
1.760000	-3.273650	-1.551689	87.074788	0.215178	0.677544	0.686019	2.979419	-3.855021	-16.804348	10.599948	0.185004	10.900006	14.612617	0.000000	2.694430	4.244008	-6.921083	4.889931	0.085345	8.796491	-9.132636	0.000000	-0.072367	-0.325963	0.203681	-0.134393	-0.433531	0.216411	-0.118892	-0.792547	0.216411	-0.082708	-0.792547	0.178221	-0.067200	-0.664705	0.165491	-0.041351	-0.504917	0.152761	-0.516912	-3.687363	1.132814	0.000000	0.000000	19.331969	9.049384	1.165504	93.769288	-95.026068	128.561851	16.270277	23.968967	9.302034	-12.198128	-104.322735	-77.425916	-51.043048	6.692717	81.442798	2.207952	10.365306
1.780000	-3.285246	-1.572010	86.977920	0.215365	0.677622	0.686203	3.041093	-3.844466	-16.605057	10.610203	0.185183	10.885031	14.560185	0.000000	2.712240	4.249297	-6.933985	4.880604	0.085183	8.626464	-9.362130	0.000000	-0.071147	-0.327135	0.222240	-0.132127	-0.435090	0.236130	-0.116887	-0.795397	0.236130	-0.081314	-0.795397	0.194460	-0.066067	-0.667095	0.180570	-0.040653	-0.506733	0.166680	-0.508196	-3.700622	1.236034	0.000000	0.000000	19.339437	9.072258	1.336184	94.711111	-95.131912	128.474032	16.335187	24.917339	9.430592	-11.420006	-102.915563	-77.466095	-55.371815	6.402175	81.807533	2.872226	9.790460
1.800000	-3.284145	-1.589995	86.916150	0.215531	0.677737	0.686301	3.091694	-3.823527	-16.452679	10.622369	0.185395	10.859360	14.533251	0.000000	2.731834	4.231400	-7.115289	4.866551	0.084937	8.593913	-9.241586	0.000000	-0.068954	-0.327748	0.247303	-0.128054	-0.435904	0.262759	-0.113284	-0.796886	0.262759	-0.078807	-0.796886	0.216390	-0.064030	-0.668343	0.200933	-0.039400	-0.507681	0.185477	-0.492528	-3.707547	1.375423	0.000000	0.000000	19.388278	9.063830	1.403517	95.880117	-95.430474	128.743886	16.247689	25.801526	9.473534	-10.147387	-101.505021	-77.446265	-59.398014	6.203872	81.910824	3.061596	9.012194
1.820000	-3.275833	-1.605025	86.889194	0.215673	0.677878	0.686362	3.137994	-3.797042	-16.325206	10.643150	0.185758	10.819409	14.488767	0.000000	2.755947	4.194719	-7.467676	4.846856	0.084594	8.719399	-8.738686	0.000000	-0.066742	-0.328387	0.274445	-0.123947	-0.436754	0.291598	-0.109651	-0.798440	0.291598	-0.076280	-0.798440	0.240139	-0.061977	-0.669646	0.222986	-0.038137	-0.508671	0.205834	-0.476734	-3.714777	1.526380	0.000000	0.000000	19.502302	9.001706	1.363721	97.292711	-95.902581	129.209207	16.053751	26.491442	9.268469	-8.340581	-100.320773	-77.404595	-62.770893	6.098514	81.995845	2.986221	8.150700
1.840000	-3.264113	-1.617004	86.885881	0.215837	0.678043	0.686407	3.187353	-3.768536	-16.217840	10.681928	0.186435	10.750253	14.418001	0.000000	2.787358	4.141168	-7.996776	4.829078	0.084283	9.001503	-7.877806	0.000000	-0.064545	-0.330036	0.295130	-0.119867	-0.438948	0.313576	-0.106042	-0.802449	0.313576	-0.073769	-0.802449	0.258239	-0.059937	-0.673009	0.239793	-0.036881	-0.511226	0.221348	-0.461041	-3.733433	1.641426	0.000000	0.000000	19.667739	8.899222	1.230294	98.918582	-96.455644	129.792290	15.812585	26.924646	8.878685	-6.083223	-99.328265	-77.273429	-65.483167	6.073646	81.919102	2.674072	7.193205
1.860000	-3.251987	-1.627565	86.905235	0.216023	0.678208	0.686456	3.241030	-3.738696	-16.096362	10.736456	0.187387	10.676860	14.286063	0.000000	2.826581	4.076352	-8.628601	4.812972	0.084002	9.404853	-6.749538	0.000000	-0.062168	-0.332158	0.306619	-0.115452	-0.441771	0.325782	-0.102136	-0.807610	0.325782	-0.071052	-0.807610	0.268291	-0.057729	-0.677337	0.249128	-0.035523	-0.514513	0.229964	-0.444060	-3.757442	1.705321	0.000000	0.000000	19.869379	8.801478	1.146926	100.694227	-97.057693	130.517235	15.526378	27.127508	8.509117	-3.857317	-98.783718	-77.087938	-67.201769	6.184115	81.556514	2.453318	6.329775
1.880000	-3.235792	-1.631994	86.941581	0.216215	0.678377	0.686520	3.290019	-3.708524	-16.007396	10.798319	0.188466	10.596625	14.139284	0.000000	2.870203	3.996552	-9.413797	4.810552	0.083960	9.933186	-5.324790	0.000000	-0.060230	-0.333419	0.307870	-0.111852	-0.443447	0.327112	-0.098951	-0.810674	0.327112	-0.068836	-0.810674	0.269386	-0.055929	-0.679907	0.250144	-0.034415	-0.516465	0.230903	-0.430214	-3.771698	1.712281	0.000000	0.000000	20.088776	8.685841	1.128824	102.613802	-97.693084	131.049564	15.302380	26.830315	8.137270	-1.594689	-98.295725	-76.856631	-68.258380	6.312528	81.219097	2.187403	5.489078
1.900000	-3.210543	-1.631186	86.977090	0.216414	0.678540	0.686592	3.334837	-3.673412	-15.944775	10.862468	0.189586	10.505773	13.982223	0.000000	2.910821	3.906677	-10.204453	4.808909	0.083931	10.529228	-3.854203	0.000000	-0.058709	-0.332373	0.304444	-0.109028	-0.442057	0.323471	-0.096452	-0.808132	0.323471	-0.067098	-0.808132	0.266388	-0.054517	-0.677776	0.247360	-0.033546	-0.514846	0.228333	-0.419350	-3.759873	1.693224	0.000000	0.000000	20.317739	8.524258	1.172857	104.802114	-98.373682	131.171264	15.167765	25.831033	7.917509	0.789493	-97.788573	-76.624167	-68.659580	6.399876	80.886725	1.996150	4.675837
1.920000	-3.182095	-1.630394	87.019314	0.216616	0.678690	0.686666	3.374021	-3.639958	-15.941906	10.919642	0.190584	10.410046	13.846463	0.000000	2.951585	3.816104	-10.936543	4.806357	0.083887	11.138586	-2.455080	0.000000	-0.057139	-0.329786	0.295503	-0.106114	-0.438616	0.313972	-0.093874	-0.801842	0.313972	-0.065305	-0.801842	0.258565	-0.053060	-0.672500	0.240096	-0.032649	-0.510839	0.221627	-0.408141	-3.730608	1.643499	0.000000	0.000000	20.546096	8.333000	1.297599	107.466110	-99.094868	130.875100	15.139485	24.113990	7.927609	3.335563	-97.233234	-76.404836	-68.581444	6.431164	80.753479	1.850455	3.907355
1.940000	-3.145149	-1.629950	87.082356	0.216764	0.678832	0.686712	3.401153	-3.606943	-16.025474	10.967331	0.191416	10.315508	13.758576	0.000000	2.990807	3.716797	-11.680637	4.809443	0.083941	11.805798	-0.978734	0.000000	-0.055541	-0.324507	0.279767	-0.103144	-0.431594	0.297253	-0.091248	-0.789006	0.297253	-0.063477	-0.789006	0.244796	-0.051575	-0.661734	0.227311	-0.031736	-0.502661	0.209825	-0.396721	-3.670886	1.555982	0.000000	0.000000	20.751909	8.117888	1.483658	110.367214	-99.799195	130.293354	15.158031	21.866213	8.098106	5.875912	-96.672974	-76.227697	-67.709757	6.412727	80.711336	1.649963	3.163397
1.960000	-3.113324	-1.635412	87.144473	0.216963	0.678952	0.686784	3.431444	-3.583244	-16.202442	11.011320	0.192184	10.240944	13.743618	0.000000	3.037657	3.625651	-12.326502	4.815144	0.084040	12.409050	0.313430	0.000000	-0.053771	-0.320412	0.257542	-0.099857	-0.426147	0.273639	-0.088340	-0.779049	0.273639	-0.061454	-0.779049	0.225350	-0.049931	-0.653383	0.209253	-0.030725	-0.496317	0.193157	-0.384078	-3.624559	1.432373	0.000000	0.000000	20.928456	7.939503	1.692563	113.098530	-100.349797	129.899028	15.071785	19.988522	8.108114	7.882535	-96.140898	-76.040380	-66.749322	6.332574	80.942900	1.663217	2.444799
1.980000	-3.080830	-1.649418	87.185191	0.217191	0.679048	0.686847	3.468412	-3.561472	-16.413630	11.047794	0.192820	10.202868	13.791672	0.000000	3.088112	3.539608	-12.878436	4.821947	0.084159	12.954616	1.415621	0.000000	-0.051115	-0.316010	0.234123	-0.094925	-0.420293	0.248755	-0.083976	-0.768346	0.248755	-0.058419	-0.768346	0.204857	-0.047465	-0.644407	0.190225	-0.029207	-0.489499	0.175592	-0.365106	-3.574765	1.302120	0.000000	0.000000	21.050396	7.792847	1.910657	115.531334	-100.749719	129.625547	14.902535	18.217356	8.138650	9.705735	-95.637826	-75.869329	-65.352203	6.212695	81.163618	1.753314	1.714056
2.000000	-3.065347	-1.674043	87.220124	0.217487	0.679118	0.686916	3.511278	-3.553426	-16.654211	11.068054	0.193174	10.224835	13.905390	0.000000	3.149947	3.469233	-13.401108	4.842432	0.084516	13.444436	2.440048	0.000000	-0.048419	-0.314855	0.218446	-0.089919	-0.418757	0.232099	-0.079548	-0.765538	0.232099	-0.055338	-0.765538	0.191140	-0.044962	-0.642052	0.177488	-0.027667	-0.487710	0.163835	-0.345852	-3.561698	1.214933	0.000000	0.000000	21.128648	7.711458	2.072508	117.710036	-101.136366	129.240461	14.759054	16.942763	8.122810	11.439885	-95.129414	-75.762621	-64.564757	6.053018	81.575287	1.908916	1.068945
2.020000	-3.072305	-1.711895	87.247855	0.217867	0.679154	0.686969	3.563065	-3.560372	-16.887005	11.071642	0.193237	10.321956	14.077727	0.000000	3.218423	3.422421	-13.848359	4.867162	0.084948	13.834827	3.312680	0.000000	-0.045222	-0.317952	0.213754	-0.083982	-0.422876	0.227114	-0.074296	-0.773067	0.227114	-0.051685	-0.773067	0.187035	-0.041993	-0.648367	0.173675	-0.025840	-0.492507	0.160316	-0.323018	-3.596731	1.188838	0.000000	0.000000	21.155017	7.706063	2.157299	119.575162	-101.528264	128.668753	14.675794	16.428024	7.975050	13.072654	-94.759504	-75.756056	-64.255756	5.896194	81.896568	2.073188	0.562994
2.040000	-3.088719	-1.763865	87.269430	0.218283	0.679157	0.687006	3.620018	-3.569077	-17.112169	11.049109	0.192843	10.487982	14.329507	0.000000	3.294517	3.389243	-14.192406	4.901589	0.085549	14.101911	3.979272	0.000000	-0.041319	-0.322856	0.214991	-0.076734	-0.429399	0.228428	-0.067884	-0.784992	0.228428	-0.047224	-0.784992	0.188117	-0.038369	-0.658368	0.174680	-0.023610	-0.500104	0.161243	-0.295141	-3.652212	1.195715	0.000000	0.000000	21.107707	7.760154	2.237620	120.961473	-101.836233	128.059674	14.599977	16.462895	7.739244	14.425883	-94.497539	-75.794765	-64.243131	5.788199	81.910353	2.254618	0.111238
2.060000	-3.115578	-1.827755	87.300392	0.218754	0.679135	0.687028	3.679196	-3.576529	-17.312915	11.002200	0.192025	10.720322	14.617901	0.000000	3.378783	3.367502	-14.420459	4.950186	0.086397	14.237225	4.438293	0.000000	-0.036977	-0.330385	0.225043	-0.068670	-0.439412	0.239108	-0.060750	-0.803299	0.239108	-0.042261	-0.803299	0.196913	-0.034337	-0.673722	0.182847	-0.021129	-0.511767	0.168782	-0.264123	-3.737384	1.251621	0.000000	0.000000	21.018266	7.898115	2.255363	121.843256	-102.109419	127.350022	14.559595	17.181788	7.435467	15.425381	-94.212586	-75.926664	-64.735135	5.690928	81.742176	2.304316	-0.204415
2.080000	-3.153714	-1.906216	87.326000	0.219211	0.679056	0.686978	3.742352	-3.589396	-17.483968	10.931348	0.190788	11.026244	14.955466	0.000000	3.463260	3.374267	-14.403360	4.991998	0.087127	14.234755	4.484901	0.000000	-0.031916	-0.338876	0.259859	-0.059271	-0.450705	0.276100	-0.052435	-0.823943	0.276100	-0.036477	-0.823943	0.227376	-0.029637	-0.691036	0.211135	-0.018237	-0.524919	0.194894	-0.227972	-3.833434	1.445256	0.000000	0.000000	20.912136	8.011456	2.178189	120.722101	-102.411413	127.313124	14.769534	16.441773	6.969579	15.931600	-93.883085	-76.157124	-66.140242	5.714133	81.874106	2.389437	-0.444923
2.100000	-3.192949	-1.975802	87.348281	0.219627	0.678969	0.686902	3.789634	-3.601161	-17.635788	10.842017	0.189229	11.365763	15.324975	0.000000	3.530743	3.388940	-14.330940	5.038381	0.087936	14.174848	4.401475	0.000000	-0.028030	-0.347042	0.291308	-0.052054	-0.461566	0.309514	-0.046050	-0.843797	0.309514	-0.032035	-0.843797	0.254894	-0.026028	-0.707688	0.236687	-0.016016	-0.537568	0.218481	-0.200214	-3.925807	1.620166	0.000000	0.000000	20.759740	8.154668	2.157613	119.874523	-102.612766	126.869564	14.863709	17.308111	6.579077	16.024974	-93.563658	-76.292438	-67.585332	5.853963	81.545824	2.297288	-0.764844
2.120000	-3.235834	-2.044279	87.359389	0.220084	0.678887	0.686840	3.830608	-3.609221	-17.777462	10.732170	0.187312	11.721126	15.723141	0.000000	3.599740	3.397199	-14.397641	5.100279	0.089017	14.140980	4.485280	0.000000	-0.024203	-0.357030	0.316101	-0.044947	-0.474850	0.335857	-0.039763	-0.868082	0.335857	-0.027661	-0.868082	0.276588	-0.022475	-0.728055	0.256832	-0.013830	-0.553039	0.237076	-0.172879	-4.038793	1.758059	0.000000	0.000000	20.592137	8.366871	2.143240	119.725789	-102.705553	126.652708	14.786168	19.188264	6.394576	15.873160	-93.320727	-76.279093	-68.986333	6.090372	80.635408	2.084978	-1.200238
2.140000	-3.285086	-2.099533	87.362935	0.220518	0.678815	0.686787	3.855200	-3.625421	-17.923340	10.614780	0.185263	12.073082	16.142416	0.000000	3.650962	3.415291	-14.488761	5.152342	0.089925	14.107966	4.572188	0.000000	-0.021391	-0.367746	0.336060	-0.039726	-0.489103	0.357064	-0.035144	-0.894138	0.357064	-0.024448	-0.894138	0.294052	-0.019864	-0.749908	0.273049	-0.012223	-0.569639	0.252045	-0.152797	-4.160020	1.869064	0.000000	0.000000	20.417477	8.596209	2.148184	120.211599	-102.758850	126.211733	14.542502	22.061022	6.328109	15.693808	-93.166550	-76.118393	-70.254138	6.457594	79.413059	1.668755	-1.744467
2.160000	-3.349488	-2.122868	87.353333	0.220978	0.678789	0.686788	3.851649	-3.658640	-18.057191	10.501961	0.183294	12.411334	16.556550	0.000000	3.673074	3.444018	-14.706517	5.202669	0.090804	14.109631	4.813863	0.000000	-0.021126	-0.381150	0.338425	-0.039234	-0.506929	0.359576	-0.034708	-0.926728	0.359576	-0.024145	-0.926728	0.296122	-0.019618	-0.777241	0.274970	-0.012072	-0.590401	0.253819	-0.150903	-4.311643	1.882217	0.000000	0.000000	20.215198	8.864533	2.214428	122.690484	-102.754557	124.634740	13.897874	27.915983	6.415575	15.712770	-93.251238	-75.720032	-71.042355	6.973535	77.669055	0.975970	-2.401509
2.180000	-3.419596	-2.135392	87.334968	0.221413	0.678779	0.686790	3.840887	-3.700895	-18.166270	10.399779	0.181510	12.721447	16.934309	0.000000	3.682669	3.481582	-14.962180	5.240237	0.091459	14.135738	5.101545	0.000000	-0.021025	-0.394592	0.345102	-0.039046	-0.524808	0.366671	-0.034542	-0.959412	0.366671	-0.024030	-0.959412	0.301964	-0.019524	-0.804653	0.280396	-0.012014	-0.611223	0.258827	-0.150181	-4.463707	1.919355	0.000000	0.000000	20.038994	9.081935	2.238018	124.869776	-102.786309	123.595171	13.182958	33.197183	6.392434	15.814138	-93.531231	-75.269492	-71.341599	7.582505	75.632588	0.067277	-3.120031
2.200000	-3.510286	-2.127564	87.321013	0.221901	0.678810	0.686812	3.811987	-3.762213	-18.242487	10.311676	0.179973	12.999662	17.253786	0.000000	3.675464	3.538155	-15.233485	5.273608	0.092042	14.158558	5.399380	0.000000	-0.022706	-0.412083	0.345412	-0.042167	-0.548071	0.367000	-0.037304	-1.001939	0.367000	-0.025951	-1.001939	0.302235	-0.021085	-0.840320	0.280647	-0.012974	-0.638317	0.259059	-0.162186	-4.661567	1.921076	0.000000	0.000000	19.883897	9.324442	2.230752	127.178086	-102.849444	123.015952	12.384001	38.373345	6.378700	15.885423	-94.206541	-74.735400	-71.092777	8.282264	73.098105	-1.055349	-3.830846
2.220000	-3.597016	-2.106241	87.312620	0.222323	0.678838	0.686880	3.783675	-3.823450	-18.247536	10.262357	0.179112	13.234651	17.449725	0.000000	3.655845	3.598535	-15.449039	5.297737	0.092463	14.191779	5.636237	0.000000	-0.026148	-0.427909	0.348289	-0.048559	-0.569119	0.370057	-0.042958	-1.040417	0.370057	-0.029884	-1.040417	0.304752	-0.024281	-0.872591	0.282984	-0.014941	-0.662831	0.261216	-0.186772	-4.840589	1.937076	0.000000	0.000000	19.775642	9.481173	2.195969	128.696444	-102.929661	122.856788	11.731988	42.350892	6.240728	15.862780	-95.082089	-74.271439	-70.423767	8.967113	70.892828	-2.088031	-4.409284
2.240000	-3.686702	-2.073576	87.319807	0.222736	0.678858	0.686994	3.754059	-3.887749	-18.188488	10.250155	0.178899	13.419555	17.524353	0.000000	3.633652	3.660767	-15.645029	5.333907	0.093094	14.229831	5.864394	0.000000	-0.031002	-0.444217	0.347435	-0.057573	-0.590808	0.369150	-0.050932	-1.080068	0.369150	-0.035432	-1.080068	0.304006	-0.028788	-0.905847	0.282291	-0.017714	-0.688092	0.260577	-0.221441	-5.025067	1.932331	0.000000	0.000000	19.704401	9.616140	2.149342	129.589924	-102.996060	123.175423	11.259239	45.155448	6.228531	15.496169	-96.272161	-73.852904	-69.382732	9.641301	68.675275	-2.976973	-4.786182
2.260000	-3.760259	-2.024785	87.333978	0.223087	0.678883	0.687175	3.716594	-3.939239	-18.078151	10.267006	0.179193	13.531673	17.503736	0.000000	3.601918	3.713419	-15.739439	5.378897	0.093879	14.246528	5.965316	0.000000	-0.038015	-0.456618	0.346071	-0.070597	-0.607302	0.367701	-0.062455	-1.110220	0.367701	-0.043447	-1.110220	0.302813	-0.035301	-0.931135	0.281183	-0.021722	-0.707301	0.259554	-0.271537	-5.165351	1.924746	0.000000	0.000000	19.647235	9.668425	2.138759	129.686437	-103.043679	123.648529	11.025598	46.716093	6.379492	14.683585	-97.271350	-73.540838	-68.224538	10.166803	66.890489	-3.681447	-5.020533
2.280000	-3.814034	-1.961534	87.358560	0.223349	0.678917	0.687404	3.667674	-3.978392	-17.959024	10.307526	0.179900	13.576693	17.434873	0.000000	3.564487	3.751034	-15.802475	5.444123	0.095018	14.269882	6.016899	0.000000	-0.046603	-0.463688	0.344447	-0.086546	-0.616705	0.365975	-0.076563	-1.127411	0.365975	-0.053262	-1.127411	0.301391	-0.043275	-0.945552	0.279863	-0.026629	-0.718253	0.258335	-0.332877	-5.245330	1.915710	0.000000	0.000000	19.592816	9.616164	2.178940	129.042139	-103.058658	124.010958	11.046669	46.973275	6.641068	13.568089	-97.753028	-73.372825	-67.353312	10.447453	65.876126	-4.233047	-5.165624
2.300000	-3.838702	-1.889079	87.416373	0.223503	0.678969	0.687704	3.610884	-3.997745	-17.875811	10.371679	0.181020	13.544882	17.345644	0.000000	3.533171	3.762223	-15.797565	5.540386	0.096698	14.295219	6.011662	0.000000	-0.056011	-0.464277	0.336082	-0.104018	-0.617489	0.357087	-0.092020	-1.128844	0.357087	-0.064015	-1.128844	0.294072	-0.052012	-0.946754	0.273067	-0.032005	-0.719165	0.252061	-0.400081	-5.251997	1.869187	0.000000	0.000000	19.514024	9.442053	2.277280	127.997547	-102.997822	124.350550	11.239321	46.007112	7.102730	12.201793	-97.709121	-73.362828	-66.560033	10.445931	65.482242	-4.537319	-5.227905
2.320000	-3.849665	-1.807890	87.474921	0.223637	0.679018	0.688054	3.552712	-4.008059	-17.782526	10.461381	0.182586	13.460235	17.222893	0.000000	3.499796	3.761473	-15.748028	5.651430	0.098636	14.309818	5.932187	0.000000	-0.066231	-0.460974	0.328078	-0.122997	-0.613095	0.348583	-0.108811	-1.120811	0.348583	-0.075695	-1.120811	0.287068	-0.061502	-0.940017	0.266563	-0.037844	-0.714048	0.246058	-0.473081	-5.214625	1.824670	0.000000	0.000000	19.414691	9.219007	2.444645	126.374620	-102.824788	124.815998	11.562704	44.253005	7.779939	10.385288	-97.226290	-73.469940	-66.072649	10.252711	65.591934	-4.718213	-5.244052
2.340000	-3.835542	-1.723743	87.574285	0.223662	0.679076	0.688439	3.486582	-4.000371	-17.743185	10.558098	0.184274	13.341605	17.108529	0.000000	3.476313	3.745994	-15.519662	5.780467	0.100888	14.290717	5.651435	0.000000	-0.076256	-0.452089	0.319053	-0.141615	-0.601279	0.338994	-0.125281	-1.099210	0.338994	-0.087153	-1.099210	0.279171	-0.070811	-0.921901	0.259231	-0.043573	-0.700286	0.239290	-0.544689	-5.114125	1.774477	0.000000	0.000000	19.277109	8.905305	2.615346	124.149441	-102.574589	125.412579	12.002533	41.779174	8.661864	8.230786	-96.334969	-73.725850	-65.679948	9.891063	66.243171	-4.763494	-5.209298
2.360000	-3.808003	-1.644895	87.702912	0.223650	0.679143	0.688868	3.428669	-3.983168	-17.753084	10.663543	0.186114	13.222210	17.010751	0.000000	3.470427	3.716216	-15.244417	5.922954	0.103375	14.258646	5.343899	0.000000	-0.085296	-0.440360	0.312905	-0.158403	-0.585678	0.332462	-0.140133	-1.070690	0.332462	-0.097485	-1.070690	0.273792	-0.079206	-0.897981	0.254235	-0.048738	-0.682117	0.234679	-0.609260	-4.981435	1.740284	0.000000	0.000000	19.103260	8.529911	2.749475	121.668026	-102.292412	126.165194	12.528421	38.855674	9.811039	5.924745	-95.206481	-74.096417	-65.381493	9.441974	67.227325	-4.775014	-5.176247
2.380000	-3.771842	-1.577732	87.853966	0.223613	0.679211	0.689324	3.384036	-3.957229	-17.787305	10.762965	0.187849	13.122079	16.917265	0.000000	3.484873	3.678898	-14.907193	6.065658	0.105866	14.212857	4.985005	0.000000	-0.092576	-0.427132	0.314543	-0.171923	-0.568085	0.334202	-0.152093	-1.038528	0.334202	-0.105805	-1.038528	0.275225	-0.085966	-0.871007	0.255566	-0.052898	-0.661627	0.235907	-0.661260	-4.831800	1.749394	0.000000	0.000000	18.906825	8.105929	2.788765	118.919757	-102.034432	127.009594	13.202461	35.317709	11.081223	3.637362	-94.019796	-74.580755	-65.190387	8.979395	68.511392	-4.733681	-5.128336
2.400000	-3.732950	-1.526187	88.048124	0.223568	0.679286	0.689812	3.353151	-3.928990	-17.891568	10.850740	0.189381	13.064237	16.867419	0.000000	3.527180	3.632873	-14.581255	6.208383	0.108357	14.176078	4.715189	0.000000	-0.098119	-0.414667	0.321098	-0.182216	-0.551507	0.341167	-0.161199	-1.008222	0.341167	-0.112140	-1.008222	0.280961	-0.091113	-0.845589	0.260892	-0.056065	-0.642320	0.240824	-0.700853	-4.690799	1.785853	0.000000	0.000000	18.710056	7.657905	2.681360	116.158880	-101.864872	127.852903	14.033749	31.312474	12.405939	1.500089	-92.923649	-75.165304	-64.989881	8.539245	69.971734	-4.634717	-5.087113
2.420000	-3.675323	-1.493839	88.273322	0.223443	0.679361	0.690316	3.337603	-3.885451	-18.077759	10.915745	0.190516	13.038455	16.869912	0.000000	3.599575	3.562010	-14.324981	6.346244	0.110763	14.169504	4.605679	0.000000	-0.101105	-0.399736	0.335768	-0.187762	-0.531648	0.356754	-0.166105	-0.971917	0.356754	-0.115553	-0.971917	0.293797	-0.093886	-0.815141	0.272812	-0.057771	-0.619191	0.251826	-0.722183	-4.521890	1.867441	0.000000	0.000000	18.521047	7.149873	2.441329	113.048790	-101.827340	128.068683	15.090462	26.969349	13.588732	-0.373464	-91.748754	-75.850351	-64.451877	8.105793	71.590800	-4.359471	-5.033939
2.440000	-3.597555	-1.496821	88.537862	0.223243	0.679373	0.690796	3.349998	-3.818712	-18.262727	10.973544	0.191524	13.029671	16.866025	0.000000	3.712942	3.480433	-13.850910	6.513845	0.113688	14.098051	4.217079	0.000000	-0.100450	-0.381839	0.356197	-0.186546	-0.507845	0.378460	-0.165029	-0.928402	0.378460	-0.114804	-0.928402	0.311673	-0.093278	-0.778645	0.289410	-0.057397	-0.591468	0.267148	-0.717505	-4.319434	1.981063	0.000000	0.000000	18.379317	6.580266	2.112039	108.880079	-101.713809	129.188566	16.311969	21.254655	14.707755	-2.408735	-90.117078	-76.624948	-64.972531	7.591848	73.817004	-3.929835	-4.934922
2.460000	-3.508514	-1.518337	88.826217	0.222965	0.679373	0.691282	3.374207	-3.743333	-18.478779	11.019442	0.192326	13.037310	16.868065	0.000000	3.850853	3.388445	-13.400025	6.684265	0.116662	14.052914	3.904820	0.000000	-0.097756	-0.362604	0.364595	-0.181543	-0.482264	0.387382	-0.160603	-0.881636	0.387382	-0.111725	-0.881636	0.319020	-0.090776	-0.739423	0.296233	-0.055858	-0.561674	0.273446	-0.698261	-4.101852	2.027766	0.000000	0.000000	18.259303	6.018296	1.791671	105.226233	-101.580396	130.404885	17.445634	15.924368	15.575693	-4.014978	-88.408795	-77.350064	-65.520156	7.045021	76.087559	-3.417518	-4.841566
2.480000	-3.409266	-1.559102	89.135953	0.222602	0.679363	0.691774	3.409713	-3.660736	-18.723426	11.051815	0.192891	13.062544	16.873259	0.000000	4.013043	3.287045	-12.997870	6.855246	0.119647	14.045629	3.705227	0.000000	-0.093010	-0.342332	0.356154	-0.172729	-0.455302	0.378413	-0.152806	-0.832347	0.378413	-0.106301	-0.832347	0.311635	-0.086369	-0.698084	0.289375	-0.053146	-0.530273	0.267115	-0.664362	-3.872532	1.980821	0.000000	0.000000	18.165729	5.482950	1.506570	102.371410	-101.418500	131.710120	18.418943	11.300529	16.111092	-5.061599	-86.663091	-77.983006	-66.031446	6.469874	78.311244	-2.833931	-4.761861
2.500000	-3.300873	-1.619831	89.464632	0.222147	0.679343	0.692269	3.455998	-3.572348	-18.994179	11.069041	0.193191	13.106546	16.878831	0.000000	4.199249	3.177235	-12.669994	7.024534	0.122601	14.087730	3.654626	0.000000	-0.086200	-0.321322	0.326068	-0.160082	-0.427359	0.346448	-0.141618	-0.781263	0.346448	-0.098518	-0.781263	0.285310	-0.080045	-0.655240	0.264931	-0.049255	-0.497728	0.244551	-0.615718	-3.634862	1.813494	0.000000	0.000000	18.103319	4.993218	1.283081	100.599768	-101.219521	133.096750	19.159382	7.705179	16.232499	-5.418005	-84.919151	-78.481079	-66.443093	5.870967	80.396838	-2.190483	-4.703796
2.520000	-3.184401	-1.701239	89.809821	0.221595	0.679313	0.692764	3.512541	-3.479591	-19.288549	11.069494	0.193199	13.170486	16.882008	0.000000	4.409207	3.060014	-12.441941	7.189871	0.125487	14.190753	3.789343	0.000000	-0.077313	-0.299874	0.269532	-0.143579	-0.398832	0.286378	-0.127018	-0.729113	0.286378	-0.088361	-0.729113	0.235841	-0.071793	-0.611502	0.218995	-0.044177	-0.464504	0.202149	-0.552241	-3.392230	1.499057	0.000000	0.000000	18.076799	4.568088	1.147550	100.195465	-100.974858	134.557257	19.594437	5.460359	15.858459	-4.953601	-83.216163	-78.801587	-66.691793	5.252862	82.253119	-1.498584	-4.675360
2.540000	-3.060914	-1.804043	90.169081	0.220939	0.679273	0.693257	3.578825	-3.383891	-19.604047	11.051552	0.192886	13.255539	16.880013	0.000000	4.642652	2.936382	-12.339260	7.349002	0.128264	14.366232	4.145702	0.000000	-0.066337	-0.278286	0.181739	-0.123195	-0.370120	0.193098	-0.108986	-0.676624	0.193098	-0.075817	-0.676624	0.159022	-0.061601	-0.567480	0.147663	-0.037905	-0.431065	0.136304	-0.473842	-3.148023	1.010777	0.000000	0.000000	18.090894	4.226548	1.126320	101.442659	-100.675911	136.084121	19.651594	4.888110	14.907518	-3.537791	-81.593312	-78.901836	-66.714237	4.620121	83.788866	-0.769645	-4.684541
2.560000	-2.931476	-1.928956	90.539979	0.220172	0.679225	0.693746	3.654331	-3.286671	-19.938184	11.013590	0.192223	13.362874	16.870074	0.000000	4.899322	2.807342	-12.387496	7.499669	0.130894	14.625702	4.760030	0.000000	-0.053260	-0.256858	0.057882	-0.098909	-0.341621	0.061500	-0.087501	-0.624525	0.061500	-0.060871	-0.624525	0.050647	-0.049457	-0.523785	0.047030	-0.030433	-0.397873	0.043412	-0.380430	-2.905630	0.321925	0.000000	0.000000	18.150328	3.987586	1.245739	104.625510	-100.314079	137.669821	19.258338	6.310475	13.298223	-1.039983	-80.089783	-78.739130	-66.447120	3.977305	84.912858	-0.015075	-4.739330
2.580000	-2.797152	-2.076696	90.920077	0.219288	0.679169	0.694228	3.738541	-3.189356	-20.288471	10.953986	0.191183	13.493665	16.849414	0.000000	5.178952	2.673892	-12.612196	7.639617	0.133336	14.980699	5.668653	0.000000	-0.038068	-0.235890	-0.106843	-0.070697	-0.313734	-0.113521	-0.062542	-0.573544	-0.113521	-0.043508	-0.573544	-0.093488	-0.035350	-0.481028	-0.086810	-0.021752	-0.365394	-0.080133	-0.271918	-2.668439	-0.594231	0.000000	0.000000	18.259825	3.870191	1.532150	110.028175	-99.880762	139.306838	18.342155	10.049494	10.949118	2.670418	-78.744765	-78.270776	-65.827135	3.328975	85.533874	0.753715	-4.847714
2.600000	-2.659006	-2.247976	91.306941	0.218280	0.679105	0.694700	3.830935	-3.093370	-20.652419	10.871116	0.189737	13.649084	16.815260	0.000000	5.481279	2.537033	-13.038907	7.766589	0.135553	15.442758	6.907895	0.000000	-0.020750	-0.215682	-0.317245	-0.038535	-0.286857	-0.337073	-0.034090	-0.524409	-0.337073	-0.023715	-0.524409	-0.277590	-0.019269	-0.439818	-0.257762	-0.011857	-0.334091	-0.237934	-0.148216	-2.439836	-1.764423	0.000000	0.000000	18.424112	3.893351	2.011898	117.934812	-99.367358	140.987653	16.830532	16.427209	7.778752	7.724008	-77.597441	-77.454078	-64.790976	2.679694	85.560692	1.525315	-5.017684
2.620000	-2.518102	-2.443513	91.698134	0.217142	0.679033	0.695161	3.930995	-3.000137	-21.027539	10.763355	0.187856	13.830302	16.764836	0.000000	5.806038	2.397766	-13.693175	7.878329	0.137503	16.023413	8.514083	0.000000	-0.001293	-0.196532	-0.578129	-0.002401	-0.261388	-0.614262	-0.002124	-0.477848	-0.614262	-0.001477	-0.477848	-0.505863	-0.001200	-0.400768	-0.469730	-0.000739	-0.304428	-0.433597	-0.009234	-2.223211	-3.215379	0.000000	0.000000	18.647912	4.076055	2.711329	128.629580	-98.765269	142.704745	14.650953	25.765661	3.705668	14.251379	-76.686999	-76.246341	-63.275337	2.034021	84.902092	2.288316	-5.257228
