Model Marker Errors from IK
version=1
nRows=778
nColumns=4
inDegrees=no
endheader
time	total_squared_error	marker_error_RMS	marker_error_max
      0.00000000	      0.02478193	      0.03029602	      0.06330836
      0.01785714	      0.02124164	      0.02804866	      0.06271383
      0.03571429	      0.01951651	      0.02688557	      0.06172981
      0.05357143	      0.01866792	      0.02629457	      0.06054420
      0.07142857	      0.01847048	      0.02615515	      0.05931292
      0.08928571	      0.01886009	      0.02642957	      0.05812569
      0.10714286	      0.01950482	      0.02687751	      0.05717314
      0.12500000	      0.01996005	      0.02718936	      0.05643666
      0.14285714	      0.01993786	      0.02717424	      0.05608518
      0.16071429	      0.01958369	      0.02693180	      0.05621477
      0.17857143	      0.01883432	      0.02641150	      0.05677801
      0.19642857	      0.01885727	      0.02642759	      0.05732095
      0.21428571	      0.01927028	      0.02671543	      0.05777414
      0.23214286	      0.01984891	      0.02711355	      0.05853973
      0.25000000	      0.02040743	      0.02749237	      0.05894023
      0.26785714	      0.02066324	      0.02766415	      0.05893811
      0.28571429	      0.02035062	      0.02745408	      0.05889121
      0.30357143	      0.01954448	      0.02690483	      0.05879525
      0.32142857	      0.01836574	      0.02608089	      0.05863124
      0.33928571	      0.01723939	      0.02526848	      0.05819360
      0.35714286	      0.01627707	      0.02455309	      0.05770169
      0.37500000	      0.01558806	      0.02402781	      0.05689795
      0.39285714	      0.01524504	      0.02376197	      0.05597912
      0.41071429	      0.01518442	      0.02371468	      0.05521944
      0.42857143	      0.01537185	      0.02386059	      0.05467432
      0.44642857	      0.01577373	      0.02417048	      0.05452761
      0.46428571	      0.01625777	      0.02453853	      0.05447936
      0.48214286	      0.01708842	      0.02515759	      0.05481179
      0.50000000	      0.01822006	      0.02597724	      0.05533915
      0.51785714	      0.01949742	      0.02687242	      0.05609431
      0.53571429	      0.02042858	      0.02750662	      0.05665845
      0.55357143	      0.02043852	      0.02751331	      0.05722592
      0.57142857	      0.01941119	      0.02681293	      0.05774744
      0.58928571	      0.01780606	      0.02568042	      0.05807252
      0.60714286	      0.01659481	      0.02479159	      0.05825206
      0.62500000	      0.01630810	      0.02457648	      0.05807407
      0.64285714	      0.01658877	      0.02478707	      0.05773924
      0.66071429	      0.01678389	      0.02493242	      0.05749855
      0.67857143	      0.01671482	      0.02488106	      0.05734135
      0.69642857	      0.01650697	      0.02472589	      0.05762694
      0.71428571	      0.01623631	      0.02452234	      0.05757222
      0.73214286	      0.01596522	      0.02431675	      0.05747400
      0.75000000	      0.01571141	      0.02412269	      0.05730875
      0.76785714	      0.01557506	      0.02401779	      0.05699624
      0.78571429	      0.01579086	      0.02418360	      0.05677939
      0.80357143	      0.01629778	      0.02456871	      0.05656201
      0.82142857	      0.01693876	      0.02504718	      0.05663199
      0.83928571	      0.01749072	      0.02545200	      0.05699178
      0.85714286	      0.01794197	      0.02577823	      0.05748704
      0.87500000	      0.01827016	      0.02601293	      0.05802868
      0.89285714	      0.01844576	      0.02613764	      0.05843464
      0.91071429	      0.01846100	      0.02614844	      0.05871268
      0.92857143	      0.01834161	      0.02606375	      0.05878146
      0.94642857	      0.01820713	      0.02596802	      0.05894033
      0.96428571	      0.01813931	      0.02591961	      0.05886590
      0.98214286	      0.01817986	      0.02594857	      0.05895306
      1.00000000	      0.01843276	      0.02612843	      0.05890077
      1.01785714	      0.01893470	      0.02648179	      0.05880453
      1.03571429	      0.01966142	      0.02698519	      0.05886103
      1.05357143	      0.02034251	      0.02744861	      0.05913588
      1.07142857	      0.02076671	      0.02773333	      0.05938685
      1.08928571	      0.02086000	      0.02779555	      0.05977267
      1.10714286	      0.02065434	      0.02765819	      0.05982847
      1.12500000	      0.02023564	      0.02737641	      0.05914882
      1.14285714	      0.01969622	      0.02700906	      0.05817301
      1.16071429	      0.01908949	      0.02658981	      0.05703383
      1.17857143	      0.01840064	      0.02610565	      0.05568412
      1.19642857	      0.01765842	      0.02557373	      0.05444734
      1.21428571	      0.01695267	      0.02505747	      0.05323662
      1.23214286	      0.01644707	      0.02468098	      0.05217386
      1.25000000	      0.01610089	      0.02441985	      0.05160488
      1.26785714	      0.01588006	      0.02425181	      0.05115394
      1.28571429	      0.01576904	      0.02416689	      0.05069555
      1.30357143	      0.01579125	      0.02418390	      0.05040080
      1.32142857	      0.01598510	      0.02433189	      0.05041139
      1.33928571	      0.01639668	      0.02464314	      0.05055527
      1.35714286	      0.01699643	      0.02508979	      0.05070995
      1.37500000	      0.01767967	      0.02558911	      0.05117400
      1.39285714	      0.01825958	      0.02600540	      0.05160949
      1.41071429	      0.01856312	      0.02622066	      0.05253739
      1.42857143	      0.01852778	      0.02619569	      0.05310155
      1.44642857	      0.01818888	      0.02595500	      0.05455923
      1.46428571	      0.01769215	      0.02559814	      0.05544345
      1.48214286	      0.01733454	      0.02533812	      0.05656955
      1.50000000	      0.01732686	      0.02533250	      0.05749411
      1.51785714	      0.01763372	      0.02555584	      0.05800083
      1.53571429	      0.01811163	      0.02589983	      0.05819293
      1.55357143	      0.01872434	      0.02633428	      0.05813668
      1.57142857	      0.01943473	      0.02682918	      0.05803773
      1.58928571	      0.02015379	      0.02732100	      0.05841574
      1.60714286	      0.02085143	      0.02778984	      0.05875884
      1.62500000	      0.02139145	      0.02814740	      0.05902403
      1.64285714	      0.02174551	      0.02837938	      0.05913253
      1.66071429	      0.02196336	      0.02852118	      0.05918983
      1.67857143	      0.02219193	      0.02866920	      0.05896351
      1.69642857	      0.02240621	      0.02880728	      0.05877382
      1.71428571	      0.02256726	      0.02891063	      0.05853041
      1.73214286	      0.02263400	      0.02895334	      0.05849707
      1.75000000	      0.02270033	      0.02899574	      0.05850664
      1.76785714	      0.02273494	      0.02901784	      0.05860867
      1.78571429	      0.02266575	      0.02897365	      0.05864451
      1.80357143	      0.02241177	      0.02881086	      0.05874836
      1.82142857	      0.02196192	      0.02852024	      0.05828992
      1.83928571	      0.02136017	      0.02812681	      0.05782907
      1.85714286	      0.02071407	      0.02769815	      0.05733166
      1.87500000	      0.02012637	      0.02730240	      0.05701582
      1.89285714	      0.01969548	      0.02700856	      0.05665283
      1.91071429	      0.01948193	      0.02686174	      0.05642160
      1.92857143	      0.01941300	      0.02681417	      0.05593224
      1.94642857	      0.01946315	      0.02684879	      0.05532798
      1.96428571	      0.01953251	      0.02689659	      0.05509759
      1.98214286	      0.01965684	      0.02698205	      0.05466553
      2.00000000	      0.01984692	      0.02711219	      0.05428105
      2.01785714	      0.02004095	      0.02724440	      0.05396471
      2.03571429	      0.02008338	      0.02727323	      0.05374374
      2.05357143	      0.01989875	      0.02714758	      0.05371531
      2.07142857	      0.01954098	      0.02690241	      0.05361032
      2.08928571	      0.01920815	      0.02667232	      0.05361629
      2.10714286	      0.01882532	      0.02640519	      0.05381471
      2.12500000	      0.01854632	      0.02620879	      0.05383778
      2.14285714	      0.01840577	      0.02610929	      0.05395883
      2.16071429	      0.01841763	      0.02611770	      0.05439809
      2.17857143	      0.01857287	      0.02622755	      0.05481984
      2.19642857	      0.01883561	      0.02641241	      0.05516029
      2.21428571	      0.01908733	      0.02658831	      0.05534624
      2.23214286	      0.01933668	      0.02676142	      0.05555298
      2.25000000	      0.01956542	      0.02691924	      0.05579308
      2.26785714	      0.01975078	      0.02704645	      0.05600045
      2.28571429	      0.01994255	      0.02717743	      0.05605606
      2.30357143	      0.02015268	      0.02732024	      0.05604569
      2.32142857	      0.02041873	      0.02749999	      0.05596619
      2.33928571	      0.02070511	      0.02769216	      0.05574607
      2.35714286	      0.02090245	      0.02782382	      0.05542845
      2.37500000	      0.02098783	      0.02788058	      0.05540759
      2.39285714	      0.02098253	      0.02787706	      0.05565148
      2.41071429	      0.02096594	      0.02786604	      0.05595281
      2.42857143	      0.02093335	      0.02784437	      0.05652630
      2.44642857	      0.02097250	      0.02787040	      0.05656867
      2.46428571	      0.02113344	      0.02797713	      0.05692552
      2.48214286	      0.02140620	      0.02815710	      0.05739081
      2.50000000	      0.02174504	      0.02837907	      0.05748696
      2.51785714	      0.02211095	      0.02861685	      0.05790581
      2.53571429	      0.02251344	      0.02887614	      0.05802707
      2.55357143	      0.02293807	      0.02914718	      0.05805836
      2.57142857	      0.02328888	      0.02936922	      0.05783412
      2.58928571	      0.02350413	      0.02950463	      0.05816027
      2.60714286	      0.02344778	      0.02946924	      0.05821561
      2.62500000	      0.02322457	      0.02932864	      0.05831516
      2.64285714	      0.02295615	      0.02915867	      0.05843407
      2.66071429	      0.02273240	      0.02901621	      0.05836635
      2.67857143	      0.02259003	      0.02892521	      0.05840349
      2.69642857	      0.02251276	      0.02887570	      0.05811603
      2.71428571	      0.02246450	      0.02884473	      0.05796214
      2.73214286	      0.02243620	      0.02882656	      0.05740384
      2.75000000	      0.02244999	      0.02883541	      0.05655910
      2.76785714	      0.02256491	      0.02890912	      0.05619243
      2.78571429	      0.02270565	      0.02899914	      0.05581255
      2.80357143	      0.02278884	      0.02905221	      0.05559433
      2.82142857	      0.02276567	      0.02903744	      0.05515024
      2.83928571	      0.02268078	      0.02898325	      0.05493503
      2.85714286	      0.02250641	      0.02887163	      0.05464540
      2.87500000	      0.02228801	      0.02873120	      0.05424761
      2.89285714	      0.02206294	      0.02858577	      0.05383927
      2.91071429	      0.02188327	      0.02846913	      0.05333247
      2.92857143	      0.02178875	      0.02840758	      0.05292815
      2.94642857	      0.02180310	      0.02841693	      0.05316531
      2.96428571	      0.02190274	      0.02848180	      0.05324748
      2.98214286	      0.02205334	      0.02857955	      0.05342102
      3.00000000	      0.02221040	      0.02868113	      0.05383579
      3.01785714	      0.02235704	      0.02877566	      0.05443939
      3.03571429	      0.02248734	      0.02885939	      0.05515674
      3.05357143	      0.02261929	      0.02894394	      0.05589967
      3.07142857	      0.02277084	      0.02904074	      0.05669806
      3.08928571	      0.02298413	      0.02917643	      0.05734802
      3.10714286	      0.02325326	      0.02934675	      0.05787291
      3.12500000	      0.02354767	      0.02953195	      0.05796058
      3.14285714	      0.02384840	      0.02971992	      0.05784772
      3.16071429	      0.02412709	      0.02989308	      0.05765717
      3.17857143	      0.02436021	      0.03003714	      0.05759515
      3.19642857	      0.02450303	      0.03012507	      0.05768545
      3.21428571	      0.02450639	      0.03012713	      0.05790570
      3.23214286	      0.02437102	      0.03004381	      0.05808131
      3.25000000	      0.02413255	      0.02989646	      0.05808637
      3.26785714	      0.02386796	      0.02973211	      0.05786232
      3.28571429	      0.02361462	      0.02957390	      0.05777820
      3.30357143	      0.02340474	      0.02944218	      0.05786796
      3.32142857	      0.02327764	      0.02936213	      0.05767092
      3.33928571	      0.02324795	      0.02934340	      0.05751635
      3.35714286	      0.02330395	      0.02937872	      0.05720950
      3.37500000	      0.02336974	      0.02942016	      0.05745447
      3.39285714	      0.02348187	      0.02949066	      0.05707546
      3.41071429	      0.02357766	      0.02955075	      0.05739309
      3.42857143	      0.02369217	      0.02962242	      0.05713940
      3.44642857	      0.02378255	      0.02967887	      0.05715017
      3.46428571	      0.02382933	      0.02970804	      0.05672217
      3.48214286	      0.02385191	      0.02972211	      0.05677217
      3.50000000	      0.02380148	      0.02969068	      0.05639028
      3.51785714	      0.02368709	      0.02961924	      0.05658272
      3.53571429	      0.02349902	      0.02950142	      0.05671490
      3.55357143	      0.02329070	      0.02937037	      0.05647594
      3.57142857	      0.02307802	      0.02923596	      0.05688677
      3.58928571	      0.02290586	      0.02912671	      0.05724422
      3.60714286	      0.02279464	      0.02905591	      0.05751038
      3.62500000	      0.02276226	      0.02903527	      0.05770216
      3.64285714	      0.02276793	      0.02903888	      0.05784849
      3.66071429	      0.02278005	      0.02904661	      0.05787382
      3.67857143	      0.02274473	      0.02902408	      0.05789249
      3.69642857	      0.02265217	      0.02896497	      0.05784994
      3.71428571	      0.02251881	      0.02887958	      0.05782009
      3.73214286	      0.02239068	      0.02879730	      0.05768548
      3.75000000	      0.02228463	      0.02872902	      0.05772230
      3.76785714	      0.02215242	      0.02864367	      0.05760139
      3.78571429	      0.02189552	      0.02847710	      0.05753169
      3.80357143	      0.02143464	      0.02817580	      0.05728722
      3.82142857	      0.02073065	      0.02770924	      0.05693518
      3.83928571	      0.01987448	      0.02713101	      0.05637757
      3.85714286	      0.01903456	      0.02655153	      0.05584915
      3.87500000	      0.01833061	      0.02605593	      0.05542670
      3.89285714	      0.01794555	      0.02578081	      0.05506652
      3.91071429	      0.01788996	      0.02574085	      0.05472920
      3.92857143	      0.01820526	      0.02596669	      0.05446708
      3.94642857	      0.01875022	      0.02635247	      0.05399248
      3.96428571	      0.01940982	      0.02681198	      0.05365742
      3.98214286	      0.01999348	      0.02721212	      0.05317320
      4.00000000	      0.02045880	      0.02752695	      0.05300489
      4.01785714	      0.02072431	      0.02770500	      0.05315656
      4.03571429	      0.02083565	      0.02777932	      0.05337960
      4.05357143	      0.02078723	      0.02774702	      0.05371457
      4.07142857	      0.02050936	      0.02756095	      0.05385478
      4.08928571	      0.02008136	      0.02727186	      0.05360671
      4.10714286	      0.01955289	      0.02691061	      0.05343318
      4.12500000	      0.01913475	      0.02662131	      0.05272857
      4.14285714	      0.01874227	      0.02634688	      0.05212034
      4.16071429	      0.01837775	      0.02608941	      0.05149753
      4.17857143	      0.01806881	      0.02586919	      0.05124230
      4.19642857	      0.01791442	      0.02575844	      0.05113213
      4.21428571	      0.01790520	      0.02575181	      0.05108017
      4.23214286	      0.01797917	      0.02580494	      0.05112996
      4.25000000	      0.01809940	      0.02589108	      0.05104790
      4.26785714	      0.01831631	      0.02604577	      0.05088950
      4.28571429	      0.01866498	      0.02629250	      0.05057427
      4.30357143	      0.01904538	      0.02655907	      0.05063030
      4.32142857	      0.01934065	      0.02676416	      0.05066923
      4.33928571	      0.01947156	      0.02685458	      0.05085456
      4.35714286	      0.01948320	      0.02686261	      0.05124006
      4.37500000	      0.01952637	      0.02689236	      0.05179252
      4.39285714	      0.01967841	      0.02699685	      0.05268698
      4.41071429	      0.01993948	      0.02717535	      0.05354932
      4.42857143	      0.02020023	      0.02735246	      0.05444999
      4.44642857	      0.02046577	      0.02753164	      0.05502463
      4.46428571	      0.02077099	      0.02773619	      0.05543010
      4.48214286	      0.02113298	      0.02797683	      0.05574153
      4.50000000	      0.02143372	      0.02817519	      0.05598245
      4.51785714	      0.02149378	      0.02821464	      0.05609764
      4.53571429	      0.02122297	      0.02803633	      0.05633833
      4.55357143	      0.02070769	      0.02769389	      0.05663165
      4.57142857	      0.02011381	      0.02729388	      0.05710909
      4.58928571	      0.01956194	      0.02691684	      0.05774842
      4.60714286	      0.01906466	      0.02657251	      0.05793093
      4.62500000	      0.01872565	      0.02633520	      0.05835589
      4.64285714	      0.01868040	      0.02630336	      0.05825507
      4.66071429	      0.01889437	      0.02645357	      0.05794693
      4.67857143	      0.01929541	      0.02673284	      0.05752148
      4.69642857	      0.01977101	      0.02706030	      0.05717684
      4.71428571	      0.02025867	      0.02739199	      0.05668511
      4.73214286	      0.02058140	      0.02760931	      0.05679465
      4.75000000	      0.02076312	      0.02773093	      0.05678107
      4.76785714	      0.02074319	      0.02771761	      0.05678394
      4.78571429	      0.02059038	      0.02761533	      0.05702153
      4.80357143	      0.02047458	      0.02753757	      0.05706946
      4.82142857	      0.02039754	      0.02748571	      0.05720441
      4.83928571	      0.02029422	      0.02741601	      0.05738279
      4.85714286	      0.02010248	      0.02728619	      0.05749812
      4.87500000	      0.01989683	      0.02714626	      0.05743564
      4.89285714	      0.01976816	      0.02705835	      0.05707330
      4.91071429	      0.01971606	      0.02702266	      0.05662706
      4.92857143	      0.01968537	      0.02700162	      0.05596584
      4.94642857	      0.01961096	      0.02695054	      0.05532439
      4.96428571	      0.01949096	      0.02686796	      0.05451418
      4.98214286	      0.01938788	      0.02679682	      0.05368190
      5.00000000	      0.01929155	      0.02673017	      0.05303711
      5.01785714	      0.01914390	      0.02662768	      0.05292027
      5.03571429	      0.01899854	      0.02652639	      0.05243903
      5.05357143	      0.01886660	      0.02643412	      0.05207839
      5.07142857	      0.01880933	      0.02639397	      0.05165699
      5.08928571	      0.01883652	      0.02641304	      0.05129624
      5.10714286	      0.01893932	      0.02648502	      0.05103099
      5.12500000	      0.01908305	      0.02658532	      0.05101500
      5.14285714	      0.01918720	      0.02665778	      0.05124519
      5.16071429	      0.01919893	      0.02666592	      0.05155338
      5.17857143	      0.01909992	      0.02659707	      0.05198317
      5.19642857	      0.01891674	      0.02646923	      0.05272252
      5.21428571	      0.01872406	      0.02633408	      0.05340847
      5.23214286	      0.01856286	      0.02622048	      0.05419292
      5.25000000	      0.01850687	      0.02618090	      0.05467719
      5.26785714	      0.01853429	      0.02620029	      0.05530503
      5.28571429	      0.01860706	      0.02625168	      0.05603910
      5.30357143	      0.01867001	      0.02629604	      0.05625971
      5.32142857	      0.01863292	      0.02626991	      0.05652053
      5.33928571	      0.01848159	      0.02616302	      0.05691513
      5.35714286	      0.01830049	      0.02603451	      0.05714614
      5.37500000	      0.01816751	      0.02593975	      0.05750542
      5.39285714	      0.01812698	      0.02591080	      0.05785997
      5.41071429	      0.01820311	      0.02596515	      0.05829922
      5.42857143	      0.01836469	      0.02608014	      0.05851008
      5.44642857	      0.01853527	      0.02620098	      0.05856070
      5.46428571	      0.01867520	      0.02629970	      0.05829567
      5.48214286	      0.01877668	      0.02637106	      0.05809976
      5.50000000	      0.01885629	      0.02642690	      0.05818170
      5.51785714	      0.01896676	      0.02650420	      0.05799441
      5.53571429	      0.01904966	      0.02656206	      0.05780363
      5.55357143	      0.01908016	      0.02658332	      0.05760535
      5.57142857	      0.01903307	      0.02655049	      0.05749539
      5.58928571	      0.01888345	      0.02644593	      0.05749478
      5.60714286	      0.01865687	      0.02628679	      0.05745024
      5.62500000	      0.01834671	      0.02606737	      0.05721733
      5.64285714	      0.01799112	      0.02581352	      0.05726122
      5.66071429	      0.01770362	      0.02560644	      0.05697529
      5.67857143	      0.01748213	      0.02544575	      0.05706537
      5.69642857	      0.01736613	      0.02536119	      0.05717942
      5.71428571	      0.01730595	      0.02531721	      0.05709187
      5.73214286	      0.01721724	      0.02525224	      0.05732729
      5.75000000	      0.01711288	      0.02517559	      0.05733115
      5.76785714	      0.01700945	      0.02509939	      0.05733687
      5.78571429	      0.01693479	      0.02504425	      0.05730266
      5.80357143	      0.01693483	      0.02504428	      0.05703366
      5.82142857	      0.01702991	      0.02511449	      0.05761549
      5.83928571	      0.01725334	      0.02527870	      0.05785860
      5.85714286	      0.01749808	      0.02545736	      0.05826629
      5.87500000	      0.01764317	      0.02556268	      0.05874997
      5.89285714	      0.01763188	      0.02555450	      0.05933067
      5.91071429	      0.01747150	      0.02543801	      0.06018073
      5.92857143	      0.01727371	      0.02529361	      0.06098601
      5.94642857	      0.01709274	      0.02516077	      0.06173023
      5.96428571	      0.01695282	      0.02505758	      0.06233966
      5.98214286	      0.01685440	      0.02498474	      0.06305363
      6.00000000	      0.01686921	      0.02499571	      0.06361657
      6.01785714	      0.01703161	      0.02511574	      0.06395000
      6.03571429	      0.01726465	      0.02528698	      0.06449382
      6.05357143	      0.01752311	      0.02547556	      0.06499190
      6.07142857	      0.01774530	      0.02563656	      0.06538033
      6.08928571	      0.01792308	      0.02576466	      0.06573705
      6.10714286	      0.01802775	      0.02583978	      0.06581902
      6.12500000	      0.01800588	      0.02582410	      0.06605138
      6.14285714	      0.01789567	      0.02574495	      0.06596583
      6.16071429	      0.01773318	      0.02562780	      0.06557087
      6.17857143	      0.01753567	      0.02548469	      0.06532642
      6.19642857	      0.01735732	      0.02535475	      0.06491154
      6.21428571	      0.01722892	      0.02526081	      0.06463625
      6.23214286	      0.01718490	      0.02522851	      0.06453363
      6.25000000	      0.01722509	      0.02525800	      0.06446354
      6.26785714	      0.01733245	      0.02533659	      0.06453290
      6.28571429	      0.01747440	      0.02544012	      0.06459272
      6.30357143	      0.01765415	      0.02557063	      0.06466514
      6.32142857	      0.01787032	      0.02572671	      0.06480459
      6.33928571	      0.01809983	      0.02589139	      0.06492400
      6.35714286	      0.01839927	      0.02610468	      0.06504641
      6.37500000	      0.01875993	      0.02635929	      0.06510466
      6.39285714	      0.01903770	      0.02655372	      0.06544647
      6.41071429	      0.01921418	      0.02667652	      0.06568570
      6.42857143	      0.01917133	      0.02664675	      0.06598581
      6.44642857	      0.01896507	      0.02650302	      0.06609010
      6.46428571	      0.01867589	      0.02630019	      0.06604357
      6.48214286	      0.01834848	      0.02606862	      0.06585424
      6.50000000	      0.01805562	      0.02585975	      0.06567757
      6.51785714	      0.01788268	      0.02573560	      0.06543530
      6.53571429	      0.01778976	      0.02566866	      0.06527395
      6.55357143	      0.01775651	      0.02564466	      0.06528276
      6.57142857	      0.01770923	      0.02561050	      0.06527408
      6.58928571	      0.01760434	      0.02553454	      0.06539161
      6.60714286	      0.01749497	      0.02545509	      0.06531345
      6.62500000	      0.01743713	      0.02541298	      0.06536053
      6.64285714	      0.01739484	      0.02538215	      0.06556839
      6.66071429	      0.01742301	      0.02540269	      0.06557951
      6.67857143	      0.01744296	      0.02541723	      0.06562205
      6.69642857	      0.01743226	      0.02540943	      0.06590229
      6.71428571	      0.01743496	      0.02541140	      0.06608906
      6.73214286	      0.01746554	      0.02543367	      0.06629956
      6.75000000	      0.01752723	      0.02547855	      0.06652884
      6.76785714	      0.01762836	      0.02555195	      0.06654570
      6.78571429	      0.01770995	      0.02561101	      0.06663224
      6.80357143	      0.01778000	      0.02566162	      0.06669509
      6.82142857	      0.01780068	      0.02567654	      0.06672196
      6.83928571	      0.01779226	      0.02567046	      0.06672800
      6.85714286	      0.01774330	      0.02563511	      0.06688314
      6.87500000	      0.01766805	      0.02558070	      0.06697137
      6.89285714	      0.01759250	      0.02552595	      0.06710679
      6.91071429	      0.01751627	      0.02547059	      0.06718683
      6.92857143	      0.01747140	      0.02543794	      0.06727168
      6.94642857	      0.01745133	      0.02542332	      0.06721732
      6.96428571	      0.01746455	      0.02543296	      0.06703077
      6.98214286	      0.01749145	      0.02545253	      0.06679033
      7.00000000	      0.01752846	      0.02547945	      0.06637629
      7.01785714	      0.01756377	      0.02550510	      0.06613334
      7.03571429	      0.01760316	      0.02553368	      0.06581234
      7.05357143	      0.01770184	      0.02560515	      0.06548490
      7.07142857	      0.01785482	      0.02571555	      0.06524198
      7.08928571	      0.01802363	      0.02583683	      0.06513585
      7.10714286	      0.01815336	      0.02592965	      0.06495566
      7.12500000	      0.01815365	      0.02592986	      0.06512486
      7.14285714	      0.01804223	      0.02585016	      0.06511361
      7.16071429	      0.01784363	      0.02570749	      0.06506348
      7.17857143	      0.01757230	      0.02551129	      0.06493032
      7.19642857	      0.01727838	      0.02529704	      0.06462186
      7.21428571	      0.01703189	      0.02511595	      0.06415194
      7.23214286	      0.01689948	      0.02501813	      0.06363218
      7.25000000	      0.01687951	      0.02500334	      0.06319069
      7.26785714	      0.01694635	      0.02505279	      0.06274686
      7.28571429	      0.01694845	      0.02505435	      0.06262317
      7.30357143	      0.01690952	      0.02502556	      0.06257211
      7.32142857	      0.01681302	      0.02495404	      0.06248564
      7.33928571	      0.01670691	      0.02487518	      0.06253282
      7.35714286	      0.01657967	      0.02478027	      0.06295153
      7.37500000	      0.01652288	      0.02473780	      0.06338186
      7.39285714	      0.01653957	      0.02475028	      0.06376353
      7.41071429	      0.01664187	      0.02482671	      0.06414494
      7.42857143	      0.01677852	      0.02492843	      0.06467879
      7.44642857	      0.01693747	      0.02504623	      0.06506482
      7.46428571	      0.01707683	      0.02514906	      0.06557795
      7.48214286	      0.01722165	      0.02525547	      0.06617450
      7.50000000	      0.01739001	      0.02537862	      0.06692738
      7.51785714	      0.01765139	      0.02556864	      0.06761722
      7.53571429	      0.01797872	      0.02580462	      0.06838203
      7.55357143	      0.01834479	      0.02606601	      0.06886864
      7.57142857	      0.01862371	      0.02626342	      0.06927032
      7.58928571	      0.01879836	      0.02638627	      0.06928748
      7.60714286	      0.01887555	      0.02644039	      0.06900689
      7.62500000	      0.01890808	      0.02646317	      0.06874215
      7.64285714	      0.01894216	      0.02648701	      0.06850378
      7.66071429	      0.01898246	      0.02651516	      0.06828202
      7.67857143	      0.01896992	      0.02650641	      0.06872733
      7.69642857	      0.01895098	      0.02649317	      0.06907762
      7.71428571	      0.01892341	      0.02647389	      0.06933725
      7.73214286	      0.01888140	      0.02644449	      0.06962306
      7.75000000	      0.01880137	      0.02638839	      0.06975732
      7.76785714	      0.01865461	      0.02628519	      0.06981391
      7.78571429	      0.01846176	      0.02614897	      0.06973657
      7.80357143	      0.01826764	      0.02601114	      0.06948536
      7.82142857	      0.01807537	      0.02587389	      0.06921596
      7.83928571	      0.01793651	      0.02577431	      0.06887712
      7.85714286	      0.01789050	      0.02574123	      0.06835780
      7.87500000	      0.01795240	      0.02578573	      0.06797800
      7.89285714	      0.01811705	      0.02590370	      0.06754060
      7.91071429	      0.01824723	      0.02599660	      0.06731233
      7.92857143	      0.01831942	      0.02604798	      0.06708452
      7.94642857	      0.01827944	      0.02601954	      0.06696707
      7.96428571	      0.01817167	      0.02594272	      0.06690416
      7.98214286	      0.01801069	      0.02582755	      0.06671470
      8.00000000	      0.01778374	      0.02566431	      0.06643548
      8.01785714	      0.01754216	      0.02548940	      0.06597302
      8.03571429	      0.01736263	      0.02535863	      0.06538330
      8.05357143	      0.01728734	      0.02530359	      0.06482356
      8.07142857	      0.01727582	      0.02529516	      0.06438616
      8.08928571	      0.01723116	      0.02526245	      0.06414301
      8.10714286	      0.01710473	      0.02516959	      0.06406610
      8.12500000	      0.01699203	      0.02508654	      0.06389503
      8.14285714	      0.01692027	      0.02503351	      0.06374242
      8.16071429	      0.01696498	      0.02506657	      0.06352486
      8.17857143	      0.01709689	      0.02516383	      0.06295028
      8.19642857	      0.01720652	      0.02524438	      0.06265344
      8.21428571	      0.01737921	      0.02537074	      0.06223278
      8.23214286	      0.01757563	      0.02551371	      0.06202067
      8.25000000	      0.01774400	      0.02563563	      0.06187053
      8.26785714	      0.01776485	      0.02565068	      0.06241191
      8.28571429	      0.01770898	      0.02561031	      0.06286704
      8.30357143	      0.01765915	      0.02557426	      0.06350111
      8.32142857	      0.01766330	      0.02557726	      0.06412657
      8.33928571	      0.01775587	      0.02564420	      0.06442770
      8.35714286	      0.01785844	      0.02571816	      0.06469769
      8.37500000	      0.01802025	      0.02583441	      0.06482391
      8.39285714	      0.01819170	      0.02595702	      0.06489037
      8.41071429	      0.01836589	      0.02608099	      0.06490770
      8.42857143	      0.01846273	      0.02614966	      0.06495115
      8.44642857	      0.01854799	      0.02620997	      0.06488959
      8.46428571	      0.01858496	      0.02623608	      0.06501595
      8.48214286	      0.01864905	      0.02628128	      0.06501199
      8.50000000	      0.01870667	      0.02632185	      0.06501119
      8.51785714	      0.01873140	      0.02633924	      0.06519787
      8.53571429	      0.01871641	      0.02632870	      0.06557519
      8.55357143	      0.01869111	      0.02631090	      0.06621310
      8.57142857	      0.01865568	      0.02628595	      0.06660433
      8.58928571	      0.01859276	      0.02624158	      0.06702401
      8.60714286	      0.01852340	      0.02619259	      0.06705233
      8.62500000	      0.01841593	      0.02611650	      0.06683179
      8.64285714	      0.01840303	      0.02610735	      0.06633749
      8.66071429	      0.01853938	      0.02620388	      0.06552198
      8.67857143	      0.01871011	      0.02632427	      0.06515827
      8.69642857	      0.01891420	      0.02646745	      0.06465595
      8.71428571	      0.01896296	      0.02650155	      0.06442717
      8.73214286	      0.01887340	      0.02643889	      0.06419280
      8.75000000	      0.01864039	      0.02627518	      0.06367500
      8.76785714	      0.01831097	      0.02604197	      0.06323844
      8.78571429	      0.01788126	      0.02573458	      0.06309451
      8.80357143	      0.01757643	      0.02551429	      0.06291058
      8.82142857	      0.01745200	      0.02542382	      0.06281145
      8.83928571	      0.01752103	      0.02547405	      0.06317327
      8.85714286	      0.01773939	      0.02563229	      0.06343917
      8.87500000	      0.01802008	      0.02583429	      0.06370713
      8.89285714	      0.01828535	      0.02602374	      0.06391216
      8.91071429	      0.01846312	      0.02614994	      0.06402655
      8.92857143	      0.01851494	      0.02618661	      0.06385000
      8.94642857	      0.01833916	      0.02606201	      0.06387618
      8.96428571	      0.01806394	      0.02586571	      0.06365409
      8.98214286	      0.01775381	      0.02564271	      0.06330528
      9.00000000	      0.01746546	      0.02543362	      0.06282434
      9.01785714	      0.01720898	      0.02524618	      0.06237351
      9.03571429	      0.01698150	      0.02507876	      0.06205675
      9.05357143	      0.01680523	      0.02494827	      0.06188772
      9.07142857	      0.01671143	      0.02487854	      0.06197084
      9.08928571	      0.01671016	      0.02487759	      0.06221553
      9.10714286	      0.01679957	      0.02494407	      0.06224425
      9.12500000	      0.01687766	      0.02500197	      0.06243478
      9.14285714	      0.01696383	      0.02506572	      0.06242963
      9.16071429	      0.01700119	      0.02509330	      0.06250163
      9.17857143	      0.01699551	      0.02508911	      0.06265521
      9.19642857	      0.01692427	      0.02503647	      0.06299107
      9.21428571	      0.01686148	      0.02498999	      0.06351699
      9.23214286	      0.01682196	      0.02496068	      0.06419640
      9.25000000	      0.01681866	      0.02495823	      0.06489494
      9.26785714	      0.01676891	      0.02492129	      0.06568205
      9.28571429	      0.01671843	      0.02488375	      0.06627381
      9.30357143	      0.01665842	      0.02483905	      0.06655922
      9.32142857	      0.01663393	      0.02482079	      0.06656418
      9.33928571	      0.01657261	      0.02477500	      0.06664209
      9.35714286	      0.01652401	      0.02473864	      0.06641018
      9.37500000	      0.01646089	      0.02469135	      0.06609558
      9.39285714	      0.01642185	      0.02466205	      0.06525301
      9.41071429	      0.01640842	      0.02465196	      0.06468349
      9.42857143	      0.01639033	      0.02463837	      0.06436143
      9.44642857	      0.01642002	      0.02466067	      0.06400597
      9.46428571	      0.01645130	      0.02468415	      0.06371938
      9.48214286	      0.01650358	      0.02472335	      0.06353041
      9.50000000	      0.01657899	      0.02477976	      0.06334440
      9.51785714	      0.01663225	      0.02481953	      0.06316504
      9.53571429	      0.01661757	      0.02480858	      0.06310086
      9.55357143	      0.01653701	      0.02474837	      0.06293373
      9.57142857	      0.01641489	      0.02465682	      0.06267833
      9.58928571	      0.01630581	      0.02457476	      0.06229657
      9.60714286	      0.01621710	      0.02450782	      0.06222430
      9.62500000	      0.01616109	      0.02446546	      0.06216363
      9.64285714	      0.01611707	      0.02443212	      0.06231383
      9.66071429	      0.01608628	      0.02440877	      0.06282074
      9.67857143	      0.01605663	      0.02438626	      0.06350868
      9.69642857	      0.01603229	      0.02436777	      0.06442982
      9.71428571	      0.01602653	      0.02436340	      0.06565354
      9.73214286	      0.01603767	      0.02437187	      0.06670826
      9.75000000	      0.01606749	      0.02439451	      0.06746729
      9.76785714	      0.01612459	      0.02443782	      0.06800713
      9.78571429	      0.01614995	      0.02445703	      0.06828396
      9.80357143	      0.01623995	      0.02452508	      0.06835843
      9.82142857	      0.01627412	      0.02455087	      0.06866110
      9.83928571	      0.01635698	      0.02461329	      0.06864359
      9.85714286	      0.01636910	      0.02462241	      0.06864470
      9.87500000	      0.01636324	      0.02461800	      0.06852070
      9.89285714	      0.01631377	      0.02458076	      0.06870639
      9.91071429	      0.01626913	      0.02454710	      0.06888480
      9.92857143	      0.01625146	      0.02453377	      0.06906929
      9.94642857	      0.01630647	      0.02457526	      0.06901557
      9.96428571	      0.01624506	      0.02452894	      0.06909271
      9.98214286	      0.01618736	      0.02448534	      0.06905238
     10.00000000	      0.01607101	      0.02439718	      0.06890028
     10.01785714	      0.01599094	      0.02433633	      0.06866600
     10.03571429	      0.01591841	      0.02428108	      0.06839148
     10.05357143	      0.01589836	      0.02426578	      0.06786508
     10.07142857	      0.01588089	      0.02425245	      0.06718285
     10.08928571	      0.01590009	      0.02426710	      0.06610498
     10.10714286	      0.01591803	      0.02428078	      0.06485552
     10.12500000	      0.01592951	      0.02428954	      0.06366556
     10.14285714	      0.01591411	      0.02427779	      0.06257818
     10.16071429	      0.01586340	      0.02423909	      0.06163362
     10.17857143	      0.01579106	      0.02418376	      0.06092762
     10.19642857	      0.01569249	      0.02410816	      0.06061378
     10.21428571	      0.01557755	      0.02401970	      0.06046665
     10.23214286	      0.01544905	      0.02392043	      0.06048252
     10.25000000	      0.01531451	      0.02381605	      0.06072748
     10.26785714	      0.01519649	      0.02372410	      0.06103953
     10.28571429	      0.01512374	      0.02366724	      0.06179093
     10.30357143	      0.01514432	      0.02368335	      0.06247775
     10.32142857	      0.01523023	      0.02375042	      0.06319603
     10.33928571	      0.01535560	      0.02384798	      0.06391687
     10.35714286	      0.01549842	      0.02395862	      0.06433209
     10.37500000	      0.01568333	      0.02410113	      0.06443300
     10.39285714	      0.01576266	      0.02416200	      0.06454307
     10.41071429	      0.01582122	      0.02420684	      0.06423831
     10.42857143	      0.01583962	      0.02422091	      0.06379306
     10.44642857	      0.01580728	      0.02419617	      0.06352193
     10.46428571	      0.01592674	      0.02428743	      0.06300971
     10.48214286	      0.01611123	      0.02442769	      0.06274974
     10.50000000	      0.01634759	      0.02460622	      0.06220493
     10.51785714	      0.01654566	      0.02475485	      0.06175706
     10.53571429	      0.01672824	      0.02489105	      0.06124999
     10.55357143	      0.01688894	      0.02501032	      0.06064943
     10.57142857	      0.01695682	      0.02506054	      0.06061110
     10.58928571	      0.01693646	      0.02504549	      0.06055936
     10.60714286	      0.01688208	      0.02500525	      0.06084981
     10.62500000	      0.01682868	      0.02496567	      0.06088347
     10.64285714	      0.01680338	      0.02494689	      0.06109107
     10.66071429	      0.01679094	      0.02493766	      0.06125954
     10.67857143	      0.01672713	      0.02489023	      0.06140590
     10.69642857	      0.01657627	      0.02477773	      0.06140470
     10.71428571	      0.01635045	      0.02460838	      0.06134427
     10.73214286	      0.01610548	      0.02442334	      0.06136593
     10.75000000	      0.01592646	      0.02428721	      0.06131364
     10.76785714	      0.01586556	      0.02424074	      0.06129427
     10.78571429	      0.01596022	      0.02431294	      0.06117883
     10.80357143	      0.01616156	      0.02446582	      0.06117100
     10.82142857	      0.01637834	      0.02462936	      0.06161569
     10.83928571	      0.01663940	      0.02482487	      0.06163497
     10.85714286	      0.01683423	      0.02496978	      0.06165467
     10.87500000	      0.01694635	      0.02505279	      0.06147065
     10.89285714	      0.01690115	      0.02501936	      0.06145376
     10.91071429	      0.01680779	      0.02495017	      0.06136797
     10.92857143	      0.01672622	      0.02488955	      0.06144877
     10.94642857	      0.01673206	      0.02489389	      0.06164066
     10.96428571	      0.01686698	      0.02499406	      0.06205082
     10.98214286	      0.01721511	      0.02525068	      0.06257618
     11.00000000	      0.01743078	      0.02540836	      0.06297261
     11.01785714	      0.01768564	      0.02559343	      0.06352520
     11.03571429	      0.01798899	      0.02581199	      0.06366828
     11.05357143	      0.01798179	      0.02580682	      0.06376584
     11.07142857	      0.01800687	      0.02582482	      0.06368461
     11.08928571	      0.01796113	      0.02579199	      0.06338150
     11.10714286	      0.01788573	      0.02573780	      0.06328919
     11.12500000	      0.01783689	      0.02570264	      0.06304552
     11.14285714	      0.01775488	      0.02564348	      0.06285751
     11.16071429	      0.01772335	      0.02562070	      0.06263719
     11.17857143	      0.01765386	      0.02557043	      0.06234452
     11.19642857	      0.01755388	      0.02549791	      0.06216939
     11.21428571	      0.01738193	      0.02537272	      0.06185960
     11.23214286	      0.01725424	      0.02527936	      0.06148022
     11.25000000	      0.01709546	      0.02516278	      0.06126863
     11.26785714	      0.01701522	      0.02510365	      0.06099927
     11.28571429	      0.01690289	      0.02502065	      0.06091485
     11.30357143	      0.01673772	      0.02489810	      0.06078604
     11.32142857	      0.01649586	      0.02471756	      0.06087037
     11.33928571	      0.01620294	      0.02449712	      0.06091267
     11.35714286	      0.01594361	      0.02430029	      0.06073769
     11.37500000	      0.01583811	      0.02421976	      0.06010053
     11.39285714	      0.01581576	      0.02420267	      0.05937491
     11.41071429	      0.01597204	      0.02432194	      0.05841083
     11.42857143	      0.01621198	      0.02450395	      0.05748199
     11.44642857	      0.01646397	      0.02469366	      0.05677561
     11.46428571	      0.01662224	      0.02481206	      0.05619898
     11.48214286	      0.01664343	      0.02482787	      0.05590814
     11.50000000	      0.01651363	      0.02473087	      0.05572445
     11.51785714	      0.01627639	      0.02455258	      0.05570387
     11.53571429	      0.01608759	      0.02440977	      0.05561412
     11.55357143	      0.01599989	      0.02434314	      0.05566464
     11.57142857	      0.01598283	      0.02433016	      0.05563891
     11.58928571	      0.01596904	      0.02431966	      0.05589422
     11.60714286	      0.01591682	      0.02427987	      0.05606712
     11.62500000	      0.01587860	      0.02425070	      0.05620318
     11.64285714	      0.01584735	      0.02422682	      0.05640542
     11.66071429	      0.01592448	      0.02428571	      0.05642192
     11.67857143	      0.01611671	      0.02443185	      0.05633576
     11.69642857	      0.01641872	      0.02465970	      0.05629422
     11.71428571	      0.01681071	      0.02495233	      0.05622159
     11.73214286	      0.01723106	      0.02526237	      0.05625211
     11.75000000	      0.01758905	      0.02552345	      0.05639968
     11.76785714	      0.01781812	      0.02568911	      0.05675951
     11.78571429	      0.01794786	      0.02578246	      0.05734174
     11.80357143	      0.01801730	      0.02583229	      0.05797075
     11.82142857	      0.01804144	      0.02584959	      0.05863529
     11.83928571	      0.01800552	      0.02582385	      0.05908762
     11.85714286	      0.01794707	      0.02578190	      0.05929290
     11.87500000	      0.01785564	      0.02571614	      0.05943707
     11.89285714	      0.01781187	      0.02568461	      0.05944167
     11.91071429	      0.01780176	      0.02567732	      0.05940349
     11.92857143	      0.01780038	      0.02567632	      0.05933778
     11.94642857	      0.01781571	      0.02568737	      0.05935941
     11.96428571	      0.01784123	      0.02570576	      0.05918146
     11.98214286	      0.01774419	      0.02563576	      0.05905537
     12.00000000	      0.01756248	      0.02550416	      0.05872370
     12.01785714	      0.01731839	      0.02532631	      0.05842568
     12.03571429	      0.01708213	      0.02515296	      0.05826737
     12.05357143	      0.01689981	      0.02501837	      0.05823275
     12.07142857	      0.01680354	      0.02494701	      0.05824198
     12.08928571	      0.01673721	      0.02489772	      0.05845211
     12.10714286	      0.01672990	      0.02489229	      0.05868767
     12.12500000	      0.01673606	      0.02489687	      0.05890554
     12.14285714	      0.01672467	      0.02488840	      0.05923045
     12.16071429	      0.01669451	      0.02486594	      0.05947249
     12.17857143	      0.01662977	      0.02481768	      0.05963711
     12.19642857	      0.01664082	      0.02482593	      0.06009634
     12.21428571	      0.01670150	      0.02487115	      0.06031264
     12.23214286	      0.01687788	      0.02500213	      0.06075509
     12.25000000	      0.01710803	      0.02517202	      0.06095364
     12.26785714	      0.01745444	      0.02542559	      0.06112673
     12.28571429	      0.01786571	      0.02572339	      0.06156946
     12.30357143	      0.01830418	      0.02603714	      0.06185488
     12.32142857	      0.01867646	      0.02630058	      0.06183613
     12.33928571	      0.01900221	      0.02652896	      0.06141983
     12.35714286	      0.01929174	      0.02673030	      0.06058997
     12.37500000	      0.01956560	      0.02691936	      0.05949437
     12.39285714	      0.01986429	      0.02712406	      0.05846645
     12.41071429	      0.02021123	      0.02735990	      0.05748511
     12.42857143	      0.02066868	      0.02766779	      0.05656309
     12.44642857	      0.02126141	      0.02806171	      0.05589362
     12.46428571	      0.02168079	      0.02833712	      0.05547418
     12.48214286	      0.02154754	      0.02824990	      0.05531643
     12.50000000	      0.02083754	      0.02778058	      0.05532493
     12.51785714	      0.01980439	      0.02708313	      0.05531403
     12.53571429	      0.01891915	      0.02647091	      0.05540732
     12.55357143	      0.01854859	      0.02621039	      0.05560795
     12.57142857	      0.01875780	      0.02635780	      0.05592754
     12.58928571	      0.01940281	      0.02680714	      0.05630112
     12.60714286	      0.01994829	      0.02718134	      0.05683836
     12.62500000	      0.01996521	      0.02719287	      0.05742747
     12.64285714	      0.01930356	      0.02673849	      0.05788912
     12.66071429	      0.01838623	      0.02609543	      0.05848254
     12.67857143	      0.01764972	      0.02556743	      0.05918320
     12.69642857	      0.01739242	      0.02538038	      0.05993765
     12.71428571	      0.01769985	      0.02560371	      0.06111260
     12.73214286	      0.01857105	      0.02622626	      0.06241466
     12.75000000	      0.01996502	      0.02719274	      0.06385902
     12.76785714	      0.02160759	      0.02828924	      0.06524107
     12.78571429	      0.02304390	      0.02921434	      0.06655286
     12.80357143	      0.02401496	      0.02982353	      0.06761977
     12.82142857	      0.02434174	      0.03002575	      0.06846577
     12.83928571	      0.02408798	      0.02986884	      0.06919362
     12.85714286	      0.02359525	      0.02956177	      0.06999059
     12.87500000	      0.02325406	      0.02934726	      0.07100572
     12.89285714	      0.02321840	      0.02932475	      0.07202664
     12.91071429	      0.02322475	      0.02932875	      0.07286748
     12.92857143	      0.02287226	      0.02910534	      0.07349437
     12.94642857	      0.02197011	      0.02852556	      0.07371953
     12.96428571	      0.02054321	      0.02758369	      0.07349682
     12.98214286	      0.01891306	      0.02646665	      0.07283875
     13.00000000	      0.01756048	      0.02550271	      0.07181947
     13.01785714	      0.01669894	      0.02486924	      0.07062400
     13.03571429	      0.01624831	      0.02453140	      0.06944825
     13.05357143	      0.01606101	      0.02438960	      0.06836835
     13.07142857	      0.01600858	      0.02434975	      0.06754710
     13.08928571	      0.01603475	      0.02436964	      0.06644697
     13.10714286	      0.01603395	      0.02436904	      0.06560264
     13.12500000	      0.01607785	      0.02440237	      0.06472290
     13.14285714	      0.01618084	      0.02448041	      0.06397600
     13.16071429	      0.01633985	      0.02460040	      0.06336209
     13.17857143	      0.01654455	      0.02475401	      0.06291467
     13.19642857	      0.01683809	      0.02497265	      0.06243809
     13.21428571	      0.01727678	      0.02529586	      0.06212892
     13.23214286	      0.01798569	      0.02580962	      0.06201219
     13.25000000	      0.01898936	      0.02651999	      0.06205056
     13.26785714	      0.02003593	      0.02724099	      0.06244607
     13.28571429	      0.02075429	      0.02772503	      0.06311420
     13.30357143	      0.02095599	      0.02785943	      0.06390081
     13.32142857	      0.02073879	      0.02771468	      0.06467957
     13.33928571	      0.02019071	      0.02734601	      0.06527595
     13.35714286	      0.01938163	      0.02679250	      0.06553642
     13.37500000	      0.01850574	      0.02618010	      0.06529263
     13.39285714	      0.01780533	      0.02567989	      0.06461717
     13.41071429	      0.01729453	      0.02530885	      0.06363984
     13.42857143	      0.01715040	      0.02520317	      0.06255605
     13.44642857	      0.01723673	      0.02526653	      0.06166535
     13.46428571	      0.01728326	      0.02530061	      0.06068947
     13.48214286	      0.01737768	      0.02536962	      0.05962266
     13.50000000	      0.01763603	      0.02555751	      0.05860305
     13.51785714	      0.01797118	      0.02579921	      0.05754977
     13.53571429	      0.01816360	      0.02593696	      0.05680578
     13.55357143	      0.01808915	      0.02588375	      0.05657440
     13.57142857	      0.01775881	      0.02564632	      0.05687546
     13.58928571	      0.01752417	      0.02547633	      0.05760715
     13.60714286	      0.01767159	      0.02558326	      0.05847790
     13.62500000	      0.01827522	      0.02601653	      0.05937644
     13.64285714	      0.01922399	      0.02668332	      0.05998689
     13.66071429	      0.02029216	      0.02741462	      0.06049875
     13.67857143	      0.02106936	      0.02793469	      0.06057460
     13.69642857	      0.02197893	      0.02853129	      0.06091700
     13.71428571	      0.02265261	      0.02896525	      0.06145086
     13.73214286	      0.02303862	      0.02921100	      0.06192071
     13.75000000	      0.02326241	      0.02935252	      0.06236957
     13.76785714	      0.02330668	      0.02938044	      0.06282286
     13.78571429	      0.02327641	      0.02936136	      0.06318913
     13.80357143	      0.02318493	      0.02930360	      0.06341371
     13.82142857	      0.02302588	      0.02920292	      0.06327315
     13.83928571	      0.02289193	      0.02911785	      0.06275676
     13.85714286	      0.02306432	      0.02922728	      0.06176375
     13.87500000	      0.02416852	      0.02991873	      0.05999457
