Model Marker Errors from IK
version=1
nRows=353
nColumns=4
inDegrees=no
endheader
time	total_squared_error	marker_error_RMS	marker_error_max
      0.00000000	      0.02329117	      0.02937066	      0.05735556
      0.01666667	      0.02194155	      0.02850702	      0.05537801
      0.03333333	      0.02139390	      0.02814901	      0.05398321
      0.05000000	      0.02112969	      0.02797465	      0.05307891
      0.06666667	      0.02109132	      0.02794924	      0.05256490
      0.08333333	      0.02117246	      0.02800295	      0.05238913
      0.10000000	      0.02130610	      0.02809119	      0.05253374
      0.11666667	      0.02156814	      0.02826341	      0.05327008
      0.13333333	      0.02164080	      0.02831097	      0.05335391
      0.15000000	      0.02172912	      0.02836869	      0.05364627
      0.16666667	      0.02168126	      0.02833743	      0.05394469
      0.18333333	      0.02145795	      0.02819111	      0.05431100
      0.20000000	      0.02117787	      0.02800652	      0.05500776
      0.21666667	      0.02075030	      0.02772237	      0.05495757
      0.23333333	      0.02041575	      0.02749798	      0.05501957
      0.25000000	      0.02025179	      0.02738734	      0.05510830
      0.26666667	      0.02032369	      0.02743591	      0.05518564
      0.28333333	      0.02051511	      0.02756481	      0.05516260
      0.30000000	      0.02090178	      0.02782337	      0.05537277
      0.31666667	      0.02129176	      0.02808173	      0.05509383
      0.33333333	      0.02155717	      0.02825621	      0.05514870
      0.35000000	      0.02171461	      0.02835921	      0.05545625
      0.36666667	      0.02166608	      0.02832750	      0.05591986
      0.38333333	      0.02137975	      0.02813970	      0.05607539
      0.40000000	      0.02106717	      0.02793323	      0.05618881
      0.41666667	      0.02098751	      0.02788037	      0.05597876
      0.43333333	      0.02134117	      0.02811430	      0.05672840
      0.45000000	      0.02204715	      0.02857553	      0.05688699
      0.46666667	      0.02299501	      0.02918334	      0.05682031
      0.48333333	      0.02400091	      0.02981481	      0.05649927
      0.50000000	      0.02486197	      0.03034491	      0.05530368
      0.51666667	      0.02541029	      0.03067771	      0.05370584
      0.53333333	      0.02546947	      0.03071341	      0.05324742
      0.55000000	      0.02499956	      0.03042876	      0.05264900
      0.56666667	      0.02400733	      0.02981879	      0.05072870
      0.58333333	      0.02260490	      0.02893473	      0.04719299
      0.60000000	      0.02102195	      0.02790324	      0.04658446
      0.61666667	      0.01956160	      0.02691661	      0.04699750
      0.63333333	      0.01844726	      0.02613871	      0.04775825
      0.65000000	      0.01788377	      0.02573639	      0.04843176
      0.66666667	      0.01790278	      0.02575007	      0.04990102
      0.68333333	      0.01828015	      0.02602004	      0.05157114
      0.70000000	      0.01866297	      0.02629108	      0.05226040
      0.71666667	      0.01876595	      0.02636352	      0.05057464
      0.73333333	      0.01858412	      0.02623549	      0.04858143
      0.75000000	      0.01833042	      0.02605580	      0.04903150
      0.76666667	      0.01820235	      0.02596461	      0.04752978
      0.78333333	      0.01868661	      0.02630773	      0.04602407
      0.80000000	      0.02030198	      0.02742126	      0.04941462
      0.81666667	      0.02331172	      0.02938362	      0.05837207
      0.83333333	      0.02724463	      0.03176571	      0.06764131
      0.85000000	      0.03085235	      0.03380355	      0.07517045
      0.86666667	      0.03240031	      0.03464118	      0.07783727
      0.88333333	      0.03117280	      0.03397864	      0.07531804
      0.90000000	      0.02814496	      0.03228631	      0.06851256
      0.91666667	      0.02504647	      0.03045730	      0.06501259
      0.93333333	      0.02301323	      0.02919490	      0.06179070
      0.95000000	      0.02217156	      0.02865604	      0.05838457
      0.96666667	      0.02209114	      0.02860403	      0.05466303
      0.98333333	      0.02230997	      0.02874535	      0.05487754
      1.00000000	      0.02258342	      0.02892098	      0.05852958
      1.01666667	      0.02299865	      0.02918564	      0.06114441
      1.03333333	      0.02368142	      0.02961570	      0.06150086
      1.05000000	      0.02446135	      0.03009943	      0.06003001
      1.06666667	      0.02508624	      0.03048147	      0.05817544
      1.08333333	      0.02527980	      0.03059884	      0.05728091
      1.10000000	      0.02483177	      0.03032648	      0.05569757
      1.11666667	      0.02395318	      0.02978514	      0.05386294
      1.13333333	      0.02301422	      0.02919553	      0.05238962
      1.15000000	      0.02220190	      0.02867565	      0.05068982
      1.16666667	      0.02157008	      0.02826467	      0.04896888
      1.18333333	      0.02092978	      0.02784200	      0.04675573
      1.20000000	      0.02037704	      0.02747190	      0.04660785
      1.21666667	      0.01993055	      0.02716925	      0.04580872
      1.23333333	      0.01962200	      0.02695813	      0.04573062
      1.25000000	      0.01932601	      0.02675403	      0.04569630
      1.26666667	      0.01899062	      0.02652086	      0.04618429
      1.28333333	      0.01856559	      0.02622240	      0.04453978
      1.30000000	      0.01816929	      0.02594102	      0.04404386
      1.31666667	      0.01791697	      0.02576027	      0.04351536
      1.33333333	      0.01782426	      0.02569353	      0.04364621
      1.35000000	      0.01797790	      0.02580404	      0.04377729
      1.36666667	      0.01831693	      0.02604621	      0.04410050
      1.38333333	      0.01878782	      0.02637888	      0.04682112
      1.40000000	      0.01922166	      0.02668170	      0.04820653
      1.41666667	      0.01939683	      0.02680300	      0.05064408
      1.43333333	      0.01925313	      0.02670354	      0.05067945
      1.45000000	      0.01892221	      0.02647305	      0.05050255
      1.46666667	      0.01856003	      0.02621847	      0.04857014
      1.48333333	      0.01824686	      0.02599634	      0.04771323
      1.50000000	      0.01803001	      0.02584141	      0.04808059
      1.51666667	      0.01787565	      0.02573055	      0.04844818
      1.53333333	      0.01774234	      0.02563443	      0.04892195
      1.55000000	      0.01756711	      0.02550752	      0.04960634
      1.56666667	      0.01734524	      0.02534593	      0.05033661
      1.58333333	      0.01703816	      0.02512057	      0.05086353
      1.60000000	      0.01670467	      0.02487351	      0.05076087
      1.61666667	      0.01635845	      0.02461439	      0.04998454
      1.63333333	      0.01613061	      0.02444238	      0.04924499
      1.65000000	      0.01600454	      0.02434668	      0.04856488
      1.66666667	      0.01594532	      0.02430159	      0.04841421
      1.68333333	      0.01602877	      0.02436510	      0.04845063
      1.70000000	      0.01629878	      0.02456946	      0.04911724
      1.71666667	      0.01683282	      0.02496874	      0.05001356
      1.73333333	      0.01754942	      0.02549467	      0.05093602
      1.75000000	      0.01835023	      0.02606987	      0.05167188
      1.76666667	      0.01909448	      0.02659329	      0.05231794
      1.78333333	      0.01969719	      0.02700973	      0.05256140
      1.80000000	      0.02006144	      0.02725832	      0.05215565
      1.81666667	      0.02047459	      0.02753758	      0.05234417
      1.83333333	      0.02083529	      0.02777908	      0.05236294
      1.85000000	      0.02116867	      0.02800044	      0.05297822
      1.86666667	      0.02141920	      0.02816565	      0.05412986
      1.88333333	      0.02157651	      0.02826889	      0.05453196
      1.90000000	      0.02156961	      0.02826437	      0.05404894
      1.91666667	      0.02148876	      0.02821135	      0.05283847
      1.93333333	      0.02127442	      0.02807029	      0.05108409
      1.95000000	      0.02098732	      0.02788025	      0.04865069
      1.96666667	      0.02070529	      0.02769228	      0.04724659
      1.98333333	      0.02054827	      0.02758708	      0.04767764
      2.00000000	      0.02055791	      0.02759355	      0.04798455
      2.01666667	      0.02070905	      0.02769480	      0.04801273
      2.03333333	      0.02093868	      0.02784792	      0.04787888
      2.05000000	      0.02118652	      0.02801225	      0.04749871
      2.06666667	      0.02140541	      0.02815658	      0.04744356
      2.08333333	      0.02153440	      0.02824129	      0.04735090
      2.10000000	      0.02165983	      0.02832342	      0.04769821
      2.11666667	      0.02177075	      0.02839585	      0.04844436
      2.13333333	      0.02196487	      0.02852216	      0.04937204
      2.15000000	      0.02240796	      0.02880841	      0.05058210
      2.16666667	      0.02313347	      0.02927106	      0.05158116
      2.18333333	      0.02397855	      0.02980091	      0.05261636
      2.20000000	      0.02480905	      0.03031260	      0.05331089
      2.21666667	      0.02544239	      0.03069708	      0.05365115
      2.23333333	      0.02591985	      0.03098378	      0.05404946
      2.25000000	      0.02628925	      0.03120378	      0.05462016
      2.26666667	      0.02653672	      0.03135030	      0.05541047
      2.28333333	      0.02658802	      0.03138059	      0.05617759
      2.30000000	      0.02643567	      0.03129056	      0.05694839
      2.31666667	      0.02619068	      0.03114523	      0.05759032
      2.33333333	      0.02585860	      0.03094715	      0.05779264
      2.35000000	      0.02548250	      0.03072127	      0.05757719
      2.36666667	      0.02500936	      0.03043473	      0.05672053
      2.38333333	      0.02456984	      0.03016611	      0.05544284
      2.40000000	      0.02434350	      0.03002684	      0.05404717
      2.41666667	      0.02428506	      0.02999078	      0.05232246
      2.43333333	      0.02448933	      0.03011664	      0.05074344
      2.45000000	      0.02486176	      0.03034478	      0.04919886
      2.46666667	      0.02533916	      0.03063474	      0.04789761
      2.48333333	      0.02579461	      0.03090883	      0.04660786
      2.50000000	      0.02604943	      0.03106113	      0.04661258
      2.51666667	      0.02593467	      0.03099264	      0.04774262
      2.53333333	      0.02537741	      0.03065785	      0.04868246
      2.55000000	      0.02443262	      0.03008175	      0.04859857
      2.56666667	      0.02340260	      0.02944084	      0.04825327
      2.58333333	      0.02243409	      0.02882520	      0.04757586
      2.60000000	      0.02168789	      0.02834176	      0.04747952
      2.61666667	      0.02127555	      0.02807104	      0.04746534
      2.63333333	      0.02125967	      0.02806056	      0.04748501
      2.65000000	      0.02167962	      0.02833635	      0.04741502
      2.66666667	      0.02228297	      0.02872795	      0.04941520
      2.68333333	      0.02268734	      0.02898744	      0.05428231
      2.70000000	      0.02265536	      0.02896700	      0.05637608
      2.71666667	      0.02222724	      0.02869200	      0.05607044
      2.73333333	      0.02159971	      0.02828408	      0.05378923
      2.75000000	      0.02108026	      0.02794191	      0.05038265
      2.76666667	      0.02083343	      0.02777784	      0.05017771
      2.78333333	      0.02084925	      0.02778839	      0.05106137
      2.80000000	      0.02144061	      0.02817972	      0.05141097
      2.81666667	      0.02274287	      0.02902290	      0.05114852
      2.83333333	      0.02467207	      0.03022880	      0.05060340
      2.85000000	      0.02689250	      0.03155976	      0.05389318
      2.86666667	      0.02905420	      0.03280368	      0.06034625
      2.88333333	      0.03079936	      0.03377450	      0.06604864
      2.90000000	      0.03195051	      0.03439989	      0.06999188
      2.91666667	      0.03239581	      0.03463878	      0.07171123
      2.93333333	      0.03213141	      0.03449714	      0.07170703
      2.95000000	      0.03126307	      0.03402781	      0.06807966
      2.96666667	      0.03029456	      0.03349658	      0.06316138
      2.98333333	      0.02966785	      0.03314829	      0.05844416
      3.00000000	      0.02954031	      0.03307696	      0.05724272
      3.01666667	      0.02971953	      0.03317715	      0.05795386
      3.03333333	      0.02945338	      0.03302826	      0.05729932
      3.05000000	      0.02874364	      0.03262789	      0.05794753
      3.06666667	      0.02745723	      0.03188941	      0.05793328
      3.08333333	      0.02585235	      0.03094341	      0.05795136
      3.10000000	      0.02404699	      0.02984341	      0.05748330
      3.11666667	      0.02235452	      0.02877404	      0.05780910
      3.13333333	      0.02088630	      0.02781307	      0.05580117
      3.15000000	      0.02021067	      0.02735952	      0.05456624
      3.16666667	      0.02025970	      0.02739268	      0.05315071
      3.18333333	      0.02068023	      0.02767552	      0.05135080
      3.20000000	      0.02109510	      0.02795174	      0.04965772
      3.21666667	      0.02131545	      0.02809735	      0.04800783
      3.23333333	      0.02130358	      0.02808953	      0.04632802
      3.25000000	      0.02069166	      0.02768317	      0.04466585
      3.26666667	      0.01986689	      0.02712583	      0.04276430
      3.28333333	      0.01915058	      0.02663232	      0.04076516
      3.30000000	      0.01878320	      0.02637563	      0.04285202
      3.31666667	      0.01881580	      0.02639852	      0.04421465
      3.33333333	      0.01926293	      0.02671033	      0.04607477
      3.35000000	      0.02004158	      0.02724483	      0.05159072
      3.36666667	      0.02097436	      0.02787164	      0.05668820
      3.38333333	      0.02194501	      0.02850927	      0.06175450
      3.40000000	      0.02310694	      0.02925428	      0.06693841
      3.41666667	      0.02457579	      0.03016976	      0.07188662
      3.43333333	      0.02611747	      0.03110167	      0.07545109
      3.45000000	      0.02732117	      0.03181030	      0.07894828
      3.46666667	      0.02797687	      0.03218975	      0.08152620
      3.48333333	      0.02801151	      0.03220968	      0.08081716
      3.50000000	      0.02763223	      0.03199087	      0.08246997
      3.51666667	      0.02719288	      0.03173553	      0.08108694
      3.53333333	      0.02697886	      0.03161040	      0.08202559
      3.55000000	      0.02714376	      0.03170685	      0.08195416
      3.56666667	      0.02753493	      0.03193450	      0.08349662
      3.58333333	      0.02787854	      0.03213314	      0.08452539
      3.60000000	      0.02794388	      0.03217077	      0.08507393
      3.61666667	      0.02774800	      0.03205782	      0.08500241
      3.63333333	      0.02744622	      0.03188302	      0.08453546
      3.65000000	      0.02716523	      0.03171939	      0.08379499
      3.66666667	      0.02693878	      0.03158691	      0.08360928
      3.68333333	      0.02679026	      0.03149971	      0.08080148
      3.70000000	      0.02673183	      0.03146534	      0.08041407
      3.71666667	      0.02679030	      0.03149974	      0.07837504
      3.73333333	      0.02689579	      0.03156169	      0.07783835
      3.75000000	      0.02681720	      0.03151555	      0.07713626
      3.76666667	      0.02638376	      0.03125982	      0.07567673
      3.78333333	      0.02564824	      0.03082101	      0.07414710
      3.80000000	      0.02475051	      0.03027682	      0.07205126
      3.81666667	      0.02403344	      0.02983500	      0.07153343
      3.83333333	      0.02360570	      0.02956832	      0.06968575
      3.85000000	      0.02358852	      0.02955755	      0.07044486
      3.86666667	      0.02398072	      0.02980226	      0.07090486
      3.88333333	      0.02473647	      0.03026823	      0.07274776
      3.90000000	      0.02564949	      0.03082177	      0.07497908
      3.91666667	      0.02644308	      0.03129494	      0.07693271
      3.93333333	      0.02692182	      0.03157696	      0.07843527
      3.95000000	      0.02706533	      0.03166101	      0.07941659
      3.96666667	      0.02702655	      0.03163832	      0.07994198
      3.98333333	      0.02694948	      0.03159318	      0.08015771
      4.00000000	      0.02691485	      0.03157288	      0.08010358
      4.01666667	      0.02697832	      0.03161008	      0.07988290
      4.03333333	      0.02711513	      0.03169013	      0.07934079
      4.05000000	      0.02745960	      0.03189079	      0.07873047
      4.06666667	      0.02806083	      0.03223802	      0.07770770
      4.08333333	      0.02888956	      0.03271061	      0.07689531
      4.10000000	      0.02977390	      0.03320748	      0.07668705
      4.11666667	      0.03060087	      0.03366550	      0.07614901
      4.13333333	      0.03138638	      0.03409485	      0.07576346
      4.15000000	      0.03204617	      0.03445134	      0.07639801
      4.16666667	      0.03245267	      0.03466916	      0.07608896
      4.18333333	      0.03249423	      0.03469135	      0.07637699
      4.20000000	      0.03216379	      0.03451451	      0.07583543
      4.21666667	      0.03161586	      0.03421926	      0.07582424
      4.23333333	      0.03106277	      0.03391863	      0.07597998
      4.25000000	      0.03053331	      0.03362831	      0.07677603
      4.26666667	      0.03016722	      0.03342610	      0.07748852
      4.28333333	      0.02980013	      0.03322211	      0.07800655
      4.30000000	      0.02939476	      0.03299537	      0.07807798
      4.31666667	      0.02899356	      0.03276943	      0.07753591
      4.33333333	      0.02867218	      0.03258731	      0.07648856
      4.35000000	      0.02836907	      0.03241460	      0.07473637
      4.36666667	      0.02801711	      0.03221290	      0.07327640
      4.38333333	      0.02766367	      0.03200907	      0.07294922
      4.40000000	      0.02735195	      0.03182821	      0.07235228
      4.41666667	      0.02723719	      0.03176138	      0.07279831
      4.43333333	      0.02737572	      0.03184204	      0.07474888
      4.45000000	      0.02772235	      0.03204300	      0.07587207
      4.46666667	      0.02803500	      0.03222318	      0.07782015
      4.48333333	      0.02819871	      0.03231713	      0.07957346
      4.50000000	      0.02809072	      0.03225518	      0.08070984
      4.51666667	      0.02766315	      0.03200877	      0.08080330
      4.53333333	      0.02702860	      0.03163952	      0.08096048
      4.55000000	      0.02637166	      0.03125265	      0.08072649
      4.56666667	      0.02586542	      0.03095123	      0.07956109
      4.58333333	      0.02555495	      0.03076491	      0.07784285
      4.60000000	      0.02541809	      0.03068242	      0.07700726
      4.61666667	      0.02527617	      0.03059664	      0.07485533
      4.63333333	      0.02498702	      0.03042113	      0.07516884
      4.65000000	      0.02458334	      0.03017439	      0.07388886
      4.66666667	      0.02419446	      0.02993478	      0.07304814
      4.68333333	      0.02390153	      0.02975302	      0.07311680
      4.70000000	      0.02378176	      0.02967838	      0.07313670
      4.71666667	      0.02392383	      0.02976689	      0.07315909
      4.73333333	      0.02434483	      0.03002766	      0.07307863
      4.75000000	      0.02487292	      0.03035159	      0.07379244
      4.76666667	      0.02526762	      0.03059147	      0.07240387
      4.78333333	      0.02532189	      0.03062430	      0.07079451
      4.80000000	      0.02512565	      0.03050541	      0.06766402
      4.81666667	      0.02487061	      0.03035018	      0.06386060
      4.83333333	      0.02465348	      0.03021741	      0.05964794
      4.85000000	      0.02435915	      0.03003649	      0.05863827
      4.86666667	      0.02408415	      0.02986646	      0.05951869
      4.88333333	      0.02402067	      0.02982708	      0.05990599
      4.90000000	      0.02444630	      0.03009017	      0.05982848
      4.91666667	      0.02545109	      0.03070233	      0.05939283
      4.93333333	      0.02674344	      0.03147217	      0.05992250
      4.95000000	      0.02789045	      0.03214000	      0.06119687
      4.96666667	      0.02868654	      0.03259547	      0.06473441
      4.98333333	      0.02930308	      0.03294388	      0.07041283
      5.00000000	      0.03001185	      0.03333992	      0.07650999
      5.01666667	      0.03042487	      0.03356854	      0.07877279
      5.03333333	      0.03042358	      0.03356783	      0.07899438
      5.05000000	      0.02957144	      0.03309439	      0.07644766
      5.06666667	      0.02798525	      0.03219458	      0.07227326
      5.08333333	      0.02608664	      0.03108331	      0.06850506
      5.10000000	      0.02470626	      0.03024974	      0.06780391
      5.11666667	      0.02447037	      0.03010498	      0.07103214
      5.13333333	      0.02571092	      0.03085865	      0.07860923
      5.15000000	      0.02797329	      0.03218769	      0.08664492
      5.16666667	      0.03075704	      0.03375129	      0.09278432
      5.18333333	      0.03319235	      0.03506203	      0.09358218
      5.20000000	      0.03449266	      0.03574222	      0.08951935
      5.21666667	      0.03427103	      0.03562720	      0.08141666
      5.23333333	      0.03294067	      0.03492885	      0.07154749
      5.25000000	      0.03130889	      0.03405273	      0.06609830
      5.26666667	      0.02989111	      0.03327278	      0.06549216
      5.28333333	      0.02886340	      0.03269579	      0.06350119
      5.30000000	      0.02827606	      0.03236142	      0.06147992
      5.31666667	      0.02828092	      0.03236420	      0.06304274
      5.33333333	      0.02905152	      0.03280217	      0.06436682
      5.35000000	      0.03030309	      0.03350129	      0.06592406
      5.36666667	      0.03133988	      0.03406958	      0.06824889
      5.38333333	      0.03173685	      0.03428468	      0.07133936
      5.40000000	      0.03184406	      0.03434253	      0.07448904
      5.41666667	      0.03234254	      0.03461028	      0.07716268
      5.43333333	      0.03347989	      0.03521358	      0.07912636
      5.45000000	      0.03479731	      0.03589971	      0.07957427
      5.46666667	      0.03555585	      0.03628889	      0.07838962
      5.48333333	      0.03562637	      0.03632485	      0.07672874
      5.50000000	      0.03530664	      0.03616149	      0.07481773
      5.51666667	      0.03528971	      0.03615282	      0.07347336
      5.53333333	      0.03605094	      0.03654066	      0.07342491
      5.55000000	      0.03751778	      0.03727663	      0.07408950
      5.56666667	      0.03939887	      0.03819971	      0.07614986
      5.58333333	      0.04134158	      0.03913016	      0.07795955
      5.60000000	      0.04329070	      0.04004197	      0.08016043
      5.61666667	      0.04469921	      0.04068816	      0.08235199
      5.63333333	      0.04499135	      0.04082090	      0.08283023
      5.65000000	      0.04410192	      0.04041540	      0.08158093
      5.66666667	      0.04240341	      0.03962949	      0.07869318
      5.68333333	      0.04037061	      0.03866792	      0.07496289
      5.70000000	      0.03842198	      0.03772315	      0.07134974
      5.71666667	      0.03650146	      0.03676828	      0.06741913
      5.73333333	      0.03457072	      0.03578264	      0.06336687
      5.75000000	      0.03248207	      0.03468486	      0.05894567
      5.76666667	      0.03038948	      0.03354902	      0.05532754
      5.78333333	      0.02837191	      0.03241622	      0.05185771
      5.80000000	      0.02655627	      0.03136185	      0.05091914
      5.81666667	      0.02516062	      0.03052663	      0.05017683
      5.83333333	      0.02418084	      0.02992636	      0.04949760
      5.85000000	      0.02367391	      0.02961100	      0.04894439
      5.86666667	      0.02391885	      0.02976379	      0.04884249
