Model Marker Errors from IK
version=1
nRows=307
nColumns=4
inDegrees=no
endheader
time	total_squared_error	marker_error_RMS	marker_error_max
      0.00000000	      0.03818687	      0.03760756	      0.06428367
      0.01818182	      0.03774959	      0.03739162	      0.06424844
      0.03636364	      0.03774836	      0.03739101	      0.06361719
      0.05454545	      0.03809733	      0.03756344	      0.06324392
      0.07272727	      0.03849696	      0.03775995	      0.06293815
      0.09090909	      0.03906766	      0.03803880	      0.06241058
      0.10909091	      0.03940836	      0.03820431	      0.06223225
      0.12727273	      0.03967046	      0.03833114	      0.06219149
      0.14545455	      0.03970354	      0.03834712	      0.06179868
      0.16363636	      0.03953483	      0.03826556	      0.06141471
      0.18181818	      0.03940454	      0.03820245	      0.06129543
      0.20000000	      0.03937094	      0.03818616	      0.06134294
      0.21818182	      0.03961589	      0.03830477	      0.06048990
      0.23636364	      0.03978817	      0.03838797	      0.06081988
      0.25454545	      0.03974166	      0.03836552	      0.06103976
      0.27272727	      0.03943257	      0.03821604	      0.06179589
      0.29090909	      0.03903762	      0.03802417	      0.06338403
      0.30909091	      0.03842255	      0.03772343	      0.06474403
      0.32727273	      0.03783398	      0.03743339	      0.06546895
      0.34545455	      0.03758762	      0.03731132	      0.06632949
      0.36363636	      0.03844322	      0.03773358	      0.06680956
      0.38181818	      0.04075614	      0.03885211	      0.06822540
      0.40000000	      0.04412700	      0.04042689	      0.07058223
      0.41818182	      0.04763078	      0.04200123	      0.07383325
      0.43636364	      0.05059872	      0.04329003	      0.07898176
      0.45454545	      0.05222717	      0.04398113	      0.08445288
      0.47272727	      0.05222482	      0.04398014	      0.08750541
      0.49090909	      0.05109571	      0.04350211	      0.08645179
      0.50909091	      0.04944383	      0.04279314	      0.08162326
      0.52727273	      0.04806866	      0.04219385	      0.07720303
      0.54545455	      0.04701425	      0.04172851	      0.07048947
      0.56363636	      0.04662087	      0.04155357	      0.06978946
      0.58181818	      0.04692930	      0.04169079	      0.07071659
      0.60000000	      0.04771028	      0.04203627	      0.07278779
      0.61818182	      0.04885643	      0.04253819	      0.07544007
      0.63636364	      0.04990920	      0.04299406	      0.07628985
      0.65454545	      0.04703548	      0.04173793	      0.07711121
      0.67272727	      0.04672436	      0.04159966	      0.07820211
      0.69090909	      0.04624542	      0.04138591	      0.07770951
      0.70909091	      0.04577382	      0.04117435	      0.07786077
      0.72727273	      0.04518791	      0.04090998	      0.07727698
      0.74545455	      0.04421388	      0.04046667	      0.07613185
      0.76363636	      0.04276790	      0.03979945	      0.07505444
      0.78181818	      0.04100221	      0.03896923	      0.07590831
      0.80000000	      0.03932936	      0.03816599	      0.08129954
      0.81818182	      0.03822284	      0.03762527	      0.08642035
      0.83636364	      0.03787282	      0.03745260	      0.09142502
      0.85454545	      0.03797573	      0.03750345	      0.09560404
      0.87272727	      0.03822829	      0.03762795	      0.09913298
      0.89090909	      0.03852633	      0.03777434	      0.10187787
      0.90909091	      0.03881071	      0.03791350	      0.10418720
      0.92727273	      0.03903558	      0.03802318	      0.10664734
      0.94545455	      0.03917043	      0.03808880	      0.10915846
      0.96363636	      0.03929834	      0.03815094	      0.11067475
      0.98181818	      0.03967879	      0.03833517	      0.11287235
      1.00000000	      0.04049670	      0.03872825	      0.11614755
      1.01818182	      0.04196425	      0.03942374	      0.12122254
      1.03636364	      0.04421419	      0.04046681	      0.12650574
      1.05454545	      0.04742951	      0.04191239	      0.13146359
      1.07272727	      0.05144894	      0.04365222	      0.13507304
      1.09090909	      0.05581345	      0.04546608	      0.13721880
      1.10909091	      0.03076790	      0.03375725	      0.05943494
      1.12727273	      0.03228738	      0.03458076	      0.06292398
      1.14545455	      0.03283136	      0.03487085	      0.06335637
      1.16363636	      0.03229395	      0.03458428	      0.06006033
      1.18181818	      0.03134304	      0.03407130	      0.05739301
      1.20000000	      0.03066254	      0.03369940	      0.05728224
      1.21818182	      0.03062432	      0.03367839	      0.05832773
      1.23636364	      0.03095904	      0.03386194	      0.06388383
      1.25454545	      0.03132212	      0.03405993	      0.06745462
      1.27272727	      0.03157015	      0.03419452	      0.06804472
      1.29090909	      0.03186370	      0.03435312	      0.06594734
      1.30909091	      0.03253363	      0.03471238	      0.06463194
      1.32727273	      0.03380001	      0.03538152	      0.06760398
      1.34545455	      0.03542693	      0.03622304	      0.06969556
      1.36363636	      0.03692346	      0.03698020	      0.07264314
      1.38181818	      0.03785304	      0.03744281	      0.07484244
      1.40000000	      0.03840257	      0.03771362	      0.07739971
      1.41818182	      0.03898281	      0.03799747	      0.07873780
      1.43636364	      0.03982170	      0.03840414	      0.07985576
      1.45454545	      0.04076158	      0.03885471	      0.08047355
      1.47272727	      0.04167338	      0.03928688	      0.08090676
      1.49090909	      0.04272462	      0.03977931	      0.08080514
      1.50909091	      0.04409396	      0.04041175	      0.08033005
      1.52727273	      0.04555744	      0.04107691	      0.07959323
      1.54545455	      0.04647836	      0.04149001	      0.07864055
      1.56363636	      0.04604227	      0.04129490	      0.07777093
      1.58181818	      0.04424657	      0.04048162	      0.07691040
      1.60000000	      0.04189349	      0.03939049	      0.07678428
      1.61818182	      0.03992136	      0.03845217	      0.07676485
      1.63636364	      0.03879041	      0.03790359	      0.07678728
      1.65454545	      0.03834810	      0.03768687	      0.07727908
      1.67272727	      0.03794939	      0.03749044	      0.07737120
      1.69090909	      0.03700614	      0.03702159	      0.07796169
      1.70909091	      0.03546950	      0.03624479	      0.07787311
      1.72727273	      0.03380817	      0.03538580	      0.07804296
      1.74545455	      0.03264759	      0.03477312	      0.07818322
      1.76363636	      0.03242102	      0.03465225	      0.07782810
      1.78181818	      0.03309638	      0.03501131	      0.07668881
      1.80000000	      0.03422762	      0.03560463	      0.07556282
      1.81818182	      0.03528151	      0.03614862	      0.07449096
      1.83636364	      0.03608332	      0.03655707	      0.07364884
      1.85454545	      0.03664214	      0.03683906	      0.07333053
      1.87272727	      0.03708724	      0.03706213	      0.07353577
      1.89090909	      0.03753033	      0.03728287	      0.07401061
      1.90909091	      0.03778136	      0.03740735	      0.07442629
      1.92727273	      0.03747952	      0.03725762	      0.07401552
      1.94545455	      0.03650944	      0.03677229	      0.07344344
      1.96363636	      0.03500593	      0.03600717	      0.07245764
      1.98181818	      0.03310470	      0.03501571	      0.07163549
      2.00000000	      0.03102980	      0.03390061	      0.06986844
      2.01818182	      0.02927946	      0.03293060	      0.06850987
      2.03636364	      0.02825259	      0.03234799	      0.06719393
      2.05454545	      0.02798208	      0.03219275	      0.06547632
      2.07272727	      0.02823139	      0.03233585	      0.06471606
      2.09090909	      0.02884660	      0.03268628	      0.06517794
      2.10909091	      0.02966627	      0.03314741	      0.06563722
      2.12727273	      0.03042710	      0.03356977	      0.06589207
      2.14545455	      0.03066480	      0.03370064	      0.06594316
      2.16363636	      0.03017078	      0.03342808	      0.06584185
      2.18181818	      0.02919713	      0.03288427	      0.06522598
      2.20000000	      0.02822233	      0.03233066	      0.06467354
      2.21818182	      0.02764114	      0.03199603	      0.06399461
      2.23636364	      0.02750229	      0.03191557	      0.06346222
      2.25454545	      0.02756566	      0.03195231	      0.06303857
      2.27272727	      0.02772273	      0.03204321	      0.06267806
      2.29090909	      0.02807481	      0.03224605	      0.06235034
      2.30909091	      0.02861386	      0.03255415	      0.06189036
      2.32727273	      0.02913916	      0.03285161	      0.06146807
      2.34545455	      0.02951991	      0.03306554	      0.06097003
      2.36363636	      0.02985953	      0.03325520	      0.06062892
      2.38181818	      0.03047841	      0.03359807	      0.06021524
      2.40000000	      0.03157528	      0.03419729	      0.06131738
      2.41818182	      0.03318763	      0.03505954	      0.06374649
      2.43636364	      0.03495386	      0.03598038	      0.06578742
      2.45454545	      0.03651637	      0.03677578	      0.07331506
      2.47272727	      0.03736716	      0.03720173	      0.07814497
      2.49090909	      0.03722596	      0.03713138	      0.08007810
      2.50909091	      0.03644000	      0.03673730	      0.08041938
      2.52727273	      0.03568509	      0.03635478	      0.08043533
      2.54545455	      0.03521360	      0.03611381	      0.08075033
      2.56363636	      0.03482914	      0.03591613	      0.08028869
      2.58181818	      0.03428507	      0.03563449	      0.07791906
      2.60000000	      0.03357137	      0.03526165	      0.07358250
      2.61818182	      0.03268865	      0.03479498	      0.06753976
      2.63636364	      0.03176262	      0.03429859	      0.06218619
      2.65454545	      0.03083761	      0.03379547	      0.06375808
      2.67272727	      0.02978110	      0.03321150	      0.06204682
      2.69090909	      0.02880788	      0.03266433	      0.06044210
      2.70909091	      0.02861777	      0.03255637	      0.06081344
      2.72727273	      0.02969552	      0.03316375	      0.06132186
      2.74545455	      0.03182092	      0.03433005	      0.06159718
      2.76363636	      0.03459194	      0.03579362	      0.07038402
      2.78181818	      0.03744518	      0.03724055	      0.07871888
      2.80000000	      0.03927297	      0.03813862	      0.08338061
      2.81818182	      0.03906837	      0.03803915	      0.08198167
      2.83636364	      0.03728715	      0.03716188	      0.07509313
      2.85454545	      0.03527305	      0.03614429	      0.06535110
      2.87272727	      0.03392316	      0.03544592	      0.06277392
      2.89090909	      0.03355994	      0.03525565	      0.06406167
      2.90909091	      0.03429940	      0.03564195	      0.06386648
      2.92727273	      0.03600431	      0.03651702	      0.06453641
      2.94545455	      0.03812455	      0.03757686	      0.06733296
      2.96363636	      0.03988226	      0.03843333	      0.06925234
      2.98181818	      0.04043946	      0.03870088	      0.06936936
      3.00000000	      0.03983894	      0.03841245	      0.06886194
      3.01818182	      0.03847632	      0.03774982	      0.06938837
      3.03636364	      0.03706482	      0.03705092	      0.06948110
      3.05454545	      0.03613293	      0.03658219	      0.06831210
      3.07272727	      0.03564123	      0.03633243	      0.06544741
      3.09090909	      0.03530998	      0.03616320	      0.06564665
      3.10909091	      0.03488545	      0.03594515	      0.06618772
      3.12727273	      0.03440787	      0.03569826	      0.06625992
      3.14545455	      0.03397430	      0.03547263	      0.06615804
      3.16363636	      0.03382272	      0.03539341	      0.06638541
      3.18181818	      0.03375230	      0.03535655	      0.06703329
      3.20000000	      0.03341918	      0.03518163	      0.06653955
      3.21818182	      0.03298952	      0.03495474	      0.06603528
      3.23636364	      0.03267841	      0.03478953	      0.06415048
      3.25454545	      0.03228446	      0.03457920	      0.06340105
      3.27272727	      0.03160567	      0.03421375	      0.06302151
      3.29090909	      0.03066036	      0.03369821	      0.06287400
      3.30909091	      0.02959447	      0.03310727	      0.06241792
      3.32727273	      0.02876583	      0.03264048	      0.06265819
      3.34545455	      0.02847172	      0.03247319	      0.06336391
      3.36363636	      0.02881699	      0.03266950	      0.06451412
      3.38181818	      0.02980591	      0.03322533	      0.06623580
      3.40000000	      0.03130662	      0.03405150	      0.06851680
      3.41818182	      0.03290131	      0.03490798	      0.07071357
      3.43636364	      0.03407673	      0.03552606	      0.07186396
      3.45454545	      0.03449726	      0.03574460	      0.07177823
      3.47272727	      0.03411373	      0.03554534	      0.07121741
      3.49090909	      0.03307194	      0.03499838	      0.06953605
      3.50909091	      0.03180728	      0.03432269	      0.06875551
      3.52727273	      0.03079472	      0.03377196	      0.06858487
      3.54545455	      0.03030596	      0.03350288	      0.06925591
      3.56363636	      0.03017273	      0.03342915	      0.06977328
      3.58181818	      0.02999155	      0.03332864	      0.07093139
      3.60000000	      0.02954832	      0.03308145	      0.07027603
      3.61818182	      0.02878717	      0.03265259	      0.06838206
      3.63636364	      0.02785552	      0.03211987	      0.06526717
      3.65454545	      0.02695269	      0.03159506	      0.06173336
      3.67272727	      0.02640910	      0.03127483	      0.05812410
      3.69090909	      0.02613079	      0.03110960	      0.05673833
      3.70909091	      0.02602670	      0.03104757	      0.05641383
      3.72727273	      0.02566179	      0.03082915	      0.05601725
      3.74545455	      0.02493212	      0.03038769	      0.05568763
      3.76363636	      0.02420802	      0.02994317	      0.05524892
      3.78181818	      0.02390530	      0.02975536	      0.05519147
      3.80000000	      0.02426529	      0.02997857	      0.05538418
      3.81818182	      0.02517123	      0.03053306	      0.05988860
      3.83636364	      0.02627567	      0.03119572	      0.06423727
      3.85454545	      0.02711063	      0.03168749	      0.06679889
      3.87272727	      0.02726661	      0.03177852	      0.06722979
      3.89090909	      0.02668336	      0.03143681	      0.06587573
      3.90909091	      0.02567592	      0.03083764	      0.06381153
      3.92727273	      0.02471773	      0.03025676	      0.06243494
      3.94545455	      0.02433707	      0.03002288	      0.06222594
      3.96363636	      0.02486459	      0.03034651	      0.06289653
      3.98181818	      0.02587391	      0.03095630	      0.06347304
      4.00000000	      0.02656327	      0.03136598	      0.06350140
      4.01818182	      0.02717368	      0.03172432	      0.06411753
      4.03636364	      0.02840060	      0.03243261	      0.06570793
      4.05454545	      0.02999683	      0.03333157	      0.06932813
      4.07272727	      0.03125024	      0.03402082	      0.07408221
      4.09090909	      0.03187354	      0.03435843	      0.07508639
      4.10909091	      0.03227901	      0.03457628	      0.07412712
      4.12727273	      0.03282927	      0.03486974	      0.07365048
      4.14545455	      0.03336536	      0.03515329	      0.07436580
      4.16363636	      0.03340859	      0.03517606	      0.07544818
      4.18181818	      0.03296791	      0.03494329	      0.07625987
      4.20000000	      0.03283044	      0.03487036	      0.07668007
      4.21818182	      0.03378086	      0.03537150	      0.07666940
      4.23636364	      0.03562012	      0.03632167	      0.07538276
      4.25454545	      0.03740364	      0.03721989	      0.07613465
      4.27272727	      0.03825430	      0.03764075	      0.07775081
      4.29090909	      0.03791028	      0.03747111	      0.07749900
      4.30909091	      0.03655848	      0.03679698	      0.07635727
      4.32727273	      0.03496307	      0.03598512	      0.07585697
      4.34545455	      0.03395357	      0.03546181	      0.07675165
      4.36363636	      0.03388254	      0.03542469	      0.07869837
      4.38181818	      0.03467144	      0.03583472	      0.08083808
      4.40000000	      0.03608028	      0.03655553	      0.08329204
      4.41818182	      0.03777016	      0.03740180	      0.08570507
      4.43636364	      0.03950243	      0.03824987	      0.08762692
      4.45454545	      0.04096312	      0.03895065	      0.08805619
      4.47272727	      0.04185135	      0.03937068	      0.08733049
      4.49090909	      0.04229464	      0.03957863	      0.08543494
      4.50909091	      0.04259738	      0.03972003	      0.08444199
      4.52727273	      0.04306802	      0.03993885	      0.08450495
      4.54545455	      0.04389434	      0.04032017	      0.08471809
      4.56363636	      0.04479551	      0.04073197	      0.08971569
      4.58181818	      0.04137215	      0.03914463	      0.08381376
      4.60000000	      0.04134397	      0.03913129	      0.08233564
      4.61818182	      0.04109591	      0.03901373	      0.08508744
      4.63636364	      0.04081602	      0.03888065	      0.08703356
      4.65454545	      0.04070633	      0.03882837	      0.08863065
      4.67272727	      0.04078474	      0.03886574	      0.08961397
      4.69090909	      0.04115805	      0.03904321	      0.09074077
      4.70909091	      0.04145298	      0.03918285	      0.09144593
      4.72727273	      0.04154214	      0.03922496	      0.09091300
      4.74545455	      0.04124966	      0.03908664	      0.08951092
      4.76363636	      0.04064110	      0.03879724	      0.08471026
      4.78181818	      0.04001979	      0.03849954	      0.08027223
      4.80000000	      0.03890381	      0.03795895	      0.07485888
      4.81818182	      0.03858433	      0.03780277	      0.06865583
      4.83636364	      0.03854167	      0.03778186	      0.06626701
      4.85454545	      0.03888036	      0.03794751	      0.06608081
      4.87272727	      0.03985562	      0.03842049	      0.07153712
      4.89090909	      0.04114950	      0.03903916	      0.07572618
      4.90909091	      0.04224469	      0.03955525	      0.07822182
      4.92727273	      0.04274053	      0.03978672	      0.07893305
      4.94545455	      0.04260896	      0.03972543	      0.07790712
      4.96363636	      0.04227826	      0.03957097	      0.07594123
      4.98181818	      0.04178477	      0.03933934	      0.07326879
      5.00000000	      0.04124110	      0.03908258	      0.07158144
      5.01818182	      0.04049884	      0.03872928	      0.07014814
      5.03636364	      0.03985523	      0.03842030	      0.07018304
      5.05454545	      0.03950513	      0.03825118	      0.07131445
      5.07272727	      0.03953561	      0.03826594	      0.07380015
      5.09090909	      0.03994004	      0.03846116	      0.07758760
      5.10909091	      0.04070907	      0.03882967	      0.08207649
      5.12727273	      0.04185803	      0.03937382	      0.08635655
      5.14545455	      0.04309039	      0.03994922	      0.08990330
      5.16363636	      0.04388351	      0.04031520	      0.09175888
      5.18181818	      0.04377592	      0.04026575	      0.09069041
      5.20000000	      0.04263317	      0.03973671	      0.08690393
      5.21818182	      0.04229105	      0.03957695	      0.07630174
      5.23636364	      0.04053809	      0.03874804	      0.07288689
      5.25454545	      0.03895885	      0.03798579	      0.06863295
      5.27272727	      0.03764332	      0.03733895	      0.06257991
      5.29090909	      0.03557742	      0.03629990	      0.06355544
      5.30909091	      0.03546202	      0.03624097	      0.06397604
      5.32727273	      0.03590539	      0.03646682	      0.06542505
      5.34545455	      0.03643977	      0.03673719	      0.06673597
      5.36363636	      0.03694910	      0.03699304	      0.06729036
      5.38181818	      0.03749865	      0.03726713	      0.06838646
      5.40000000	      0.03800550	      0.03751814	      0.06927836
      5.41818182	      0.03787651	      0.03745442	      0.07058745
      5.43636364	      0.03713041	      0.03708369	      0.07248441
      5.45454545	      0.03602925	      0.03652967	      0.07446556
      5.47272727	      0.03486388	      0.03593403	      0.07588305
      5.49090909	      0.03375390	      0.03535738	      0.07603336
      5.50909091	      0.03311961	      0.03502360	      0.07490328
      5.52727273	      0.03298941	      0.03495469	      0.07219521
      5.54545455	      0.03394043	      0.03545494	      0.06805121
      5.56363636	      0.03768173	      0.03735799	      0.06258341
