Model Marker Errors from IK
version=1
nRows=326
nColumns=4
inDegrees=no
endheader
time	total_squared_error	marker_error_RMS	marker_error_max
      0.00000000	      0.02255105	      0.02890024	      0.05687160
      0.01694915	      0.02297523	      0.02917078	      0.05637905
      0.03389831	      0.02338314	      0.02942859	      0.05608827
      0.05084746	      0.02359073	      0.02955893	      0.05588655
      0.06779661	      0.02357377	      0.02954831	      0.05572467
      0.08474576	      0.02343914	      0.02946381	      0.05573026
      0.10169492	      0.02329438	      0.02937269	      0.05591920
      0.11864407	      0.02317492	      0.02929728	      0.05616377
      0.13559322	      0.02306592	      0.02922830	      0.05580463
      0.15254237	      0.02293827	      0.02914731	      0.05593877
      0.16949153	      0.02282519	      0.02907537	      0.05541271
      0.18644068	      0.02274702	      0.02902555	      0.05490708
      0.20338983	      0.02270717	      0.02900011	      0.05485171
      0.22033898	      0.02262072	      0.02894485	      0.05466443
      0.23728814	      0.02258180	      0.02891994	      0.05466462
      0.25423729	      0.02252883	      0.02888600	      0.05471779
      0.27118644	      0.02248701	      0.02885918	      0.05468625
      0.28813559	      0.02245976	      0.02884169	      0.05478203
      0.30508475	      0.02247129	      0.02884909	      0.05483977
      0.32203390	      0.02257382	      0.02891483	      0.05486330
      0.33898305	      0.02275627	      0.02903145	      0.05523485
      0.35593220	      0.02298253	      0.02917542	      0.05588827
      0.37288136	      0.02312282	      0.02926433	      0.05643851
      0.38983051	      0.02307522	      0.02923419	      0.05671968
      0.40677966	      0.02289468	      0.02911960	      0.05675575
      0.42372881	      0.02272548	      0.02901180	      0.05709810
      0.44067797	      0.02272018	      0.02900841	      0.05768287
      0.45762712	      0.02303418	      0.02920818	      0.05899363
      0.47457627	      0.02363095	      0.02958412	      0.06053422
      0.49152542	      0.02456175	      0.03016114	      0.06280408
      0.50847458	      0.02563895	      0.03081543	      0.06548337
      0.52542373	      0.02650758	      0.03133309	      0.06827965
      0.54237288	      0.02703483	      0.03164317	      0.07036066
      0.55932203	      0.02707669	      0.03166765	      0.07089961
      0.57627119	      0.02686162	      0.03154163	      0.07028821
      0.59322034	      0.02633392	      0.03123028	      0.06823042
      0.61016949	      0.02548326	      0.03072173	      0.06492736
      0.62711864	      0.02430568	      0.03000351	      0.06071963
      0.64406780	      0.02291816	      0.02913453	      0.05603676
      0.66101695	      0.02164807	      0.02831573	      0.05218864
      0.67796610	      0.02094710	      0.02785352	      0.05298323
      0.69491525	      0.02087638	      0.02780646	      0.05454497
      0.71186441	      0.02106468	      0.02793158	      0.05590804
      0.72881356	      0.02128351	      0.02807629	      0.05673001
      0.74576271	      0.02157437	      0.02826749	      0.05709329
      0.76271186	      0.02202948	      0.02856408	      0.05709327
      0.77966102	      0.02263251	      0.02895239	      0.05699804
      0.79661017	      0.02333842	      0.02940044	      0.05678937
      0.81355932	      0.02415202	      0.02990852	      0.05716393
      0.83050847	      0.02491626	      0.03037802	      0.05766443
      0.84745763	      0.02548224	      0.03072111	      0.05877300
      0.86440678	      0.02570625	      0.03085585	      0.06010681
      0.88135593	      0.02546780	      0.03071241	      0.06025559
      0.89830508	      0.02488275	      0.03035759	      0.05990147
      0.91525424	      0.02416046	      0.02991374	      0.05932636
      0.93220339	      0.02354787	      0.02953208	      0.05879541
      0.94915254	      0.02316682	      0.02929216	      0.05829965
      0.96610169	      0.02295441	      0.02915756	      0.05763526
      0.98305085	      0.02282864	      0.02907757	      0.05773850
      1.00000000	      0.02277257	      0.02904184	      0.05813532
      1.01694915	      0.02281759	      0.02907053	      0.05854140
      1.03389831	      0.02300180	      0.02918764	      0.05876234
      1.05084746	      0.02329485	      0.02937298	      0.05878212
      1.06779661	      0.02347884	      0.02948875	      0.05883491
      1.08474576	      0.02336266	      0.02941571	      0.06004406
      1.10169492	      0.02280482	      0.02906240	      0.06068231
      1.11864407	      0.02202043	      0.02855821	      0.05956670
      1.13559322	      0.02119458	      0.02801758	      0.05696728
      1.15254237	      0.02047912	      0.02754062	      0.05332485
      1.16949153	      0.01996131	      0.02719021	      0.05212127
      1.18644068	      0.01968489	      0.02700130	      0.05226418
      1.20338983	      0.01969043	      0.02700510	      0.05282256
      1.22033898	      0.01991808	      0.02716075	      0.05376551
      1.23728814	      0.02028295	      0.02740840	      0.05452108
      1.25423729	      0.02066731	      0.02766687	      0.05499775
      1.27118644	      0.02099735	      0.02788691	      0.05533052
      1.28813559	      0.02120964	      0.02802752	      0.05503671
      1.30508475	      0.02127044	      0.02806767	      0.05471732
      1.32203390	      0.02118625	      0.02801206	      0.05319295
      1.33898305	      0.02106584	      0.02793236	      0.05233275
      1.35593220	      0.02096792	      0.02786735	      0.05163377
      1.37288136	      0.02093434	      0.02784504	      0.05098561
      1.38983051	      0.02087893	      0.02780816	      0.05042245
      1.40677966	      0.02075477	      0.02772535	      0.05031518
      1.42372881	      0.02045844	      0.02752672	      0.05096443
      1.44067797	      0.02008057	      0.02727132	      0.05110803
      1.45762712	      0.01966496	      0.02698762	      0.05197534
      1.47457627	      0.01930275	      0.02673793	      0.05209949
      1.49152542	      0.01900572	      0.02653141	      0.05299715
      1.50847458	      0.01877362	      0.02636890	      0.05359270
      1.52542373	      0.01860649	      0.02625127	      0.05388383
      1.54237288	      0.01844525	      0.02613728	      0.05544968
      1.55932203	      0.01828679	      0.02602477	      0.05571618
      1.57627119	      0.01811827	      0.02590457	      0.05698704
      1.59322034	      0.01805241	      0.02585745	      0.05796676
      1.61016949	      0.01812930	      0.02591246	      0.05862592
      1.62711864	      0.01831013	      0.02604137	      0.05923021
      1.64406780	      0.01854616	      0.02620868	      0.05969241
      1.66101695	      0.01887696	      0.02644138	      0.06006606
      1.67796610	      0.01939628	      0.02680262	      0.06004327
      1.69491525	      0.02013174	      0.02730604	      0.06001780
      1.71186441	      0.02104972	      0.02792167	      0.05942627
      1.72881356	      0.02217599	      0.02865891	      0.06084817
      1.74576271	      0.02347607	      0.02948702	      0.06426775
      1.76271186	      0.02471614	      0.03025578	      0.06606476
      1.77966102	      0.02562261	      0.03080561	      0.06612981
      1.79661017	      0.02587183	      0.03095506	      0.06523829
      1.81355932	      0.02549920	      0.03073134	      0.06459897
      1.83050847	      0.02492062	      0.03038068	      0.06555800
      1.84745763	      0.02458096	      0.03017293	      0.06842984
      1.86440678	      0.02473509	      0.03026738	      0.07351982
      1.88135593	      0.02548842	      0.03072484	      0.08004961
      1.89830508	      0.02684738	      0.03153327	      0.08625459
      1.91525424	      0.02871878	      0.03261378	      0.09049462
      1.93220339	      0.03092156	      0.03384144	      0.09118563
      1.94915254	      0.03306197	      0.03499310	      0.08808491
      1.96610169	      0.03474025	      0.03587027	      0.08204598
      1.98305085	      0.03566242	      0.03634323	      0.08773995
      2.00000000	      0.03572357	      0.03637438	      0.09282708
      2.01694915	      0.03504093	      0.03602516	      0.09470711
      2.03389831	      0.03387172	      0.03541903	      0.09308080
      2.05084746	      0.03269564	      0.03479870	      0.08874406
      2.06779661	      0.03190761	      0.03437678	      0.08367621
      2.08474576	      0.03166785	      0.03424739	      0.07988332
      2.10169492	      0.03204200	      0.03444910	      0.07851656
      2.11864407	      0.03286895	      0.03489081	      0.07876014
      2.13559322	      0.03388542	      0.03542620	      0.07949680
      2.15254237	      0.03459588	      0.03579565	      0.07961989
      2.16949153	      0.03463496	      0.03581587	      0.07841280
      2.18644068	      0.03380513	      0.03538420	      0.07519719
      2.20338983	      0.03227074	      0.03457184	      0.07017260
      2.22033898	      0.03036614	      0.03353613	      0.06396444
      2.23728814	      0.02836038	      0.03240963	      0.06341506
      2.25423729	      0.02645232	      0.03130041	      0.06341251
      2.27118644	      0.02489835	      0.03036711	      0.06332102
      2.28813559	      0.02417040	      0.02991989	      0.06319799
      2.30508475	      0.02430812	      0.03000501	      0.06278709
      2.32203390	      0.02508475	      0.03048056	      0.06176839
      2.33898305	      0.02596018	      0.03100788	      0.06033473
      2.35593220	      0.02627765	      0.03119690	      0.05868249
      2.37288136	      0.02580864	      0.03091723	      0.05997570
      2.38983051	      0.02532005	      0.03062319	      0.06214391
      2.40677966	      0.02597083	      0.03101423	      0.06506939
      2.42372881	      0.02886634	      0.03269746	      0.07122900
      2.44067797	      0.03520087	      0.03610728	      0.08195479
      2.45762712	      0.04571064	      0.04114592	      0.10185578
      2.47457627	      0.05983677	      0.04707629	      0.13141517
      2.49152542	      0.07479856	      0.05263380	      0.15777121
      2.50847458	      0.08583444	      0.05638310	      0.17557972
      2.52542373	      0.08881865	      0.05735486	      0.18191974
      2.54237288	      0.08419220	      0.05584111	      0.17845456
      2.55932203	      0.07701756	      0.05340882	      0.17093790
      2.57627119	      0.07202014	      0.05164700	      0.16489596
      2.59322034	      0.07035880	      0.05104784	      0.16262588
      2.61016949	      0.07051240	      0.05110353	      0.16267808
      2.62711864	      0.07084147	      0.05122263	      0.16323683
      2.64406780	      0.07071088	      0.05117540	      0.16331311
      2.66101695	      0.07005845	      0.05093876	      0.16224908
      2.67796610	      0.06878133	      0.05047233	      0.15984060
      2.69491525	      0.06677345	      0.04973018	      0.15675298
      2.71186441	      0.06432747	      0.04881085	      0.15379035
      2.72881356	      0.06203141	      0.04793182	      0.15163406
      2.74576271	      0.06046222	      0.04732168	      0.15061386
      2.76271186	      0.05979599	      0.04706024	      0.15036070
      2.77966102	      0.05982700	      0.04707244	      0.15051303
      2.79661017	      0.06018586	      0.04721341	      0.15054642
      2.81355932	      0.06067969	      0.04740671	      0.15012494
      2.83050847	      0.06130849	      0.04765170	      0.14916685
      2.84745763	      0.06199644	      0.04791831	      0.14728385
      2.86440678	      0.06229804	      0.04803473	      0.14399697
      2.88135593	      0.06185394	      0.04786321	      0.13933328
      2.89830508	      0.06065949	      0.04739882	      0.13337300
      2.91525424	      0.05905277	      0.04676686	      0.12694973
      2.93220339	      0.05737834	      0.04609906	      0.12148972
      2.94915254	      0.05575302	      0.04544146	      0.11759829
      2.96610169	      0.05412187	      0.04477180	      0.11520410
      2.98305085	      0.05249735	      0.04409474	      0.11366349
      3.00000000	      0.05103431	      0.04347597	      0.11248709
      3.01694915	      0.04990360	      0.04299165	      0.11158935
      3.03389831	      0.04918742	      0.04268204	      0.11046163
      3.05084746	      0.04886261	      0.04254088	      0.10908666
      3.06779661	      0.04880660	      0.04251649	      0.10712941
      3.08474576	      0.04876156	      0.04249687	      0.10585880
      3.10169492	      0.04839950	      0.04233880	      0.10374626
      3.11864407	      0.04746214	      0.04192681	      0.10084100
      3.13559322	      0.04575342	      0.04116517	      0.09729723
      3.15254237	      0.04345518	      0.04011796	      0.09556053
      3.16949153	      0.04064642	      0.03879978	      0.09330105
      3.18644068	      0.03769369	      0.03736392	      0.09006613
      3.20338983	      0.03482924	      0.03591618	      0.08561918
      3.22033898	      0.03231409	      0.03459506	      0.08024481
      3.23728814	      0.03031956	      0.03351039	      0.07857978
      3.25423729	      0.02872508	      0.03261735	      0.07800262
      3.27118644	      0.02750706	      0.03191833	      0.07742142
      3.28813559	      0.02662387	      0.03140174	      0.07689959
      3.30508475	      0.02614355	      0.03111719	      0.07651362
      3.32203390	      0.02615799	      0.03112579	      0.07667458
      3.33898305	      0.02651027	      0.03133467	      0.07691742
      3.35593220	      0.02676973	      0.03148764	      0.07602280
      3.37288136	      0.02646754	      0.03130941	      0.07338263
      3.38983051	      0.02547074	      0.03071418	      0.06841499
      3.40677966	      0.02415302	      0.02990913	      0.06288582
      3.42372881	      0.02312636	      0.02926656	      0.06481505
      3.44067797	      0.02274651	      0.02902522	      0.06687981
      3.45762712	      0.02301116	      0.02919358	      0.06894052
      3.47457627	      0.02364927	      0.02959559	      0.07131324
      3.49152542	      0.02455056	      0.03015427	      0.07345970
      3.50847458	      0.02550555	      0.03073516	      0.07537956
      3.52542373	      0.02625253	      0.03118198	      0.07661659
      3.54237288	      0.02670367	      0.03144876	      0.07687049
      3.55932203	      0.02692396	      0.03157821	      0.07597729
      3.57627119	      0.02707685	      0.03166775	      0.07474694
      3.59322034	      0.02735515	      0.03183008	      0.07430372
      3.61016949	      0.02781967	      0.03209919	      0.07470274
      3.62711864	      0.02849210	      0.03248481	      0.07567852
      3.64406780	      0.02924444	      0.03291090	      0.07642423
      3.66101695	      0.02985474	      0.03325254	      0.07655844
      3.67796610	      0.03020114	      0.03344489	      0.07621005
      3.69491525	      0.03034145	      0.03352249	      0.07558095
      3.71186441	      0.03046150	      0.03358874	      0.07499177
      3.72881356	      0.03067743	      0.03370758	      0.07469005
      3.74576271	      0.03096893	      0.03386735	      0.07464731
      3.76271186	      0.03135214	      0.03407624	      0.07514418
      3.77966102	      0.03177600	      0.03430581	      0.07585382
      3.79661017	      0.03211887	      0.03449040	      0.07583722
      3.81355932	      0.03224736	      0.03455932	      0.07504935
      3.83050847	      0.03201451	      0.03443432	      0.07295734
      3.84745763	      0.03153614	      0.03417609	      0.06956140
      3.86440678	      0.03110071	      0.03393933	      0.06617551
      3.88135593	      0.03091987	      0.03384051	      0.06599025
      3.89830508	      0.03102730	      0.03389925	      0.06601763
      3.91525424	      0.03132448	      0.03406121	      0.06632088
      3.93220339	      0.03161234	      0.03421736	      0.06612555
      3.94915254	      0.03180500	      0.03432146	      0.06585788
      3.96610169	      0.03189696	      0.03437104	      0.06554121
      3.98305085	      0.03189734	      0.03437125	      0.06526518
      4.00000000	      0.03177985	      0.03430789	      0.06508136
      4.01694915	      0.03150618	      0.03415985	      0.06489025
      4.03389831	      0.03109020	      0.03393359	      0.06469675
      4.05084746	      0.03067045	      0.03370375	      0.06454033
      4.06779661	      0.03035906	      0.03353222	      0.06438831
      4.08474576	      0.03028070	      0.03348892	      0.06432052
      4.10169492	      0.03040913	      0.03355986	      0.06434255
      4.11864407	      0.03077526	      0.03376129	      0.06452318
      4.13559322	      0.03131058	      0.03405365	      0.06495102
      4.15254237	      0.03201877	      0.03443662	      0.06525685
      4.16949153	      0.03288115	      0.03489728	      0.06536135
      4.18644068	      0.03386387	      0.03541493	      0.06910139
      4.20338983	      0.03459734	      0.03579641	      0.07349233
      4.22033898	      0.03483826	      0.03592083	      0.07747173
      4.23728814	      0.03420452	      0.03559261	      0.08052853
      4.25423729	      0.03273762	      0.03482103	      0.08213959
      4.27118644	      0.03108456	      0.03393052	      0.08278568
      4.28813559	      0.02996325	      0.03331291	      0.08273051
      4.30508475	      0.02975004	      0.03319418	      0.08160402
      4.32203390	      0.03041618	      0.03356375	      0.07902359
      4.33898305	      0.03164755	      0.03423641	      0.07457652
      4.35593220	      0.03305567	      0.03498977	      0.07543274
      4.37288136	      0.03421730	      0.03559926	      0.07712004
      4.38983051	      0.03474626	      0.03587337	      0.08427643
      4.40677966	      0.03445202	      0.03572115	      0.08903065
      4.42372881	      0.03351936	      0.03523433	      0.08981137
      4.44067797	      0.03238868	      0.03463496	      0.08755467
      4.45762712	      0.03131990	      0.03405872	      0.08393093
      4.47457627	      0.03036156	      0.03353360	      0.07970735
      4.49152542	      0.02948777	      0.03304754	      0.07604167
      4.50847458	      0.02876877	      0.03264215	      0.07341324
      4.52542373	      0.02846070	      0.03246691	      0.07230660
      4.54237288	      0.02872963	      0.03261994	      0.07307072
      4.55932203	      0.02938326	      0.03298892	      0.07445324
      4.57627119	      0.03007554	      0.03337527	      0.07601655
      4.59322034	      0.03045430	      0.03358477	      0.07701806
      4.61016949	      0.03039190	      0.03355035	      0.07699926
      4.62711864	      0.02997152	      0.03331751	      0.07588146
      4.64406780	      0.02937577	      0.03298472	      0.07442788
      4.66101695	      0.02867309	      0.03258782	      0.07250319
      4.67796610	      0.02813906	      0.03228293	      0.07036071
      4.69491525	      0.02776166	      0.03206571	      0.06897368
      4.71186441	      0.02750769	      0.03191870	      0.06814781
      4.72881356	      0.02721590	      0.03174896	      0.06842556
      4.74576271	      0.02677140	      0.03148862	      0.06876755
      4.76271186	      0.02619729	      0.03114916	      0.06888437
      4.77966102	      0.02567812	      0.03083896	      0.06780784
      4.79661017	      0.02549891	      0.03073116	      0.06658921
      4.81355932	      0.02548385	      0.03072208	      0.06505252
      4.83050847	      0.02520083	      0.03055101	      0.06348192
      4.84745763	      0.02441515	      0.03007100	      0.06190071
      4.86440678	      0.02326455	      0.02935388	      0.06041993
      4.88135593	      0.02215882	      0.02864781	      0.05893248
      4.89830508	      0.02163493	      0.02830713	      0.05749591
      4.91525424	      0.02197128	      0.02852632	      0.05905185
      4.93220339	      0.02311327	      0.02925828	      0.06355583
      4.94915254	      0.02459572	      0.03018199	      0.06687209
      4.96610169	      0.02585044	      0.03094227	      0.06883974
      4.98305085	      0.02652582	      0.03134386	      0.06958614
      5.00000000	      0.02674765	      0.03147465	      0.06941962
      5.01694915	      0.02695741	      0.03159783	      0.06903100
      5.03389831	      0.02748056	      0.03190295	      0.06878707
      5.05084746	      0.02837450	      0.03241770	      0.06862549
      5.06779661	      0.02958349	      0.03310113	      0.06873276
      5.08474576	      0.03098697	      0.03387721	      0.06935080
      5.10169492	      0.03243871	      0.03466170	      0.07045880
      5.11864407	      0.03385057	      0.03540798	      0.07153519
      5.13559322	      0.03516316	      0.03608794	      0.07211806
      5.15254237	      0.03607833	      0.03655454	      0.07278164
      5.16949153	      0.03644232	      0.03673848	      0.07217837
      5.18644068	      0.03607691	      0.03655382	      0.07128182
      5.20338983	      0.03501221	      0.03601039	      0.06993467
      5.22033898	      0.03357141	      0.03526167	      0.06768497
      5.23728814	      0.03220677	      0.03453756	      0.06495881
      5.25423729	      0.03117270	      0.03397859	      0.06146969
      5.27118644	      0.03055438	      0.03363991	      0.05798390
      5.28813559	      0.03043190	      0.03357242	      0.05475801
      5.30508475	      0.03088857	      0.03382338	      0.05321511
      5.32203390	      0.03182947	      0.03433467	      0.05765414
      5.33898305	      0.03278221	      0.03484474	      0.06125657
      5.35593220	      0.03320272	      0.03506751	      0.06249528
      5.37288136	      0.03304994	      0.03498674	      0.06329668
      5.38983051	      0.03243138	      0.03465779	      0.06270073
      5.40677966	      0.03177624	      0.03430594	      0.06289194
      5.42372881	      0.03124605	      0.03401854	      0.06210029
      5.44067797	      0.03099806	      0.03388328	      0.06202716
      5.45762712	      0.03096297	      0.03386409	      0.06200672
      5.47457627	      0.03112752	      0.03395396	      0.06166100
      5.49152542	      0.03160541	      0.03421361	      0.06170356
      5.50847458	      0.03263709	      0.03476753	      0.06188467
