Model Marker Errors from IK
version=1
nRows=529
nColumns=4
inDegrees=no
endheader
time	total_squared_error	marker_error_RMS	marker_error_max
      0.00000000	      0.02173250	      0.02837089	      0.05463058
      0.01666667	      0.02160984	      0.02829071	      0.05005387
      0.03333333	      0.02183068	      0.02843490	      0.04868645
      0.05000000	      0.02209978	      0.02860962	      0.04876604
      0.06666667	      0.02226271	      0.02871489	      0.04887323
      0.08333333	      0.02241131	      0.02881056	      0.04905568
      0.10000000	      0.02257243	      0.02891394	      0.04932050
      0.11666667	      0.02278029	      0.02904676	      0.04943210
      0.13333333	      0.02308013	      0.02923730	      0.04932897
      0.15000000	      0.02330686	      0.02938056	      0.04894277
      0.16666667	      0.02356732	      0.02954427	      0.04851480
      0.18333333	      0.02356789	      0.02954463	      0.04784819
      0.20000000	      0.02345522	      0.02947392	      0.04759173
      0.21666667	      0.02316149	      0.02928879	      0.04784592
      0.23333333	      0.02287709	      0.02910841	      0.04814578
      0.25000000	      0.02255270	      0.02890130	      0.04814017
      0.26666667	      0.02224907	      0.02870609	      0.04803241
      0.28333333	      0.02207928	      0.02859635	      0.04892017
      0.30000000	      0.02201017	      0.02855156	      0.04970640
      0.31666667	      0.02196256	      0.02852066	      0.05010622
      0.33333333	      0.02191907	      0.02849241	      0.05054899
      0.35000000	      0.02178073	      0.02840236	      0.05041765
      0.36666667	      0.02148688	      0.02821011	      0.04973744
      0.38333333	      0.02130295	      0.02808911	      0.04920282
      0.40000000	      0.02118488	      0.02801116	      0.04885152
      0.41666667	      0.02111052	      0.02796196	      0.04875884
      0.43333333	      0.02095649	      0.02785976	      0.04899281
      0.45000000	      0.02073843	      0.02771444	      0.04941557
      0.46666667	      0.02047035	      0.02753472	      0.05014664
      0.48333333	      0.02021225	      0.02736059	      0.05079949
      0.50000000	      0.02000603	      0.02722065	      0.05069476
      0.51666667	      0.01998072	      0.02720343	      0.05008772
      0.53333333	      0.02025278	      0.02738801	      0.04908884
      0.55000000	      0.02079831	      0.02775442	      0.04690315
      0.56666667	      0.02151087	      0.02822585	      0.04451446
      0.58333333	      0.02219704	      0.02867251	      0.04505485
      0.60000000	      0.02264468	      0.02896018	      0.04591599
      0.61666667	      0.02267075	      0.02897684	      0.04662205
      0.63333333	      0.02226029	      0.02871333	      0.04704152
      0.65000000	      0.02159182	      0.02827892	      0.04718615
      0.66666667	      0.02112389	      0.02797081	      0.04704476
      0.68333333	      0.02099161	      0.02788310	      0.05094351
      0.70000000	      0.02108972	      0.02794818	      0.05498536
      0.71666667	      0.02140853	      0.02815863	      0.05781099
      0.73333333	      0.02215624	      0.02864615	      0.05917619
      0.75000000	      0.02352621	      0.02951849	      0.06221386
      0.76666667	      0.02532169	      0.03062418	      0.06955346
      0.78333333	      0.02713124	      0.03169954	      0.07693547
      0.80000000	      0.02902616	      0.03278785	      0.08398430
      0.81666667	      0.03146008	      0.03413485	      0.09002002
      0.83333333	      0.03460734	      0.03580158	      0.09435479
      0.85000000	      0.03767728	      0.03735579	      0.09602842
      0.86666667	      0.03954959	      0.03827270	      0.09486023
      0.88333333	      0.03985082	      0.03841818	      0.09229081
      0.90000000	      0.03905896	      0.03803457	      0.08973570
      0.91666667	      0.03776398	      0.03739874	      0.08825800
      0.93333333	      0.03628035	      0.03665674	      0.08716912
      0.95000000	      0.03477867	      0.03589009	      0.08584189
      0.96666667	      0.03329664	      0.03511708	      0.08370482
      0.98333333	      0.03184659	      0.03434390	      0.08058531
      1.00000000	      0.03026842	      0.03348212	      0.07578676
      1.01666667	      0.02843731	      0.03245356	      0.06931829
      1.03333333	      0.02627874	      0.03119754	      0.06358282
      1.05000000	      0.02394494	      0.02978002	      0.06151284
      1.06666667	      0.02202618	      0.02856194	      0.05969436
      1.08333333	      0.02080910	      0.02776162	      0.05902479
      1.10000000	      0.02028800	      0.02741181	      0.05940120
      1.11666667	      0.02019439	      0.02734850	      0.06048844
      1.13333333	      0.02020836	      0.02735795	      0.06202175
      1.15000000	      0.02016515	      0.02732869	      0.06344833
      1.16666667	      0.01996973	      0.02719595	      0.06459891
      1.18333333	      0.01967132	      0.02699199	      0.06510333
      1.20000000	      0.01940209	      0.02680664	      0.06426229
      1.21666667	      0.01929963	      0.02673577	      0.06230059
      1.23333333	      0.01947153	      0.02685457	      0.05959276
      1.25000000	      0.01995661	      0.02718702	      0.05689994
      1.26666667	      0.02056279	      0.02759683	      0.05527851
      1.28333333	      0.02126846	      0.02806636	      0.05446350
      1.30000000	      0.02191875	      0.02849220	      0.05456092
      1.31666667	      0.02230571	      0.02874261	      0.05485382
      1.33333333	      0.02246724	      0.02884649	      0.05564293
      1.35000000	      0.02255470	      0.02890258	      0.05684139
      1.36666667	      0.02271233	      0.02900341	      0.05791881
      1.38333333	      0.02305383	      0.02922064	      0.05885638
      1.40000000	      0.02345181	      0.02947178	      0.05911324
      1.41666667	      0.02403221	      0.02983424	      0.05947982
      1.43333333	      0.02490351	      0.03037025	      0.06017550
      1.45000000	      0.02597018	      0.03101384	      0.06333032
      1.46666667	      0.02687092	      0.03154710	      0.06588027
      1.48333333	      0.02733259	      0.03181695	      0.06769789
      1.50000000	      0.02750626	      0.03191787	      0.06919610
      1.51666667	      0.02757979	      0.03196050	      0.07074356
      1.53333333	      0.02756380	      0.03195124	      0.07157221
      1.55000000	      0.02719500	      0.03173676	      0.07237838
      1.56666667	      0.02639199	      0.03126469	      0.07194741
      1.58333333	      0.02533993	      0.03063521	      0.06970802
      1.60000000	      0.02427639	      0.02998542	      0.06584361
      1.61666667	      0.02331401	      0.02938506	      0.06058797
      1.63333333	      0.02261121	      0.02893877	      0.05505796
      1.65000000	      0.02221133	      0.02868174	      0.05370566
      1.66666667	      0.02201447	      0.02855435	      0.05481729
      1.68333333	      0.02192098	      0.02849365	      0.05499121
      1.70000000	      0.02230691	      0.02874338	      0.05837202
      1.71666667	      0.02307770	      0.02923576	      0.06545476
      1.73333333	      0.02400161	      0.02981524	      0.07202673
      1.75000000	      0.02486662	      0.03034775	      0.07608140
      1.76666667	      0.02531762	      0.03062172	      0.07692886
      1.78333333	      0.02548566	      0.03072318	      0.07307448
      1.80000000	      0.02573778	      0.03087477	      0.06574604
      1.81666667	      0.02611970	      0.03110299	      0.06965077
      1.83333333	      0.02623320	      0.03117050	      0.07153577
      1.85000000	      0.02560637	      0.03079584	      0.07062752
      1.86666667	      0.02464997	      0.03021526	      0.06849889
      1.88333333	      0.02383297	      0.02971031	      0.06623669
      1.90000000	      0.02356145	      0.02954059	      0.06478059
      1.91666667	      0.02395862	      0.02978853	      0.06437692
      1.93333333	      0.02489119	      0.03036274	      0.06493461
      1.95000000	      0.02594785	      0.03100051	      0.06629945
      1.96666667	      0.02654289	      0.03135395	      0.06840479
      1.98333333	      0.02622502	      0.03116564	      0.07087171
      2.00000000	      0.02538797	      0.03066423	      0.07335085
      2.01666667	      0.02486039	      0.03034395	      0.07557685
      2.03333333	      0.02493532	      0.03038964	      0.07720385
      2.05000000	      0.02531629	      0.03062092	      0.07792147
      2.06666667	      0.02562017	      0.03080415	      0.07679660
      2.08333333	      0.02565816	      0.03082697	      0.07381556
      2.10000000	      0.02520758	      0.03055510	      0.06925653
      2.11666667	      0.02434180	      0.03002579	      0.06336426
      2.13333333	      0.02359282	      0.02956024	      0.05797849
      2.15000000	      0.02300006	      0.02918654	      0.05521523
      2.16666667	      0.02267356	      0.02897864	      0.05493762
      2.18333333	      0.02248902	      0.02886047	      0.05428708
      2.20000000	      0.02258879	      0.02892442	      0.05313465
      2.21666667	      0.02292078	      0.02913619	      0.05216087
      2.23333333	      0.02332831	      0.02939407	      0.05397960
      2.25000000	      0.02356580	      0.02954331	      0.05562044
      2.26666667	      0.02357178	      0.02954706	      0.05657900
      2.28333333	      0.02336727	      0.02941861	      0.05667667
      2.30000000	      0.02311371	      0.02925856	      0.05623013
      2.31666667	      0.02302616	      0.02920309	      0.05531996
      2.33333333	      0.02315295	      0.02928339	      0.05621700
      2.35000000	      0.02337099	      0.02942095	      0.05597223
      2.36666667	      0.02352142	      0.02951548	      0.05592591
      2.38333333	      0.02347140	      0.02948408	      0.05661570
      2.40000000	      0.02314806	      0.02928029	      0.05647859
      2.41666667	      0.02278005	      0.02904661	      0.05553449
      2.43333333	      0.02255192	      0.02890080	      0.05372693
      2.45000000	      0.02260326	      0.02893368	      0.05145246
      2.46666667	      0.02276720	      0.02903842	      0.05128672
      2.48333333	      0.02286499	      0.02910071	      0.05075726
      2.50000000	      0.02264177	      0.02895832	      0.05003980
      2.51666667	      0.02247960	      0.02885442	      0.05050722
      2.53333333	      0.02280222	      0.02906074	      0.05293276
      2.55000000	      0.02369331	      0.02962313	      0.05616752
      2.56666667	      0.02485434	      0.03034026	      0.05983035
      2.58333333	      0.02572603	      0.03086772	      0.06224392
      2.60000000	      0.02615329	      0.03112299	      0.06388501
      2.61666667	      0.02622382	      0.03116493	      0.06444399
      2.63333333	      0.02606145	      0.03106829	      0.06411182
      2.65000000	      0.02565470	      0.03082490	      0.06271233
      2.66666667	      0.02498660	      0.03042088	      0.06026650
      2.68333333	      0.02415276	      0.02990897	      0.05734044
      2.70000000	      0.02335779	      0.02941264	      0.05477282
      2.71666667	      0.02273023	      0.02901483	      0.05294476
      2.73333333	      0.02217449	      0.02865794	      0.05155308
      2.75000000	      0.02152871	      0.02823756	      0.05025230
      2.76666667	      0.02077511	      0.02773894	      0.04982909
      2.78333333	      0.01997690	      0.02720083	      0.05042235
      2.80000000	      0.01923825	      0.02669321	      0.05030574
      2.81666667	      0.01868954	      0.02630979	      0.05072890
      2.83333333	      0.01839052	      0.02609847	      0.05061164
      2.85000000	      0.01831788	      0.02604688	      0.04977766
      2.86666667	      0.01834158	      0.02606373	      0.04874932
      2.88333333	      0.01841866	      0.02611844	      0.04880195
      2.90000000	      0.01854512	      0.02620795	      0.04705488
      2.91666667	      0.01885252	      0.02642426	      0.04741959
      2.93333333	      0.01931554	      0.02674678	      0.04869234
      2.95000000	      0.02000318	      0.02721872	      0.04959167
      2.96666667	      0.02096739	      0.02786700	      0.05182908
      2.98333333	      0.02212617	      0.02862670	      0.05711120
      3.00000000	      0.02299924	      0.02918602	      0.06107980
      3.01666667	      0.02335032	      0.02940794	      0.06302765
      3.03333333	      0.02307913	      0.02923667	      0.06273927
      3.05000000	      0.02261505	      0.02894122	      0.06039349
      3.06666667	      0.02201685	      0.02855589	      0.05674341
      3.08333333	      0.02130233	      0.02808870	      0.05560506
      3.10000000	      0.02057282	      0.02760356	      0.05475698
      3.11666667	      0.02000180	      0.02721777	      0.05393455
      3.13333333	      0.01969949	      0.02701131	      0.05280623
      3.15000000	      0.01970244	      0.02701333	      0.05159031
      3.16666667	      0.01994565	      0.02717954	      0.05047913
      3.18333333	      0.02032769	      0.02743861	      0.05166938
      3.20000000	      0.02072797	      0.02770744	      0.05234953
      3.21666667	      0.02091009	      0.02782890	      0.05121572
      3.23333333	      0.02101868	      0.02790107	      0.05196271
      3.25000000	      0.02088052	      0.02780922	      0.05236734
      3.26666667	      0.02083540	      0.02777915	      0.05363565
      3.28333333	      0.02102642	      0.02790621	      0.05482059
      3.30000000	      0.02136535	      0.02813022	      0.05625290
      3.31666667	      0.02164239	      0.02831201	      0.05783640
      3.33333333	      0.02170301	      0.02835163	      0.05869496
      3.35000000	      0.02147289	      0.02820092	      0.05815579
      3.36666667	      0.02102698	      0.02790658	      0.05636036
      3.38333333	      0.02048742	      0.02754621	      0.05408969
      3.40000000	      0.01992032	      0.02716228	      0.05277279
      3.41666667	      0.01945217	      0.02684122	      0.05210894
      3.43333333	      0.01913701	      0.02662289	      0.05100739
      3.45000000	      0.01894536	      0.02648924	      0.04955951
      3.46666667	      0.01865124	      0.02628282	      0.04752704
      3.48333333	      0.01834709	      0.02606764	      0.04769477
      3.50000000	      0.01813130	      0.02591389	      0.04890034
      3.51666667	      0.01804775	      0.02585411	      0.04986888
      3.53333333	      0.01794130	      0.02577776	      0.05011032
      3.55000000	      0.01779319	      0.02567114	      0.05039916
      3.56666667	      0.01753825	      0.02548656	      0.04988611
      3.58333333	      0.01730038	      0.02531313	      0.04934932
      3.60000000	      0.01725568	      0.02528041	      0.04924456
      3.61666667	      0.01752104	      0.02547406	      0.04865164
      3.63333333	      0.01814138	      0.02592109	      0.04829828
      3.65000000	      0.01897509	      0.02651002	      0.04762390
      3.66666667	      0.01988368	      0.02713729	      0.05017356
      3.68333333	      0.02078119	      0.02774299	      0.05184901
      3.70000000	      0.02162382	      0.02829987	      0.05308715
      3.71666667	      0.02230208	      0.02874027	      0.05422778
      3.73333333	      0.02293492	      0.02914518	      0.05465038
      3.75000000	      0.02352668	      0.02951878	      0.05448562
      3.76666667	      0.02400832	      0.02981941	      0.05567493
      3.78333333	      0.02435125	      0.03003162	      0.05646108
      3.80000000	      0.02434410	      0.03002721	      0.05678041
      3.81666667	      0.02400276	      0.02981596	      0.05629391
      3.83333333	      0.02354045	      0.02952742	      0.05563583
      3.85000000	      0.02289974	      0.02912282	      0.05543432
      3.86666667	      0.02243381	      0.02882502	      0.05524804
      3.88333333	      0.02174957	      0.02838203	      0.05480765
      3.90000000	      0.02128385	      0.02807652	      0.05428668
      3.91666667	      0.02134479	      0.02811668	      0.05423892
      3.93333333	      0.02192678	      0.02849742	      0.05357942
      3.95000000	      0.02283070	      0.02907888	      0.05617115
      3.96666667	      0.02393727	      0.02977525	      0.05689935
      3.98333333	      0.02507119	      0.03047232	      0.05668174
      4.00000000	      0.02587219	      0.03095528	      0.05608973
      4.01666667	      0.02618362	      0.03114103	      0.05559035
      4.03333333	      0.02631111	      0.03121675	      0.05572829
      4.05000000	      0.02660394	      0.03138998	      0.05685055
      4.06666667	      0.02723815	      0.03176193	      0.05950382
      4.08333333	      0.02774759	      0.03205758	      0.06228105
      4.10000000	      0.02743780	      0.03187813	      0.06331968
      4.11666667	      0.02611151	      0.03109812	      0.06144171
      4.13333333	      0.02443382	      0.03008249	      0.05766260
      4.15000000	      0.02355868	      0.02953885	      0.05429915
      4.16666667	      0.02399087	      0.02980857	      0.05256801
      4.18333333	      0.02548197	      0.03072095	      0.05464453
      4.20000000	      0.02735184	      0.03182815	      0.06100485
      4.21666667	      0.02875129	      0.03263223	      0.06826682
      4.23333333	      0.02914752	      0.03285632	      0.07092861
      4.25000000	      0.02851647	      0.03249870	      0.06979414
      4.26666667	      0.02724262	      0.03176454	      0.06457393
      4.28333333	      0.02558963	      0.03078578	      0.05779681
      4.30000000	      0.02378321	      0.02967928	      0.05652648
      4.31666667	      0.02204345	      0.02857314	      0.05366557
      4.33333333	      0.02061836	      0.02763409	      0.05050782
      4.35000000	      0.01963608	      0.02696780	      0.04793948
      4.36666667	      0.01908749	      0.02658842	      0.04614499
      4.38333333	      0.01880382	      0.02639011	      0.04715914
      4.40000000	      0.01869697	      0.02631502	      0.04871965
      4.41666667	      0.01867489	      0.02629948	      0.05046042
      4.43333333	      0.01860350	      0.02624917	      0.05180941
      4.45000000	      0.01839636	      0.02610262	      0.05290235
      4.46666667	      0.01802326	      0.02583656	      0.05313892
      4.48333333	      0.01759624	      0.02552866	      0.05266487
      4.50000000	      0.01722288	      0.02525637	      0.05205764
      4.51666667	      0.01701408	      0.02510281	      0.05094015
      4.53333333	      0.01699981	      0.02509228	      0.05001164
      4.55000000	      0.01717310	      0.02521985	      0.05136463
      4.56666667	      0.01748785	      0.02544992	      0.05266755
      4.58333333	      0.01799982	      0.02581976	      0.05356646
      4.60000000	      0.01873303	      0.02634039	      0.05417592
      4.61666667	      0.01959916	      0.02694243	      0.05368220
      4.63333333	      0.02061790	      0.02763378	      0.05121767
      4.65000000	      0.02163923	      0.02830994	      0.04698677
      4.66666667	      0.02215837	      0.02864752	      0.04774054
      4.68333333	      0.02208488	      0.02859998	      0.04818872
      4.70000000	      0.02190655	      0.02848427	      0.04833305
      4.71666667	      0.02212483	      0.02862583	      0.04870243
      4.73333333	      0.02277617	      0.02904414	      0.04916402
      4.75000000	      0.02359931	      0.02956431	      0.04997863
      4.76666667	      0.02435147	      0.03003176	      0.05051891
      4.78333333	      0.02491662	      0.03037824	      0.05132919
      4.80000000	      0.02514857	      0.03051931	      0.05209146
      4.81666667	      0.02490863	      0.03037337	      0.05259476
      4.83333333	      0.02420914	      0.02994386	      0.05241388
      4.85000000	      0.02321539	      0.02932285	      0.05207080
      4.86666667	      0.02224774	      0.02870523	      0.05134274
      4.88333333	      0.02164334	      0.02831264	      0.04983147
      4.90000000	      0.02157487	      0.02826781	      0.04839295
      4.91666667	      0.02197675	      0.02852987	      0.04831067
      4.93333333	      0.02247854	      0.02885375	      0.05457641
      4.95000000	      0.02250054	      0.02886786	      0.06183066
      4.96666667	      0.02178192	      0.02840313	      0.06540246
      4.98333333	      0.02074391	      0.02771810	      0.06506521
      5.00000000	      0.01994310	      0.02717781	      0.06131844
      5.01666667	      0.01960259	      0.02694479	      0.05585555
      5.03333333	      0.01968730	      0.02700295	      0.05090533
      5.05000000	      0.02005924	      0.02725683	      0.05184845
      5.06666667	      0.02054653	      0.02758591	      0.05289241
      5.08333333	      0.02119652	      0.02801886	      0.05384305
      5.10000000	      0.02208677	      0.02860120	      0.05466901
      5.11666667	      0.02300349	      0.02918872	      0.05529341
      5.13333333	      0.02369832	      0.02962626	      0.05552593
      5.15000000	      0.02420324	      0.02994021	      0.05571473
      5.16666667	      0.02454801	      0.03015270	      0.05865822
      5.18333333	      0.02497412	      0.03041328	      0.06540268
      5.20000000	      0.02530068	      0.03061147	      0.07062054
      5.21666667	      0.02556613	      0.03077164	      0.07399276
      5.23333333	      0.02578775	      0.03090472	      0.07542866
      5.25000000	      0.02598065	      0.03102009	      0.07507722
      5.26666667	      0.02604934	      0.03106108	      0.07284790
      5.28333333	      0.02591838	      0.03098290	      0.06908205
      5.30000000	      0.02568215	      0.03084138	      0.06420605
      5.31666667	      0.02569774	      0.03085074	      0.06258916
      5.33333333	      0.02634014	      0.03123397	      0.06614553
      5.35000000	      0.02766824	      0.03201171	      0.06753785
      5.36666667	      0.02955843	      0.03308711	      0.06618275
      5.38333333	      0.03162814	      0.03422590	      0.06697859
      5.40000000	      0.03336744	      0.03515439	      0.07721336
      5.41666667	      0.03431676	      0.03565096	      0.08648431
      5.43333333	      0.03431341	      0.03564922	      0.09222900
      5.45000000	      0.03361368	      0.03528386	      0.09336610
      5.46666667	      0.03265899	      0.03477919	      0.09000346
      5.48333333	      0.03197212	      0.03441152	      0.08430782
      5.50000000	      0.03168891	      0.03425877	      0.07782015
      5.51666667	      0.03156995	      0.03419441	      0.07191678
      5.53333333	      0.03121427	      0.03400124	      0.06731709
      5.55000000	      0.03031978	      0.03351052	      0.06400964
      5.56666667	      0.02885720	      0.03269228	      0.06374421
      5.58333333	      0.02707735	      0.03166804	      0.06257530
      5.60000000	      0.02537394	      0.03065576	      0.06092740
      5.61666667	      0.02409187	      0.02987125	      0.05909237
      5.63333333	      0.02338384	      0.02942904	      0.05742059
      5.65000000	      0.02313572	      0.02927249	      0.05667352
      5.66666667	      0.02305257	      0.02921984	      0.05670002
      5.68333333	      0.02271229	      0.02900338	      0.05761049
      5.70000000	      0.02189357	      0.02847583	      0.05841144
      5.71666667	      0.02092041	      0.02783577	      0.05921759
      5.73333333	      0.02029045	      0.02741347	      0.06025709
      5.75000000	      0.02024257	      0.02738110	      0.06167073
      5.76666667	      0.02060166	      0.02762290	      0.06360263
      5.78333333	      0.02090904	      0.02782820	      0.06483460
      5.80000000	      0.02111851	      0.02796725	      0.06672353
      5.81666667	      0.02146151	      0.02819345	      0.06838440
      5.83333333	      0.02240992	      0.02880967	      0.07034712
      5.85000000	      0.02381526	      0.02969927	      0.07181289
      5.86666667	      0.02518343	      0.03054046	      0.07235836
      5.88333333	      0.02592451	      0.03098656	      0.07135246
      5.90000000	      0.02557817	      0.03077888	      0.06884910
      5.91666667	      0.02401836	      0.02982564	      0.06451587
      5.93333333	      0.02164961	      0.02831673	      0.05910349
      5.95000000	      0.01938817	      0.02679702	      0.05271730
      5.96666667	      0.01811309	      0.02590088	      0.04671448
      5.98333333	      0.01796041	      0.02579148	      0.04428167
      6.00000000	      0.01853916	      0.02620373	      0.04429505
      6.01666667	      0.01923161	      0.02668861	      0.04443623
      6.03333333	      0.01948485	      0.02686375	      0.04506883
      6.05000000	      0.01905966	      0.02656903	      0.04462687
      6.06666667	      0.01834778	      0.02606813	      0.04464548
      6.08333333	      0.01765495	      0.02557122	      0.04481349
      6.10000000	      0.01714682	      0.02520054	      0.04512202
      6.11666667	      0.01682235	      0.02496097	      0.04522366
      6.13333333	      0.01661843	      0.02480922	      0.04553342
      6.15000000	      0.01658350	      0.02478314	      0.04613331
      6.16666667	      0.01703456	      0.02511791	      0.04742404
      6.18333333	      0.01835155	      0.02607080	      0.04931932
      6.20000000	      0.02051316	      0.02756350	      0.05193584
      6.21666667	      0.02309105	      0.02924421	      0.05716791
      6.23333333	      0.02522155	      0.03056356	      0.06166247
      6.25000000	      0.02647513	      0.03131390	      0.06549605
      6.26666667	      0.02688184	      0.03155351	      0.06838283
      6.28333333	      0.02683016	      0.03152316	      0.07020222
      6.30000000	      0.02667890	      0.03143418	      0.07104224
      6.31666667	      0.02654963	      0.03135793	      0.07104126
      6.33333333	      0.02639345	      0.03126556	      0.07005995
      6.35000000	      0.02619763	      0.03114936	      0.06806239
      6.36666667	      0.02618933	      0.03114443	      0.06504189
      6.38333333	      0.02668626	      0.03143851	      0.06137472
      6.40000000	      0.02770372	      0.03203223	      0.06167974
      6.41666667	      0.02886227	      0.03269515	      0.06873326
      6.43333333	      0.02964802	      0.03313721	      0.07172704
      6.45000000	      0.02950876	      0.03305930	      0.07026328
      6.46666667	      0.02834199	      0.03239912	      0.06380210
      6.48333333	      0.02667733	      0.03143325	      0.05961167
      6.50000000	      0.02535099	      0.03064189	      0.06199707
      6.51666667	      0.02475637	      0.03028040	      0.06520986
      6.53333333	      0.02471825	      0.03025708	      0.06715242
      6.55000000	      0.02484962	      0.03033737	      0.06744418
      6.56666667	      0.02497174	      0.03041183	      0.06650281
      6.58333333	      0.02486090	      0.03034426	      0.06473323
      6.60000000	      0.02451013	      0.03012943	      0.06294657
      6.61666667	      0.02406282	      0.02985323	      0.06157469
      6.63333333	      0.02352139	      0.02951546	      0.06093733
      6.65000000	      0.02283865	      0.02908394	      0.06100059
      6.66666667	      0.02198278	      0.02853379	      0.06187206
      6.68333333	      0.02111101	      0.02796228	      0.06271283
      6.70000000	      0.02031762	      0.02743181	      0.06231413
      6.71666667	      0.01946774	      0.02685195	      0.05991924
      6.73333333	      0.01839000	      0.02609810	      0.05538561
      6.75000000	      0.01735800	      0.02535526	      0.04936478
      6.76666667	      0.01708030	      0.02515161	      0.04856300
      6.78333333	      0.01816702	      0.02593940	      0.05635495
      6.80000000	      0.02053971	      0.02758133	      0.06493817
      6.81666667	      0.02313797	      0.02927391	      0.07115092
      6.83333333	      0.02487135	      0.03035063	      0.07073073
      6.85000000	      0.02535096	      0.03064187	      0.06800321
      6.86666667	      0.02430815	      0.03000503	      0.06435843
      6.88333333	      0.02259178	      0.02892633	      0.05308626
      6.90000000	      0.02130653	      0.02809147	      0.04932647
      6.91666667	      0.02101247	      0.02789695	      0.05419183
      6.93333333	      0.02154882	      0.02825074	      0.05800729
      6.95000000	      0.02235697	      0.02877561	      0.06039226
      6.96666667	      0.02292043	      0.02913597	      0.06146700
      6.98333333	      0.02298175	      0.02917492	      0.06161116
      7.00000000	      0.02263172	      0.02895189	      0.06113058
      7.01666667	      0.02213312	      0.02863119	      0.06046523
      7.03333333	      0.02169119	      0.02834391	      0.05970515
      7.05000000	      0.02142738	      0.02817103	      0.05966241
      7.06666667	      0.02146594	      0.02819636	      0.05977476
      7.08333333	      0.02175220	      0.02838375	      0.06001289
      7.10000000	      0.02225330	      0.02870882	      0.06040557
      7.11666667	      0.02289768	      0.02912151	      0.06073016
      7.13333333	      0.02349500	      0.02949890	      0.06115901
      7.15000000	      0.02373169	      0.02964712	      0.06073557
      7.16666667	      0.02349424	      0.02949843	      0.05931555
      7.18333333	      0.02306771	      0.02922943	      0.05774652
      7.20000000	      0.02267314	      0.02897837	      0.05638678
      7.21666667	      0.02225089	      0.02870726	      0.05513739
      7.23333333	      0.02216670	      0.02865291	      0.05484665
      7.25000000	      0.02240986	      0.02880963	      0.05516436
      7.26666667	      0.02299405	      0.02918273	      0.05664576
      7.28333333	      0.02380449	      0.02969255	      0.05848033
      7.30000000	      0.02441194	      0.03006902	      0.05989171
      7.31666667	      0.02431703	      0.03001051	      0.05985233
      7.33333333	      0.02362516	      0.02958050	      0.05719728
      7.35000000	      0.02261003	      0.02893801	      0.05635145
      7.36666667	      0.02227238	      0.02872112	      0.05706436
      7.38333333	      0.02320880	      0.02931868	      0.06947051
      7.40000000	      0.02493075	      0.03038686	      0.07701636
      7.41666667	      0.02608586	      0.03108284	      0.07657223
      7.43333333	      0.02627804	      0.03119713	      0.07732801
      7.45000000	      0.02574859	      0.03088125	      0.07552894
      7.46666667	      0.02490095	      0.03036869	      0.07414426
      7.48333333	      0.02409850	      0.02987536	      0.07339318
      7.50000000	      0.02357955	      0.02955193	      0.07128020
      7.51666667	      0.02321812	      0.02932457	      0.07080400
      7.53333333	      0.02274684	      0.02902543	      0.07036251
      7.55000000	      0.02164224	      0.02831191	      0.06711181
      7.56666667	      0.01983038	      0.02710089	      0.06476041
      7.58333333	      0.01784158	      0.02570602	      0.06342290
      7.60000000	      0.01655043	      0.02475841	      0.06168846
      7.61666667	      0.01652199	      0.02473713	      0.06034901
      7.63333333	      0.01761790	      0.02554437	      0.05891544
      7.65000000	      0.01932229	      0.02675146	      0.05777478
      7.66666667	      0.02102154	      0.02790297	      0.05827279
      7.68333333	      0.02220860	      0.02867997	      0.06380173
      7.70000000	      0.02258398	      0.02892134	      0.06629195
      7.71666667	      0.02221838	      0.02868629	      0.06603944
      7.73333333	      0.02156789	      0.02826324	      0.06424525
      7.75000000	      0.02112037	      0.02796848	      0.06177101
      7.76666667	      0.02099936	      0.02788824	      0.05891851
      7.78333333	      0.02109288	      0.02795027	      0.05597024
      7.80000000	      0.02127269	      0.02806916	      0.05593972
      7.81666667	      0.02149479	      0.02821530	      0.05597174
      7.83333333	      0.02175720	      0.02838701	      0.05562083
      7.85000000	      0.02210332	      0.02861191	      0.05948539
      7.86666667	      0.02264055	      0.02895753	      0.06416655
      7.88333333	      0.02353771	      0.02952570	      0.06981824
      7.90000000	      0.02458997	      0.03017846	      0.07504060
      7.91666667	      0.02213192	      0.02863042	      0.06784938
      7.93333333	      0.02205839	      0.02858281	      0.06081182
      7.95000000	      0.02210057	      0.02861013	      0.05156360
      7.96666667	      0.02256872	      0.02891156	      0.04955204
      7.98333333	      0.02359682	      0.02956275	      0.04836612
      8.00000000	      0.02485685	      0.03034179	      0.04733272
      8.01666667	      0.02597285	      0.03101544	      0.04656947
      8.03333333	      0.02679452	      0.03150222	      0.04681128
      8.05000000	      0.02739866	      0.03185538	      0.04703289
      8.06666667	      0.02785683	      0.03212062	      0.04823406
      8.08333333	      0.02814700	      0.03228748	      0.05067582
      8.10000000	      0.02822791	      0.03233386	      0.05201290
      8.11666667	      0.02809165	      0.03225572	      0.05176424
      8.13333333	      0.02784720	      0.03211507	      0.05013260
      8.15000000	      0.02757345	      0.03195683	      0.04907850
      8.16666667	      0.02733693	      0.03181948	      0.04872455
      8.18333333	      0.02714903	      0.03170993	      0.04896353
      8.20000000	      0.02691899	      0.03157530	      0.04900400
      8.21666667	      0.02651151	      0.03133541	      0.04861680
      8.23333333	      0.02587880	      0.03095923	      0.04813920
      8.25000000	      0.02512736	      0.03050644	      0.04701200
      8.26666667	      0.02438222	      0.03005071	      0.04577403
      8.28333333	      0.02342668	      0.02945598	      0.04501945
      8.30000000	      0.02270135	      0.02899639	      0.04391594
      8.31666667	      0.02219441	      0.02867081	      0.04614568
      8.33333333	      0.02211198	      0.02861752	      0.04884963
      8.35000000	      0.02232636	      0.02875591	      0.05552187
      8.36666667	      0.02299143	      0.02918106	      0.06169324
      8.38333333	      0.02397383	      0.02979798	      0.06681153
      8.40000000	      0.02403666	      0.02983700	      0.06898291
      8.41666667	      0.02458169	      0.03017338	      0.06994020
      8.43333333	      0.02503068	      0.03044770	      0.07001625
      8.45000000	      0.02534553	      0.03063859	      0.06992019
      8.46666667	      0.02546820	      0.03071265	      0.07013105
      8.48333333	      0.02537911	      0.03065888	      0.07101469
      8.50000000	      0.02500004	      0.03042905	      0.07033264
      8.51666667	      0.02466985	      0.03022744	      0.07011317
      8.53333333	      0.02439899	      0.03006104	      0.06956026
      8.55000000	      0.02410388	      0.02987869	      0.06829976
      8.56666667	      0.02384288	      0.02971649	      0.06676930
      8.58333333	      0.02364125	      0.02959057	      0.06554244
      8.60000000	      0.02329071	      0.02937038	      0.06292684
      8.61666667	      0.02314365	      0.02927750	      0.06138019
      8.63333333	      0.02300081	      0.02918701	      0.06019221
      8.65000000	      0.02279978	      0.02905919	      0.05957190
      8.66666667	      0.02257310	      0.02891437	      0.05917822
      8.68333333	      0.02236911	      0.02878343	      0.05960054
      8.70000000	      0.02226993	      0.02871955	      0.06014932
      8.71666667	      0.02072200	      0.02770345	      0.04915099
      8.73333333	      0.02058876	      0.02761425	      0.04857467
      8.75000000	      0.02044098	      0.02751497	      0.04808771
      8.76666667	      0.02033335	      0.02744243	      0.04786200
      8.78333333	      0.02029898	      0.02741923	      0.04787232
      8.80000000	      0.02062864	      0.02764098	      0.04884397
