Model Marker Errors from IK
version=1
nRows=471
nColumns=4
inDegrees=no
endheader
time	total_squared_error	marker_error_RMS	marker_error_max
      0.00000000	      0.03874561	      0.03788169	      0.06201252
      0.01666667	      0.03758394	      0.03730949	      0.05907590
      0.03333333	      0.03710787	      0.03707244	      0.05897723
      0.05000000	      0.03691190	      0.03697442	      0.05943798
      0.06666667	      0.03663138	      0.03683365	      0.06124354
      0.08333333	      0.03654945	      0.03679243	      0.06115132
      0.10000000	      0.03654151	      0.03678844	      0.06234170
      0.11666667	      0.03650322	      0.03676916	      0.06182556
      0.13333333	      0.03659345	      0.03681457	      0.06148544
      0.15000000	      0.03673718	      0.03688680	      0.06161332
      0.16666667	      0.03704445	      0.03704075	      0.06187921
      0.18333333	      0.03751746	      0.03727648	      0.06252426
      0.20000000	      0.03813771	      0.03758334	      0.06242823
      0.21666667	      0.03870300	      0.03786086	      0.06295410
      0.23333333	      0.03912600	      0.03806719	      0.06436044
      0.25000000	      0.03939488	      0.03819777	      0.06358328
      0.26666667	      0.03948505	      0.03824146	      0.06356077
      0.28333333	      0.03933374	      0.03816812	      0.06304677
      0.30000000	      0.03902775	      0.03801937	      0.06262496
      0.31666667	      0.03869801	      0.03785842	      0.06220121
      0.33333333	      0.03843148	      0.03772782	      0.06159682
      0.35000000	      0.03830220	      0.03766431	      0.06150783
      0.36666667	      0.03822191	      0.03762481	      0.06112504
      0.38333333	      0.03822819	      0.03762790	      0.06116399
      0.40000000	      0.03830534	      0.03766585	      0.06108730
      0.41666667	      0.03837817	      0.03770164	      0.06104805
      0.43333333	      0.03836079	      0.03769310	      0.06106962
      0.45000000	      0.03832476	      0.03767540	      0.06079699
      0.46666667	      0.03822933	      0.03762846	      0.06020943
      0.48333333	      0.03814118	      0.03758505	      0.06014621
      0.50000000	      0.03807728	      0.03755356	      0.05991013
      0.51666667	      0.03788107	      0.03745668	      0.05989926
      0.53333333	      0.03777486	      0.03740413	      0.05970465
      0.55000000	      0.03767034	      0.03735235	      0.06036872
      0.56666667	      0.03747917	      0.03725745	      0.05994388
      0.58333333	      0.03722636	      0.03713158	      0.05980306
      0.60000000	      0.03678113	      0.03690886	      0.05963868
      0.61666667	      0.03609467	      0.03656282	      0.05980688
      0.63333333	      0.03545603	      0.03623791	      0.05956234
      0.65000000	      0.03488302	      0.03594389	      0.05950660
      0.66666667	      0.03445892	      0.03572473	      0.06042980
      0.68333333	      0.03421216	      0.03559659	      0.06027665
      0.70000000	      0.03407101	      0.03552308	      0.06028454
      0.71666667	      0.03409397	      0.03553505	      0.06011699
      0.73333333	      0.03417174	      0.03557555	      0.06018139
      0.75000000	      0.03417275	      0.03557608	      0.06031184
      0.76666667	      0.03410235	      0.03553942	      0.05992730
      0.78333333	      0.03408251	      0.03552907	      0.06008099
      0.80000000	      0.03415693	      0.03556784	      0.06017304
      0.81666667	      0.03438885	      0.03568839	      0.06087582
      0.83333333	      0.03457257	      0.03578360	      0.06099970
      0.85000000	      0.03450534	      0.03574878	      0.06091244
      0.86666667	      0.03403481	      0.03550420	      0.06049758
      0.88333333	      0.03318782	      0.03505964	      0.05996734
      0.90000000	      0.03221339	      0.03454111	      0.05984877
      0.91666667	      0.03108905	      0.03393297	      0.05910995
      0.93333333	      0.03028513	      0.03349136	      0.05910841
      0.95000000	      0.02978135	      0.03321164	      0.05923969
      0.96666667	      0.02965751	      0.03314251	      0.06016480
      0.98333333	      0.02958970	      0.03310460	      0.05969358
      1.00000000	      0.02980371	      0.03322410	      0.06001360
      1.01666667	      0.03005150	      0.03336193	      0.06026939
      1.03333333	      0.03011398	      0.03339660	      0.05994665
      1.05000000	      0.03008372	      0.03337981	      0.05955554
      1.06666667	      0.03013120	      0.03340614	      0.05931740
      1.08333333	      0.03040665	      0.03355849	      0.06003352
      1.10000000	      0.03061684	      0.03367428	      0.05963590
      1.11666667	      0.03039038	      0.03354951	      0.06070332
      1.13333333	      0.02951290	      0.03306161	      0.06156789
      1.15000000	      0.02810656	      0.03226428	      0.06213854
      1.16666667	      0.02626331	      0.03118838	      0.06159500
      1.18333333	      0.02450224	      0.03012458	      0.06098665
      1.20000000	      0.02317979	      0.02930035	      0.06160785
      1.21666667	      0.02277012	      0.02904028	      0.06444512
      1.23333333	      0.02357034	      0.02954616	      0.07021393
      1.25000000	      0.02572717	      0.03086840	      0.07857161
      1.26666667	      0.02906157	      0.03280784	      0.08818886
      1.28333333	      0.03278981	      0.03484878	      0.09681806
      1.30000000	      0.03607954	      0.03655516	      0.10311901
      1.31666667	      0.03861987	      0.03782018	      0.10676846
      1.33333333	      0.04078225	      0.03886455	      0.10857248
      1.35000000	      0.04305150	      0.03993119	      0.10961379
      1.36666667	      0.04548554	      0.04104449	      0.11001061
      1.38333333	      0.04748460	      0.04193672	      0.10859601
      1.40000000	      0.04790279	      0.04212099	      0.10445946
      1.41666667	      0.04579510	      0.04118392	      0.09670775
      1.43333333	      0.04125446	      0.03908891	      0.08772635
      1.45000000	      0.03510320	      0.03605715	      0.07750119
      1.46666667	      0.02881887	      0.03267056	      0.06723624
      1.48333333	      0.02368643	      0.02961883	      0.05754247
      1.50000000	      0.02037384	      0.02746974	      0.04990946
      1.51666667	      0.01884736	      0.02642064	      0.04734267
      1.53333333	      0.01860335	      0.02624906	      0.04686509
      1.55000000	      0.01890462	      0.02646075	      0.04839303
      1.56666667	      0.01917752	      0.02665105	      0.05271798
      1.58333333	      0.01934701	      0.02676856	      0.05603483
      1.60000000	      0.01950566	      0.02687809	      0.05682442
      1.61666667	      0.01965984	      0.02698411	      0.05523865
      1.63333333	      0.01981452	      0.02709006	      0.05230028
      1.65000000	      0.02002010	      0.02723023	      0.04936157
      1.66666667	      0.02030160	      0.02742099	      0.04705001
      1.68333333	      0.02069716	      0.02768685	      0.04660610
      1.70000000	      0.02107498	      0.02793841	      0.04775966
      1.71666667	      0.02125048	      0.02805450	      0.04774917
      1.73333333	      0.02106465	      0.02793156	      0.04682637
      1.75000000	      0.02041680	      0.02749869	      0.04778296
      1.76666667	      0.01946265	      0.02684844	      0.04848939
      1.78333333	      0.01848887	      0.02616817	      0.04863043
      1.80000000	      0.01763472	      0.02555656	      0.04793422
      1.81666667	      0.01697979	      0.02507750	      0.04665423
      1.83333333	      0.01653350	      0.02474575	      0.04485323
      1.85000000	      0.01625672	      0.02453774	      0.04400908
      1.86666667	      0.01603200	      0.02436755	      0.04440551
      1.88333333	      0.01588455	      0.02425524	      0.04550349
      1.90000000	      0.01585320	      0.02423129	      0.04674523
      1.91666667	      0.01602006	      0.02435848	      0.04804348
      1.93333333	      0.01638507	      0.02463442	      0.04932152
      1.95000000	      0.01675693	      0.02491239	      0.04985243
      1.96666667	      0.01686965	      0.02499604	      0.04909633
      1.98333333	      0.01661814	      0.02480900	      0.04622032
      2.00000000	      0.01607068	      0.02439693	      0.04475585
      2.01666667	      0.01538123	      0.02386787	      0.04375705
      2.03333333	      0.01465860	      0.02330045	      0.04234004
      2.05000000	      0.01416645	      0.02290597	      0.04114369
      2.06666667	      0.01415344	      0.02289544	      0.04191655
      2.08333333	      0.01501029	      0.02357831	      0.04361480
      2.10000000	      0.01663932	      0.02482481	      0.04550690
      2.11666667	      0.01840699	      0.02611016	      0.04718410
      2.13333333	      0.01962372	      0.02695931	      0.05020916
      2.15000000	      0.02023384	      0.02737520	      0.05098333
      2.16666667	      0.02057307	      0.02760372	      0.05010431
      2.18333333	      0.02126796	      0.02806603	      0.04930051
      2.20000000	      0.02271609	      0.02900580	      0.05384979
      2.21666667	      0.02473730	      0.03026874	      0.06004803
      2.23333333	      0.02634157	      0.03123482	      0.06579116
      2.25000000	      0.02628112	      0.03119895	      0.06878987
      2.26666667	      0.02450161	      0.03012419	      0.06777761
      2.28333333	      0.02224758	      0.02870513	      0.06319948
      2.30000000	      0.02038874	      0.02747978	      0.05640065
      2.31666667	      0.01906291	      0.02657130	      0.05076110
      2.33333333	      0.01788567	      0.02573776	      0.04879437
      2.35000000	      0.01665897	      0.02483946	      0.04723737
      2.36666667	      0.01567027	      0.02409108	      0.04548681
      2.38333333	      0.01497826	      0.02355314	      0.04459262
      2.40000000	      0.01450044	      0.02317441	      0.04359568
      2.41666667	      0.01449048	      0.02316645	      0.04247099
      2.43333333	      0.01526829	      0.02378008	      0.04135807
      2.45000000	      0.01658958	      0.02478768	      0.04032631
      2.46666667	      0.01777716	      0.02565957	      0.04208423
      2.48333333	      0.01829406	      0.02602994	      0.04390038
      2.50000000	      0.01825685	      0.02600346	      0.04481492
      2.51666667	      0.01814405	      0.02592300	      0.04531250
      2.53333333	      0.01814002	      0.02592012	      0.04966394
      2.55000000	      0.01838130	      0.02609193	      0.05089057
      2.56666667	      0.01921756	      0.02667886	      0.04991951
      2.58333333	      0.02098985	      0.02788193	      0.04937270
      2.60000000	      0.02342486	      0.02945484	      0.05039731
      2.61666667	      0.02555432	      0.03076453	      0.05125446
      2.63333333	      0.02635836	      0.03124477	      0.05301570
      2.65000000	      0.02594359	      0.03099796	      0.05761434
      2.66666667	      0.02548594	      0.03072334	      0.06348923
      2.68333333	      0.02583885	      0.03093533	      0.06962175
      2.70000000	      0.02699033	      0.03161712	      0.07413690
      2.71666667	      0.02812559	      0.03227520	      0.07608276
      2.73333333	      0.02801068	      0.03220920	      0.07378477
      2.75000000	      0.02699875	      0.03162205	      0.06964526
      2.76666667	      0.02540183	      0.03067260	      0.06417938
      2.78333333	      0.02339429	      0.02943561	      0.05975614
      2.80000000	      0.02113655	      0.02797919	      0.05665612
      2.81666667	      0.01885070	      0.02642299	      0.05272940
      2.83333333	      0.01693435	      0.02504393	      0.04877645
      2.85000000	      0.01567982	      0.02409843	      0.04479397
      2.86666667	      0.01473680	      0.02336252	      0.04142819
      2.88333333	      0.01443325	      0.02312066	      0.04491300
      2.90000000	      0.01471961	      0.02334889	      0.04880660
      2.91666667	      0.01514812	      0.02368631	      0.05204304
      2.93333333	      0.01563035	      0.02406038	      0.05404426
      2.95000000	      0.01643978	      0.02467551	      0.05470066
      2.96666667	      0.01766971	      0.02558190	      0.05430550
      2.98333333	      0.01862342	      0.02626321	      0.05299623
      3.00000000	      0.01890976	      0.02646434	      0.05239125
      3.01666667	      0.01887187	      0.02643782	      0.05275177
      3.03333333	      0.01829438	      0.02603017	      0.05324554
      3.05000000	      0.01801387	      0.02582983	      0.05297875
      3.06666667	      0.01858753	      0.02623789	      0.05226570
      3.08333333	      0.01926900	      0.02671454	      0.05108229
      3.10000000	      0.01938985	      0.02679819	      0.05288782
      3.11666667	      0.01885273	      0.02642440	      0.05033569
      3.13333333	      0.01785631	      0.02571662	      0.04775926
      3.15000000	      0.01690175	      0.02501981	      0.04679507
      3.16666667	      0.01657498	      0.02477677	      0.04666276
      3.18333333	      0.01686041	      0.02498919	      0.04758385
      3.20000000	      0.01741166	      0.02539442	      0.04878526
      3.21666667	      0.01789177	      0.02574215	      0.05011368
      3.23333333	      0.01813800	      0.02591867	      0.05042798
      3.25000000	      0.01794808	      0.02578262	      0.04882753
      3.26666667	      0.01717004	      0.02521760	      0.04542062
      3.28333333	      0.01581455	      0.02420174	      0.04143036
      3.30000000	      0.01448413	      0.02316138	      0.03965845
      3.31666667	      0.01402707	      0.02279301	      0.03975037
      3.33333333	      0.01482992	      0.02343622	      0.04050674
      3.35000000	      0.01655967	      0.02476532	      0.04244919
      3.36666667	      0.01840829	      0.02611108	      0.04536896
      3.38333333	      0.01981716	      0.02709186	      0.04870106
      3.40000000	      0.02059787	      0.02762036	      0.05228434
      3.41666667	      0.02093086	      0.02784272	      0.05682396
      3.43333333	      0.02133140	      0.02810786	      0.06140316
      3.45000000	      0.02169216	      0.02834455	      0.06449141
      3.46666667	      0.02168827	      0.02834201	      0.06637430
      3.48333333	      0.02137646	      0.02813753	      0.06710550
      3.50000000	      0.02108239	      0.02794332	      0.06703340
      3.51666667	      0.02109621	      0.02795248	      0.06687252
      3.53333333	      0.02156984	      0.02826452	      0.06690668
      3.55000000	      0.02254156	      0.02889416	      0.06782215
      3.56666667	      0.02388920	      0.02974534	      0.06928380
      3.58333333	      0.02544338	      0.03069768	      0.07109882
      3.60000000	      0.02705839	      0.03165695	      0.07295350
      3.61666667	      0.02850495	      0.03249214	      0.07437345
      3.63333333	      0.02958751	      0.03310338	      0.07501024
      3.65000000	      0.03026751	      0.03348162	      0.07459646
      3.66666667	      0.03064011	      0.03368708	      0.07369296
      3.68333333	      0.03100393	      0.03388648	      0.07256377
      3.70000000	      0.03144960	      0.03412916	      0.07144791
      3.71666667	      0.03188284	      0.03436344	      0.07061255
      3.73333333	      0.03226721	      0.03456996	      0.07002712
      3.75000000	      0.03254794	      0.03472001	      0.06964434
      3.76666667	      0.03272076	      0.03481207	      0.06950773
      3.78333333	      0.03282002	      0.03486483	      0.06960304
      3.80000000	      0.03279317	      0.03485056	      0.06968931
      3.81666667	      0.03270677	      0.03480462	      0.06917373
      3.83333333	      0.03244486	      0.03466499	      0.06882873
      3.85000000	      0.03199074	      0.03442154	      0.06807501
      3.86666667	      0.03123426	      0.03401212	      0.06677813
      3.88333333	      0.03020787	      0.03344862	      0.06559155
      3.90000000	      0.02898968	      0.03276724	      0.06559978
      3.91666667	      0.02771094	      0.03203640	      0.06693281
      3.93333333	      0.02672445	      0.03146100	      0.06891264
      3.95000000	      0.02613847	      0.03111417	      0.07059657
      3.96666667	      0.02591163	      0.03097886	      0.07161718
      3.98333333	      0.02561871	      0.03080326	      0.07400510
      4.00000000	      0.02520812	      0.03055542	      0.07429923
      4.01666667	      0.02483775	      0.03033013	      0.07568665
      4.03333333	      0.02479372	      0.03030323	      0.07572141
      4.05000000	      0.02516090	      0.03052680	      0.07532566
      4.06666667	      0.02566710	      0.03083234	      0.07483254
      4.08333333	      0.02609139	      0.03108613	      0.07459456
      4.10000000	      0.02646326	      0.03130688	      0.07452391
      4.11666667	      0.02703157	      0.03164126	      0.07481746
      4.13333333	      0.02777311	      0.03207232	      0.07513630
      4.15000000	      0.02817193	      0.03230178	      0.07478679
      4.16666667	      0.02785838	      0.03212152	      0.07439914
      4.18333333	      0.02691759	      0.03157448	      0.07360607
      4.20000000	      0.02583747	      0.03093450	      0.07279584
      4.21666667	      0.02526552	      0.03059019	      0.07218792
      4.23333333	      0.02558349	      0.03078208	      0.07179368
      4.25000000	      0.02659776	      0.03138634	      0.07193342
      4.26666667	      0.02771197	      0.03203700	      0.07257673
      4.28333333	      0.02846794	      0.03247103	      0.07339476
      4.30000000	      0.02892976	      0.03273336	      0.07416257
      4.31666667	      0.02932230	      0.03295468	      0.07467540
      4.33333333	      0.02976708	      0.03320368	      0.07503941
      4.35000000	      0.03017466	      0.03343023	      0.07506822
      4.36666667	      0.03037487	      0.03354095	      0.07525400
      4.38333333	      0.03017864	      0.03343243	      0.07535055
      4.40000000	      0.02954549	      0.03307986	      0.07495481
      4.41666667	      0.02844135	      0.03245587	      0.07409807
      4.43333333	      0.02697758	      0.03160964	      0.07282170
      4.45000000	      0.02543094	      0.03069017	      0.07129145
      4.46666667	      0.02412629	      0.02989258	      0.06992824
      4.48333333	      0.02331490	      0.02938562	      0.06936763
      4.50000000	      0.02318286	      0.02930229	      0.06954203
      4.51666667	      0.02380849	      0.02969505	      0.07026654
      4.53333333	      0.02497678	      0.03041490	      0.07125869
      4.55000000	      0.02634690	      0.03123798	      0.07205755
      4.56666667	      0.02765282	      0.03200279	      0.07251886
      4.58333333	      0.02879668	      0.03265798	      0.07295930
      4.60000000	      0.02957758	      0.03309782	      0.07249877
      4.61666667	      0.03016661	      0.03342577	      0.07235689
      4.63333333	      0.03065192	      0.03369357	      0.07194442
      4.65000000	      0.03138904	      0.03409629	      0.07222007
      4.66666667	      0.03230406	      0.03458969	      0.07201121
      4.68333333	      0.03318849	      0.03506000	      0.07237687
      4.70000000	      0.03356159	      0.03525651	      0.07249922
      4.71666667	      0.03313260	      0.03503046	      0.07213111
      4.73333333	      0.03207272	      0.03446561	      0.07162598
      4.75000000	      0.03063122	      0.03368219	      0.07079648
      4.76666667	      0.02920917	      0.03289105	      0.06925670
      4.78333333	      0.02817752	      0.03230498	      0.06684255
      4.80000000	      0.02767319	      0.03201457	      0.06448385
      4.81666667	      0.02771970	      0.03204147	      0.06438788
      4.83333333	      0.02819848	      0.03231699	      0.06818881
      4.85000000	      0.02884826	      0.03268722	      0.07512413
      4.86666667	      0.02927561	      0.03292844	      0.08083323
      4.88333333	      0.02924289	      0.03291003	      0.08286707
      4.90000000	      0.02865999	      0.03258038	      0.07970479
      4.91666667	      0.02739532	      0.03185344	      0.07052037
      4.93333333	      0.02573116	      0.03087079	      0.05869018
      4.95000000	      0.02394643	      0.02978095	      0.05698642
      4.96666667	      0.02248119	      0.02885544	      0.05675522
      4.98333333	      0.02139812	      0.02815179	      0.05650696
      5.00000000	      0.02061313	      0.02763058	      0.05753977
      5.01666667	      0.02012097	      0.02729874	      0.05805673
      5.03333333	      0.01992275	      0.02716394	      0.05918626
      5.05000000	      0.02028709	      0.02741120	      0.05977617
      5.06666667	      0.02087236	      0.02780379	      0.06051720
      5.08333333	      0.02137718	      0.02813801	      0.06158852
      5.10000000	      0.02202997	      0.02856439	      0.06267584
      5.11666667	      0.02315518	      0.02928480	      0.06299668
      5.13333333	      0.02432215	      0.03001367	      0.06319610
      5.15000000	      0.02466744	      0.03022596	      0.06273268
      5.16666667	      0.02379056	      0.02968386	      0.06267609
      5.18333333	      0.02222046	      0.02868763	      0.06299529
      5.20000000	      0.02092059	      0.02783589	      0.06219317
      5.21666667	      0.02050841	      0.02756031	      0.06267690
      5.23333333	      0.02088307	      0.02781092	      0.06321075
      5.25000000	      0.02151476	      0.02822841	      0.06267792
      5.26666667	      0.02193871	      0.02850517	      0.06152831
      5.28333333	      0.02203076	      0.02856491	      0.05945801
      5.30000000	      0.02196875	      0.02852468	      0.05973499
      5.31666667	      0.02186736	      0.02845878	      0.06038374
      5.33333333	      0.02197326	      0.02852761	      0.06032122
      5.35000000	      0.02248489	      0.02885782	      0.05993605
      5.36666667	      0.02345848	      0.02947597	      0.05875668
      5.38333333	      0.02499264	      0.03042455	      0.05734162
      5.40000000	      0.02691228	      0.03157137	      0.05733004
      5.41666667	      0.02903032	      0.03279020	      0.05703938
      5.43333333	      0.03130079	      0.03404833	      0.06240155
      5.45000000	      0.03178506	      0.03431071	      0.06841130
      5.46666667	      0.03249223	      0.03469028	      0.06953152
      5.48333333	      0.03194003	      0.03439424	      0.06550125
      5.50000000	      0.03021536	      0.03345276	      0.05763233
      5.51666667	      0.02791101	      0.03215185	      0.05786460
      5.53333333	      0.02556597	      0.03077154	      0.05759151
      5.55000000	      0.02347325	      0.02948524	      0.05678005
      5.56666667	      0.02186619	      0.02845802	      0.05650193
      5.58333333	      0.02101288	      0.02789722	      0.05691310
      5.60000000	      0.02116642	      0.02799896	      0.05708523
      5.61666667	      0.02167255	      0.02833173	      0.05705411
      5.63333333	      0.02133222	      0.02810840	      0.05698599
      5.65000000	      0.02047819	      0.02754000	      0.05707480
      5.66666667	      0.01932831	      0.02675562	      0.05739783
      5.68333333	      0.01823312	      0.02598655	      0.05838022
      5.70000000	      0.01800303	      0.02582206	      0.05981383
      5.71666667	      0.01891308	      0.02646667	      0.06129688
      5.73333333	      0.02002708	      0.02723497	      0.06232529
      5.75000000	      0.02034201	      0.02744828	      0.06223623
      5.76666667	      0.02014892	      0.02731769	      0.06127835
      5.78333333	      0.02048710	      0.02754599	      0.05950021
      5.80000000	      0.02202381	      0.02856041	      0.05753904
      5.81666667	      0.02450394	      0.03012562	      0.05578016
      5.83333333	      0.02695425	      0.03159598	      0.05509546
      5.85000000	      0.02816849	      0.03229981	      0.05521629
      5.86666667	      0.02757241	      0.03195623	      0.05406733
      5.88333333	      0.02557753	      0.03077850	      0.05307808
      5.90000000	      0.02304599	      0.02921567	      0.05218759
      5.91666667	      0.02095287	      0.02785736	      0.05159242
      5.93333333	      0.01973846	      0.02703801	      0.05137680
      5.95000000	      0.01904117	      0.02655614	      0.05180705
      5.96666667	      0.01840285	      0.02610722	      0.05255799
      5.98333333	      0.01802676	      0.02583907	      0.05334155
      6.00000000	      0.01818378	      0.02595137	      0.05377771
      6.01666667	      0.01847106	      0.02615556	      0.05352013
      6.03333333	      0.01827411	      0.02601574	      0.05258487
      6.05000000	      0.01771948	      0.02561791	      0.05107730
      6.06666667	      0.01743722	      0.02541304	      0.05258291
      6.08333333	      0.01779929	      0.02567553	      0.05358289
      6.10000000	      0.01848558	      0.02616584	      0.05471904
      6.11666667	      0.01902743	      0.02654655	      0.05491058
      6.13333333	      0.01930023	      0.02673618	      0.05466254
      6.15000000	      0.01977393	      0.02706230	      0.05385796
      6.16666667	      0.02091911	      0.02783490	      0.05324687
      6.18333333	      0.02248701	      0.02885918	      0.05397464
      6.20000000	      0.02366305	      0.02960421	      0.05461165
      6.21666667	      0.02406259	      0.02985309	      0.05335192
      6.23333333	      0.02395012	      0.02978324	      0.05391827
      6.25000000	      0.02384964	      0.02972070	      0.05497497
      6.26666667	      0.02394624	      0.02978083	      0.05596118
      6.28333333	      0.02385927	      0.02972670	      0.05573326
      6.30000000	      0.02349916	      0.02950151	      0.05507556
      6.31666667	      0.02309780	      0.02924849	      0.05490951
      6.33333333	      0.02278727	      0.02905122	      0.05472100
      6.35000000	      0.02257756	      0.02891723	      0.05442783
      6.36666667	      0.02244649	      0.02883317	      0.05395831
      6.38333333	      0.02238288	      0.02879229	      0.05389509
      6.40000000	      0.02235799	      0.02877627	      0.05392077
      6.41666667	      0.02236102	      0.02877822	      0.05469900
      6.43333333	      0.02238332	      0.02879257	      0.05576059
      6.45000000	      0.02228325	      0.02872813	      0.05658579
      6.46666667	      0.02182949	      0.02843413	      0.05684568
      6.48333333	      0.02099576	      0.02788585	      0.05658269
      6.50000000	      0.02013374	      0.02730740	      0.05619588
      6.51666667	      0.01946385	      0.02684927	      0.05493817
      6.53333333	      0.01928548	      0.02672596	      0.05433475
      6.55000000	      0.01950085	      0.02687478	      0.05438275
      6.56666667	      0.02002649	      0.02723457	      0.05521322
      6.58333333	      0.02076886	      0.02773476	      0.05648798
      6.60000000	      0.02157507	      0.02826794	      0.05788022
      6.61666667	      0.02246403	      0.02884443	      0.05854457
      6.63333333	      0.02329022	      0.02937007	      0.05810885
      6.65000000	      0.02392749	      0.02976917	      0.05713436
      6.66666667	      0.02446400	      0.03010106	      0.05781393
      6.68333333	      0.02501658	      0.03043912	      0.05944739
      6.70000000	      0.02563255	      0.03081158	      0.06079318
      6.71666667	      0.02622011	      0.03116272	      0.06151952
      6.73333333	      0.02645437	      0.03130162	      0.06056996
      6.75000000	      0.02603442	      0.03105218	      0.05720165
      6.76666667	      0.02496133	      0.03040549	      0.05754057
      6.78333333	      0.02363094	      0.02958411	      0.05815939
      6.80000000	      0.02242640	      0.02882026	      0.05847707
      6.81666667	      0.02124485	      0.02805078	      0.05875780
      6.83333333	      0.01996081	      0.02718987	      0.05916754
      6.85000000	      0.01888747	      0.02644874	      0.05953513
      6.86666667	      0.01829297	      0.02602917	      0.06011951
      6.88333333	      0.01825643	      0.02600316	      0.06131513
      6.90000000	      0.01875267	      0.02635419	      0.06333946
      6.91666667	      0.01977363	      0.02706209	      0.06477956
      6.93333333	      0.02083516	      0.02777900	      0.06563595
      6.95000000	      0.02106073	      0.02792896	      0.06609836
      6.96666667	      0.02026881	      0.02739885	      0.06634934
      6.98333333	      0.01897350	      0.02650891	      0.06598989
      7.00000000	      0.01784902	      0.02571138	      0.06475439
      7.01666667	      0.01739704	      0.02538375	      0.06264218
      7.03333333	      0.01754295	      0.02548997	      0.06037979
      7.05000000	      0.01787874	      0.02573277	      0.05788259
      7.06666667	      0.01817361	      0.02594410	      0.05565305
      7.08333333	      0.01842456	      0.02612261	      0.05362984
      7.10000000	      0.01860288	      0.02624873	      0.05223701
      7.11666667	      0.01880640	      0.02639192	      0.05060139
      7.13333333	      0.01891396	      0.02646728	      0.04885913
      7.15000000	      0.01889057	      0.02645091	      0.04691889
      7.16666667	      0.01891390	      0.02646724	      0.04754680
      7.18333333	      0.01928566	      0.02672609	      0.04995044
      7.20000000	      0.01987516	      0.02713147	      0.05184159
      7.21666667	      0.02043831	      0.02751317	      0.05250758
      7.23333333	      0.02085004	      0.02778891	      0.05167898
      7.25000000	      0.02143474	      0.02817586	      0.04998668
      7.26666667	      0.02306269	      0.02922625	      0.04881745
      7.28333333	      0.02653711	      0.03135053	      0.06725676
      7.30000000	      0.03197608	      0.03441365	      0.08598200
      7.31666667	      0.03854293	      0.03778248	      0.10023132
      7.33333333	      0.04480767	      0.04073749	      0.10799820
      7.35000000	      0.04932030	      0.04273965	      0.10934055
      7.36666667	      0.05124908	      0.04356735	      0.10614458
      7.38333333	      0.05044996	      0.04322635	      0.10028105
      7.40000000	      0.04746772	      0.04192927	      0.09336665
      7.41666667	      0.04352223	      0.04014890	      0.08856105
      7.43333333	      0.04002247	      0.03850083	      0.08437321
      7.45000000	      0.03797142	      0.03750132	      0.08289915
      7.46666667	      0.03758932	      0.03731216	      0.08354109
      7.48333333	      0.03871946	      0.03786891	      0.08578005
      7.50000000	      0.04090646	      0.03892370	      0.08861074
      7.51666667	      0.04361866	      0.04019336	      0.09096277
      7.53333333	      0.04625410	      0.04138979	      0.09194294
      7.55000000	      0.04842801	      0.04235127	      0.09160603
      7.56666667	      0.04996322	      0.04301732	      0.09096512
      7.58333333	      0.05062475	      0.04330116	      0.09033258
      7.60000000	      0.05034381	      0.04318085	      0.08866754
      7.61666667	      0.04935577	      0.04275502	      0.08760595
      7.63333333	      0.04811992	      0.04221634	      0.08749497
      7.65000000	      0.04680961	      0.04163759	      0.08544561
      7.66666667	      0.04599146	      0.04127211	      0.08263003
      7.68333333	      0.04608484	      0.04131399	      0.08000144
      7.70000000	      0.04696447	      0.04170641	      0.07724616
      7.71666667	      0.04784621	      0.04209610	      0.07470941
      7.73333333	      0.04761069	      0.04199237	      0.07185327
      7.75000000	      0.04599189	      0.04127231	      0.06994821
      7.76666667	      0.04341906	      0.04010129	      0.06813407
      7.78333333	      0.04108802	      0.03900998	      0.06775012
      7.80000000	      0.03945799	      0.03822836	      0.06773619
      7.81666667	      0.03901945	      0.03801532	      0.06856703
      7.83333333	      0.04065024	      0.03880160	      0.06979152
