Model Marker Errors from IK
version=1
nRows=689
nColumns=4
inDegrees=no
endheader
time	total_squared_error	marker_error_RMS	marker_error_max
      0.00000000	      0.02623247	      0.03117006	      0.07257247
      0.01694915	      0.02595671	      0.03100580	      0.07104820
      0.03389831	      0.02597035	      0.03101394	      0.06868246
      0.05084746	      0.02560375	      0.03079427	      0.06560632
      0.06779661	      0.02481624	      0.03031699	      0.06228352
      0.08474576	      0.02307442	      0.02923368	      0.05883054
      0.10169492	      0.02233734	      0.02876297	      0.05621495
      0.11864407	      0.02181604	      0.02842537	      0.05289145
      0.13559322	      0.02132590	      0.02810424	      0.04886081
      0.15254237	      0.02036859	      0.02746620	      0.04701467
      0.16949153	      0.01864733	      0.02628006	      0.04288629
      0.18644068	      0.01667252	      0.02484957	      0.04107538
      0.20338983	      0.01543109	      0.02390652	      0.03983238
      0.22033898	      0.01549705	      0.02395756	      0.03966732
      0.23728814	      0.01674272	      0.02490182	      0.04051066
      0.25423729	      0.01845065	      0.02614110	      0.04186925
      0.27118644	      0.01988383	      0.02713739	      0.04443669
      0.28813559	      0.02053356	      0.02757720	      0.04555971
      0.30508475	      0.02048044	      0.02754151	      0.04541632
      0.32203390	      0.02014014	      0.02731174	      0.04499401
      0.33898305	      0.01983047	      0.02710096	      0.04485303
      0.35593220	      0.01974516	      0.02704260	      0.04525973
      0.37288136	      0.01972020	      0.02702550	      0.04559828
      0.38983051	      0.01958256	      0.02693102	      0.04571881
      0.40677966	      0.01940688	      0.02680995	      0.04498954
      0.42372881	      0.01930090	      0.02673665	      0.04362141
      0.44067797	      0.01936011	      0.02677762	      0.04177615
      0.45762712	      0.01955869	      0.02691460	      0.03966520
      0.47457627	      0.01955071	      0.02690911	      0.03907880
      0.49152542	      0.01926514	      0.02671186	      0.03840050
      0.50847458	      0.01876409	      0.02636222	      0.03793261
      0.52542373	      0.01839788	      0.02610370	      0.03789964
      0.54237288	      0.01826391	      0.02600848	      0.03782569
      0.55932203	      0.01839301	      0.02610024	      0.03758191
      0.57627119	      0.01859479	      0.02624302	      0.03749746
      0.59322034	      0.01863998	      0.02627488	      0.03715418
      0.61016949	      0.01852205	      0.02619164	      0.03670860
      0.62711864	      0.01822331	      0.02597956	      0.03741205
      0.64406780	      0.01803287	      0.02584345	      0.03781785
      0.66101695	      0.01791951	      0.02576210	      0.03790284
      0.67796610	      0.01786848	      0.02572539	      0.03819138
      0.69491525	      0.01759128	      0.02552506	      0.03850161
      0.71186441	      0.01743664	      0.02541262	      0.03886283
      0.72881356	      0.01729999	      0.02531285	      0.04025333
      0.74576271	      0.01720282	      0.02524166	      0.04147626
      0.76271186	      0.01710789	      0.02517192	      0.04242133
      0.77966102	      0.01693660	      0.02504558	      0.04363308
      0.79661017	      0.01662990	      0.02481778	      0.04416815
      0.81355932	      0.01641431	      0.02465639	      0.04488184
      0.83050847	      0.01648764	      0.02471140	      0.04530713
      0.84745763	      0.01696748	      0.02506841	      0.04552207
      0.86440678	      0.01784173	      0.02570613	      0.04568912
      0.88135593	      0.01889195	      0.02645188	      0.04579702
      0.89830508	      0.01977130	      0.02706049	      0.04749214
      0.91525424	      0.02013907	      0.02731101	      0.04915420
      0.93220339	      0.01992047	      0.02716239	      0.04695826
      0.94915254	      0.01929591	      0.02673319	      0.04633067
      0.96610169	      0.01856486	      0.02622189	      0.04675516
      0.98305085	      0.01799796	      0.02581842	      0.04706849
      1.00000000	      0.01779706	      0.02567393	      0.04797866
      1.01694915	      0.01812422	      0.02590883	      0.04920383
      1.03389831	      0.01863625	      0.02627226	      0.04888224
      1.05084746	      0.01911419	      0.02660701	      0.04836482
      1.06779661	      0.01935439	      0.02677367	      0.04736481
      1.08474576	      0.01932719	      0.02675485	      0.04627074
      1.10169492	      0.01905355	      0.02656477	      0.04545936
      1.11864407	      0.01870274	      0.02631908	      0.04407467
      1.13559322	      0.01846713	      0.02615278	      0.04327833
      1.15254237	      0.01853863	      0.02620336	      0.04332507
      1.16949153	      0.01892688	      0.02647632	      0.04346902
      1.18644068	      0.01955199	      0.02690999	      0.04370916
      1.20338983	      0.02018134	      0.02733966	      0.04455873
      1.22033898	      0.02049726	      0.02755282	      0.04467189
      1.23728814	      0.02041086	      0.02749468	      0.04501131
      1.25423729	      0.01999038	      0.02721001	      0.04474530
      1.27118644	      0.01957315	      0.02692455	      0.04434796
      1.28813559	      0.01932716	      0.02675483	      0.04378910
      1.30508475	      0.01913626	      0.02662237	      0.04347104
      1.32203390	      0.01879763	      0.02638576	      0.04341812
      1.33898305	      0.01831229	      0.02604291	      0.04352189
      1.35593220	      0.01797101	      0.02579909	      0.04387370
      1.37288136	      0.01815115	      0.02592807	      0.04422039
      1.38983051	      0.01901098	      0.02653508	      0.04465106
      1.40677966	      0.02030476	      0.02742313	      0.04548595
      1.42372881	      0.02156297	      0.02826002	      0.04610010
      1.44067797	      0.02258720	      0.02892340	      0.04758840
      1.45762712	      0.02347488	      0.02948627	      0.04837696
      1.47457627	      0.02425079	      0.02996961	      0.05085181
      1.49152542	      0.02471212	      0.03025332	      0.05503608
      1.50847458	      0.02471906	      0.03025757	      0.05926558
      1.52542373	      0.02432235	      0.03001379	      0.06241907
      1.54237288	      0.02350662	      0.02950620	      0.06328902
      1.55932203	      0.02223019	      0.02869391	      0.06059638
      1.57627119	      0.02067367	      0.02767113	      0.05414060
      1.59322034	      0.01931049	      0.02674328	      0.04515497
      1.61016949	      0.01859265	      0.02624151	      0.04337636
      1.62711864	      0.01860504	      0.02625025	      0.04509245
      1.64406780	      0.01919198	      0.02666110	      0.04670786
      1.66101695	      0.02012756	      0.02730321	      0.04827780
      1.67796610	      0.02115554	      0.02799176	      0.04971886
      1.69491525	      0.02206416	      0.02858655	      0.05107783
      1.71186441	      0.02270130	      0.02899636	      0.05236195
      1.72881356	      0.02305508	      0.02922143	      0.05346755
      1.74576271	      0.02315966	      0.02928763	      0.05416307
      1.76271186	      0.02308732	      0.02924185	      0.05379378
      1.77966102	      0.02297266	      0.02916915	      0.05566548
      1.79661017	      0.02300022	      0.02918664	      0.05953693
      1.81355932	      0.02332607	      0.02939266	      0.06256896
      1.83050847	      0.02380355	      0.02969197	      0.06427276
      1.84745763	      0.02356324	      0.02954171	      0.06460522
      1.86440678	      0.02341020	      0.02944562	      0.06425435
      1.88135593	      0.02316272	      0.02928956	      0.06373295
      1.89830508	      0.02263953	      0.02895688	      0.06240564
      1.91525424	      0.02185837	      0.02845293	      0.06002352
      1.93220339	      0.02101963	      0.02790170	      0.05730970
      1.94915254	      0.02053538	      0.02757842	      0.05591230
      1.96610169	      0.02048487	      0.02754449	      0.05673325
      1.98305085	      0.02044336	      0.02751657	      0.05955663
      2.00000000	      0.02015303	      0.02732048	      0.06375244
      2.01694915	      0.01965243	      0.02697902	      0.06775976
      2.03389831	      0.01964353	      0.02697292	      0.07220867
      2.05084746	      0.02024410	      0.02738214	      0.07677227
      2.06779661	      0.02103936	      0.02791479	      0.07890556
      2.08474576	      0.02157560	      0.02826829	      0.07880920
      2.10169492	      0.02138421	      0.02814263	      0.07634733
      2.11864407	      0.02065991	      0.02766192	      0.07374218
      2.13559322	      0.01994183	      0.02717694	      0.07173955
      2.15254237	      0.01951760	      0.02688632	      0.07077608
      2.16949153	      0.01939348	      0.02680069	      0.06920473
      2.18644068	      0.01938915	      0.02679770	      0.06694391
      2.20338983	      0.01941446	      0.02681518	      0.06531906
      2.22033898	      0.01944662	      0.02683739	      0.06527662
      2.23728814	      0.01964171	      0.02697167	      0.06632606
      2.25423729	      0.02004008	      0.02724381	      0.06755011
      2.27118644	      0.02030663	      0.02742439	      0.06730148
      2.28813559	      0.02023658	      0.02737705	      0.06490284
      2.30508475	      0.01987555	      0.02713175	      0.06147232
      2.32203390	      0.01942648	      0.02682349	      0.05835342
      2.33898305	      0.01925696	      0.02670619	      0.05695535
      2.35593220	      0.01960999	      0.02694988	      0.05779234
      2.37288136	      0.02081328	      0.02776440	      0.06287362
      2.38983051	      0.02293121	      0.02914282	      0.07221694
      2.40677966	      0.02548085	      0.03072027	      0.08334362
      2.42372881	      0.02733189	      0.03181654	      0.09221733
      2.44067797	      0.02758369	      0.03196276	      0.09625117
      2.45762712	      0.02631274	      0.03121772	      0.09429447
      2.47457627	      0.02448557	      0.03011433	      0.08802822
      2.49152542	      0.02301791	      0.02919787	      0.07964428
      2.50847458	      0.02233116	      0.02875900	      0.07168783
      2.52542373	      0.02230943	      0.02874500	      0.06514316
      2.54237288	      0.02265188	      0.02896478	      0.05987294
      2.55932203	      0.02299024	      0.02918031	      0.05471853
      2.57627119	      0.02326299	      0.02935289	      0.04985176
      2.59322034	      0.02367685	      0.02961284	      0.04923103
      2.61016949	      0.02446213	      0.03009991	      0.04888096
      2.62711864	      0.02565229	      0.03082344	      0.04917032
      2.64406780	      0.02708362	      0.03167171	      0.05391344
      2.66101695	      0.02853218	      0.03250765	      0.05805883
      2.67796610	      0.03001449	      0.03334138	      0.06166358
      2.69491525	      0.03173203	      0.03428207	      0.06483024
      2.71186441	      0.03328947	      0.03511329	      0.06726653
      2.72881356	      0.03505541	      0.03603260	      0.06928465
      2.74576271	      0.03673281	      0.03688461	      0.07115547
      2.76271186	      0.03850827	      0.03776549	      0.07191178
      2.77966102	      0.04002281	      0.03850099	      0.07173954
      2.79661017	      0.04120340	      0.03906471	      0.07191756
      2.81355932	      0.04182993	      0.03936060	      0.07090922
      2.83050847	      0.04199953	      0.03944031	      0.07037471
      2.84745763	      0.04165036	      0.03927602	      0.07048663
      2.86440678	      0.04115050	      0.03903963	      0.07417845
      2.88135593	      0.04059591	      0.03877566	      0.07804406
      2.89830508	      0.04027998	      0.03862449	      0.08214916
      2.91525424	      0.04035545	      0.03866066	      0.08591146
      2.93220339	      0.04075141	      0.03884986	      0.08880396
      2.94915254	      0.04142149	      0.03916796	      0.09049812
      2.96610169	      0.04212187	      0.03949771	      0.09053929
      2.98305085	      0.04295935	      0.03988843	      0.08964229
      3.00000000	      0.04400984	      0.04037318	      0.08850139
      3.01694915	      0.04530600	      0.04096340	      0.08707069
      3.03389831	      0.04669757	      0.04158774	      0.08596022
      3.05084746	      0.04809331	      0.04220466	      0.08673935
      3.06779661	      0.04942249	      0.04278391	      0.08655928
      3.08474576	      0.04760620	      0.04199039	      0.08570426
      3.10169492	      0.04791206	      0.04212506	      0.08577342
      3.11864407	      0.04785316	      0.04209916	      0.08561007
      3.13559322	      0.04742631	      0.04191098	      0.08493752
      3.15254237	      0.04677187	      0.04162081	      0.08423370
      3.16949153	      0.04614063	      0.04133899	      0.08362287
      3.18644068	      0.04560691	      0.04109921	      0.08321487
      3.20338983	      0.04513134	      0.04088436	      0.08310372
      3.22033898	      0.04484062	      0.04075247	      0.08264516
      3.23728814	      0.04465812	      0.04066945	      0.08221090
      3.25423729	      0.04464384	      0.04066295	      0.08156398
      3.27118644	      0.04474791	      0.04071032	      0.08094505
      3.28813559	      0.04487058	      0.04076608	      0.08071562
      3.30508475	      0.04482763	      0.04074656	      0.08102258
      3.32203390	      0.04455604	      0.04062295	      0.08152163
      3.33898305	      0.04412220	      0.04042469	      0.08200371
      3.35593220	      0.04372809	      0.04024374	      0.08240422
      3.37288136	      0.04356773	      0.04016988	      0.08278225
      3.38983051	      0.04373403	      0.04024648	      0.08433918
      3.40677966	      0.04426455	      0.04048985	      0.08628733
      3.42372881	      0.04482946	      0.04074739	      0.08821548
      3.44067797	      0.04538196	      0.04099772	      0.08989050
      3.45762712	      0.04578445	      0.04117912	      0.09101530
      3.47457627	      0.04592500	      0.04124228	      0.09029137
      3.49152542	      0.04596454	      0.04126004	      0.08890687
      3.50847458	      0.04591280	      0.04123681	      0.08720117
      3.52542373	      0.04546196	      0.04103384	      0.08177770
      3.54237288	      0.04498626	      0.04081860	      0.08132087
      3.55932203	      0.04490698	      0.04078261	      0.08166944
      3.57627119	      0.04579287	      0.04118291	      0.08179152
      3.59322034	      0.04742034	      0.04190834	      0.08162062
      3.61016949	      0.04911390	      0.04265013	      0.08122750
      3.62711864	      0.05034930	      0.04318320	      0.08085979
      3.64406780	      0.05114620	      0.04352360	      0.07987285
      3.66101695	      0.05190185	      0.04384393	      0.07873507
      3.67796610	      0.05280362	      0.04422318	      0.07782988
      3.69491525	      0.05369030	      0.04459293	      0.07727489
      3.71186441	      0.05407388	      0.04475194	      0.07695729
      3.72881356	      0.05382936	      0.04465065	      0.07609490
      3.74576271	      0.05299292	      0.04430238	      0.07421191
      3.76271186	      0.05170938	      0.04376257	      0.07140177
      3.77966102	      0.05014114	      0.04309384	      0.06765551
      3.79661017	      0.04911325	      0.04264985	      0.06375949
      3.81355932	      0.04909840	      0.04264340	      0.06497818
      3.83050847	      0.04969439	      0.04290143	      0.06728592
      3.84745763	      0.04978620	      0.04294104	      0.07111300
      3.86440678	      0.04883801	      0.04253017	      0.07346044
      3.88135593	      0.04813501	      0.04222296	      0.07510533
      3.89830508	      0.04897688	      0.04259059	      0.07362844
      3.91525424	      0.05194224	      0.04386099	      0.08968093
      3.93220339	      0.05621665	      0.04563001	      0.10241488
      3.94915254	      0.06047268	      0.04732578	      0.11077415
      3.96610169	      0.06392343	      0.04865732	      0.11617335
      3.98305085	      0.06677749	      0.04973168	      0.11919023
      4.00000000	      0.06973984	      0.05082280	      0.12134972
      4.01694915	      0.07313319	      0.05204456	      0.12372486
      4.03389831	      0.07641212	      0.05319848	      0.12669071
      4.05084746	      0.07862629	      0.05396374	      0.12888078
      4.06779661	      0.07907970	      0.05411911	      0.12836634
      4.08474576	      0.07717250	      0.05346252	      0.12670315
      4.10169492	      0.07708143	      0.05343096	      0.11891034
      4.11864407	      0.07912860	      0.05413584	      0.11098666
      4.13559322	      0.08144209	      0.05492152	      0.12868760
      4.15254237	      0.08295763	      0.05543018	      0.14362225
      4.16949153	      0.08329438	      0.05554257	      0.15015493
      4.18644068	      0.08473821	      0.05602189	      0.14665683
      4.20338983	      0.09739266	      0.06005943	      0.13347758
      4.22033898	      0.13763735	      0.07139804	      0.19815808
      4.23728814	      0.20811980	      0.08779602	      0.27610664
      4.25423729	      0.29260611	      0.10410218	      0.34673898
      4.27118644	      0.37170538	      0.11733229	      0.40731933
      4.28813559	      0.42360615	      0.12525620	      0.44521825
      4.30508475	      0.44033350	      0.12770532	      0.45656838
      4.32203390	      0.43379185	      0.12675316	      0.45101406
      4.33898305	      0.42177287	      0.12498487	      0.44199264
      4.35593220	      0.41515040	      0.12399976	      0.43722931
      4.37288136	      0.41506260	      0.12398665	      0.43735261
      4.38983051	      0.41815729	      0.12444801	      0.43992834
      4.40677966	      0.42237615	      0.12507422	      0.44302831
      4.42372881	      0.42713358	      0.12577664	      0.44612821
      4.44067797	      0.43223059	      0.12652486	      0.44963820
      4.45762712	      0.43709909	      0.12723543	      0.45310035
      4.47457627	      0.44129421	      0.12784455	      0.45592059
      4.49152542	      0.44419924	      0.12826466	      0.45703570
      4.50847458	      0.44626390	      0.12856241	      0.45717356
      4.52542373	      0.44735997	      0.12872019	      0.46216526
      4.54237288	      0.44731281	      0.12871341	      0.46287504
      4.55932203	      0.44694713	      0.12866078	      0.46372348
      4.57627119	      0.44623694	      0.12855852	      0.46424668
      4.59322034	      0.44513762	      0.12840007	      0.46467327
      4.61016949	      0.44372614	      0.12819634	      0.46499591
      4.62711864	      0.44231608	      0.12799249	      0.46519713
      4.64406780	      0.44129294	      0.12784437	      0.46554342
      4.66101695	      0.44048175	      0.12772681	      0.46534401
      4.67796610	      0.44033799	      0.12770597	      0.46569426
      4.69491525	      0.44046182	      0.12772392	      0.46602533
      4.71186441	      0.44114223	      0.12782254	      0.46659605
      4.72881356	      0.44198274	      0.12794425	      0.46700527
      4.74576271	      0.44266809	      0.12804341	      0.46751851
      4.76271186	      0.44320064	      0.12812041	      0.46761459
      4.77966102	      0.44374955	      0.12819972	      0.46791764
      4.79661017	      0.44438675	      0.12829173	      0.46818414
      4.81355932	      0.44534797	      0.12843041	      0.46853368
      4.83050847	      0.44683702	      0.12864494	      0.46862097
      4.84745763	      0.44860365	      0.12889899	      0.46900734
      4.86440678	      0.45008313	      0.12911137	      0.46918458
      4.88135593	      0.45065736	      0.12919370	      0.46928903
      4.89830508	      0.45004884	      0.12910645	      0.46931497
      4.91525424	      0.44846402	      0.12887893	      0.46919864
      4.93220339	      0.44641885	      0.12858473	      0.46907068
      4.94915254	      0.44422455	      0.12826832	      0.46892465
      4.96610169	      0.44220598	      0.12797656	      0.46889111
      4.98305085	      0.44055401	      0.12773729	      0.46894800
      5.00000000	      0.43957804	      0.12759572	      0.46907706
      5.01694915	      0.43915975	      0.12753500	      0.46912767
      5.03389831	      0.43915576	      0.12753442	      0.46865888
      5.05084746	      0.43922374	      0.12754429	      0.46790136
      5.06779661	      0.43939738	      0.12756950	      0.46729753
      5.08474576	      0.43982600	      0.12763170	      0.46758349
      5.10169492	      0.44067073	      0.12775421	      0.46908394
      5.11864407	      0.44181325	      0.12791972	      0.47139763
      5.13559322	      0.44309442	      0.12810505	      0.47379518
      5.15254237	      0.44429326	      0.12827824	      0.47557676
      5.16949153	      0.44519145	      0.12840784	      0.47676810
      5.18644068	      0.44601141	      0.12852603	      0.47761140
      5.20338983	      0.44722365	      0.12870058	      0.47822971
      5.22033898	      0.44972395	      0.12905984	      0.47881371
      5.23728814	      0.45398712	      0.12967011	      0.47943640
      5.25423729	      0.45994058	      0.13051757	      0.48029700
      5.27118644	      0.46724413	      0.13154976	      0.48131153
      5.28813559	      0.47556596	      0.13271607	      0.48242898
      5.30508475	      0.48438659	      0.13394120	      0.48339300
      5.32203390	      0.49343899	      0.13518697	      0.48392327
      5.33898305	      0.50229015	      0.13639406	      0.48371577
      5.35593220	      0.50300831	      0.13649153	      0.46513114
      5.37288136	      0.51178810	      0.13767758	      0.46777004
      5.38983051	      0.52229026	      0.13908301	      0.47130376
      5.40677966	      0.53262321	      0.14045208	      0.47699689
      5.42372881	      0.53881732	      0.14126640	      0.48383388
      5.44067797	      0.53955379	      0.14136291	      0.48253955
      5.45762712	      0.53811527	      0.14117434	      0.48096207
      5.47457627	      0.53726435	      0.14106268	      0.48094884
      5.49152542	      0.53836512	      0.14120711	      0.48273504
      5.50847458	      0.54102324	      0.14155528	      0.48492230
      5.52542373	      0.52913225	      0.13999104	      0.43399064
      5.54237288	      0.52546014	      0.13950443	      0.43888255
      5.55932203	      0.52457982	      0.13938753	      0.44580421
      5.57627119	      0.52592677	      0.13956636	      0.45543790
      5.59322034	      0.52769053	      0.13980019	      0.46524457
      5.61016949	      0.51872364	      0.13860731	      0.46988527
      5.62711864	      0.48147396	      0.13353789	      0.45444148
      5.64406780	      0.40740586	      0.12283772	      0.40865552
      5.66101695	      0.31121059	      0.10736069	      0.33417317
      5.67796610	      0.22047932	      0.09036537	      0.25412478
      5.69491525	      0.14965401	      0.07444959	      0.16973451
      5.71186441	      0.11013043	      0.06386631	      0.13092365
      5.72881356	      0.09591911	      0.05960335	      0.13073864
      5.74576271	      0.09442876	      0.05913849	      0.13043157
      5.76271186	      0.09488800	      0.05928212	      0.13061143
      5.77966102	      0.09561774	      0.05950964	      0.13128872
      5.79661017	      0.09895016	      0.06053776	      0.13286445
      5.81355932	      0.10529003	      0.06244702	      0.13491624
      5.83050847	      0.11319986	      0.06475019	      0.13710500
      5.84745763	      0.12085736	      0.06690440	      0.13878819
      5.86440678	      0.12641243	      0.06842472	      0.13990589
      5.88135593	      0.12825177	      0.06892072	      0.13972555
      5.89830508	      0.13000042	      0.06938898	      0.13888728
      5.91525424	      0.13234983	      0.07001318	      0.14269752
      5.93220339	      0.13658117	      0.07112357	      0.14697512
      5.94915254	      0.14545424	      0.07339751	      0.15007492
      5.96610169	      0.16412600	      0.07796628	      0.15254578
      5.98305085	      0.19235270	      0.08440482	      0.17071432
      6.00000000	      0.17606860	      0.08075307	      0.16999870
      6.01694915	      0.19498188	      0.08497971	      0.20068297
      6.03389831	      0.19978033	      0.08601902	      0.20464346
      6.05084746	      0.19039617	      0.08397446	      0.18324693
      6.06779661	      0.17433922	      0.08035551	      0.16163195
      6.08474576	      0.16015504	      0.07701732	      0.16192429
      6.10169492	      0.15096048	      0.07477385	      0.16327914
      6.11864407	      0.14570890	      0.07346173	      0.16573309
      6.13559322	      0.14308005	      0.07279603	      0.16847731
      6.15254237	      0.14229677	      0.07259649	      0.17143512
      6.16949153	      0.14324758	      0.07283863	      0.17446920
      6.18644068	      0.14656262	      0.07367663	      0.17777096
      6.20338983	      0.15283207	      0.07523594	      0.18143105
      6.22033898	      0.16141547	      0.07731980	      0.18526045
      6.23728814	      0.16858633	      0.07901859	      0.18911005
      6.25423729	      0.17133775	      0.07966080	      0.19259850
      6.27118644	      0.17237864	      0.07990240	      0.19590538
      6.28813559	      0.17475808	      0.08045198	      0.19884882
      6.30508475	      0.18070326	      0.08180900	      0.20122043
      6.32203390	      0.18992722	      0.08387098	      0.20284107
      6.33898305	      0.20093590	      0.08626744	      0.20405406
      6.35593220	      0.21280734	      0.08877924	      0.20538119
      6.37288136	      0.22578259	      0.09144571	      0.20664710
      6.38983051	      0.24012212	      0.09430489	      0.20780842
      6.40677966	      0.25406363	      0.09700394	      0.20784529
      6.42372881	      0.26385164	      0.09885486	      0.21957547
      6.44067797	      0.26577486	      0.09921448	      0.22060653
      6.45762712	      0.26018383	      0.09816536	      0.20510582
      6.47457627	      0.25233343	      0.09667307	      0.20430602
      6.49152542	      0.24575771	      0.09540512	      0.20821860
      6.50847458	      0.22504286	      0.09129579	      0.21037096
      6.52542373	      0.21603953	      0.08945090	      0.20703595
      6.54237288	      0.21127889	      0.08845984	      0.19596350
      6.55932203	      0.21774566	      0.08980342	      0.20535496
      6.57627119	      0.23152219	      0.09260073	      0.23389007
      6.59322034	      0.24949711	      0.09612821	      0.24643022
      6.61016949	      0.25863621	      0.09787297	      0.24044358
      6.62711864	      0.25310259	      0.09682030	      0.21313820
      6.64406780	      0.24114593	      0.09450572	      0.18729883
      6.66101695	      0.22705540	      0.09170310	      0.21624320
      6.67796610	      0.21724115	      0.08969932	      0.23664824
      6.69491525	      0.20027032	      0.08612444	      0.26654187
      6.71186441	      0.20628167	      0.08740745	      0.27646244
      6.72881356	      0.21643829	      0.08953342	      0.28421321
      6.74576271	      0.22618818	      0.09152781	      0.28868165
      6.76271186	      0.23341065	      0.09297763	      0.28906166
      6.77966102	      0.23713566	      0.09371661	      0.28634215
      6.79661017	      0.23696654	      0.09368318	      0.28141520
      6.81355932	      0.23381705	      0.09305853	      0.27474582
      6.83050847	      0.23027337	      0.09235065	      0.26782911
      6.84745763	      0.22767346	      0.09182783	      0.26127791
      6.86440678	      0.22576038	      0.09144121	      0.25537944
      6.88135593	      0.22229136	      0.09073595	      0.25087000
      6.89830508	      0.21564842	      0.08936990	      0.24656999
      6.91525424	      0.21634397	      0.08951391	      0.24439394
      6.93220339	      0.20850205	      0.08787661	      0.22823296
      6.94915254	      0.20482122	      0.08709748	      0.23197725
      6.96610169	      0.19963304	      0.08598730	      0.23374478
      6.98305085	      0.19325906	      0.08460345	      0.23428234
      7.00000000	      0.18631822	      0.08307030	      0.23347481
      7.01694915	      0.17980731	      0.08160594	      0.23262978
      7.03389831	      0.17487578	      0.08047907	      0.23232064
      7.05084746	      0.16795395	      0.07887025	      0.23179441
      7.06779661	      0.16528763	      0.07824170	      0.23049793
      7.08474576	      0.16347312	      0.07781105	      0.22712754
      7.10169492	      0.16192416	      0.07744153	      0.22191041
      7.11864407	      0.15961638	      0.07688770	      0.21458211
      7.13559322	      0.15537463	      0.07585919	      0.20542017
      7.15254237	      0.14824609	      0.07409856	      0.19327482
      7.16949153	      0.13963815	      0.07191511	      0.17883405
      7.18644068	      0.13149849	      0.06978764	      0.16268494
      7.20338983	      0.11759602	      0.06599552	      0.14227360
      7.22033898	      0.10140997	      0.06128560	      0.12661339
      7.23728814	      0.09175364	      0.05829479	      0.11360628
      7.25423729	      0.08992566	      0.05771118	      0.10941153
      7.27118644	      0.09334639	      0.05879859	      0.12914799
      7.28813559	      0.09822174	      0.06031453	      0.13790249
      7.30508475	      0.10241781	      0.06158939	      0.13414518
      7.32203390	      0.10657352	      0.06282649	      0.12221021
      7.33898305	      0.11195440	      0.06439301	      0.10933248
      7.35593220	      0.11892572	      0.06636759	      0.13000927
      7.37288136	      0.12831476	      0.06893764	      0.15082620
      7.38983051	      0.14258855	      0.07267089	      0.17297058
      7.40677966	      0.16497780	      0.07816834	      0.19993898
      7.42372881	      0.19730652	      0.08548479	      0.23308019
      7.44067797	      0.23648239	      0.09358743	      0.26633957
      7.45762712	      0.27055231	      0.10010223	      0.28636105
      7.47457627	      0.28553993	      0.10283751	      0.28159160
      7.49152542	      0.25428974	      0.09704709	      0.25558503
      7.50847458	      0.22548669	      0.09138577	      0.25235830
      7.52542373	      0.19202953	      0.08433389	      0.23962726
      7.54237288	      0.16439286	      0.07802964	      0.21952341
      7.55932203	      0.15040506	      0.07463617	      0.19279786
      7.57627119	      0.14486212	      0.07324796	      0.16229042
      7.59322034	      0.13808079	      0.07151296	      0.13147981
      7.61016949	      0.12614014	      0.06835098	      0.12484251
      7.62711864	      0.11310333	      0.06472258	      0.12952540
      7.64406780	      0.10442608	      0.06219029	      0.13362959
      7.66101695	      0.10037932	      0.06097338	      0.13524720
      7.67796610	      0.09585597	      0.05958373	      0.13247222
      7.69491525	      0.08816074	      0.05714204	      0.12518492
      7.71186441	      0.08023680	      0.05451361	      0.11037683
      7.72881356	      0.07802727	      0.05375778	      0.11293977
      7.74576271	      0.08213427	      0.05515442	      0.11723129
      7.76271186	      0.09055963	      0.05791425	      0.12178652
      7.77966102	      0.10194114	      0.06144589	      0.12307399
      7.79661017	      0.11631102	      0.06563395	      0.11699548
      7.81355932	      0.13202452	      0.06992708	      0.10965304
      7.83050847	      0.14822315	      0.07409282	      0.12543881
      7.84745763	      0.16609665	      0.07843295	      0.12867250
      7.86440678	      0.18784010	      0.08340888	      0.14137481
      7.88135593	      0.21213946	      0.08863982	      0.15995236
      7.89830508	      0.23216653	      0.09272950	      0.16622786
      7.91525424	      0.24930390	      0.09609099	      0.17613345
      7.93220339	      0.26332133	      0.09875546	      0.18941141
      7.94915254	      0.27248441	      0.10045902	      0.19861702
      7.96610169	      0.27561215	      0.10103394	      0.20503376
      7.98305085	      0.27374444	      0.10069103	      0.21004919
      8.00000000	      0.27101459	      0.10018771	      0.21478066
      8.01694915	      0.27297989	      0.10055032	      0.22144476
      8.03389831	      0.28092246	      0.10200263	      0.22820425
      8.05084746	      0.29154975	      0.10391409	      0.23444831
      8.06779661	      0.30236229	      0.10582345	      0.23973507
      8.08474576	      0.31470328	      0.10796146	      0.24455949
      8.10169492	      0.32964303	      0.11049435	      0.25099110
      8.11864407	      0.34591774	      0.11318908	      0.25643195
      8.13559322	      0.36352841	      0.11603454	      0.26193023
      8.15254237	      0.38084911	      0.11876667	      0.26642221
      8.16949153	      0.39773876	      0.12137160	      0.28455651
      8.18644068	      0.42201284	      0.12502042	      0.30047832
      8.20338983	      0.45346304	      0.12959524	      0.31509324
      8.22033898	      0.48914595	      0.13459761	      0.33581493
      8.23728814	      0.51670898	      0.13833788	      0.34983589
      8.25423729	      0.53088914	      0.14022325	      0.35796118
      8.27118644	      0.53219794	      0.14039599	      0.36127758
      8.28813559	      0.52564161	      0.13952852	      0.36354496
      8.30508475	      0.51736137	      0.13842519	      0.36720608
      8.32203390	      0.51217806	      0.13773002	      0.37264159
      8.33898305	      0.51267962	      0.13779744	      0.37879231
      8.35593220	      0.51838718	      0.13856235	      0.38516301
      8.37288136	      0.52792280	      0.13983096	      0.39275960
      8.38983051	      0.54097448	      0.14154890	      0.40349012
      8.40677966	      0.56191647	      0.14426268	      0.42022598
      8.42372881	      0.59781541	      0.14879957	      0.44572339
      8.44067797	      0.65020422	      0.15518259	      0.47777159
      8.45762712	      0.70486494	      0.16157385	      0.50584885
      8.47457627	      0.73506647	      0.16499904	      0.51523464
      8.49152542	      0.72471346	      0.16383296	      0.49785401
      8.50847458	      0.68470529	      0.15924652	      0.45811291
      8.52542373	      0.64846231	      0.15497459	      0.41348346
      8.54237288	      0.64242817	      0.15425186	      0.38214142
      8.55932203	      0.65085573	      0.15526032	      0.37139998
      8.57627119	      0.63092660	      0.15286482	      0.35540318
      8.59322034	      0.54828105	      0.14250160	      0.32941157
      8.61016949	      0.41503810	      0.12398299	      0.28701433
      8.62711864	      0.27602967	      0.10111044	      0.22991768
      8.64406780	      0.17106717	      0.07959787	      0.16402603
      8.66101695	      0.11404866	      0.06499250	      0.16493241
      8.67796610	      0.09465568	      0.05920951	      0.16889758
      8.69491525	      0.09292966	      0.05866719	      0.17085352
      8.71186441	      0.09443952	      0.05914186	      0.17258460
      8.72881356	      0.09486145	      0.05927383	      0.17332668
      8.74576271	      0.09470359	      0.05922449	      0.17142574
      8.76271186	      0.09396794	      0.05899402	      0.16745744
      8.77966102	      0.09298192	      0.05868369	      0.16216869
      8.79661017	      0.09174166	      0.05829099	      0.15675590
      8.81355932	      0.08980242	      0.05767162	      0.15069739
      8.83050847	      0.08705961	      0.05678406	      0.14377893
      8.84745763	      0.08327794	      0.05553709	      0.13851966
      8.86440678	      0.07812495	      0.05379142	      0.13612501
      8.88135593	      0.07185211	      0.05158672	      0.13109195
      8.89830508	      0.06504127	      0.04908091	      0.12349133
      8.91525424	      0.05787462	      0.04629799	      0.11298435
      8.93220339	      0.05065726	      0.04331506	      0.09974616
      8.94915254	      0.04395158	      0.04034646	      0.09085018
      8.96610169	      0.03841254	      0.03771852	      0.08562537
      8.98305085	      0.03419256	      0.03558639	      0.08040959
      9.00000000	      0.03113080	      0.03395574	      0.07511291
      9.01694915	      0.02903968	      0.03279548	      0.06983708
      9.03389831	      0.02774797	      0.03205780	      0.06480874
      9.05084746	      0.02694338	      0.03158960	      0.05977474
      9.06779661	      0.02618866	      0.03114402	      0.05482566
      9.08474576	      0.02482592	      0.03032291	      0.05320402
      9.10169492	      0.02271258	      0.02900356	      0.05112669
      9.11864407	      0.02062496	      0.02763851	      0.04993038
      9.13559322	      0.01937769	      0.02678978	      0.05102105
      9.15254237	      0.01988978	      0.02714145	      0.05785188
      9.16949153	      0.02256955	      0.02891209	      0.06584833
      9.18644068	      0.02716331	      0.03171827	      0.07158532
      9.20338983	      0.03369010	      0.03532395	      0.07164010
      9.22033898	      0.04223845	      0.03955233	      0.07947463
      9.23728814	      0.05489751	      0.04509148	      0.08902017
      9.25423729	      0.07590086	      0.05302021	      0.10126574
      9.27118644	      0.10638703	      0.06277149	      0.11610539
      9.28813559	      0.14628060	      0.07360571	      0.13251586
      9.30508475	      0.19430070	      0.08483114	      0.14826629
      9.32203390	      0.24788798	      0.09581772	      0.16255807
      9.33898305	      0.30383114	      0.10608018	      0.17548975
      9.35593220	      0.14671241	      0.07371426	      0.17597500
      9.37288136	      0.16343434	      0.07780182	      0.19010340
      9.38983051	      0.17844058	      0.08129520	      0.20226684
      9.40677966	      0.19243687	      0.08442329	      0.21427453
      9.42372881	      0.20573507	      0.08729157	      0.22674179
      9.44067797	      0.21828478	      0.08991452	      0.23889760
      9.45762712	      0.22898368	      0.09209168	      0.24954621
      9.47457627	      0.23614508	      0.09352066	      0.25708571
      9.49152542	      0.23879714	      0.09404434	      0.26072265
      9.50847458	      0.23712063	      0.09371364	      0.26104338
      9.52542373	      0.23205524	      0.09270727	      0.25851724
      9.54237288	      0.22426688	      0.09113825	      0.25399341
      9.55932203	      0.21354306	      0.08893257	      0.24744075
      9.57627119	      0.20028520	      0.08612764	      0.23892328
      9.59322034	      0.18443226	      0.08264880	      0.22759564
      9.61016949	      0.16611218	      0.07843662	      0.21442928
      9.62711864	      0.14620342	      0.07358629	      0.19893308
      9.64406780	      0.12551206	      0.06818060	      0.18065399
      9.66101695	      0.10459957	      0.06224193	      0.15983705
      9.67796610	      0.08448594	      0.05593844	      0.13686622
      9.69491525	      0.06704206	      0.04983010	      0.11292067
      9.71186441	      0.05359663	      0.04455402	      0.09582840
      9.72881356	      0.04264177	      0.03974072	      0.08565839
      9.74576271	      0.03731824	      0.03717737	      0.08307229
      9.76271186	      0.01748306	      0.02544643	      0.04993678
      9.77966102	      0.01750008	      0.02545881	      0.05016140
      9.79661017	      0.01775607	      0.02564434	      0.04930897
      9.81355932	      0.01850407	      0.02617892	      0.04870042
      9.83050847	      0.01919179	      0.02666097	      0.04878087
      9.84745763	      0.01951034	      0.02688132	      0.04928031
      9.86440678	      0.01978431	      0.02706940	      0.05064785
      9.88135593	      0.02022113	      0.02736660	      0.05212856
      9.89830508	      0.02094274	      0.02785062	      0.05354422
      9.91525424	      0.02167680	      0.02833451	      0.05487064
      9.93220339	      0.02222995	      0.02869375	      0.05602650
      9.94915254	      0.02243819	      0.02882784	      0.05700016
      9.96610169	      0.02214822	      0.02864096	      0.05762808
      9.98305085	      0.02144766	      0.02818436	      0.05769093
     10.00000000	      0.02075995	      0.02772881	      0.05739545
     10.01694915	      0.02030462	      0.02742303	      0.05679585
     10.03389831	      0.02007209	      0.02726556	      0.05628492
     10.05084746	      0.02005557	      0.02725434	      0.05604638
     10.06779661	      0.02020623	      0.02735651	      0.05641145
     10.08474576	      0.02046448	      0.02753078	      0.05733989
     10.10169492	      0.02079573	      0.02775270	      0.05869395
     10.11864407	      0.02112340	      0.02797049	      0.06052512
     10.13559322	      0.02147184	      0.02820023	      0.06239112
     10.15254237	      0.02175448	      0.02838523	      0.06416610
     10.16949153	      0.02179121	      0.02840919	      0.06531165
     10.18644068	      0.02154332	      0.02824714	      0.06558146
     10.20338983	      0.02118138	      0.02800885	      0.06574814
     10.22033898	      0.02067800	      0.02767403	      0.06499235
     10.23728814	      0.02034456	      0.02745000	      0.06478288
     10.25423729	      0.02021791	      0.02736442	      0.06475839
     10.27118644	      0.02021530	      0.02736265	      0.06478600
     10.28813559	      0.02021371	      0.02736158	      0.06480779
     10.30508475	      0.02017744	      0.02733702	      0.06457419
     10.32203390	      0.02010861	      0.02729035	      0.06404045
     10.33898305	      0.02007914	      0.02727035	      0.06325659
     10.35593220	      0.02016863	      0.02733105	      0.06220303
     10.37288136	      0.02040492	      0.02749069	      0.06091525
     10.38983051	      0.02079704	      0.02775357	      0.05999008
     10.40677966	      0.02140687	      0.02815754	      0.05962180
     10.42372881	      0.02195656	      0.02851676	      0.06009068
     10.44067797	      0.02238255	      0.02879207	      0.06144913
     10.45762712	      0.02258753	      0.02892361	      0.06335936
     10.47457627	      0.02271358	      0.02900420	      0.06560361
     10.49152542	      0.02285549	      0.02909467	      0.06822892
     10.50847458	      0.02318649	      0.02930459	      0.07072703
     10.52542373	      0.02380640	      0.02969375	      0.07322320
     10.54237288	      0.02436885	      0.03004247	      0.07401676
     10.55932203	      0.02502000	      0.03044120	      0.07598536
     10.57627119	      0.02554802	      0.03076074	      0.07706843
     10.59322034	      0.02583620	      0.03093374	      0.07777957
     10.61016949	      0.02577963	      0.03089985	      0.07767848
     10.62711864	      0.02538723	      0.03066379	      0.07707363
     10.64406780	      0.02468893	      0.03023912	      0.07536492
     10.66101695	      0.02401932	      0.02982624	      0.07358534
     10.67796610	      0.02357914	      0.02955167	      0.07150395
     10.69491525	      0.02343094	      0.02945866	      0.06933775
     10.71186441	      0.02366430	      0.02960499	      0.06732549
     10.72881356	      0.02309008	      0.02924360	      0.06649974
     10.74576271	      0.02284826	      0.02909007	      0.06414966
     10.76271186	      0.02247079	      0.02884877	      0.06204053
     10.77966102	      0.02231641	      0.02874950	      0.06013951
     10.79661017	      0.02245233	      0.02883692	      0.05855612
     10.81355932	      0.02284001	      0.02908481	      0.05752073
     10.83050847	      0.02319553	      0.02931030	      0.05697720
     10.84745763	      0.02323186	      0.02933325	      0.05685880
     10.86440678	      0.02319955	      0.02931284	      0.05676581
     10.88135593	      0.02320568	      0.02931671	      0.05691471
     10.89830508	      0.02328620	      0.02936753	      0.05704734
     10.91525424	      0.02352339	      0.02951672	      0.05712862
     10.93220339	      0.02400879	      0.02981970	      0.05741499
     10.94915254	      0.02426486	      0.02997830	      0.05824594
     10.96610169	      0.02456431	      0.03016272	      0.05864589
     10.98305085	      0.02513222	      0.03050939	      0.05919702
     11.00000000	      0.02580383	      0.03091435	      0.05949574
     11.01694915	      0.02628436	      0.03120088	      0.05952525
     11.03389831	      0.02626314	      0.03118828	      0.05951091
     11.05084746	      0.02558088	      0.03078051	      0.05956485
     11.06779661	      0.02432118	      0.03001307	      0.05978675
     11.08474576	      0.02283472	      0.02908144	      0.06011828
     11.10169492	      0.02139366	      0.02814885	      0.06038761
     11.11864407	      0.02040582	      0.02749129	      0.06071154
     11.13559322	      0.01988320	      0.02713696	      0.06055175
     11.15254237	      0.01982837	      0.02709952	      0.06057820
     11.16949153	      0.02013122	      0.02730569	      0.06098547
     11.18644068	      0.02066515	      0.02766543	      0.06126303
     11.20338983	      0.02117853	      0.02800696	      0.06104718
     11.22033898	      0.02185823	      0.02845284	      0.06014815
     11.23728814	      0.01858485	      0.02623600	      0.05443912
     11.25423729	      0.01910557	      0.02660101	      0.05338410
     11.27118644	      0.01985151	      0.02711533	      0.05210329
     11.28813559	      0.02078149	      0.02774319	      0.05167376
     11.30508475	      0.02170460	      0.02835267	      0.05125374
     11.32203390	      0.02274542	      0.02902452	      0.05174778
     11.33898305	      0.02375226	      0.02965996	      0.05335665
     11.35593220	      0.02499086	      0.03042347	      0.05924581
     11.37288136	      0.02671769	      0.03145702	      0.06405609
     11.38983051	      0.02866992	      0.03258602	      0.06786512
     11.40677966	      0.03017517	      0.03343051	      0.07053108
     11.42372881	      0.03082002	      0.03378583	      0.07015248
     11.44067797	      0.03064300	      0.03368866	      0.06664883
     11.45762712	      0.02992814	      0.03329339	      0.06098374
     11.47457627	      0.02880082	      0.03266033	      0.05588587
     11.49152542	      0.02769041	      0.03202453	      0.05697656
     11.50847458	      0.02664711	      0.03141544	      0.05807212
     11.52542373	      0.02596365	      0.03100994	      0.05949767
     11.54237288	      0.02580927	      0.03091762	      0.06097926
     11.55932203	      0.02626830	      0.03119134	      0.06262555
     11.57627119	      0.02719011	      0.03173391	      0.06437977
     11.59322034	      0.02838934	      0.03242618	      0.06646617
     11.61016949	      0.02977553	      0.03320839	      0.06881740
     11.62711864	      0.03115837	      0.03397078	      0.07155380
     11.64406780	      0.03237580	      0.03462808	      0.07479811
     11.66101695	      0.03320729	      0.03506992	      0.07846130
