Model Marker Errors from IK
version=1
nRows=337
nColumns=4
inDegrees=no
endheader
time	total_squared_error	marker_error_RMS	marker_error_max
      0.00000000	      0.02203992	      0.02857085	      0.05516852
      0.01666667	      0.02188829	      0.02847240	      0.05648871
      0.03333333	      0.02195169	      0.02851360	      0.05731666
      0.05000000	      0.02200238	      0.02854651	      0.05783645
      0.06666667	      0.02211386	      0.02861873	      0.05809523
      0.08333333	      0.02225311	      0.02870870	      0.05810375
      0.10000000	      0.02236117	      0.02877832	      0.05791990
      0.11666667	      0.02250318	      0.02886955	      0.05796897
      0.13333333	      0.02270022	      0.02899567	      0.05808554
      0.15000000	      0.02297587	      0.02917119	      0.05861408
      0.16666667	      0.02316246	      0.02928940	      0.05896975
      0.18333333	      0.02307269	      0.02923258	      0.05921517
      0.20000000	      0.02258499	      0.02892198	      0.05906316
      0.21666667	      0.02180075	      0.02841540	      0.05866360
      0.23333333	      0.02092686	      0.02784006	      0.05778305
      0.25000000	      0.02029407	      0.02741591	      0.05631397
      0.26666667	      0.02008877	      0.02727688	      0.05475234
      0.28333333	      0.02035003	      0.02745368	      0.05344982
      0.30000000	      0.02102093	      0.02790256	      0.05266636
      0.31666667	      0.02182581	      0.02843173	      0.05250626
      0.33333333	      0.02240946	      0.02880937	      0.05236569
      0.35000000	      0.02260456	      0.02893451	      0.05208413
      0.36666667	      0.02274800	      0.02902617	      0.05111984
      0.38333333	      0.02293947	      0.02914807	      0.04974104
      0.40000000	      0.02348458	      0.02949236	      0.05405818
      0.41666667	      0.02419516	      0.02993522	      0.05882555
      0.43333333	      0.02468564	      0.03023711	      0.06154745
      0.45000000	      0.02472673	      0.03026227	      0.06212048
      0.46666667	      0.02444906	      0.03009187	      0.05941245
      0.48333333	      0.02442092	      0.03007455	      0.05538439
      0.50000000	      0.02510460	      0.03049262	      0.05384866
      0.51666667	      0.02643714	      0.03129143	      0.06443796
      0.53333333	      0.02614214	      0.03111635	      0.05290646
      0.55000000	      0.02624738	      0.03117892	      0.05529202
      0.56666667	      0.02568859	      0.03084525	      0.05549759
      0.58333333	      0.02500422	      0.03043160	      0.05433999
      0.60000000	      0.02461715	      0.03019514	      0.05453125
      0.61666667	      0.02470620	      0.03024970	      0.05509214
      0.63333333	      0.02517691	      0.03053651	      0.05517504
      0.65000000	      0.02580370	      0.03091428	      0.05486556
      0.66666667	      0.02646178	      0.03130601	      0.05625669
      0.68333333	      0.02715820	      0.03171528	      0.05918168
      0.70000000	      0.02788514	      0.03213694	      0.06187591
      0.71666667	      0.02836171	      0.03241039	      0.06365893
      0.73333333	      0.02871590	      0.03261214	      0.06520563
      0.75000000	      0.02870901	      0.03260823	      0.06564526
      0.76666667	      0.02840525	      0.03243526	      0.06540863
      0.78333333	      0.02786878	      0.03212751	      0.06455872
      0.80000000	      0.02723916	      0.03176252	      0.06337665
      0.81666667	      0.02663402	      0.03140772	      0.06210593
      0.83333333	      0.02619994	      0.03115073	      0.06046953
      0.85000000	      0.02596267	      0.03100936	      0.06057427
      0.86666667	      0.02590178	      0.03097297	      0.06052610
      0.88333333	      0.02589561	      0.03096929	      0.06026056
      0.90000000	      0.02581486	      0.03092096	      0.05987128
      0.91666667	      0.02562594	      0.03080761	      0.05939316
      0.93333333	      0.02535540	      0.03064456	      0.05903300
      0.95000000	      0.02509136	      0.03048458	      0.05876033
      0.96666667	      0.02465687	      0.03021949	      0.05885612
      0.98333333	      0.02408218	      0.02986524	      0.05911496
      1.00000000	      0.02337965	      0.02942640	      0.05933620
      1.01666667	      0.02275302	      0.02902937	      0.05952611
      1.03333333	      0.02251255	      0.02887556	      0.05968592
      1.05000000	      0.02267541	      0.02897982	      0.05977508
      1.06666667	      0.02288626	      0.02911425	      0.05995195
      1.08333333	      0.02280946	      0.02906535	      0.06021923
      1.10000000	      0.02236987	      0.02878391	      0.06042954
      1.11666667	      0.02188718	      0.02847167	      0.06058893
      1.13333333	      0.02182736	      0.02843274	      0.06056208
      1.15000000	      0.02246894	      0.02884758	      0.06014935
      1.16666667	      0.02366213	      0.02960364	      0.05934321
      1.18333333	      0.02495299	      0.03040041	      0.06395583
      1.20000000	      0.02600778	      0.03103628	      0.07245413
      1.21666667	      0.02667742	      0.03143331	      0.07931168
      1.23333333	      0.02705302	      0.03165381	      0.08347308
      1.25000000	      0.02718828	      0.03173284	      0.08461824
      1.26666667	      0.02712815	      0.03169773	      0.08348439
      1.28333333	      0.02684375	      0.03153114	      0.08122378
      1.30000000	      0.02636837	      0.03125070	      0.07837737
      1.31666667	      0.02568201	      0.03084130	      0.07538246
      1.33333333	      0.02491525	      0.03037741	      0.07621698
      1.35000000	      0.02439625	      0.03005936	      0.07733057
      1.36666667	      0.02435949	      0.03003670	      0.07785165
      1.38333333	      0.02491850	      0.03037939	      0.07845006
      1.40000000	      0.02601604	      0.03104121	      0.07992153
      1.41666667	      0.02737831	      0.03184355	      0.08152463
      1.43333333	      0.02862643	      0.03256130	      0.08666036
      1.45000000	      0.02773098	      0.03204798	      0.08140493
      1.46666667	      0.02719637	      0.03173757	      0.07807470
      1.48333333	      0.02672465	      0.03146112	      0.07449516
      1.50000000	      0.02667274	      0.03143054	      0.06940962
      1.51666667	      0.02699510	      0.03161991	      0.06887916
      1.53333333	      0.02726327	      0.03177657	      0.06664877
      1.55000000	      0.02718036	      0.03172822	      0.06258526
      1.56666667	      0.02689159	      0.03155923	      0.05785484
      1.58333333	      0.02662156	      0.03140038	      0.05685751
      1.60000000	      0.02653300	      0.03134811	      0.06112488
      1.61666667	      0.02660848	      0.03139266	      0.06560513
      1.63333333	      0.02660171	      0.03138867	      0.06828079
      1.65000000	      0.02625811	      0.03118530	      0.06877794
      1.66666667	      0.02559710	      0.03079027	      0.06799087
      1.68333333	      0.02481699	      0.03031745	      0.06660575
      1.70000000	      0.02415426	      0.02990990	      0.06485392
      1.71666667	      0.02381237	      0.02969747	      0.06294235
      1.73333333	      0.02396603	      0.02979313	      0.06029456
      1.75000000	      0.02477783	      0.03029352	      0.05730161
      1.76666667	      0.02609587	      0.03108881	      0.05442926
      1.78333333	      0.02740071	      0.03185657	      0.05389138
      1.80000000	      0.02827086	      0.03235844	      0.05891114
      1.81666667	      0.02889148	      0.03271169	      0.06198892
      1.83333333	      0.02972893	      0.03318239	      0.06208341
      1.85000000	      0.03103999	      0.03390618	      0.05958846
      1.86666667	      0.03246059	      0.03467339	      0.06379423
      1.88333333	      0.03352905	      0.03523942	      0.06686066
      1.90000000	      0.03418738	      0.03558369	      0.06769724
      1.91666667	      0.03495328	      0.03598008	      0.06782479
      1.93333333	      0.03646570	      0.03675026	      0.06929136
      1.95000000	      0.03911546	      0.03806206	      0.07246688
      1.96666667	      0.04306932	      0.03993945	      0.07705123
      1.98333333	      0.04816505	      0.04223613	      0.08223568
      2.00000000	      0.05391119	      0.04468457	      0.08803046
      2.01666667	      0.05943744	      0.04691894	      0.09357817
      2.03333333	      0.06407150	      0.04871364	      0.09873349
      2.05000000	      0.06743691	      0.04997663	      0.10547076
      2.06666667	      0.06913732	      0.05060278	      0.11206093
      2.08333333	      0.06888243	      0.05050942	      0.11373726
      2.10000000	      0.06668615	      0.04969766	      0.11571037
      2.11666667	      0.06307492	      0.04833330	      0.11438759
      2.13333333	      0.05916201	      0.04681010	      0.11032821
      2.15000000	      0.05588569	      0.04549550	      0.10496644
      2.16666667	      0.05393588	      0.04469480	      0.09888102
      2.18333333	      0.05313776	      0.04436288	      0.09323291
      2.20000000	      0.05287271	      0.04425210	      0.08854118
      2.21666667	      0.05265257	      0.04415988	      0.08485151
      2.23333333	      0.05162546	      0.04372704	      0.08156268
      2.25000000	      0.04925038	      0.04270934	      0.07830406
      2.26666667	      0.04562264	      0.04110630	      0.07540000
      2.28333333	      0.04146118	      0.03918672	      0.07348114
      2.30000000	      0.03780883	      0.03742094	      0.07275093
      2.31666667	      0.03551207	      0.03626654	      0.07286682
      2.33333333	      0.03470702	      0.03585311	      0.07355516
      2.35000000	      0.03488523	      0.03594504	      0.07357448
      2.36666667	      0.03522891	      0.03612166	      0.07218670
      2.38333333	      0.03501136	      0.03600996	      0.06787562
      2.40000000	      0.03398269	      0.03547701	      0.06241203
      2.41666667	      0.03248058	      0.03468407	      0.06095951
      2.43333333	      0.03085972	      0.03380758	      0.06071483
      2.45000000	      0.02953632	      0.03307473	      0.06087873
      2.46666667	      0.02884530	      0.03268554	      0.06135271
      2.48333333	      0.02880827	      0.03266455	      0.06199574
      2.50000000	      0.02930501	      0.03294497	      0.06233289
      2.51666667	      0.02997300	      0.03331833	      0.06228482
      2.53333333	      0.03071281	      0.03372702	      0.06403421
      2.55000000	      0.03152212	      0.03416849	      0.06629653
      2.56666667	      0.03253703	      0.03471419	      0.06774267
      2.58333333	      0.03390956	      0.03543881	      0.06931665
      2.60000000	      0.03579043	      0.03640840	      0.07093491
      2.61666667	      0.03818906	      0.03760864	      0.07335618
      2.63333333	      0.04110562	      0.03901833	      0.07685089
      2.65000000	      0.04432965	      0.04051961	      0.08027011
      2.66666667	      0.04675678	      0.04161409	      0.08142419
      2.68333333	      0.04774258	      0.04205049	      0.07765958
      2.70000000	      0.04763027	      0.04200100	      0.08025018
      2.71666667	      0.04686663	      0.04166295	      0.08430607
      2.73333333	      0.04606182	      0.04130367	      0.08606948
      2.75000000	      0.04563595	      0.04111229	      0.08667261
      2.76666667	      0.04565828	      0.04112235	      0.08700157
      2.78333333	      0.04576707	      0.04117131	      0.08704760
      2.80000000	      0.04569505	      0.04113890	      0.08764659
      2.81666667	      0.04562417	      0.04110698	      0.08910170
      2.83333333	      0.04595213	      0.04125446	      0.08993374
      2.85000000	      0.04683712	      0.04164983	      0.08943042
      2.86666667	      0.04775730	      0.04205697	      0.08718367
      2.88333333	      0.04830851	      0.04229898	      0.08833023
      2.90000000	      0.04840497	      0.04234119	      0.09323629
      2.91666667	      0.04773073	      0.04204527	      0.09591833
      2.93333333	      0.04626745	      0.04139576	      0.09475496
      2.95000000	      0.04414616	      0.04043567	      0.09080790
      2.96666667	      0.04183840	      0.03936458	      0.08550768
      2.98333333	      0.03991921	      0.03845113	      0.08349484
      3.00000000	      0.03920754	      0.03810684	      0.08814769
      3.01666667	      0.04026673	      0.03861813	      0.09897429
      3.03333333	      0.04334073	      0.04006510	      0.11388286
      3.05000000	      0.04790230	      0.04212077	      0.12876236
      3.06666667	      0.05291002	      0.04426771	      0.14039515
      3.08333333	      0.05748765	      0.04614296	      0.14786463
      3.10000000	      0.06131428	      0.04765395	      0.15281765
      3.11666667	      0.06476678	      0.04897724	      0.15847644
      3.13333333	      0.06834484	      0.05031193	      0.16662534
      3.15000000	      0.07231383	      0.05175220	      0.17797473
      3.16666667	      0.07605856	      0.05307527	      0.19020606
      3.18333333	      0.07852867	      0.05393023	      0.20052538
      3.20000000	      0.07923613	      0.05417261	      0.20661098
      3.21666667	      0.07826361	      0.05383913	      0.20829005
      3.23333333	      0.07562692	      0.05292445	      0.20519702
      3.25000000	      0.07173422	      0.05154438	      0.19879368
      3.26666667	      0.06731921	      0.04993300	      0.19035397
      3.28333333	      0.06300279	      0.04830566	      0.18117407
      3.30000000	      0.05902945	      0.04675763	      0.17217602
      3.31666667	      0.05531400	      0.04526220	      0.16335746
      3.33333333	      0.05177175	      0.04378895	      0.15455411
      3.35000000	      0.04830354	      0.04229681	      0.14608384
      3.36666667	      0.04474823	      0.04071047	      0.13804545
      3.38333333	      0.04121902	      0.03907212	      0.13115752
      3.40000000	      0.03805060	      0.03754040	      0.12577082
      3.41666667	      0.03546449	      0.03624223	      0.12038022
      3.43333333	      0.03359520	      0.03527416	      0.11553247
      3.45000000	      0.03265636	      0.03477779	      0.11091994
      3.46666667	      0.03240884	      0.03464574	      0.10682885
      3.48333333	      0.03247717	      0.03468224	      0.10326669
      3.50000000	      0.03264426	      0.03477135	      0.09977028
      3.51666667	      0.03285795	      0.03488497	      0.09625848
      3.53333333	      0.03297571	      0.03494743	      0.09172602
      3.55000000	      0.03308168	      0.03500353	      0.08762423
      3.56666667	      0.03315335	      0.03504143	      0.08380087
      3.58333333	      0.03322339	      0.03507843	      0.08163508
      3.60000000	      0.03307603	      0.03500055	      0.08052366
      3.61666667	      0.03241002	      0.03464637	      0.07952672
      3.63333333	      0.03110451	      0.03394140	      0.07764856
      3.65000000	      0.02921607	      0.03289493	      0.07405451
      3.66666667	      0.02690418	      0.03156661	      0.06882012
      3.68333333	      0.02448932	      0.03011664	      0.06169692
      3.70000000	      0.02230323	      0.02874101	      0.05367438
      3.71666667	      0.02070914	      0.02769486	      0.05315583
      3.73333333	      0.01964632	      0.02697483	      0.05299899
      3.75000000	      0.01907178	      0.02657748	      0.05138246
      3.76666667	      0.01858968	      0.02623941	      0.04913589
      3.78333333	      0.01801265	      0.02582896	      0.04641408
      3.80000000	      0.01750149	      0.02545983	      0.04603552
      3.81666667	      0.01733184	      0.02533614	      0.04543479
      3.83333333	      0.01764067	      0.02556087	      0.04421155
      3.85000000	      0.01848168	      0.02616307	      0.04627768
      3.86666667	      0.01995091	      0.02718313	      0.05465914
      3.88333333	      0.02177933	      0.02840144	      0.06085633
      3.90000000	      0.02330305	      0.02937815	      0.06265003
      3.91666667	      0.02406502	      0.02985460	      0.05977729
      3.93333333	      0.02420881	      0.02994366	      0.05376248
      3.95000000	      0.02423281	      0.02995849	      0.05158521
      3.96666667	      0.02455861	      0.03015921	      0.05332515
      3.98333333	      0.02535367	      0.03064351	      0.05513622
      4.00000000	      0.02639173	      0.03126454	      0.05717236
      4.01666667	      0.02731993	      0.03180958	      0.05915365
      4.03333333	      0.02773992	      0.03205315	      0.06068591
      4.05000000	      0.02755101	      0.03194382	      0.06159432
      4.06666667	      0.02691682	      0.03157403	      0.06181128
      4.08333333	      0.02622329	      0.03116461	      0.06166643
      4.10000000	      0.02580069	      0.03091247	      0.06146028
      4.11666667	      0.02574142	      0.03087695	      0.06146377
      4.13333333	      0.02593246	      0.03099131	      0.06160630
      4.15000000	      0.02631324	      0.03121802	      0.06177202
      4.16666667	      0.02688471	      0.03155519	      0.06208651
      4.18333333	      0.02764321	      0.03199723	      0.06204171
      4.20000000	      0.02736172	      0.03183390	      0.06115383
      4.21666667	      0.02737975	      0.03184439	      0.06066692
      4.23333333	      0.02673330	      0.03146621	      0.05960255
      4.25000000	      0.02579562	      0.03090944	      0.05874239
      4.26666667	      0.02501905	      0.03044062	      0.05797397
      4.28333333	      0.02471741	      0.03025656	      0.05768792
      4.30000000	      0.02439684	      0.03005972	      0.05824507
      4.31666667	      0.02500053	      0.03042935	      0.05899220
      4.33333333	      0.02600275	      0.03103328	      0.05984486
      4.35000000	      0.02700446	      0.03162539	      0.06071035
      4.36666667	      0.02773944	      0.03205287	      0.06113051
      4.38333333	      0.02791709	      0.03215535	      0.06106993
      4.40000000	      0.02805973	      0.03223739	      0.06081087
      4.41666667	      0.02869596	      0.03260082	      0.06066889
      4.43333333	      0.02981204	      0.03322874	      0.06061002
      4.45000000	      0.03081643	      0.03378386	      0.06092448
      4.46666667	      0.03128501	      0.03403975	      0.06150538
      4.48333333	      0.03115424	      0.03396852	      0.06208885
      4.50000000	      0.03043457	      0.03357389	      0.06225541
      4.51666667	      0.02896009	      0.03275051	      0.06187382
      4.53333333	      0.02699504	      0.03161987	      0.06078599
      4.55000000	      0.02563133	      0.03081085	      0.05956520
      4.56666667	      0.02528223	      0.03060031	      0.05844771
      4.58333333	      0.02551036	      0.03073806	      0.05794154
      4.60000000	      0.02549690	      0.03072994	      0.05784275
      4.61666667	      0.02499497	      0.03042597	      0.05769837
      4.63333333	      0.02437577	      0.03004674	      0.05699341
      4.65000000	      0.02386156	      0.02972812	      0.05541221
      4.66666667	      0.02399886	      0.02981353	      0.05352323
      4.68333333	      0.02451269	      0.03013100	      0.05183491
      4.70000000	      0.02514257	      0.03051567	      0.05241140
      4.71666667	      0.02597437	      0.03101634	      0.05291372
      4.73333333	      0.02639515	      0.03126656	      0.05338200
      4.75000000	      0.02656029	      0.03136422	      0.05330937
      4.76666667	      0.02567055	      0.03083441	      0.05180408
      4.78333333	      0.02510718	      0.03049419	      0.05178616
      4.80000000	      0.02454176	      0.03014887	      0.05195989
      4.81666667	      0.02418287	      0.02992761	      0.05208285
      4.83333333	      0.02395686	      0.02978743	      0.05211702
      4.85000000	      0.02401510	      0.02982362	      0.05220564
      4.86666667	      0.02418257	      0.02992742	      0.05256333
      4.88333333	      0.02436392	      0.03003943	      0.05291032
      4.90000000	      0.02453512	      0.03014478	      0.05323145
      4.91666667	      0.02472649	      0.03026212	      0.05348927
      4.93333333	      0.02497176	      0.03041184	      0.05357768
      4.95000000	      0.02528375	      0.03060123	      0.05371373
      4.96666667	      0.02563067	      0.03081045	      0.05376285
      4.98333333	      0.02580265	      0.03091365	      0.05402277
      5.00000000	      0.02587874	      0.03095920	      0.05417683
      5.01666667	      0.02585719	      0.03094631	      0.05410696
      5.03333333	      0.02561337	      0.03080006	      0.05405757
      5.05000000	      0.02545732	      0.03070608	      0.05439450
      5.06666667	      0.02536680	      0.03065144	      0.05466643
      5.08333333	      0.02536271	      0.03064898	      0.05503286
      5.10000000	      0.02528625	      0.03060274	      0.05503689
      5.11666667	      0.02519805	      0.03054932	      0.05519957
      5.13333333	      0.02491064	      0.03037460	      0.05510059
      5.15000000	      0.02439841	      0.03006068	      0.05488549
      5.16666667	      0.02349957	      0.02950177	      0.05470311
      5.18333333	      0.02228674	      0.02873038	      0.05467344
      5.20000000	      0.02152780	      0.02823696	      0.05473676
      5.21666667	      0.02160235	      0.02828581	      0.05490720
      5.23333333	      0.02208690	      0.02860128	      0.05538203
      5.25000000	      0.02285756	      0.02909598	      0.05601907
      5.26666667	      0.02342910	      0.02945750	      0.05652616
      5.28333333	      0.02366353	      0.02960451	      0.05699704
      5.30000000	      0.02361413	      0.02957359	      0.05696785
      5.31666667	      0.02336098	      0.02941465	      0.05646384
      5.33333333	      0.02299867	      0.02918566	      0.05538861
      5.35000000	      0.02279474	      0.02905598	      0.05377628
      5.36666667	      0.02295194	      0.02915599	      0.05159879
      5.38333333	      0.02362706	      0.02958169	      0.05100086
      5.40000000	      0.02453567	      0.03014513	      0.05229395
      5.41666667	      0.02405572	      0.02984883	      0.05313287
      5.43333333	      0.02443060	      0.03008051	      0.05469038
      5.45000000	      0.02500058	      0.03042938	      0.05597538
      5.46666667	      0.02577280	      0.03089576	      0.05680053
      5.48333333	      0.02648072	      0.03131721	      0.05695519
      5.50000000	      0.02682341	      0.03151920	      0.05705423
      5.51666667	      0.02658550	      0.03137910	      0.05822449
      5.53333333	      0.02581481	      0.03092093	      0.05555757
      5.55000000	      0.02512183	      0.03050309	      0.05273667
      5.56666667	      0.02473328	      0.03026628	      0.05129858
      5.58333333	      0.02496943	      0.03041042	      0.05281037
      5.60000000	      0.02646239	      0.03130637	      0.05903754
