Model Marker Errors from IK
version=1
nRows=278
nColumns=4
inDegrees=no
endheader
time	total_squared_error	marker_error_RMS	marker_error_max
      0.00000000	      0.03054227	      0.03363325	      0.04827811
      0.02000000	      0.02977347	      0.03320724	      0.04623481
      0.04000000	      0.02957019	      0.03309369	      0.04551847
      0.06000000	      0.02965020	      0.03313843	      0.04612078
      0.08000000	      0.02980873	      0.03322690	      0.04663928
      0.10000000	      0.03006497	      0.03336941	      0.04771477
      0.12000000	      0.03031532	      0.03350805	      0.04871388
      0.14000000	      0.03053338	      0.03362835	      0.04963109
      0.16000000	      0.03046113	      0.03358854	      0.04949611
      0.18000000	      0.03020960	      0.03344958	      0.04956510
      0.20000000	      0.02976389	      0.03320190	      0.04942999
      0.22000000	      0.02924743	      0.03291258	      0.04936408
      0.24000000	      0.02876760	      0.03264149	      0.04920367
      0.26000000	      0.02839767	      0.03243094	      0.04908098
      0.28000000	      0.02834521	      0.03240096	      0.04939927
      0.30000000	      0.02853845	      0.03251122	      0.04965895
      0.32000000	      0.02895466	      0.03274744	      0.04964898
      0.34000000	      0.02947230	      0.03303886	      0.04962893
      0.36000000	      0.02995421	      0.03330788	      0.05047206
      0.38000000	      0.03034468	      0.03352428	      0.05138387
      0.40000000	      0.03049868	      0.03360923	      0.05178266
      0.42000000	      0.03048000	      0.03359894	      0.05148467
      0.44000000	      0.03030827	      0.03350415	      0.05057377
      0.46000000	      0.03018468	      0.03343578	      0.04945974
      0.48000000	      0.03026695	      0.03348131	      0.04861486
      0.50000000	      0.03070468	      0.03372255	      0.04959503
      0.52000000	      0.03124536	      0.03401817	      0.05097987
      0.54000000	      0.03166471	      0.03424568	      0.05238220
      0.56000000	      0.03181790	      0.03432842	      0.05295017
      0.58000000	      0.03183973	      0.03434020	      0.05330352
      0.60000000	      0.03168901	      0.03425882	      0.05300174
      0.62000000	      0.03145004	      0.03412940	      0.05315038
      0.64000000	      0.03101909	      0.03389477	      0.05307375
      0.66000000	      0.03053020	      0.03362660	      0.05335562
      0.68000000	      0.03012255	      0.03340135	      0.05371455
      0.70000000	      0.02978179	      0.03321188	      0.05386671
      0.72000000	      0.02971205	      0.03317297	      0.05478173
      0.74000000	      0.02976798	      0.03320418	      0.05585698
      0.76000000	      0.02992874	      0.03329372	      0.05737449
      0.78000000	      0.03002511	      0.03334728	      0.05874428
      0.80000000	      0.02979652	      0.03322010	      0.05723021
      0.82000000	      0.02920852	      0.03289068	      0.05471657
      0.84000000	      0.02828665	      0.03236748	      0.05111662
      0.86000000	      0.02722782	      0.03175591	      0.05043643
      0.88000000	      0.02619526	      0.03114795	      0.04990473
      0.90000000	      0.02531979	      0.03062303	      0.04959032
      0.92000000	      0.02474007	      0.03027043	      0.04985735
      0.94000000	      0.02435654	      0.03003488	      0.04964309
      0.96000000	      0.02419128	      0.02993281	      0.04977584
      0.98000000	      0.02418386	      0.02992822	      0.04946406
      1.00000000	      0.02432333	      0.03001440	      0.04977929
      1.02000000	      0.02445424	      0.03009506	      0.04984907
      1.04000000	      0.02469734	      0.03024428	      0.05065119
      1.06000000	      0.02491452	      0.03037697	      0.05163228
      1.08000000	      0.02508777	      0.03048240	      0.05223477
      1.10000000	      0.02511686	      0.03050007	      0.05226746
      1.12000000	      0.02503756	      0.03045188	      0.05204895
      1.14000000	      0.02495880	      0.03040395	      0.05148134
      1.16000000	      0.02504230	      0.03045476	      0.05118760
      1.18000000	      0.02548989	      0.03072572	      0.05106731
      1.20000000	      0.02629633	      0.03120798	      0.05116239
      1.22000000	      0.02736684	      0.03183688	      0.05151363
      1.24000000	      0.02846774	      0.03247092	      0.05184571
      1.26000000	      0.02937828	      0.03298613	      0.05223529
      1.28000000	      0.03000238	      0.03333465	      0.05361441
      1.30000000	      0.03020627	      0.03344773	      0.05401297
      1.32000000	      0.02995673	      0.03330929	      0.05524737
      1.34000000	      0.02936702	      0.03297980	      0.05541575
      1.36000000	      0.02843573	      0.03245266	      0.05519608
      1.38000000	      0.02745492	      0.03188807	      0.05504840
      1.40000000	      0.02653242	      0.03134776	      0.05448283
      1.42000000	      0.02570892	      0.03085745	      0.05353706
      1.44000000	      0.02501742	      0.03043963	      0.05252617
      1.46000000	      0.02448592	      0.03011455	      0.05223512
      1.48000000	      0.02395865	      0.02978855	      0.05164562
      1.50000000	      0.02350898	      0.02950768	      0.05099363
      1.52000000	      0.02319665	      0.02931100	      0.05046883
      1.54000000	      0.02294933	      0.02915434	      0.05049097
      1.56000000	      0.02278979	      0.02905282	      0.04999837
      1.58000000	      0.02260568	      0.02893523	      0.04950552
      1.60000000	      0.02245029	      0.02883561	      0.04879479
      1.62000000	      0.02229348	      0.02873473	      0.04785457
      1.64000000	      0.02216058	      0.02864895	      0.04708071
      1.66000000	      0.02200441	      0.02854782	      0.04642163
      1.68000000	      0.02186681	      0.02845842	      0.04616998
      1.70000000	      0.02164246	      0.02831206	      0.04604383
      1.72000000	      0.02145901	      0.02819181	      0.04630894
      1.74000000	      0.02127420	      0.02807015	      0.04656315
      1.76000000	      0.02126800	      0.02806606	      0.04668874
      1.78000000	      0.02151569	      0.02822902	      0.04611281
      1.80000000	      0.02181187	      0.02842265	      0.04691575
      1.82000000	      0.02203082	      0.02856495	      0.04735353
      1.84000000	      0.02176599	      0.02839274	      0.04653390
      1.86000000	      0.02130084	      0.02808772	      0.04694960
      1.88000000	      0.02127582	      0.02807122	      0.04821723
      1.90000000	      0.02224290	      0.02870211	      0.05028529
      1.92000000	      0.02376426	      0.02966745	      0.05163315
      1.94000000	      0.02482647	      0.03032324	      0.05707913
      1.96000000	      0.02502941	      0.03044693	      0.06512004
      1.98000000	      0.02469113	      0.03024047	      0.07079816
      2.00000000	      0.02441515	      0.03007100	      0.07315453
      2.02000000	      0.02477539	      0.03029203	      0.07312245
      2.04000000	      0.02606430	      0.03106999	      0.07153106
      2.06000000	      0.02764496	      0.03199824	      0.07000782
      2.08000000	      0.02798566	      0.03219481	      0.07099805
      2.10000000	      0.02623762	      0.03117312	      0.06481590
      2.12000000	      0.02342720	      0.02945631	      0.05911948
      2.14000000	      0.02142749	      0.02817109	      0.05666936
      2.16000000	      0.02066739	      0.02766693	      0.05519972
      2.18000000	      0.02055852	      0.02759396	      0.05441125
      2.20000000	      0.02062662	      0.02763963	      0.05385312
      2.22000000	      0.02094409	      0.02785152	      0.05305389
      2.24000000	      0.02154514	      0.02824833	      0.05193271
      2.26000000	      0.02229183	      0.02873366	      0.05060018
      2.28000000	      0.02305348	      0.02922041	      0.04891874
      2.30000000	      0.02358000	      0.02955221	      0.04825194
      2.32000000	      0.02384278	      0.02971642	      0.04724726
      2.34000000	      0.02375125	      0.02965933	      0.04633987
      2.36000000	      0.02339436	      0.02943566	      0.04576453
      2.38000000	      0.02283772	      0.02908335	      0.04556427
      2.40000000	      0.02208873	      0.02860247	      0.04506169
      2.42000000	      0.02121837	      0.02803330	      0.04471583
      2.44000000	      0.02041350	      0.02749646	      0.04448901
      2.46000000	      0.01985298	      0.02711634	      0.04515187
      2.48000000	      0.01958507	      0.02693275	      0.04558024
      2.50000000	      0.01962385	      0.02695940	      0.04629022
      2.52000000	      0.01990321	      0.02715062	      0.04702094
      2.54000000	      0.02024544	      0.02738304	      0.04749404
      2.56000000	      0.02043610	      0.02751168	      0.04788520
      2.58000000	      0.02043975	      0.02751414	      0.04858964
      2.60000000	      0.02028611	      0.02741053	      0.04790577
      2.62000000	      0.02013897	      0.02731095	      0.04781743
      2.64000000	      0.02001611	      0.02722751	      0.04780045
      2.66000000	      0.01978728	      0.02707143	      0.04764630
      2.68000000	      0.01970750	      0.02701680	      0.04735427
      2.70000000	      0.01969811	      0.02701036	      0.04775456
      2.72000000	      0.01978851	      0.02707227	      0.04804061
      2.74000000	      0.01994479	      0.02717896	      0.04843684
      2.76000000	      0.02018183	      0.02733999	      0.04921383
      2.78000000	      0.02035049	      0.02745399	      0.04977349
      2.80000000	      0.02029302	      0.02741520	      0.05032450
      2.82000000	      0.02018782	      0.02734405	      0.05062021
      2.84000000	      0.02053621	      0.02757899	      0.05059040
      2.86000000	      0.02157382	      0.02826713	      0.05029007
      2.88000000	      0.02275247	      0.02902902	      0.05038128
      2.90000000	      0.02338224	      0.02942803	      0.05052914
      2.92000000	      0.02340370	      0.02944153	      0.05053943
      2.94000000	      0.02330569	      0.02937982	      0.05050713
      2.96000000	      0.02318309	      0.02930244	      0.05080296
      2.98000000	      0.02293350	      0.02914428	      0.05101945
      3.00000000	      0.02224181	      0.02870141	      0.05071479
      3.02000000	      0.02149734	      0.02821698	      0.05106434
      3.04000000	      0.02115150	      0.02798909	      0.05059480
      3.06000000	      0.02146242	      0.02819405	      0.05043848
      3.08000000	      0.02216707	      0.02865315	      0.04987790
      3.10000000	      0.02280218	      0.02906072	      0.04893951
      3.12000000	      0.02308183	      0.02923837	      0.04907717
      3.14000000	      0.02289309	      0.02911859	      0.05318891
      3.16000000	      0.02229793	      0.02873759	      0.05584507
      3.18000000	      0.02147186	      0.02820025	      0.05714132
      3.20000000	      0.02055712	      0.02759302	      0.05713828
      3.22000000	      0.01971499	      0.02702193	      0.05637029
      3.24000000	      0.01903607	      0.02655258	      0.05619688
      3.26000000	      0.01867691	      0.02630090	      0.05686127
      3.28000000	      0.01850712	      0.02618108	      0.05820824
      3.30000000	      0.01841663	      0.02611699	      0.05927977
      3.32000000	      0.01819048	      0.02595615	      0.05983783
      3.34000000	      0.01810457	      0.02589478	      0.05963211
      3.36000000	      0.01840126	      0.02610610	      0.05933369
      3.38000000	      0.01912276	      0.02661298	      0.05930825
      3.40000000	      0.02028343	      0.02740873	      0.05908255
      3.42000000	      0.02191767	      0.02849150	      0.05866732
      3.44000000	      0.02385080	      0.02972142	      0.05826428
      3.46000000	      0.02568746	      0.03084457	      0.05808627
      3.48000000	      0.02723705	      0.03176129	      0.06040756
      3.50000000	      0.02826444	      0.03235477	      0.06353953
      3.52000000	      0.02818078	      0.03230685	      0.06087082
      3.54000000	      0.02666168	      0.03142403	      0.05302666
      3.56000000	      0.02414940	      0.02990689	      0.04818620
      3.58000000	      0.02134276	      0.02811535	      0.04622808
      3.60000000	      0.01892119	      0.02647234	      0.04661580
      3.62000000	      0.01710761	      0.02517171	      0.04696124
      3.64000000	      0.01587053	      0.02424453	      0.04727838
      3.66000000	      0.01516233	      0.02369742	      0.04780749
      3.68000000	      0.01495963	      0.02353849	      0.04815532
      3.70000000	      0.01504242	      0.02360353	      0.04840573
      3.72000000	      0.01508723	      0.02363866	      0.04853811
      3.74000000	      0.01497417	      0.02354992	      0.04842747
      3.76000000	      0.01489679	      0.02348900	      0.04814788
      3.78000000	      0.01515120	      0.02368872	      0.04754754
      3.80000000	      0.01584432	      0.02422451	      0.04684059
      3.82000000	      0.01696917	      0.02506966	      0.04611395
      3.84000000	      0.01853250	      0.02619902	      0.04564727
      3.86000000	      0.02031152	      0.02742770	      0.04552055
      3.88000000	      0.02172319	      0.02836481	      0.04567034
      3.90000000	      0.02216360	      0.02865090	      0.04584658
      3.92000000	      0.02162290	      0.02829926	      0.04602558
      3.94000000	      0.02068615	      0.02767948	      0.04540556
      3.96000000	      0.01994996	      0.02718249	      0.04405915
      3.98000000	      0.01961570	      0.02695380	      0.04327191
      4.00000000	      0.01959283	      0.02693808	      0.04267018
      4.02000000	      0.01960485	      0.02694634	      0.04266844
      4.04000000	      0.01946284	      0.02684858	      0.04335461
      4.06000000	      0.01920416	      0.02666956	      0.04438035
      4.08000000	      0.01880734	      0.02639257	      0.04532102
      4.10000000	      0.01839148	      0.02609915	      0.04619118
      4.12000000	      0.01809135	      0.02588533	      0.04665201
      4.14000000	      0.01793909	      0.02577617	      0.04664588
      4.16000000	      0.01790831	      0.02575405	      0.04617666
      4.18000000	      0.01836463	      0.02608010	      0.04537566
      4.20000000	      0.01963321	      0.02696583	      0.04453925
      4.22000000	      0.02170104	      0.02835035	      0.04385911
      4.24000000	      0.02352538	      0.02951796	      0.05113340
      4.26000000	      0.02383009	      0.02970852	      0.05533986
      4.28000000	      0.02204008	      0.02857095	      0.05325169
      4.30000000	      0.01918433	      0.02665578	      0.04598959
      4.32000000	      0.01697893	      0.02507687	      0.04507050
      4.34000000	      0.01637756	      0.02462877	      0.04580443
      4.36000000	      0.01707429	      0.02514719	      0.04639019
      4.38000000	      0.01812283	      0.02590784	      0.04679981
      4.40000000	      0.01907673	      0.02658092	      0.05010218
      4.42000000	      0.01971800	      0.02702399	      0.05379059
      4.44000000	      0.01982853	      0.02709963	      0.05454020
      4.46000000	      0.01952683	      0.02689268	      0.05286334
      4.48000000	      0.01926536	      0.02671201	      0.05069134
      4.50000000	      0.01923902	      0.02669375	      0.04999744
      4.52000000	      0.01962900	      0.02696294	      0.05029287
      4.54000000	      0.02039103	      0.02748133	      0.05054525
      4.56000000	      0.02143911	      0.02817873	      0.04996818
      4.58000000	      0.02273539	      0.02901812	      0.05802237
      4.60000000	      0.02423145	      0.02995766	      0.06508250
      4.62000000	      0.02560077	      0.03079248	      0.06911743
      4.64000000	      0.02633115	      0.03122864	      0.06961480
      4.66000000	      0.02596219	      0.03100907	      0.06662339
      4.68000000	      0.02444858	      0.03009157	      0.06259733
      4.70000000	      0.02234845	      0.02877013	      0.05970159
      4.72000000	      0.02047004	      0.02753452	      0.05395118
      4.74000000	      0.01939326	      0.02680054	      0.04648960
      4.76000000	      0.01934860	      0.02676966	      0.04367021
      4.78000000	      0.02027930	      0.02740593	      0.04485433
      4.80000000	      0.02123249	      0.02804262	      0.05465376
      4.82000000	      0.02133683	      0.02811144	      0.05958734
      4.84000000	      0.02006702	      0.02726211	      0.05859243
      4.86000000	      0.01849663	      0.02617366	      0.05367821
      4.88000000	      0.01753274	      0.02548256	      0.04730410
      4.90000000	      0.01775500	      0.02564357	      0.04181791
      4.92000000	      0.01913496	      0.02662146	      0.03821976
      4.94000000	      0.02102318	      0.02790406	      0.04200134
      4.96000000	      0.02267978	      0.02898261	      0.04466194
      4.98000000	      0.02373771	      0.02965088	      0.04445776
      5.00000000	      0.02408059	      0.02986426	      0.04504316
      5.02000000	      0.02383731	      0.02971302	      0.04399717
      5.04000000	      0.02319883	      0.02931239	      0.04248816
      5.06000000	      0.02238623	      0.02879444	      0.04082649
      5.08000000	      0.02158528	      0.02827463	      0.03931376
      5.10000000	      0.02095742	      0.02786038	      0.03715473
      5.12000000	      0.02055146	      0.02758922	      0.03765584
      5.14000000	      0.02036725	      0.02746530	      0.03806732
      5.16000000	      0.02042155	      0.02750188	      0.03836916
      5.18000000	      0.02069055	      0.02768242	      0.03814274
      5.20000000	      0.02095660	      0.02785983	      0.03782433
      5.22000000	      0.02096223	      0.02786357	      0.03802018
      5.24000000	      0.02097327	      0.02787091	      0.03865776
      5.26000000	      0.02115501	      0.02799141	      0.04006857
      5.28000000	      0.02140949	      0.02815926	      0.04200735
      5.30000000	      0.02153121	      0.02823919	      0.04284468
      5.32000000	      0.02155442	      0.02825441	      0.04249696
      5.34000000	      0.02137908	      0.02813926	      0.04123465
      5.36000000	      0.02099042	      0.02788230	      0.03897562
      5.38000000	      0.02049760	      0.02755304	      0.03759828
      5.40000000	      0.02008043	      0.02727123	      0.03731594
      5.42000000	      0.01987822	      0.02713357	      0.03687421
      5.44000000	      0.01988589	      0.02713880	      0.03764602
      5.46000000	      0.01999839	      0.02721546	      0.03859112
      5.48000000	      0.02004900	      0.02724987	      0.04125032
      5.50000000	      0.01994738	      0.02718072	      0.04340103
      5.52000000	      0.01961845	      0.02695569	      0.04366615
      5.54000000	      0.01925986	      0.02670821	      0.04123763
