Model Marker Errors from IK
version=1
nRows=382
nColumns=4
inDegrees=no
endheader
time	total_squared_error	marker_error_RMS	marker_error_max
      0.00000000	      0.02721314	      0.03174734	      0.05762235
      0.02040816	      0.02417806	      0.02992463	      0.05772082
      0.04081633	      0.02250388	      0.02887000	      0.05760678
      0.06122449	      0.02157891	      0.02827046	      0.05696153
      0.08163265	      0.02110309	      0.02795704	      0.05601815
      0.10204082	      0.02090264	      0.02782395	      0.05440825
      0.12244898	      0.02086514	      0.02779898	      0.05288818
      0.14285714	      0.02090106	      0.02782289	      0.05286978
      0.16326531	      0.02091736	      0.02783374	      0.05256810
      0.18367347	      0.02085556	      0.02779259	      0.05242015
      0.20408163	      0.02064950	      0.02765495	      0.05233304
      0.22448980	      0.02043060	      0.02750798	      0.05199406
      0.24489796	      0.02019032	      0.02734574	      0.05163668
      0.26530612	      0.01998019	      0.02720307	      0.05063738
      0.28571429	      0.01968439	      0.02700095	      0.05127018
      0.30612245	      0.01922561	      0.02668444	      0.05176943
      0.32653061	      0.01855402	      0.02621423	      0.05196625
      0.34693878	      0.01771525	      0.02561485	      0.05191810
      0.36734694	      0.01683087	      0.02496729	      0.05166110
      0.38775510	      0.01608645	      0.02440890	      0.05130298
      0.40816327	      0.01571504	      0.02412547	      0.05060964
      0.42857143	      0.01574424	      0.02414788	      0.04975668
      0.44897959	      0.01610500	      0.02442297	      0.04868253
      0.46938776	      0.01663371	      0.02482062	      0.04697178
      0.48979592	      0.01716803	      0.02521613	      0.04733947
      0.51020408	      0.01762814	      0.02555179	      0.05015269
      0.53061224	      0.01794515	      0.02578052	      0.05238402
      0.55102041	      0.01796821	      0.02579708	      0.05391528
      0.57142857	      0.01770516	      0.02560755	      0.05429353
      0.59183673	      0.01729888	      0.02531204	      0.05370949
      0.61224490	      0.01693296	      0.02504290	      0.05302176
      0.63265306	      0.01667207	      0.02484923	      0.05216094
      0.65306122	      0.01655881	      0.02476468	      0.05156800
      0.67346939	      0.01653159	      0.02474432	      0.05116340
      0.69387755	      0.01648280	      0.02470778	      0.05068801
      0.71428571	      0.01637678	      0.02462818	      0.04984224
      0.73469388	      0.01625894	      0.02453942	      0.04923216
      0.75510204	      0.01617310	      0.02447455	      0.04910201
      0.77551020	      0.01605352	      0.02438391	      0.04883301
      0.79591837	      0.01580939	      0.02419779	      0.04832111
      0.81632653	      0.01540703	      0.02388788	      0.04752409
      0.83673469	      0.01498852	      0.02356121	      0.04624660
      0.85714286	      0.01486535	      0.02346419	      0.04475495
      0.87755102	      0.01512967	      0.02367188	      0.04346517
      0.89795918	      0.01574915	      0.02415164	      0.04209619
      0.91836735	      0.01663862	      0.02482429	      0.04292586
      0.93877551	      0.01774133	      0.02563369	      0.04441242
      0.95918367	      0.01886862	      0.02643554	      0.04602971
      0.97959184	      0.01995614	      0.02718669	      0.04800048
      1.00000000	      0.02114325	      0.02798363	      0.04972984
      1.02040816	      0.02267030	      0.02897655	      0.05115049
      1.04081633	      0.02465298	      0.03021710	      0.05215325
      1.06122449	      0.02688408	      0.03155482	      0.05763231
      1.08163265	      0.02874460	      0.03262843	      0.06594926
      1.10204082	      0.02963853	      0.03313191	      0.07260902
      1.12244898	      0.02947717	      0.03304159	      0.07671574
      1.14285714	      0.02856863	      0.03252841	      0.07797465
      1.16326531	      0.02742124	      0.03186850	      0.07705385
      1.18367347	      0.02647697	      0.03131499	      0.07426179
      1.20408163	      0.02594604	      0.03099943	      0.07018490
      1.22448980	      0.02569454	      0.03084882	      0.06586268
      1.24489796	      0.02551543	      0.03074111	      0.06823788
      1.26530612	      0.02532951	      0.03062891	      0.07022378
      1.28571429	      0.02506948	      0.03047128	      0.07163065
      1.30612245	      0.02458775	      0.03017710	      0.07185944
      1.32653061	      0.02392193	      0.02976571	      0.07096020
      1.34693878	      0.02333797	      0.02940016	      0.06944949
      1.36734694	      0.02288237	      0.02911177	      0.06726818
      1.38775510	      0.02222893	      0.02869309	      0.06397227
      1.40816327	      0.02136654	      0.02813100	      0.05921100
      1.42857143	      0.02082930	      0.02777509	      0.05331885
      1.44897959	      0.02099412	      0.02788476	      0.04747603
      1.46938776	      0.02144862	      0.02818498	      0.04504911
      1.48979592	      0.02159872	      0.02828343	      0.04766904
      1.51020408	      0.02132911	      0.02810635	      0.04875734
      1.53061224	      0.02091661	      0.02783324	      0.04879855
      1.55102041	      0.02065524	      0.02765879	      0.04843150
      1.57142857	      0.02065838	      0.02766090	      0.04759282
      1.59183673	      0.02109490	      0.02795161	      0.04704556
      1.61224490	      0.02183069	      0.02843491	      0.04630719
      1.63265306	      0.02258479	      0.02892186	      0.04719449
      1.65306122	      0.02319096	      0.02930741	      0.04778996
      1.67346939	      0.02349930	      0.02950160	      0.04952794
      1.69387755	      0.02344926	      0.02947017	      0.05044372
      1.71428571	      0.02319429	      0.02930952	      0.05148597
      1.73469388	      0.02291434	      0.02913210	      0.05141055
      1.75510204	      0.02265582	      0.02896730	      0.05095303
      1.77551020	      0.02234324	      0.02876677	      0.05007416
      1.79591837	      0.02198647	      0.02853618	      0.04825630
      1.81632653	      0.02169742	      0.02834798	      0.04801560
      1.83673469	      0.02152173	      0.02823298	      0.04766614
      1.85714286	      0.02135616	      0.02812417	      0.04721489
      1.87755102	      0.02109758	      0.02795339	      0.04681641
      1.89795918	      0.02075937	      0.02772843	      0.04548973
      1.91836735	      0.02044095	      0.02751495	      0.04458444
      1.93877551	      0.02024299	      0.02738139	      0.04484296
      1.95918367	      0.02010651	      0.02728893	      0.04592411
      1.97959184	      0.02027119	      0.02740046	      0.04869073
      2.00000000	      0.02076019	      0.02772897	      0.05198741
      2.02040816	      0.02149652	      0.02821644	      0.05450915
      2.04081633	      0.02227462	      0.02872257	      0.05523215
      2.06122449	      0.02280927	      0.02906523	      0.05402547
      2.08163265	      0.02277045	      0.02904049	      0.05138094
      2.10204082	      0.02233845	      0.02876369	      0.04997168
      2.12244898	      0.02157770	      0.02826967	      0.04936330
      2.14285714	      0.02050714	      0.02755946	      0.04644422
      2.16326531	      0.01927462	      0.02671843	      0.04168212
      2.18367347	      0.01813162	      0.02591412	      0.03971905
      2.20408163	      0.01732159	      0.02532865	      0.03903366
      2.22448980	      0.01671291	      0.02487965	      0.03837317
      2.24489796	      0.01607857	      0.02440292	      0.03842298
      2.26530612	      0.01534955	      0.02384327	      0.03876228
      2.28571429	      0.01464425	      0.02328905	      0.03942356
      2.30612245	      0.01409044	      0.02284443	      0.04027928
      2.32653061	      0.01386754	      0.02266302	      0.04102669
      2.34693878	      0.01393633	      0.02271916	      0.04127794
      2.36734694	      0.01419253	      0.02292704	      0.04085057
      2.38775510	      0.01458127	      0.02323891	      0.04015421
      2.40816327	      0.01501046	      0.02357844	      0.04033522
      2.42857143	      0.01538377	      0.02386984	      0.04407931
      2.44897959	      0.01568925	      0.02410567	      0.04746889
      2.46938776	      0.01589037	      0.02425968	      0.04980468
      2.48979592	      0.01599640	      0.02434049	      0.05069736
      2.51020408	      0.01600344	      0.02434584	      0.05012433
      2.53061224	      0.01601951	      0.02435806	      0.04843517
      2.55102041	      0.01608132	      0.02440501	      0.04650566
      2.57142857	      0.01611755	      0.02443248	      0.04441392
      2.59183673	      0.01618977	      0.02448716	      0.04214945
      2.61224490	      0.01661622	      0.02480757	      0.04016807
      2.63265306	      0.01759851	      0.02553031	      0.03911251
      2.65306122	      0.01904027	      0.02655551	      0.03946163
      2.67346939	      0.02126339	      0.02806302	      0.04380701
      2.69387755	      0.02414162	      0.02990208	      0.05082264
      2.71428571	      0.02722895	      0.03175657	      0.05510777
      2.73469388	      0.03017963	      0.03343298	      0.06265217
      2.75510204	      0.03288605	      0.03489988	      0.06983215
      2.77551020	      0.03498166	      0.03599468	      0.07728344
      2.79591837	      0.03610068	      0.03656586	      0.08417608
      2.81632653	      0.03635494	      0.03669440	      0.08995963
      2.83673469	      0.03605296	      0.03654169	      0.09135088
      2.85714286	      0.03516896	      0.03609091	      0.08734719
      2.87755102	      0.03367835	      0.03531779	      0.07954794
      2.89795918	      0.03181544	      0.03432710	      0.07158110
      2.91836735	      0.02996919	      0.03331621	      0.06527331
      2.93877551	      0.02868639	      0.03259538	      0.06017526
      2.95918367	      0.02834257	      0.03239946	      0.05668014
      2.97959184	      0.02841537	      0.03244104	      0.05461689
      3.00000000	      0.02742426	      0.03187026	      0.05273338
      3.02040816	      0.02613531	      0.03111229	      0.05218867
      3.04081633	      0.02582860	      0.03092919	      0.05649753
      3.06122449	      0.02671957	      0.03145812	      0.06063670
      3.08163265	      0.02784165	      0.03211187	      0.06208324
      3.10204082	      0.02830899	      0.03238026	      0.06337768
      3.12244898	      0.02806681	      0.03224146	      0.06584879
      3.14285714	      0.02746395	      0.03189331	      0.06464465
      3.16326531	      0.02700311	      0.03162460	      0.06170511
      3.18367347	      0.02691531	      0.03157314	      0.05760372
      3.20408163	      0.02703184	      0.03164142	      0.05363659
      3.22448980	      0.02727924	      0.03178588	      0.05863083
      3.24489796	      0.02791582	      0.03215461	      0.06694209
      3.26530612	      0.02884902	      0.03268765	      0.07336072
      3.28571429	      0.02986348	      0.03325740	      0.07725314
      3.30612245	      0.03051043	      0.03361571	      0.07758806
      3.32653061	      0.03097881	      0.03387275	      0.07624067
      3.34693878	      0.03138784	      0.03409564	      0.07571284
      3.36734694	      0.03222505	      0.03454736	      0.07471047
      3.38775510	      0.03305551	      0.03498969	      0.07446162
      3.40816327	      0.03330138	      0.03511957	      0.07425841
      3.42857143	      0.03257848	      0.03473630	      0.07265446
      3.44897959	      0.03108877	      0.03393281	      0.07137991
      3.46938776	      0.02947019	      0.03303768	      0.06919021
      3.48979592	      0.02839703	      0.03243057	      0.06703699
      3.51020408	      0.02808959	      0.03225454	      0.06716080
      3.53061224	      0.02811950	      0.03227171	      0.07133198
      3.55102041	      0.02792391	      0.03215927	      0.07169861
      3.57142857	      0.02759982	      0.03197211	      0.07046241
      3.59183673	      0.02777725	      0.03207471	      0.07336857
      3.61224490	      0.02909041	      0.03282412	      0.08375163
      3.63265306	      0.03174112	      0.03428698	      0.09865244
      3.65306122	      0.03513372	      0.03607283	      0.11230266
      3.67346939	      0.03803322	      0.03753182	      0.12018754
      3.69387755	      0.03959141	      0.03829293	      0.12220081
      3.71428571	      0.04035741	      0.03866159	      0.12217683
      3.73469388	      0.04129727	      0.03910918	      0.12377059
      3.75510204	      0.04220629	      0.03953727	      0.12594991
      3.77551020	      0.04173649	      0.03931661	      0.12465531
      3.79591837	      0.03894289	      0.03797801	      0.11639919
      3.81632653	      0.03456963	      0.03578207	      0.10107386
      3.83673469	      0.03048532	      0.03360188	      0.08211562
      3.85714286	      0.02783904	      0.03211037	      0.06426838
      3.87755102	      0.02650022	      0.03132874	      0.06134409
      3.89795918	      0.02608899	      0.03108471	      0.06200268
      3.91836735	      0.02652225	      0.03134175	      0.06082346
      3.93877551	      0.02760975	      0.03197786	      0.05570616
      3.95918367	      0.02912729	      0.03284492	      0.05433459
      3.97959184	      0.03029569	      0.03349720	      0.05658524
      4.00000000	      0.03057843	      0.03365315	      0.05767144
      4.02040816	      0.03013138	      0.03340624	      0.05767511
      4.04081633	      0.02959462	      0.03310736	      0.05753003
      4.06122449	      0.02940206	      0.03299947	      0.05729440
      4.08163265	      0.02927556	      0.03292841	      0.05636170
      4.10204082	      0.02887132	      0.03270028	      0.05585406
      4.12244898	      0.02839005	      0.03242658	      0.05439124
      4.14285714	      0.02814322	      0.03228531	      0.05497837
      4.16326531	      0.02792512	      0.03215997	      0.05545293
      4.18367347	      0.02733885	      0.03182059	      0.05567912
      4.20408163	      0.02644919	      0.03129856	      0.05570043
      4.22448980	      0.02581509	      0.03092110	      0.05549828
      4.24489796	      0.02579428	      0.03090863	      0.05552058
      4.26530612	      0.02624588	      0.03117803	      0.05498481
      4.28571429	      0.02676638	      0.03148567	      0.05473532
      4.30612245	      0.02701162	      0.03162958	      0.05583832
      4.32653061	      0.02683494	      0.03152597	      0.05662526
      4.34693878	      0.02641526	      0.03127848	      0.05557021
      4.36734694	      0.02594180	      0.03099689	      0.05405099
      4.38775510	      0.02558808	      0.03078484	      0.05306692
      4.40816327	      0.02548076	      0.03072022	      0.05253074
      4.42857143	      0.02573820	      0.03087502	      0.05195077
      4.44897959	      0.02621003	      0.03115673	      0.05107837
      4.46938776	      0.02654972	      0.03135798	      0.05081571
      4.48979592	      0.02662591	      0.03140294	      0.05047269
      4.51020408	      0.02671071	      0.03145291	      0.05014081
      4.53061224	      0.02705930	      0.03165748	      0.05040598
      4.55102041	      0.02757908	      0.03196009	      0.05112018
      4.57142857	      0.02802776	      0.03221902	      0.05276182
      4.59183673	      0.02828818	      0.03236835	      0.05543244
      4.61224490	      0.02846022	      0.03246663	      0.05856486
      4.63265306	      0.02854714	      0.03251617	      0.06087296
      4.65306122	      0.02835394	      0.03240596	      0.06091675
      4.67346939	      0.02761347	      0.03198001	      0.05951600
      4.69387755	      0.02670455	      0.03144928	      0.05846570
      4.71428571	      0.02611809	      0.03110204	      0.05941125
      4.73469388	      0.02609120	      0.03108602	      0.06147525
      4.75510204	      0.02639047	      0.03126379	      0.06292119
      4.77551020	      0.02705385	      0.03165430	      0.06517992
      4.79591837	      0.02787109	      0.03212884	      0.06831229
      4.81632653	      0.02865984	      0.03258030	      0.07217999
      4.83673469	      0.02936303	      0.03297756	      0.07679177
      4.85714286	      0.03010863	      0.03339363	      0.08245624
      4.87755102	      0.03087964	      0.03381849	      0.08880467
      4.89795918	      0.03182181	      0.03433053	      0.09532520
      4.91836735	      0.03256940	      0.03473146	      0.09927450
      4.93877551	      0.03289498	      0.03490462	      0.09959896
      4.95918367	      0.03255730	      0.03472500	      0.09612175
      4.97959184	      0.03182019	      0.03432966	      0.09052426
      5.00000000	      0.03101871	      0.03389456	      0.08478805
      5.02040816	      0.03041860	      0.03356508	      0.07998840
      5.04081633	      0.03013423	      0.03340782	      0.07792032
      5.06122449	      0.02989015	      0.03327225	      0.07801101
      5.08163265	      0.02942400	      0.03301178	      0.07832854
      5.10204082	      0.02856350	      0.03252549	      0.07666210
      5.12244898	      0.02729731	      0.03179640	      0.07183002
      5.14285714	      0.02576472	      0.03089092	      0.06443757
      5.16326531	      0.02440832	      0.03006679	      0.05633877
      5.18367347	      0.02356484	      0.02954271	      0.05279125
      5.20408163	      0.02312303	      0.02926446	      0.05522099
      5.22448980	      0.02307658	      0.02923505	      0.05664164
      5.24489796	      0.02335240	      0.02940925	      0.05691940
      5.26530612	      0.02384841	      0.02971993	      0.05635215
      5.28571429	      0.02425407	      0.02997164	      0.05523391
      5.30612245	      0.02416913	      0.02991911	      0.05400435
      5.32653061	      0.02370473	      0.02963027	      0.05530867
      5.34693878	      0.02339309	      0.02943485	      0.05935613
      5.36734694	      0.02331446	      0.02938535	      0.06263051
      5.38775510	      0.02305628	      0.02922219	      0.06325206
      5.40816327	      0.02248051	      0.02885501	      0.06042880
      5.42857143	      0.02209481	      0.02860640	      0.05502879
      5.44897959	      0.02252481	      0.02888342	      0.05319015
      5.46938776	      0.02380248	      0.02969130	      0.05186439
      5.48979592	      0.02546819	      0.03071264	      0.05060233
      5.51020408	      0.02696525	      0.03160242	      0.05229868
      5.53061224	      0.02794375	      0.03217070	      0.05630832
      5.55102041	      0.02829709	      0.03237345	      0.05882604
      5.57142857	      0.02770361	      0.03203217	      0.05900081
      5.59183673	      0.02635842	      0.03124480	      0.05681377
      5.61224490	      0.02454920	      0.03015343	      0.05291848
      5.63265306	      0.02286301	      0.02909945	      0.04898016
      5.65306122	      0.02141580	      0.02816341	      0.04927838
      5.67346939	      0.02060658	      0.02762620	      0.04960956
      5.69387755	      0.02031377	      0.02742922	      0.04999919
      5.71428571	      0.02034372	      0.02744943	      0.05010863
      5.73469388	      0.02065103	      0.02765597	      0.05011600
      5.75510204	      0.02128326	      0.02807613	      0.04995795
      5.77551020	      0.02213366	      0.02863154	      0.04980116
      5.79591837	      0.02302551	      0.02920268	      0.04950904
      5.81632653	      0.02383416	      0.02971105	      0.05006068
      5.83673469	      0.02447927	      0.03011046	      0.05243152
      5.85714286	      0.02492539	      0.03038359	      0.05263961
      5.87755102	      0.02499255	      0.03042450	      0.05063017
      5.89795918	      0.02452396	      0.03013793	      0.04885127
      5.91836735	      0.02368926	      0.02962060	      0.04844632
      5.93877551	      0.02276945	      0.02903985	      0.04759197
      5.95918367	      0.02207496	      0.02859355	      0.04753830
      5.97959184	      0.02175533	      0.02838579	      0.04750112
      6.00000000	      0.02181158	      0.02842246	      0.04745902
      6.02040816	      0.02203999	      0.02857090	      0.04808150
      6.04081633	      0.02216821	      0.02865388	      0.04815322
      6.06122449	      0.02207217	      0.02859174	      0.04858684
      6.08163265	      0.02183317	      0.02843652	      0.04649249
      6.10204082	      0.02173636	      0.02837341	      0.04435538
      6.12244898	      0.02179996	      0.02841489	      0.04694227
      6.14285714	      0.02187676	      0.02846490	      0.04972642
      6.16326531	      0.02171812	      0.02836150	      0.05143410
      6.18367347	      0.02117387	      0.02800389	      0.05150323
      6.20408163	      0.02019477	      0.02734876	      0.04937041
      6.22448980	      0.01915965	      0.02663863	      0.04910283
      6.24489796	      0.01831304	      0.02604344	      0.04819109
      6.26530612	      0.01782030	      0.02569068	      0.04719638
      6.28571429	      0.01764039	      0.02556067	      0.04610255
      6.30612245	      0.01748530	      0.02544806	      0.04477119
      6.32653061	      0.01717909	      0.02522424	      0.04359958
      6.34693878	      0.01683986	      0.02497396	      0.04327987
      6.36734694	      0.01677489	      0.02492573	      0.04444769
      6.38775510	      0.01716838	      0.02521639	      0.04483641
      6.40816327	      0.01792258	      0.02576430	      0.04444427
      6.42857143	      0.01864973	      0.02628176	      0.04418081
      6.44897959	      0.01902719	      0.02654639	      0.04326723
      6.46938776	      0.01904266	      0.02655718	      0.04292964
      6.48979592	      0.01882054	      0.02640184	      0.04295467
      6.51020408	      0.01853929	      0.02620382	      0.04284459
      6.53061224	      0.01835787	      0.02607530	      0.04292640
      6.55102041	      0.01828590	      0.02602414	      0.04308210
      6.57142857	      0.01826741	      0.02601097	      0.04382903
      6.59183673	      0.01840280	      0.02610719	      0.04504659
      6.61224490	      0.01871578	      0.02632826	      0.04675976
      6.63265306	      0.01922502	      0.02668404	      0.04850405
      6.65306122	      0.01976434	      0.02705573	      0.04995636
      6.67346939	      0.02019486	      0.02734881	      0.05066311
      6.69387755	      0.02034164	      0.02744803	      0.05020547
      6.71428571	      0.02034770	      0.02745211	      0.04906023
      6.73469388	      0.02037769	      0.02747234	      0.04798369
      6.75510204	      0.02050201	      0.02755601	      0.04758645
      6.77551020	      0.02055619	      0.02759240	      0.04730408
      6.79591837	      0.02053544	      0.02757847	      0.04673266
      6.81632653	      0.02043162	      0.02750867	      0.04558967
      6.83673469	      0.02020110	      0.02735304	      0.04429712
      6.85714286	      0.01996752	      0.02719445	      0.04298799
      6.87755102	      0.01970511	      0.02701516	      0.04246383
      6.89795918	      0.01941549	      0.02681590	      0.04334765
      6.91836735	      0.01933616	      0.02676105	      0.04356396
      6.93877551	      0.01946716	      0.02685155	      0.04560474
      6.95918367	      0.01964254	      0.02697223	      0.04777948
      6.97959184	      0.01972580	      0.02702934	      0.04870467
      7.00000000	      0.01965777	      0.02698269	      0.04803927
      7.02040816	      0.01955175	      0.02690983	      0.04681046
      7.04081633	      0.01949130	      0.02686819	      0.04608021
      7.06122449	      0.01946666	      0.02685121	      0.04648961
      7.08163265	      0.01929660	      0.02673367	      0.04655988
      7.10204082	      0.01911364	      0.02660663	      0.04669255
      7.12244898	      0.01899165	      0.02652158	      0.04860347
      7.14285714	      0.01898701	      0.02651834	      0.05054542
      7.16326531	      0.01891815	      0.02647022	      0.05186532
      7.18367347	      0.01859664	      0.02624432	      0.05204229
      7.20408163	      0.01818542	      0.02595253	      0.05148230
      7.22448980	      0.01795855	      0.02579015	      0.05093899
      7.24489796	      0.01802257	      0.02583607	      0.05078536
      7.26530612	      0.01831399	      0.02604411	      0.05134292
      7.28571429	      0.01884833	      0.02642132	      0.05236642
      7.30612245	      0.01963624	      0.02696791	      0.05323229
      7.32653061	      0.02046687	      0.02753238	      0.05344987
      7.34693878	      0.02094596	      0.02785276	      0.05401330
      7.36734694	      0.02073730	      0.02771368	      0.05218250
      7.38775510	      0.01987505	      0.02713140	      0.04954094
      7.40816327	      0.01899125	      0.02652130	      0.04748524
      7.42857143	      0.01891882	      0.02647068	      0.04585397
      7.44897959	      0.01965543	      0.02698108	      0.04858564
      7.46938776	      0.02037900	      0.02747322	      0.05021629
      7.48979592	      0.02067438	      0.02767160	      0.05098156
      7.51020408	      0.02077704	      0.02774022	      0.05181897
      7.53061224	      0.02102562	      0.02790567	      0.05216354
      7.55102041	      0.02161258	      0.02829250	      0.05267399
      7.57142857	      0.02252414	      0.02888300	      0.05311063
      7.59183673	      0.02372127	      0.02964061	      0.05338051
      7.61224490	      0.02489431	      0.03036464	      0.05366567
      7.63265306	      0.02572756	      0.03086863	      0.05550975
      7.65306122	      0.02605677	      0.03106550	      0.05590788
      7.67346939	      0.02592723	      0.03098819	      0.05498148
      7.69387755	      0.02549368	      0.03072801	      0.05299528
      7.71428571	      0.02496469	      0.03040753	      0.05351722
      7.73469388	      0.02430705	      0.03000435	      0.05444395
      7.75510204	      0.02385524	      0.02972419	      0.05612636
      7.77551020	      0.02425932	      0.02997488	      0.05845638
