Model Marker Errors from IK
version=1
nRows=359
nColumns=4
inDegrees=no
endheader
time	total_squared_error	marker_error_RMS	marker_error_max
      0.00000000	      0.01617728	      0.02447772	      0.04549220
      0.01694915	      0.01507036	      0.02362544	      0.04514194
      0.03389831	      0.01468208	      0.02331911	      0.04399888
      0.05084746	      0.01443249	      0.02312005	      0.04228313
      0.06779661	      0.01412989	      0.02287639	      0.04030246
      0.08474576	      0.01379814	      0.02260624	      0.03807747
      0.10169492	      0.01349910	      0.02235994	      0.03702211
      0.11864407	      0.01324181	      0.02214582	      0.03691259
      0.13559322	      0.01303824	      0.02197493	      0.03662150
      0.15254237	      0.01291234	      0.02186858	      0.03615246
      0.16949153	      0.01288723	      0.02184731	      0.03646076
      0.18644068	      0.01297858	      0.02192460	      0.03737171
      0.20338983	      0.01317236	      0.02208767	      0.03817320
      0.22033898	      0.01346332	      0.02233028	      0.03874153
      0.23728814	      0.01376825	      0.02258174	      0.03907816
      0.25423729	      0.01400614	      0.02277600	      0.03908461
      0.27118644	      0.01411481	      0.02286418	      0.03881753
      0.28813559	      0.01407176	      0.02282929	      0.03823590
      0.30508475	      0.01392374	      0.02270890	      0.03792236
      0.32203390	      0.01376280	      0.02257728	      0.03939934
      0.33898305	      0.01366094	      0.02249357	      0.04083113
      0.35593220	      0.01368109	      0.02251015	      0.04205619
      0.37288136	      0.01383265	      0.02263449	      0.04306198
      0.38983051	      0.01409112	      0.02284498	      0.04373117
      0.40677966	      0.01439464	      0.02308971	      0.04426544
      0.42372881	      0.01467637	      0.02331457	      0.04466435
      0.44067797	      0.01489444	      0.02348715	      0.04535342
      0.45762712	      0.01504302	      0.02360401	      0.04651149
      0.47457627	      0.01510974	      0.02365629	      0.04772401
      0.49152542	      0.01508831	      0.02363951	      0.04853079
      0.50847458	      0.01501739	      0.02358388	      0.04877294
      0.52542373	      0.01491580	      0.02350398	      0.04843378
      0.54237288	      0.01482445	      0.02343190	      0.04761347
      0.55932203	      0.01474411	      0.02336832	      0.04657566
      0.57627119	      0.01469631	      0.02333041	      0.04538407
      0.59322034	      0.01471239	      0.02334316	      0.04421319
      0.61016949	      0.01484270	      0.02344632	      0.04289591
      0.62711864	      0.01512182	      0.02366574	      0.04150062
      0.64406780	      0.01552034	      0.02397556	      0.04134497
      0.66101695	      0.01598898	      0.02433484	      0.04078254
      0.67796610	      0.01644938	      0.02468271	      0.04078137
      0.69491525	      0.01684957	      0.02498116	      0.04067174
      0.71186441	      0.01724196	      0.02527036	      0.04040353
      0.72881356	      0.01754103	      0.02548858	      0.04061065
      0.74576271	      0.01754700	      0.02549292	      0.04224129
      0.76271186	      0.01708757	      0.02515696	      0.04238389
      0.77966102	      0.01627890	      0.02455447	      0.04147422
      0.79661017	      0.01544693	      0.02391879	      0.04201046
      0.81355932	      0.01490852	      0.02349824	      0.04319350
      0.83050847	      0.01488250	      0.02347772	      0.04426863
      0.84745763	      0.01555024	      0.02399864	      0.04717298
      0.86440678	      0.01696088	      0.02506353	      0.05070387
      0.88135593	      0.01880203	      0.02638885	      0.05483725
      0.89830508	      0.02053685	      0.02757941	      0.05900716
      0.91525424	      0.02196885	      0.02852475	      0.06329203
      0.93220339	      0.02305775	      0.02922312	      0.06570819
      0.94915254	      0.02360832	      0.02956996	      0.06624528
      0.96610169	      0.02353882	      0.02952640	      0.06464445
      0.98305085	      0.02293952	      0.02914811	      0.06235115
      1.00000000	      0.02230607	      0.02874284	      0.06035745
      1.01694915	      0.02198821	      0.02853731	      0.05948026
      1.03389831	      0.02189777	      0.02847856	      0.05917707
      1.05084746	      0.02183564	      0.02843813	      0.05847877
      1.06779661	      0.02160847	      0.02828982	      0.05759492
      1.08474576	      0.02113487	      0.02797808	      0.05665650
      1.10169492	      0.02054973	      0.02758806	      0.05810274
      1.11864407	      0.01997131	      0.02719703	      0.05901059
      1.13559322	      0.01936787	      0.02678299	      0.05986330
      1.15254237	      0.01886243	      0.02643120	      0.06016364
      1.16949153	      0.01823465	      0.02598764	      0.06015349
      1.18644068	      0.01784734	      0.02571016	      0.05984540
      1.20338983	      0.01743710	      0.02541296	      0.05899272
      1.22033898	      0.01699906	      0.02509173	      0.05771334
      1.23728814	      0.01647349	      0.02470079	      0.05609122
      1.25423729	      0.01579810	      0.02418914	      0.05391913
      1.27118644	      0.01529351	      0.02379971	      0.05156241
      1.28813559	      0.01511974	      0.02366412	      0.04961536
      1.30508475	      0.01526160	      0.02377487	      0.04779088
      1.32203390	      0.01538148	      0.02386807	      0.04782934
      1.33898305	      0.01530417	      0.02380801	      0.04734514
      1.35593220	      0.01515448	      0.02369129	      0.04591500
      1.37288136	      0.01526805	      0.02377989	      0.04603020
      1.38983051	      0.01564002	      0.02406782	      0.04617107
      1.40677966	      0.01617835	      0.02447853	      0.04682386
      1.42372881	      0.01692042	      0.02503362	      0.04702969
      1.44067797	      0.01792101	      0.02576318	      0.04639095
      1.45762712	      0.01894644	      0.02649000	      0.04447135
      1.47457627	      0.01961988	      0.02695667	      0.04622714
      1.49152542	      0.01971223	      0.02702004	      0.04758668
      1.50847458	      0.01916426	      0.02664184	      0.04665625
      1.52542373	      0.01854044	      0.02620463	      0.04687541
      1.54237288	      0.01790888	      0.02575445	      0.04632428
      1.55932203	      0.01738201	      0.02537278	      0.04460412
      1.57627119	      0.01703152	      0.02511568	      0.04200452
      1.59322034	      0.01683138	      0.02496767	      0.03950257
      1.61016949	      0.01672200	      0.02488641	      0.04101579
      1.62711864	      0.01666236	      0.02484199	      0.04244219
      1.64406780	      0.01669374	      0.02486537	      0.04361848
      1.66101695	      0.01693089	      0.02504136	      0.04463321
      1.67796610	      0.01742195	      0.02540192	      0.04546346
      1.69491525	      0.01799013	      0.02581281	      0.04604763
      1.71186441	      0.01859682	      0.02624445	      0.04642305
      1.72881356	      0.01896619	      0.02650380	      0.04646611
      1.74576271	      0.01884076	      0.02641602	      0.04672138
      1.76271186	      0.01856034	      0.02621869	      0.04638488
      1.77966102	      0.01836130	      0.02607773	      0.04605021
      1.79661017	      0.01825333	      0.02600094	      0.04552187
      1.81355932	      0.01804859	      0.02585471	      0.04524803
      1.83050847	      0.01772751	      0.02562371	      0.04465384
      1.84745763	      0.01744021	      0.02541523	      0.04376614
      1.86440678	      0.01738858	      0.02537758	      0.04320816
      1.88135593	      0.01764320	      0.02556271	      0.04264675
      1.89830508	      0.01804818	      0.02585442	      0.04234033
      1.91525424	      0.01840335	      0.02610757	      0.04233726
      1.93220339	      0.01854023	      0.02620449	      0.04273061
      1.94915254	      0.01853301	      0.02619938	      0.04301034
      1.96610169	      0.01854848	      0.02621032	      0.04321085
      1.98305085	      0.01873305	      0.02634040	      0.04463847
      2.00000000	      0.01906659	      0.02657386	      0.04627457
      2.01694915	      0.01949128	      0.02686818	      0.04789383
      2.03389831	      0.01962390	      0.02695944	      0.04891926
      2.05084746	      0.02008875	      0.02727687	      0.04955467
      2.06779661	      0.02065108	      0.02765601	      0.04964544
      2.08474576	      0.02145435	      0.02818875	      0.04925406
      2.10169492	      0.02218780	      0.02866654	      0.04866543
      2.11864407	      0.02243026	      0.02882274	      0.04785846
      2.13559322	      0.02240011	      0.02880336	      0.04773571
      2.15254237	      0.02218895	      0.02866728	      0.04901301
      2.16949153	      0.02212073	      0.02862318	      0.05345354
      2.18644068	      0.02217277	      0.02865683	      0.05737563
      2.20338983	      0.02187502	      0.02846376	      0.05956404
      2.22033898	      0.02084326	      0.02778439	      0.05781194
      2.23728814	      0.01931751	      0.02674815	      0.05240687
      2.25423729	      0.01776031	      0.02564740	      0.05009186
      2.27118644	      0.01682683	      0.02496429	      0.05083163
      2.28813559	      0.01660587	      0.02479984	      0.05103852
      2.30508475	      0.01710105	      0.02516689	      0.05100533
      2.32203390	      0.01785134	      0.02571304	      0.05029340
      2.33898305	      0.01887100	      0.02643720	      0.04925043
      2.35593220	      0.01985406	      0.02711707	      0.04789036
      2.37288136	      0.02066150	      0.02766298	      0.04671687
      2.38983051	      0.02107219	      0.02793656	      0.04834322
      2.40677966	      0.02093341	      0.02784441	      0.04922989
      2.42372881	      0.02015464	      0.02732157	      0.04857454
      2.44067797	      0.01929700	      0.02673394	      0.04769380
      2.45762712	      0.01857912	      0.02623195	      0.04658338
      2.47457627	      0.01795990	      0.02579111	      0.04542465
      2.49152542	      0.01740259	      0.02538780	      0.04351888
      2.50847458	      0.01675859	      0.02491362	      0.04127469
      2.52542373	      0.01614885	      0.02445620	      0.04030494
      2.54237288	      0.01579471	      0.02418655	      0.03945126
      2.55932203	      0.01565789	      0.02408157	      0.03849894
      2.57627119	      0.01584985	      0.02422873	      0.04088096
      2.59322034	      0.01609015	      0.02441171	      0.04189276
      2.61016949	      0.01620462	      0.02449839	      0.04192929
      2.62711864	      0.01601394	      0.02435382	      0.04139113
      2.64406780	      0.01542310	      0.02390033	      0.04109295
      2.66101695	      0.01442923	      0.02311744	      0.04085692
      2.67796610	      0.01306486	      0.02199736	      0.03853333
      2.69491525	      0.01169075	      0.02080843	      0.03776944
      2.71186441	      0.01078667	      0.01998765	      0.03897813
      2.72881356	      0.01056131	      0.01977775	      0.03999740
      2.74576271	      0.01083227	      0.02002985	      0.04071100
      2.76271186	      0.01138207	      0.02053188	      0.04115554
      2.77966102	      0.01200928	      0.02109000	      0.04156045
      2.79661017	      0.01260404	      0.02160593	      0.04212072
      2.81355932	      0.01317260	      0.02208787	      0.04242978
      2.83050847	      0.01361292	      0.02245400	      0.04258213
      2.84745763	      0.01403444	      0.02279899	      0.04195634
      2.86440678	      0.01436788	      0.02306824	      0.04083798
      2.88135593	      0.01437524	      0.02307415	      0.04211482
      2.89830508	      0.01432061	      0.02303026	      0.03976785
      2.91525424	      0.01450258	      0.02317612	      0.03989496
      2.93220339	      0.01492622	      0.02351219	      0.04127479
      2.94915254	      0.01544196	      0.02391494	      0.04277860
      2.96610169	      0.01574900	      0.02415153	      0.04331875
      2.98305085	      0.01580469	      0.02419419	      0.04398933
      3.00000000	      0.01517492	      0.02370725	      0.03937530
      3.01694915	      0.01526498	      0.02377750	      0.03949077
      3.03389831	      0.01566512	      0.02408712	      0.04043068
      3.05084746	      0.01615811	      0.02446321	      0.04104571
      3.06779661	      0.01660271	      0.02479748	      0.04149344
      3.08474576	      0.01665059	      0.02483321	      0.04146414
      3.10169492	      0.01625678	      0.02453779	      0.04131174
      3.11864407	      0.01573829	      0.02414332	      0.04141121
      3.13559322	      0.01544880	      0.02392023	      0.04182235
      3.15254237	      0.01549186	      0.02395355	      0.04189848
      3.16949153	      0.01576029	      0.02416018	      0.04311026
      3.18644068	      0.01591570	      0.02427901	      0.04421082
      3.20338983	      0.01569592	      0.02411079	      0.04388596
      3.22033898	      0.01518856	      0.02371791	      0.04222729
      3.23728814	      0.01489637	      0.02348867	      0.04236485
      3.25423729	      0.01507460	      0.02362876	      0.04352008
      3.27118644	      0.01577398	      0.02417067	      0.04488450
      3.28813559	      0.01658486	      0.02478415	      0.04645011
      3.30508475	      0.01725020	      0.02527640	      0.04788931
      3.32203390	      0.01733435	      0.02533798	      0.04893367
      3.33898305	      0.01664857	      0.02483171	      0.04956210
      3.35593220	      0.01575911	      0.02415928	      0.04961596
      3.37288136	      0.01499708	      0.02356793	      0.04971170
      3.38983051	      0.01464931	      0.02329306	      0.05008791
      3.40677966	      0.01497951	      0.02355412	      0.05081594
      3.42372881	      0.01587501	      0.02424795	      0.05177422
      3.44067797	      0.01690167	      0.02501975	      0.05256024
      3.45762712	      0.01725345	      0.02527878	      0.05322884
      3.47457627	      0.01740276	      0.02538792	      0.05393122
      3.49152542	      0.01745482	      0.02542587	      0.05426039
      3.50847458	      0.01768296	      0.02559149	      0.05442202
      3.52542373	      0.01807469	      0.02587340	      0.05429684
      3.54237288	      0.01871604	      0.02632844	      0.05375773
      3.55932203	      0.01940435	      0.02680820	      0.05287110
      3.57627119	      0.01991165	      0.02715637	      0.05162760
      3.59322034	      0.02002858	      0.02723599	      0.05047059
      3.61016949	      0.01989381	      0.02714420	      0.05251339
      3.62711864	      0.01970298	      0.02701370	      0.05335288
      3.64406780	      0.01967970	      0.02699773	      0.05352757
      3.66101695	      0.01986597	      0.02712521	      0.05342153
      3.67796610	      0.02007130	      0.02726502	      0.05237421
      3.69491525	      0.02019390	      0.02734816	      0.05010929
      3.71186441	      0.02025694	      0.02739082	      0.04638683
      3.72881356	      0.02026927	      0.02739915	      0.04410096
      3.74576271	      0.02026587	      0.02739686	      0.04455331
      3.76271186	      0.02035520	      0.02745717	      0.04433432
      3.77966102	      0.02039918	      0.02748682	      0.04335183
      3.79661017	      0.02048656	      0.02754562	      0.04159705
      3.81355932	      0.02039082	      0.02748119	      0.04207421
      3.83050847	      0.01996601	      0.02719341	      0.04216796
      3.84745763	      0.01918959	      0.02665944	      0.04183697
      3.86440678	      0.01841465	      0.02611559	      0.04128856
      3.88135593	      0.01799588	      0.02581693	      0.04080490
      3.89830508	      0.01804894	      0.02585496	      0.04066673
      3.91525424	      0.01846452	      0.02615093	      0.04177205
      3.93220339	      0.01903410	      0.02655121	      0.04513286
      3.94915254	      0.01958004	      0.02692929	      0.04881039
      3.96610169	      0.02011729	      0.02729624	      0.05132736
      3.98305085	      0.02037766	      0.02747232	      0.05310216
      4.00000000	      0.02051073	      0.02756187	      0.05327583
      4.01694915	      0.02050710	      0.02755943	      0.05219933
      4.03389831	      0.02045318	      0.02752318	      0.05075697
      4.05084746	      0.02043164	      0.02750868	      0.04953170
      4.06779661	      0.02054525	      0.02758505	      0.04926187
      4.08474576	      0.02080312	      0.02775763	      0.04967742
      4.10169492	      0.02080011	      0.02775562	      0.05052003
      4.11864407	      0.02065886	      0.02766122	      0.05085657
      4.13559322	      0.02028967	      0.02741294	      0.05080439
      4.15254237	      0.01984504	      0.02711091	      0.05118491
      4.16949153	      0.01935509	      0.02677415	      0.05163905
      4.18644068	      0.01865549	      0.02628581	      0.05190314
      4.20338983	      0.01795806	      0.02578979	      0.05167621
      4.22033898	      0.01732986	      0.02533469	      0.05111934
      4.23728814	      0.01684387	      0.02497693	      0.05042241
      4.25423729	      0.01658426	      0.02478370	      0.05009934
      4.27118644	      0.01642919	      0.02466756	      0.04953107
      4.28813559	      0.01633619	      0.02459765	      0.04898032
      4.30508475	      0.01632334	      0.02458796	      0.04850218
      4.32203390	      0.01638685	      0.02463575	      0.04824177
      4.33898305	      0.01650222	      0.02472233	      0.04810504
      4.35593220	      0.01663314	      0.02482020	      0.04802492
      4.37288136	      0.01674434	      0.02490303	      0.04809242
      4.38983051	      0.01680560	      0.02494854	      0.04827037
      4.40677966	      0.01687435	      0.02499952	      0.04874493
      4.42372881	      0.01695860	      0.02506185	      0.04937919
      4.44067797	      0.01708985	      0.02515864	      0.05004808
      4.45762712	      0.01722894	      0.02526082	      0.05042290
      4.47457627	      0.01744364	      0.02541772	      0.05053108
      4.49152542	      0.01777422	      0.02565744	      0.05042662
      4.50847458	      0.01816473	      0.02593777	      0.04923273
      4.52542373	      0.01859113	      0.02624043	      0.04771345
      4.54237288	      0.01888641	      0.02644800	      0.04555500
      4.55932203	      0.01902569	      0.02654535	      0.04568539
      4.57627119	      0.01893679	      0.02648325	      0.04630510
      4.59322034	      0.01865408	      0.02628482	      0.04650386
      4.61016949	      0.01833310	      0.02605770	      0.04347951
      4.62711864	      0.01805635	      0.02586027	      0.04282287
      4.64406780	      0.01792503	      0.02576606	      0.04433452
      4.66101695	      0.01793399	      0.02577250	      0.04512970
      4.67796610	      0.01796263	      0.02579307	      0.04548311
      4.69491525	      0.01787705	      0.02573156	      0.04521183
      4.71186441	      0.01780411	      0.02567901	      0.04568500
      4.72881356	      0.01789566	      0.02574495	      0.04646007
      4.74576271	      0.01811341	      0.02590110	      0.04750975
      4.76271186	      0.01798104	      0.02580629	      0.04852732
      4.77966102	      0.01800575	      0.02582401	      0.04933236
      4.79661017	      0.01792640	      0.02576705	      0.04964767
      4.81355932	      0.01796331	      0.02579356	      0.04938587
      4.83050847	      0.01765187	      0.02556899	      0.04851162
      4.84745763	      0.01714037	      0.02519580	      0.04721689
      4.86440678	      0.01654926	      0.02475754	      0.04546806
      4.88135593	      0.01618072	      0.02448032	      0.04352922
      4.89830508	      0.01624354	      0.02452779	      0.04144845
      4.91525424	      0.01685084	      0.02498210	      0.03938973
      4.93220339	      0.01805146	      0.02585677	      0.04577582
      4.94915254	      0.01928342	      0.02672453	      0.05063828
      4.96610169	      0.02017718	      0.02733684	      0.05152442
      4.98305085	      0.02024759	      0.02738450	      0.04779223
      5.00000000	      0.01948376	      0.02686300	      0.04845269
      5.01694915	      0.01825572	      0.02600265	      0.04939104
      5.03389831	      0.01711593	      0.02517783	      0.04914750
      5.05084746	      0.01637391	      0.02462602	      0.04768896
      5.06779661	      0.01600453	      0.02434667	      0.04603122
      5.08474576	      0.01591672	      0.02427979	      0.04967131
      5.10169492	      0.01646104	      0.02469146	      0.05337443
      5.11864407	      0.01763635	      0.02555774	      0.05632297
      5.13559322	      0.01917846	      0.02665171	      0.05814827
      5.15254237	      0.02078104	      0.02774289	      0.05888378
      5.16949153	      0.02209759	      0.02860820	      0.06492015
      5.18644068	      0.02279739	      0.02905766	      0.06596785
      5.20338983	      0.02302129	      0.02920001	      0.06516196
      5.22033898	      0.02247454	      0.02885118	      0.06054410
      5.23728814	      0.02238759	      0.02879531	      0.05494826
      5.25423729	      0.02303021	      0.02920566	      0.04950002
      5.27118644	      0.02449123	      0.03011781	      0.04682332
      5.28813559	      0.02636179	      0.03124680	      0.05628815
      5.30508475	      0.02791571	      0.03215455	      0.06481290
      5.32203390	      0.02837723	      0.03241926	      0.06954493
      5.33898305	      0.02753904	      0.03193688	      0.06871178
      5.35593220	      0.02567449	      0.03083678	      0.06376003
      5.37288136	      0.02346677	      0.02948118	      0.05701110
      5.38983051	      0.02150546	      0.02822230	      0.05016130
      5.40677966	      0.02035016	      0.02745377	      0.05021662
      5.42372881	      0.01996680	      0.02719396	      0.05340993
      5.44067797	      0.02031435	      0.02742961	      0.05834845
      5.45762712	      0.02124371	      0.02805003	      0.06349159
      5.47457627	      0.02245717	      0.02884002	      0.06763653
      5.49152542	      0.02354122	      0.02952790	      0.07027764
      5.50847458	      0.02412898	      0.02989424	      0.07082487
      5.52542373	      0.02407907	      0.02986331	      0.07032428
      5.54237288	      0.02352474	      0.02951757	      0.06943807
      5.55932203	      0.02271328	      0.02900401	      0.06896672
      5.57627119	      0.02186746	      0.02845884	      0.06809184
      5.59322034	      0.02082824	      0.02777438	      0.06693945
      5.61016949	      0.01994576	      0.02717962	      0.06562703
      5.62711864	      0.01906028	      0.02656946	      0.06334644
      5.64406780	      0.01821282	      0.02597208	      0.05977684
      5.66101695	      0.01751091	      0.02546669	      0.05545127
      5.67796610	      0.01706741	      0.02514212	      0.05069520
      5.69491525	      0.01663055	      0.02481827	      0.04668671
      5.71186441	      0.01628583	      0.02455970	      0.04423487
      5.72881356	      0.01614390	      0.02445245	      0.04510321
      5.74576271	      0.01649873	      0.02471971	      0.04571770
      5.76271186	      0.01719179	      0.02523357	      0.04579034
      5.77966102	      0.01781864	      0.02568949	      0.04791052
      5.79661017	      0.01829199	      0.02602847	      0.05235552
      5.81355932	      0.01836452	      0.02608002	      0.05423987
      5.83050847	      0.01809610	      0.02588872	      0.05405747
      5.84745763	      0.01805999	      0.02586288	      0.05422683
      5.86440678	      0.01878039	      0.02637366	      0.05684040
      5.88135593	      0.02071403	      0.02769812	      0.06292973
      5.89830508	      0.02384110	      0.02971538	      0.07068758
      5.91525424	      0.02747780	      0.03190135	      0.08221172
      5.93220339	      0.03072110	      0.03373157	      0.08923181
      5.94915254	      0.03404644	      0.03551027	      0.09487157
      5.96610169	      0.03771850	      0.03737622	      0.09993528
      5.98305085	      0.04193427	      0.03940966	      0.10349160
      6.00000000	      0.04684599	      0.04165377	      0.10697398
      6.01694915	      0.05161030	      0.04372062	      0.10979492
      6.03389831	      0.05524601	      0.04523438	      0.11113555
      6.05084746	      0.05662033	      0.04579355	      0.10996200
      6.06779661	      0.05526479	      0.04524206	      0.10587833
