Model Marker Errors from IK
version=1
nRows=323
nColumns=4
inDegrees=no
endheader
time	total_squared_error	marker_error_RMS	marker_error_max
      0.00000000	      0.01739883	      0.02538506	      0.04180683
      0.01851852	      0.01754975	      0.02549492	      0.04130977
      0.03703704	      0.01776229	      0.02564883	      0.04271725
      0.05555556	      0.01789689	      0.02574583	      0.04359737
      0.07407407	      0.01791297	      0.02575740	      0.04384079
      0.09259259	      0.01782787	      0.02569614	      0.04358410
      0.11111111	      0.01768262	      0.02559125	      0.04305627
      0.12962963	      0.01749203	      0.02545295	      0.04268748
      0.14814815	      0.01725267	      0.02527821	      0.04221651
      0.16666667	      0.01692148	      0.02503440	      0.04160281
      0.18518519	      0.01657241	      0.02477485	      0.04073662
      0.20370370	      0.01624101	      0.02452588	      0.03984373
      0.22222222	      0.01592879	      0.02428900	      0.03891177
      0.24074074	      0.01565158	      0.02407671	      0.03834310
      0.25925926	      0.01538029	      0.02386714	      0.03857204
      0.27777778	      0.01514294	      0.02368226	      0.03796044
      0.29629630	      0.01494636	      0.02352804	      0.03725827
      0.31481481	      0.01481456	      0.02342408	      0.03735995
      0.33333333	      0.01478963	      0.02340436	      0.03746464
      0.35185185	      0.01478115	      0.02339765	      0.03762783
      0.37037037	      0.01490777	      0.02349765	      0.03769724
      0.38888889	      0.01512068	      0.02366485	      0.03777250
      0.40740741	      0.01538647	      0.02387193	      0.03788721
      0.42592593	      0.01565026	      0.02407570	      0.03797035
      0.44444444	      0.01576651	      0.02416495	      0.03767485
      0.46296296	      0.01592513	      0.02428621	      0.03777637
      0.48148148	      0.01604323	      0.02437609	      0.03799990
      0.50000000	      0.01609022	      0.02441176	      0.03812285
      0.51851852	      0.01605900	      0.02438807	      0.03821523
      0.53703704	      0.01597371	      0.02432322	      0.03821061
      0.55555556	      0.01587331	      0.02424666	      0.03840367
      0.57407407	      0.01576228	      0.02416171	      0.03843858
      0.59259259	      0.01563332	      0.02406267	      0.03829557
      0.61111111	      0.01549276	      0.02395425	      0.03756684
      0.62962963	      0.01536158	      0.02385262	      0.03653816
      0.64814815	      0.01524990	      0.02376575	      0.03597826
      0.66666667	      0.01517173	      0.02370477	      0.03599319
      0.68518519	      0.01517456	      0.02370697	      0.03604543
      0.70370370	      0.01523616	      0.02375505	      0.03609480
      0.72222222	      0.01545093	      0.02392188	      0.03617830
      0.74074074	      0.01580551	      0.02419482	      0.03617834
      0.75925926	      0.01625077	      0.02453325	      0.03677585
      0.77777778	      0.01671134	      0.02487848	      0.03835259
      0.79629630	      0.01709360	      0.02516141	      0.03929778
      0.81481481	      0.01729335	      0.02530799	      0.04000717
      0.83333333	      0.01726401	      0.02528651	      0.04083707
      0.85185185	      0.01704870	      0.02512834	      0.04072980
      0.87037037	      0.01674855	      0.02490615	      0.04009097
      0.88888889	      0.01641740	      0.02465870	      0.03883644
      0.90740741	      0.01605656	      0.02438621	      0.03730304
      0.92592593	      0.01570312	      0.02411632	      0.03609782
      0.94444444	      0.01542702	      0.02390337	      0.03620025
      0.96296296	      0.01530259	      0.02380678	      0.03621097
      0.98148148	      0.01534354	      0.02383861	      0.03626949
      1.00000000	      0.01549360	      0.02395489	      0.03632686
      1.01851852	      0.01569639	      0.02411116	      0.03757075
      1.03703704	      0.01594814	      0.02430374	      0.03895871
      1.05555556	      0.01616101	      0.02446540	      0.04004051
      1.07407407	      0.01634320	      0.02460292	      0.04083481
      1.09259259	      0.01647467	      0.02470168	      0.04137105
      1.11111111	      0.01655980	      0.02476542	      0.04156904
      1.12962963	      0.01664745	      0.02483088	      0.04170484
      1.14814815	      0.01672451	      0.02488827	      0.04165368
      1.16666667	      0.01676657	      0.02491955	      0.04133833
      1.18518519	      0.01675253	      0.02490912	      0.04086068
      1.20370370	      0.01668539	      0.02485915	      0.04026438
      1.22222222	      0.01659574	      0.02479228	      0.03979053
      1.24074074	      0.01651157	      0.02472933	      0.03945239
      1.25925926	      0.01640200	      0.02464714	      0.03896582
      1.27777778	      0.01633736	      0.02459852	      0.03864116
      1.29629630	      0.01637373	      0.02462589	      0.03837129
      1.31481481	      0.01653490	      0.02474679	      0.03790189
      1.33333333	      0.01691417	      0.02502900	      0.03902111
      1.35185185	      0.01743222	      0.02540940	      0.04175549
      1.37037037	      0.01799914	      0.02581927	      0.04487837
      1.38888889	      0.01852515	      0.02619383	      0.04805247
      1.40740741	      0.01895726	      0.02649756	      0.05069640
      1.42592593	      0.01918042	      0.02665307	      0.05189752
      1.44444444	      0.01911176	      0.02660532	      0.05122587
      1.46296296	      0.01880594	      0.02639160	      0.04899351
      1.48148148	      0.01838751	      0.02609634	      0.04596566
      1.50000000	      0.01796851	      0.02579730	      0.04281307
      1.51851852	      0.01755739	      0.02550046	      0.03975850
      1.53703704	      0.01720935	      0.02524645	      0.03951568
      1.55555556	      0.01689942	      0.02501809	      0.03941355
      1.57407407	      0.01664847	      0.02483163	      0.03917061
      1.59259259	      0.01633820	      0.02459916	      0.03885630
      1.61111111	      0.01609908	      0.02441848	      0.03845333
      1.62962963	      0.01582306	      0.02420825	      0.03811426
      1.64814815	      0.01556443	      0.02400959	      0.03793514
      1.66666667	      0.01532515	      0.02382432	      0.03781038
      1.68518519	      0.01512643	      0.02366935	      0.03781101
      1.70370370	      0.01499060	      0.02356284	      0.03770341
      1.72222222	      0.01490104	      0.02349235	      0.03758722
      1.74074074	      0.01485238	      0.02345396	      0.03751458
      1.75925926	      0.01479706	      0.02341024	      0.03748831
      1.77777778	      0.01473654	      0.02336232	      0.03769422
      1.79629630	      0.01468826	      0.02332401	      0.03824828
      1.81481481	      0.01460073	      0.02325441	      0.03854134
      1.83333333	      0.01450742	      0.02317998	      0.03890253
      1.85185185	      0.01443034	      0.02311833	      0.03887972
      1.87037037	      0.01439198	      0.02308758	      0.03866661
      1.88888889	      0.01441876	      0.02310905	      0.03858623
      1.90740741	      0.01449912	      0.02317336	      0.03978154
      1.92592593	      0.01461004	      0.02326183	      0.04056453
      1.94444444	      0.01472143	      0.02335034	      0.04084747
      1.96296296	      0.01491925	      0.02350670	      0.04070391
      1.98148148	      0.01505338	      0.02361213	      0.04045251
      2.00000000	      0.01521983	      0.02374232	      0.04142469
      2.01851852	      0.01533288	      0.02383033	      0.04106616
      2.03703704	      0.01542966	      0.02390542	      0.04078544
      2.05555556	      0.01541735	      0.02389587	      0.03972961
      2.07407407	      0.01546462	      0.02393249	      0.03858199
      2.09259259	      0.01556085	      0.02400683	      0.03728514
      2.11111111	      0.01566584	      0.02408768	      0.03707597
      2.12962963	      0.01575180	      0.02415368	      0.03819614
      2.14814815	      0.01585573	      0.02423323	      0.03960187
      2.16666667	      0.01603214	      0.02436766	      0.04022189
      2.18518519	      0.01627456	      0.02455120	      0.04011127
      2.20370370	      0.01660514	      0.02479929	      0.03950351
      2.22222222	      0.01704451	      0.02512525	      0.03921941
      2.24074074	      0.01737092	      0.02536469	      0.03959443
      2.25925926	      0.01774952	      0.02563961	      0.04037337
      2.27777778	      0.01804977	      0.02585556	      0.04076046
      2.29629630	      0.01828275	      0.02602189	      0.04069073
      2.31481481	      0.01840125	      0.02610609	      0.04061880
      2.33333333	      0.01848185	      0.02616320	      0.04039333
      2.35185185	      0.01856495	      0.02622195	      0.04081463
      2.37037037	      0.01859451	      0.02624282	      0.04121428
      2.38888889	      0.01861871	      0.02625989	      0.04129111
      2.40740741	      0.01858559	      0.02623652	      0.04175548
      2.42592593	      0.01845248	      0.02614240	      0.04192810
      2.44444444	      0.01822462	      0.02598049	      0.04147252
      2.46296296	      0.01791348	      0.02575776	      0.04127088
      2.48148148	      0.01758142	      0.02551791	      0.04086368
      2.50000000	      0.01727121	      0.02529179	      0.04064972
      2.51851852	      0.01702173	      0.02510846	      0.04106714
      2.53703704	      0.01684307	      0.02497634	      0.04124157
      2.55555556	      0.01673793	      0.02489826	      0.04114493
      2.57407407	      0.01673972	      0.02489959	      0.04089678
      2.59259259	      0.01686457	      0.02499228	      0.04059574
      2.61111111	      0.01702598	      0.02511159	      0.04017730
      2.62962963	      0.01722974	      0.02526140	      0.04044642
      2.64814815	      0.01739827	      0.02538465	      0.04036547
      2.66666667	      0.01761340	      0.02554111	      0.04062887
      2.68518519	      0.01778772	      0.02566719	      0.04056045
      2.70370370	      0.01794193	      0.02577821	      0.04098318
      2.72222222	      0.01799395	      0.02581555	      0.04083495
      2.74074074	      0.01799238	      0.02581442	      0.04130856
      2.75925926	      0.01800168	      0.02582109	      0.04121063
      2.77777778	      0.01806349	      0.02586539	      0.04141208
      2.79629630	      0.01814349	      0.02592260	      0.04158512
      2.81481481	      0.01813238	      0.02591466	      0.04161476
      2.83333333	      0.01803575	      0.02584552	      0.04157968
      2.85185185	      0.01790609	      0.02575245	      0.04148763
      2.87037037	      0.01781501	      0.02568687	      0.04142487
      2.88888889	      0.01781905	      0.02568978	      0.04165299
      2.90740741	      0.01784154	      0.02570598	      0.04185773
      2.92592593	      0.01792549	      0.02576639	      0.04216731
      2.94444444	      0.01802441	      0.02583739	      0.04196223
      2.96296296	      0.01815347	      0.02592973	      0.04148492
      2.98148148	      0.01831165	      0.02604245	      0.04188235
      3.00000000	      0.01848547	      0.02616576	      0.04252909
      3.01851852	      0.01835381	      0.02607241	      0.04217981
      3.03703704	      0.01834752	      0.02606794	      0.04222474
      3.05555556	      0.01830401	      0.02603702	      0.04277686
      3.07407407	      0.01833759	      0.02606089	      0.04318068
      3.09259259	      0.01829317	      0.02602931	      0.04385196
      3.11111111	      0.01841257	      0.02611412	      0.04418242
      3.12962963	      0.01855325	      0.02621368	      0.04449702
      3.14814815	      0.01866330	      0.02629132	      0.04521494
      3.16666667	      0.01886351	      0.02643196	      0.04550547
      3.18518519	      0.01905536	      0.02656603	      0.04594952
      3.20370370	      0.01924595	      0.02669856	      0.04605914
      3.22222222	      0.01939898	      0.02680449	      0.04617005
      3.24074074	      0.01952237	      0.02688961	      0.04645953
      3.25925926	      0.01962636	      0.02696112	      0.04689650
      3.27777778	      0.01965980	      0.02698408	      0.04750721
      3.29629630	      0.01955955	      0.02691520	      0.04812602
      3.31481481	      0.01935713	      0.02677556	      0.04850089
      3.33333333	      0.01911303	      0.02660621	      0.04875257
      3.35185185	      0.01886229	      0.02643111	      0.04860021
      3.37037037	      0.01858387	      0.02623531	      0.04807491
      3.38888889	      0.01824240	      0.02599317	      0.04702266
      3.40740741	      0.01786101	      0.02572001	      0.04565130
      3.42592593	      0.01752151	      0.02547440	      0.04451030
      3.44444444	      0.01732469	      0.02533091	      0.04302546
      3.46296296	      0.01729590	      0.02530986	      0.04184526
      3.48148148	      0.01746774	      0.02543528	      0.04048118
      3.50000000	      0.01782131	      0.02569141	      0.03932857
      3.51851852	      0.01834606	      0.02606691	      0.04034622
      3.53703704	      0.01894360	      0.02648801	      0.04164903
      3.55555556	      0.01949803	      0.02687283	      0.04326154
      3.57407407	      0.01978032	      0.02706667	      0.04330469
      3.59259259	      0.01980209	      0.02708156	      0.04199034
      3.61111111	      0.01959344	      0.02693850	      0.03976846
      3.62962963	      0.01929484	      0.02673245	      0.03851178
      3.64814815	      0.01904949	      0.02656194	      0.03816614
      3.66666667	      0.01885052	      0.02642286	      0.03839002
      3.68518519	      0.01865661	      0.02628660	      0.03863945
      3.70370370	      0.01847012	      0.02615490	      0.03862969
      3.72222222	      0.01835661	      0.02607440	      0.03863349
      3.74074074	      0.01830357	      0.02603670	      0.03998281
      3.75925926	      0.01830818	      0.02603999	      0.04127455
      3.77777778	      0.01842252	      0.02612117	      0.04238002
      3.79629630	      0.01864702	      0.02627985	      0.04353911
      3.81481481	      0.01895172	      0.02649369	      0.04452780
      3.83333333	      0.01926288	      0.02671030	      0.04535389
      3.85185185	      0.01951214	      0.02688256	      0.04581974
      3.87037037	      0.01955997	      0.02691549	      0.04496616
      3.88888889	      0.01930804	      0.02674159	      0.04299893
      3.90740741	      0.01904097	      0.02655600	      0.04128710
      3.92592593	      0.01872731	      0.02633636	      0.04031942
      3.94444444	      0.01839659	      0.02610278	      0.03939590
      3.96296296	      0.01812858	      0.02591194	      0.04022907
      3.98148148	      0.01798371	      0.02580820	      0.04178419
      4.00000000	      0.01796356	      0.02579374	      0.04340506
      4.01851852	      0.01799648	      0.02581736	      0.04414856
      4.03703704	      0.01804286	      0.02585061	      0.04475930
      4.05555556	      0.01794523	      0.02578058	      0.04393872
      4.07407407	      0.01777228	      0.02565604	      0.04291000
      4.09259259	      0.01755357	      0.02549769	      0.04154206
      4.11111111	      0.01745997	      0.02542962	      0.04106275
      4.12962963	      0.01743454	      0.02541109	      0.04022700
      4.14814815	      0.01758352	      0.02551943	      0.04017173
      4.16666667	      0.01774753	      0.02563817	      0.04008213
      4.18518519	      0.01796517	      0.02579490	      0.04060929
      4.20370370	      0.01813105	      0.02591371	      0.04172494
      4.22222222	      0.01826008	      0.02600576	      0.04221909
      4.24074074	      0.01838478	      0.02609440	      0.04248034
      4.25925926	      0.01848350	      0.02616436	      0.04237010
      4.27777778	      0.01854761	      0.02620970	      0.04214786
      4.29629630	      0.01862207	      0.02626226	      0.04173864
      4.31481481	      0.01875606	      0.02635657	      0.04178771
      4.33333333	      0.01890043	      0.02645781	      0.04208437
      4.35185185	      0.01908558	      0.02658709	      0.04267374
      4.37037037	      0.01915840	      0.02663776	      0.04345718
      4.38888889	      0.01912751	      0.02661628	      0.04423586
      4.40740741	      0.01903735	      0.02655347	      0.04511441
      4.42592593	      0.01891629	      0.02646891	      0.04563629
      4.44444444	      0.01872635	      0.02633569	      0.04554204
      4.46296296	      0.01856572	      0.02622250	      0.04543456
      4.48148148	      0.01843660	      0.02613115	      0.04541243
      4.50000000	      0.01832058	      0.02604880	      0.04542229
      4.51851852	      0.01808995	      0.02588432	      0.04428281
      4.53703704	      0.01801930	      0.02583373	      0.04447569
      4.55555556	      0.01801149	      0.02582813	      0.04433518
      4.57407407	      0.01804542	      0.02585244	      0.04467065
      4.59259259	      0.01810683	      0.02589640	      0.04453630
      4.61111111	      0.01821947	      0.02597682	      0.04511470
      4.62962963	      0.01835619	      0.02607410	      0.04547743
      4.64814815	      0.01847224	      0.02615640	      0.04540979
      4.66666667	      0.01858441	      0.02623569	      0.04584370
      4.68518519	      0.01859962	      0.02624642	      0.04596927
      4.70370370	      0.01851907	      0.02618953	      0.04606612
      4.72222222	      0.01837840	      0.02608987	      0.04580306
      4.74074074	      0.01825393	      0.02600137	      0.04562978
      4.75925926	      0.01812836	      0.02591179	      0.04552430
      4.77777778	      0.01798701	      0.02581057	      0.04542911
      4.79629630	      0.01780912	      0.02568262	      0.04554610
      4.81481481	      0.01764185	      0.02556172	      0.04581069
      4.83333333	      0.01756347	      0.02550488	      0.04581142
      4.85185185	      0.01756950	      0.02550926	      0.04613202
      4.87037037	      0.01762069	      0.02554639	      0.04615855
      4.88888889	      0.01765549	      0.02557161	      0.04557750
      4.90740741	      0.01767753	      0.02558756	      0.04535943
      4.92592593	      0.01766730	      0.02558015	      0.04512852
      4.94444444	      0.01759680	      0.02552907	      0.04499476
      4.96296296	      0.01741887	      0.02539967	      0.04478173
      4.98148148	      0.01721360	      0.02524957	      0.04498776
      5.00000000	      0.01704640	      0.02512664	      0.04508064
      5.01851852	      0.01704906	      0.02512860	      0.04539699
      5.03703704	      0.01724967	      0.02527601	      0.04589874
      5.05555556	      0.01749843	      0.02545761	      0.04522923
      5.07407407	      0.01790674	      0.02575292	      0.04561898
      5.09259259	      0.01835314	      0.02607194	      0.04542349
      5.11111111	      0.01876566	      0.02636331	      0.04541682
      5.12962963	      0.01921456	      0.02667678	      0.04562905
      5.14814815	      0.01948968	      0.02686708	      0.04573216
      5.16666667	      0.01960069	      0.02694349	      0.04643323
      5.18518519	      0.01955644	      0.02691306	      0.04658153
      5.20370370	      0.01943777	      0.02683128	      0.04477338
      5.22222222	      0.01929801	      0.02673464	      0.04382892
      5.24074074	      0.01916683	      0.02664362	      0.04306124
      5.25925926	      0.01915845	      0.02663779	      0.04378280
      5.27777778	      0.01931491	      0.02674635	      0.04431723
      5.29629630	      0.01958625	      0.02693356	      0.04400282
      5.31481481	      0.01978263	      0.02706825	      0.04332566
      5.33333333	      0.01990492	      0.02715178	      0.04217776
      5.35185185	      0.01993357	      0.02717132	      0.04240027
      5.37037037	      0.01991105	      0.02715596	      0.04283509
      5.38888889	      0.01979111	      0.02707405	      0.04304520
      5.40740741	      0.01960985	      0.02694978	      0.04312660
      5.42592593	      0.01939609	      0.02680250	      0.04325526
      5.44444444	      0.01920201	      0.02666806	      0.04328332
      5.46296296	      0.01910530	      0.02660082	      0.04328247
      5.48148148	      0.01912827	      0.02661681	      0.04320273
      5.50000000	      0.01924693	      0.02669924	      0.04346250
      5.51851852	      0.01939773	      0.02680363	      0.04355600
      5.53703704	      0.01959679	      0.02694080	      0.04460193
      5.55555556	      0.01973700	      0.02703701	      0.04469690
      5.57407407	      0.01985672	      0.02711889	      0.04392664
      5.59259259	      0.01984873	      0.02711343	      0.04421101
      5.61111111	      0.01973107	      0.02703295	      0.04401397
      5.62962963	      0.01958702	      0.02693409	      0.04352247
      5.64814815	      0.01948632	      0.02686476	      0.04250433
      5.66666667	      0.01936421	      0.02678046	      0.04253883
      5.68518519	      0.01929610	      0.02673332	      0.04272790
      5.70370370	      0.01925947	      0.02670793	      0.04264980
      5.72222222	      0.01929605	      0.02673328	      0.04206526
      5.74074074	      0.01940678	      0.02680988	      0.04128024
      5.75925926	      0.01949963	      0.02687394	      0.04074395
      5.77777778	      0.01945807	      0.02684528	      0.04025644
      5.79629630	      0.01941817	      0.02681775	      0.04078951
      5.81481481	      0.01936285	      0.02677952	      0.04139186
      5.83333333	      0.01943163	      0.02682704	      0.04141277
      5.85185185	      0.01963055	      0.02696400	      0.04135840
      5.87037037	      0.01984267	      0.02710929	      0.04138594
      5.88888889	      0.02009054	      0.02727809	      0.04094614
      5.90740741	      0.02018803	      0.02734419	      0.04029553
      5.92592593	      0.02025950	      0.02739255	      0.04102682
      5.94444444	      0.02031978	      0.02743327	      0.04230482
      5.96296296	      0.02079554	      0.02775257	      0.04430075
