Model Marker Errors from IK
version=1
nRows=212
nColumns=4
inDegrees=no
endheader
time	total_squared_error	marker_error_RMS	marker_error_max
      0.00000000	      0.03637891	      0.03670650	      0.08166684
      0.02083333	      0.03602347	      0.03652674	      0.08224213
      0.04166667	      0.03533968	      0.03617841	      0.08145088
      0.06250000	      0.03444962	      0.03571991	      0.08032000
      0.08333333	      0.03343641	      0.03519070	      0.07850697
      0.10416667	      0.03275830	      0.03483203	      0.07742001
      0.12500000	      0.03252077	      0.03470552	      0.07588360
      0.14583333	      0.03309536	      0.03501077	      0.07606576
      0.16666667	      0.03430843	      0.03564663	      0.07758148
      0.18750000	      0.03551686	      0.03626899	      0.07862408
      0.20833333	      0.03584701	      0.03643717	      0.07790542
      0.22916667	      0.03487736	      0.03594098	      0.07404518
      0.25000000	      0.03308070	      0.03500302	      0.06796381
      0.27083333	      0.03092655	      0.03384417	      0.06034611
      0.29166667	      0.02831349	      0.03238283	      0.05879026
      0.31250000	      0.02620844	      0.03115579	      0.06265165
      0.33333333	      0.02510592	      0.03049342	      0.06416872
      0.35416667	      0.02517014	      0.03053240	      0.06292719
      0.37500000	      0.02550666	      0.03073583	      0.05919155
      0.39583333	      0.02597396	      0.03101610	      0.05555664
      0.41666667	      0.02676012	      0.03148199	      0.06118723
      0.43750000	      0.02773426	      0.03204988	      0.06454953
      0.45833333	      0.02832568	      0.03238980	      0.06553448
      0.47916667	      0.02842766	      0.03244806	      0.06706320
      0.50000000	      0.02847341	      0.03247416	      0.07181256
      0.52083333	      0.02859299	      0.03254227	      0.07249549
      0.54166667	      0.02777201	      0.03207169	      0.06765530
      0.56250000	      0.02510693	      0.03049404	      0.05635017
      0.58333333	      0.02191271	      0.02848827	      0.05146919
      0.60416667	      0.02004568	      0.02724762	      0.05218117
      0.62500000	      0.01912753	      0.02661629	      0.05126659
      0.64583333	      0.01885124	      0.02642336	      0.05466719
      0.66666667	      0.01788518	      0.02573741	      0.04996549
      0.68750000	      0.01600144	      0.02434432	      0.04325467
      0.70833333	      0.01530628	      0.02380965	      0.04283847
      0.72916667	      0.01686945	      0.02499589	      0.05338315
      0.75000000	      0.01541600	      0.02389483	      0.04179529
      0.77083333	      0.01458445	      0.02324144	      0.04229526
      0.79166667	      0.01413495	      0.02288048	      0.04256477
      0.81250000	      0.01470701	      0.02333890	      0.04329936
      0.83333333	      0.01612676	      0.02443947	      0.04453390
      0.85416667	      0.01743114	      0.02540861	      0.04642856
      0.87500000	      0.01766196	      0.02557629	      0.04824477
      0.89583333	      0.01689589	      0.02501547	      0.04873297
      0.91666667	      0.01614352	      0.02445216	      0.04798180
      0.93750000	      0.01583475	      0.02421719	      0.05234443
      0.95833333	      0.01591425	      0.02427791	      0.05480183
      0.97916667	      0.01575508	      0.02415619	      0.05418696
      1.00000000	      0.01518035	      0.02371150	      0.05152788
      1.02083333	      0.01418272	      0.02291912	      0.04739890
      1.04166667	      0.01307414	      0.02200516	      0.04412005
      1.06250000	      0.01221830	      0.02127274	      0.04197876
      1.08333333	      0.01177871	      0.02088656	      0.04069871
      1.10416667	      0.01196608	      0.02105204	      0.04019995
      1.12500000	      0.01298747	      0.02193211	      0.04202597
      1.14583333	      0.01476060	      0.02338138	      0.05159237
      1.16666667	      0.01653677	      0.02474819	      0.05974348
      1.18750000	      0.01744763	      0.02542063	      0.06184657
      1.20833333	      0.01701830	      0.02510592	      0.05642779
      1.22916667	      0.01578677	      0.02418047	      0.04492269
      1.25000000	      0.01508347	      0.02363571	      0.04760886
      1.27083333	      0.01541465	      0.02389379	      0.05035278
      1.29166667	      0.01614901	      0.02445632	      0.05158200
      1.31250000	      0.01668155	      0.02485629	      0.05188929
      1.33333333	      0.01710424	      0.02516924	      0.05039805
      1.35416667	      0.01775414	      0.02564294	      0.04852081
      1.37500000	      0.01856908	      0.02622487	      0.04680701
      1.39583333	      0.01935350	      0.02677305	      0.04707861
      1.41666667	      0.01993319	      0.02717105	      0.05020485
      1.43750000	      0.02064502	      0.02765195	      0.05694174
      1.45833333	      0.02239666	      0.02880114	      0.06845705
      1.47916667	      0.02567111	      0.03083475	      0.08386348
      1.50000000	      0.03023798	      0.03346528	      0.10161822
      1.52083333	      0.03550884	      0.03626489	      0.11848349
      1.54166667	      0.03976546	      0.03837701	      0.13079250
      1.56250000	      0.04160435	      0.03925432	      0.13534919
      1.58333333	      0.04095328	      0.03894596	      0.13209322
      1.60416667	      0.03882700	      0.03792146	      0.12391706
      1.62500000	      0.03657138	      0.03680347	      0.11444847
      1.64583333	      0.03517272	      0.03609284	      0.10586736
      1.66666667	      0.03451165	      0.03575205	      0.09851935
      1.68750000	      0.03433272	      0.03565925	      0.09336957
      1.70833333	      0.03425857	      0.03562072	      0.09598203
      1.72916667	      0.03408349	      0.03552959	      0.09582433
      1.75000000	      0.03384995	      0.03540765	      0.09323318
      1.77083333	      0.03357878	      0.03526554	      0.08918411
      1.79166667	      0.03306076	      0.03499246	      0.08514467
      1.81250000	      0.03215471	      0.03450964	      0.08208158
      1.83333333	      0.03137263	      0.03408738	      0.08118538
      1.85416667	      0.03141339	      0.03410951	      0.08499888
      1.87500000	      0.03239179	      0.03463663	      0.09163114
      1.89583333	      0.03364371	      0.03529962	      0.09822858
      1.91666667	      0.03436620	      0.03567664	      0.10148058
      1.93750000	      0.03417801	      0.03557882	      0.10027090
      1.95833333	      0.03327053	      0.03510330	      0.09561946
      1.97916667	      0.03184120	      0.03434099	      0.08959009
      2.00000000	      0.02990976	      0.03328316	      0.08272950
      2.02083333	      0.02782651	      0.03210314	      0.07798553
      2.04166667	      0.02629171	      0.03120524	      0.07524126
      2.06250000	      0.02584209	      0.03093726	      0.07629959
      2.08333333	      0.02638866	      0.03126272	      0.07904741
      2.10416667	      0.02705480	      0.03165485	      0.08211464
      2.12500000	      0.02716195	      0.03171747	      0.08411821
      2.14583333	      0.02649569	      0.03132606	      0.08400361
      2.16666667	      0.02509835	      0.03048883	      0.08164042
      2.18750000	      0.02331924	      0.02938835	      0.07767882
      2.20833333	      0.02141817	      0.02816497	      0.07279649
      2.22916667	      0.01974618	      0.02704330	      0.06711696
      2.25000000	      0.01864282	      0.02627689	      0.06126128
      2.27083333	      0.01822909	      0.02598368	      0.05561836
      2.29166667	      0.01835716	      0.02607479	      0.05638822
      2.31250000	      0.01867675	      0.02630079	      0.05822636
      2.33333333	      0.01894355	      0.02648798	      0.05990787
      2.35416667	      0.01897602	      0.02651067	      0.06069258
      2.37500000	      0.01880641	      0.02639192	      0.06004430
      2.39583333	      0.01865375	      0.02628459	      0.05863828
      2.41666667	      0.01875638	      0.02635679	      0.05733459
      2.43750000	      0.01928259	      0.02672396	      0.05611105
      2.45833333	      0.02040811	      0.02749283	      0.05816530
      2.47916667	      0.02204977	      0.02857723	      0.06594454
      2.50000000	      0.02394679	      0.02978117	      0.07388680
      2.52083333	      0.02574183	      0.03087719	      0.08114703
      2.54166667	      0.02726766	      0.03177913	      0.08701728
      2.56250000	      0.02844176	      0.03245610	      0.09072051
      2.58333333	      0.02915283	      0.03285931	      0.09144768
      2.60416667	      0.02939799	      0.03299719	      0.08994077
      2.62500000	      0.02933967	      0.03296444	      0.08763852
      2.64583333	      0.02937859	      0.03298630	      0.08445315
      2.66666667	      0.02958913	      0.03310429	      0.08103047
      2.68750000	      0.02942706	      0.03301350	      0.07630712
      2.70833333	      0.02841084	      0.03243846	      0.07101382
      2.72916667	      0.02606772	      0.03107203	      0.06776653
      2.75000000	      0.02299425	      0.02918285	      0.06093161
      2.77083333	      0.02008917	      0.02727715	      0.05251447
      2.79166667	      0.01805797	      0.02586143	      0.04501494
      2.81250000	      0.01702421	      0.02511028	      0.04021295
      2.83333333	      0.01688904	      0.02501040	      0.03830213
      2.85416667	      0.01766426	      0.02557796	      0.03849573
      2.87500000	      0.01947477	      0.02685680	      0.04220034
      2.89583333	      0.02137135	      0.02813417	      0.04001537
      2.91666667	      0.02440360	      0.03006388	      0.04714162
      2.93750000	      0.02792098	      0.03215758	      0.05275325
      2.95833333	      0.03137293	      0.03408754	      0.05701430
      2.97916667	      0.03438977	      0.03568886	      0.06009046
      3.00000000	      0.03610994	      0.03657055	      0.06318363
      3.02083333	      0.03645170	      0.03674320	      0.06650347
      3.04166667	      0.03620597	      0.03661914	      0.06844779
      3.06250000	      0.03616000	      0.03659589	      0.07026874
      3.08333333	      0.03652060	      0.03677791	      0.07161233
      3.10416667	      0.03752741	      0.03728142	      0.07251904
      3.12500000	      0.03878781	      0.03790231	      0.07252073
      3.14583333	      0.03986475	      0.03842489	      0.07149836
      3.16666667	      0.04068466	      0.03881803	      0.07171861
      3.18750000	      0.04120216	      0.03906413	      0.07280654
      3.20833333	      0.04146132	      0.03918679	      0.07182409
      3.22916667	      0.04166621	      0.03928349	      0.06842648
      3.25000000	      0.04203045	      0.03945483	      0.06851453
      3.27083333	      0.04264571	      0.03974255	      0.07079382
      3.29166667	      0.04362670	      0.04019706	      0.07184438
      3.31250000	      0.04479674	      0.04073252	      0.07331605
      3.33333333	      0.04568325	      0.04113359	      0.07507504
      3.35416667	      0.04590349	      0.04123262	      0.07564135
      3.37500000	      0.04529155	      0.04095686	      0.07339286
      3.39583333	      0.04392491	      0.04033421	      0.07080062
      3.41666667	      0.04213945	      0.03950595	      0.06965036
      3.43750000	      0.04028468	      0.03862674	      0.06673287
      3.45833333	      0.03836017	      0.03769280	      0.06828509
      3.47916667	      0.03644062	      0.03673762	      0.07323671
      3.50000000	      0.03474973	      0.03587516	      0.07764201
      3.52083333	      0.03365159	      0.03530376	      0.08172184
      3.54166667	      0.03312438	      0.03502612	      0.08557773
      3.56250000	      0.03273351	      0.03481885	      0.08777361
      3.58333333	      0.03180697	      0.03432253	      0.08737813
      3.60416667	      0.03007131	      0.03337292	      0.08533050
      3.62500000	      0.02776121	      0.03206545	      0.08289780
      3.64583333	      0.02589311	      0.03096779	      0.08133355
      3.66666667	      0.02489896	      0.03036748	      0.08084477
      3.68750000	      0.02533131	      0.03063000	      0.08139083
      3.70833333	      0.02202030	      0.02855813	      0.05845650
      3.72916667	      0.02098763	      0.02788045	      0.04410213
      3.75000000	      0.02263828	      0.02895608	      0.04723118
      3.77083333	      0.02424242	      0.02996444	      0.04666799
      3.79166667	      0.02505597	      0.03046307	      0.04413528
      3.81250000	      0.02542001	      0.03068358	      0.04448630
      3.83333333	      0.02578382	      0.03090237	      0.04593911
      3.85416667	      0.02605564	      0.03106483	      0.04650708
      3.87500000	      0.02594332	      0.03099780	      0.04642162
      3.89583333	      0.02563030	      0.03081023	      0.04598436
      3.91666667	      0.02541143	      0.03067840	      0.04952657
      3.93750000	      0.02518038	      0.03053861	      0.05216491
      3.95833333	      0.02493836	      0.03039150	      0.05250862
      3.97916667	      0.02485895	      0.03034307	      0.05073100
      4.00000000	      0.02522521	      0.03056578	      0.04823695
      4.02083333	      0.02595886	      0.03100708	      0.04582896
      4.04166667	      0.02688682	      0.03155643	      0.04481826
      4.06250000	      0.02760230	      0.03197354	      0.04565878
      4.08333333	      0.02815954	      0.03229467	      0.04583968
      4.10416667	      0.02849282	      0.03248522	      0.04658953
      4.12500000	      0.02859063	      0.03254093	      0.04726540
      4.14583333	      0.02867673	      0.03258989	      0.04817429
      4.16666667	      0.02886265	      0.03269537	      0.04915005
      4.18750000	      0.02904459	      0.03279825	      0.04968069
      4.20833333	      0.02944825	      0.03302538	      0.05026567
      4.22916667	      0.02996682	      0.03331489	      0.05084149
      4.25000000	      0.03031898	      0.03351008	      0.05104958
      4.27083333	      0.03058082	      0.03365446	      0.05319126
      4.29166667	      0.03057458	      0.03365103	      0.05454983
      4.31250000	      0.03060481	      0.03366766	      0.05596072
      4.33333333	      0.03080588	      0.03377808	      0.05744364
      4.35416667	      0.03110340	      0.03394080	      0.05929813
      4.37500000	      0.03153519	      0.03417558	      0.06149200
      4.39583333	      0.03230729	      0.03459142	      0.06403860
