Model Marker Errors from IK
version=1
nRows=885
nColumns=4
inDegrees=no
endheader
time	total_squared_error	marker_error_RMS	marker_error_max
      0.00000000	      0.03174828	      0.03429085	      0.08722899
      0.01694915	      0.03124921	      0.03402026	      0.08575000
      0.03389831	      0.03100705	      0.03388819	      0.08486348
      0.05084746	      0.03079429	      0.03377172	      0.08428419
      0.06779661	      0.03052104	      0.03362156	      0.08397577
      0.08474576	      0.03028844	      0.03349319	      0.08401168
      0.10169492	      0.03002093	      0.03334496	      0.08398509
      0.11864407	      0.02992720	      0.03329286	      0.08414997
      0.13559322	      0.03001339	      0.03334077	      0.08455434
      0.15254237	      0.03026856	      0.03348220	      0.08533441
      0.16949153	      0.03060997	      0.03367050	      0.08626705
      0.18644068	      0.03103800	      0.03390510	      0.08750318
      0.20338983	      0.03145541	      0.03413232	      0.08857247
      0.22033898	      0.03185443	      0.03434813	      0.08937535
      0.23728814	      0.03201473	      0.03443444	      0.08969202
      0.25423729	      0.03191741	      0.03438206	      0.08963263
      0.27118644	      0.03164122	      0.03423298	      0.08933352
      0.28813559	      0.03134241	      0.03407095	      0.08909512
      0.30508475	      0.03104573	      0.03390932	      0.08898589
      0.32203390	      0.03092384	      0.03384269	      0.08914450
      0.33898305	      0.03098083	      0.03387385	      0.08955062
      0.35593220	      0.03107179	      0.03392354	      0.08987011
      0.37288136	      0.03113599	      0.03395857	      0.09022797
      0.38983051	      0.03101469	      0.03389236	      0.09040718
      0.40677966	      0.03087650	      0.03381677	      0.09055375
      0.42372881	      0.03081153	      0.03378118	      0.09065917
      0.44067797	      0.03082939	      0.03379096	      0.09079798
      0.45762712	      0.03081902	      0.03378528	      0.09075715
      0.47457627	      0.03078678	      0.03376761	      0.09061432
      0.49152542	      0.03070692	      0.03372378	      0.09025594
      0.50847458	      0.03052958	      0.03362626	      0.08970389
      0.52542373	      0.03047117	      0.03359407	      0.08918736
      0.54237288	      0.03045000	      0.03358240	      0.08846884
      0.55932203	      0.03046995	      0.03359340	      0.08781820
      0.57627119	      0.03065580	      0.03369570	      0.08740129
      0.59322034	      0.03092348	      0.03384249	      0.08708898
      0.61016949	      0.03132360	      0.03406073	      0.08706221
      0.62711864	      0.03167326	      0.03425031	      0.08695566
      0.64406780	      0.03195409	      0.03440181	      0.08684586
      0.66101695	      0.03213100	      0.03449692	      0.08650234
      0.67796610	      0.03225869	      0.03456539	      0.08599196
      0.69491525	      0.03235733	      0.03461820	      0.08524854
      0.71186441	      0.03253332	      0.03471221	      0.08446115
      0.72881356	      0.03272244	      0.03481296	      0.08383683
      0.74576271	      0.03306474	      0.03499457	      0.08360133
      0.76271186	      0.03345378	      0.03519984	      0.08373306
      0.77966102	      0.03384273	      0.03540387	      0.08425037
      0.79661017	      0.03425866	      0.03562077	      0.08514620
      0.81355932	      0.03463099	      0.03581381	      0.08593792
      0.83050847	      0.03460540	      0.03580058	      0.08639843
      0.84745763	      0.03467409	      0.03583609	      0.08667361
      0.86440678	      0.03464861	      0.03582293	      0.08647701
      0.88135593	      0.03454024	      0.03576686	      0.08589576
      0.89830508	      0.03444239	      0.03571616	      0.08538037
      0.91525424	      0.03426984	      0.03562658	      0.08464990
      0.93220339	      0.03412515	      0.03555129	      0.08407700
      0.94915254	      0.03407776	      0.03552660	      0.08370086
      0.96610169	      0.03415761	      0.03556820	      0.08381918
      0.98305085	      0.03425189	      0.03561725	      0.08402144
      1.00000000	      0.03444088	      0.03571538	      0.08456920
      1.01694915	      0.03457632	      0.03578553	      0.08504957
      1.03389831	      0.03469488	      0.03584683	      0.08562534
      1.05084746	      0.03492694	      0.03596652	      0.08587571
      1.06779661	      0.03515634	      0.03608444	      0.08600437
      1.08474576	      0.03542984	      0.03622453	      0.08594345
      1.10169492	      0.03565697	      0.03634045	      0.08575467
      1.11864407	      0.03580795	      0.03641731	      0.08544128
      1.13559322	      0.03581281	      0.03641978	      0.08511531
      1.15254237	      0.03561873	      0.03632096	      0.08456242
      1.16949153	      0.03518845	      0.03610091	      0.08383942
      1.18644068	      0.03466952	      0.03583373	      0.08313680
      1.20338983	      0.03410417	      0.03554036	      0.08206024
      1.22033898	      0.03376498	      0.03536318	      0.08110387
      1.23728814	      0.03374586	      0.03535317	      0.08016716
      1.25423729	      0.03415419	      0.03556642	      0.07948073
      1.27118644	      0.03495672	      0.03598185	      0.07905374
      1.28813559	      0.03590021	      0.03646419	      0.07870386
      1.30508475	      0.03676643	      0.03690148	      0.07863209
      1.32203390	      0.03743141	      0.03723370	      0.07872150
      1.33898305	      0.03764291	      0.03733874	      0.07865586
      1.35593220	      0.03744450	      0.03724021	      0.07874602
      1.37288136	      0.03705512	      0.03704608	      0.07874547
      1.38983051	      0.03658194	      0.03680878	      0.07917249
      1.40677966	      0.03620575	      0.03661903	      0.07945676
      1.42372881	      0.03596130	      0.03649521	      0.07975624
      1.44067797	      0.03582069	      0.03642379	      0.08006820
      1.45762712	      0.03569497	      0.03635981	      0.08019760
      1.47457627	      0.03552590	      0.03627360	      0.08024259
      1.49152542	      0.03527664	      0.03614612	      0.08020535
      1.50847458	      0.03486618	      0.03593522	      0.08024233
      1.52542373	      0.03448561	      0.03573856	      0.08020170
      1.54237288	      0.03422982	      0.03560577	      0.08008474
      1.55932203	      0.03429048	      0.03563731	      0.08004270
      1.57627119	      0.03466597	      0.03583190	      0.07998411
      1.59322034	      0.03529457	      0.03615531	      0.08018204
      1.61016949	      0.03602351	      0.03652676	      0.08052879
      1.62711864	      0.03666329	      0.03684969	      0.08090675
      1.64406780	      0.03712191	      0.03707945	      0.08136474
      1.66101695	      0.03737372	      0.03720500	      0.08185245
      1.67796610	      0.03746916	      0.03725247	      0.08231834
      1.69491525	      0.03743700	      0.03723648	      0.08269217
      1.71186441	      0.03735295	      0.03719466	      0.08304326
      1.72881356	      0.03717588	      0.03710639	      0.08333001
      1.74576271	      0.03688123	      0.03695905	      0.08349061
      1.76271186	      0.03645038	      0.03674254	      0.08345416
      1.77966102	      0.03594760	      0.03648825	      0.08320225
      1.79661017	      0.03549091	      0.03625573	      0.08275095
      1.81355932	      0.03514570	      0.03607898	      0.08207544
      1.83050847	      0.03501427	      0.03601145	      0.08151809
      1.84745763	      0.03508850	      0.03604961	      0.08095499
      1.86440678	      0.03523754	      0.03612608	      0.08080876
      1.88135593	      0.03541646	      0.03621769	      0.08055696
      1.89830508	      0.03554880	      0.03628529	      0.08024749
      1.91525424	      0.03554764	      0.03628470	      0.07982405
      1.93220339	      0.03546591	      0.03624296	      0.07913782
      1.94915254	      0.03532327	      0.03617000	      0.07826459
      1.96610169	      0.03515978	      0.03608620	      0.07741182
      1.98305085	      0.03477779	      0.03588964	      0.07666362
      2.00000000	      0.03438049	      0.03568405	      0.07603978
      2.01694915	      0.03383476	      0.03539971	      0.07606564
      2.03389831	      0.03334158	      0.03514077	      0.07611935
      2.05084746	      0.03291305	      0.03491421	      0.07616549
      2.06779661	      0.03256699	      0.03473017	      0.07627591
      2.08474576	      0.03240429	      0.03464331	      0.07609965
      2.10169492	      0.03239792	      0.03463990	      0.07574968
      2.11864407	      0.03244537	      0.03466526	      0.07540350
      2.13559322	      0.03249490	      0.03469171	      0.07512432
      2.15254237	      0.03249471	      0.03469161	      0.07519378
      2.16949153	      0.03250849	      0.03469897	      0.07531733
      2.18644068	      0.03258182	      0.03473808	      0.07575098
      2.20338983	      0.03279148	      0.03484966	      0.07627614
      2.22033898	      0.03310034	      0.03501341	      0.07691889
      2.23728814	      0.03341245	      0.03517809	      0.07738772
      2.25423729	      0.03368799	      0.03532285	      0.07739713
      2.27118644	      0.03384519	      0.03540516	      0.07697352
      2.28813559	      0.03383613	      0.03540042	      0.07589385
      2.30508475	      0.03374470	      0.03535256	      0.07459064
      2.32203390	      0.03363167	      0.03529331	      0.07320127
      2.33898305	      0.03359071	      0.03527181	      0.07204039
      2.35593220	      0.03370579	      0.03533218	      0.07096910
      2.37288136	      0.03390196	      0.03543485	      0.07157592
      2.38983051	      0.03412380	      0.03555059	      0.07214158
      2.40677966	      0.03425328	      0.03561797	      0.07245526
      2.42372881	      0.03430106	      0.03564280	      0.07268429
      2.44067797	      0.03428040	      0.03563207	      0.07269639
      2.45762712	      0.03425627	      0.03561953	      0.07266126
      2.47457627	      0.03421508	      0.03559810	      0.07263844
      2.49152542	      0.03407803	      0.03552674	      0.07264271
      2.50847458	      0.03375396	      0.03535741	      0.07276819
      2.52542373	      0.03331825	      0.03512847	      0.07263715
      2.54237288	      0.03283514	      0.03487286	      0.07219048
      2.55932203	      0.03245859	      0.03467232	      0.07147812
      2.57627119	      0.03222485	      0.03454726	      0.07106318
      2.59322034	      0.03215528	      0.03450995	      0.07268774
      2.61016949	      0.03221821	      0.03454370	      0.07454854
      2.62711864	      0.03242170	      0.03465262	      0.07650248
      2.64406780	      0.03270489	      0.03480362	      0.07853721
      2.66101695	      0.03307804	      0.03500161	      0.08024734
      2.67796610	      0.03348708	      0.03521736	      0.08185728
      2.69491525	      0.03400815	      0.03549029	      0.08331971
      2.71186441	      0.03457007	      0.03578230	      0.08493741
      2.72881356	      0.03525073	      0.03613285	      0.08642695
      2.74576271	      0.03587038	      0.03644904	      0.08779713
      2.76271186	      0.03627179	      0.03665242	      0.08891710
      2.77966102	      0.03642891	      0.03673172	      0.08976355
      2.79661017	      0.03627911	      0.03665612	      0.09028353
      2.81355932	      0.03581024	      0.03641848	      0.09052389
      2.83050847	      0.03499910	      0.03600365	      0.09022497
      2.84745763	      0.03387366	      0.03542005	      0.08976913
      2.86440678	      0.03262890	      0.03476317	      0.08905596
      2.88135593	      0.03144001	      0.03412396	      0.08831070
      2.89830508	      0.03042304	      0.03356753	      0.08771280
      2.91525424	      0.02968548	      0.03315814	      0.08721243
      2.93220339	      0.02916292	      0.03286500	      0.08690294
      2.94915254	      0.02872003	      0.03261449	      0.08665940
      2.96610169	      0.02833492	      0.03239509	      0.08665137
      2.98305085	      0.02800811	      0.03220772	      0.08690771
      3.00000000	      0.02785969	      0.03212227	      0.08709477
      3.01694915	      0.02779314	      0.03208388	      0.08733921
      3.03389831	      0.02796962	      0.03218559	      0.08755886
      3.05084746	      0.02823939	      0.03234043	      0.08780691
      3.06779661	      0.02861796	      0.03255648	      0.08808976
      3.08474576	      0.02902861	      0.03278923	      0.08852408
      3.10169492	      0.02938953	      0.03299244	      0.08900187
      3.11864407	      0.02960282	      0.03311194	      0.08942800
      3.13559322	      0.02970147	      0.03316707	      0.08994834
      3.15254237	      0.02971113	      0.03317246	      0.09058013
      3.16949153	      0.02962163	      0.03312246	      0.09100259
      3.18644068	      0.02948476	      0.03304585	      0.09149750
      3.20338983	      0.02929100	      0.03293709	      0.09142951
      3.22033898	      0.02918325	      0.03287645	      0.09095987
      3.23728814	      0.02920309	      0.03288762	      0.09024336
      3.25423729	      0.02949515	      0.03305167	      0.08949501
      3.27118644	      0.03005842	      0.03336577	      0.08912642
      3.28813559	      0.03081911	      0.03378533	      0.08924262
      3.30508475	      0.03163351	      0.03422881	      0.08971561
      3.32203390	      0.03237148	      0.03462577	      0.09063995
      3.33898305	      0.03276714	      0.03483673	      0.09138705
      3.35593220	      0.03289635	      0.03490535	      0.09178835
      3.37288136	      0.03269754	      0.03479971	      0.09190626
      3.38983051	      0.03256272	      0.03472789	      0.09149382
      3.40677966	      0.03260799	      0.03475203	      0.09093056
      3.42372881	      0.03273656	      0.03482047	      0.09057786
      3.44067797	      0.03295959	      0.03493888	      0.09046336
      3.45762712	      0.03309603	      0.03501112	      0.09068624
      3.47457627	      0.03315217	      0.03504081	      0.09107120
      3.49152542	      0.03313151	      0.03502989	      0.09137249
      3.50847458	      0.03299725	      0.03495884	      0.09154284
      3.52542373	      0.03288073	      0.03489706	      0.09131878
      3.54237288	      0.03286056	      0.03488636	      0.09088149
      3.55932203	      0.03295635	      0.03493716	      0.09039030
      3.57627119	      0.03310147	      0.03501400	      0.08989529
      3.59322034	      0.03324860	      0.03509173	      0.08945957
      3.61016949	      0.03336423	      0.03515270	      0.08922428
      3.62711864	      0.03347533	      0.03521118	      0.08912606
      3.64406780	      0.03364993	      0.03530288	      0.08903183
      3.66101695	      0.03394639	      0.03545805	      0.08872486
      3.67796610	      0.03451145	      0.03575195	      0.08808606
      3.69491525	      0.03533891	      0.03617801	      0.08708952
      3.71186441	      0.03616533	      0.03659859	      0.08590968
      3.72881356	      0.03667466	      0.03685540	      0.08456017
      3.74576271	      0.03656317	      0.03679934	      0.08312801
      3.76271186	      0.03582612	      0.03642655	      0.08175275
      3.77966102	      0.03470613	      0.03585265	      0.08061334
      3.79661017	      0.03344425	      0.03519483	      0.07959552
      3.81355932	      0.03243187	      0.03465805	      0.07901625
      3.83050847	      0.03173137	      0.03428171	      0.07896622
      3.84745763	      0.03132098	      0.03405931	      0.07940665
      3.86440678	      0.03109329	      0.03393528	      0.08028952
      3.88135593	      0.03115153	      0.03396705	      0.08157846
      3.89830508	      0.03144637	      0.03412741	      0.08276614
      3.91525424	      0.03184934	      0.03434538	      0.08403542
      3.93220339	      0.03210080	      0.03448070	      0.08493877
      3.94915254	      0.03216666	      0.03451605	      0.08562016
      3.96610169	      0.03190702	      0.03437647	      0.08612898
      3.98305085	      0.03165405	      0.03423992	      0.08659917
      4.00000000	      0.03134823	      0.03407412	      0.08693359
      4.01694915	      0.03086198	      0.03380882	      0.08723823
      4.03389831	      0.03027694	      0.03348683	      0.08730772
      4.05084746	      0.02975129	      0.03319487	      0.08725725
      4.06779661	      0.02952769	      0.03306990	      0.08730294
      4.08474576	      0.02966560	      0.03314703	      0.08748629
      4.10169492	      0.03010918	      0.03339394	      0.08782376
      4.11864407	      0.03072802	      0.03373536	      0.08830599
      4.13559322	      0.03143443	      0.03412093	      0.08894763
      4.15254237	      0.03217033	      0.03451802	      0.08963903
      4.16949153	      0.03281680	      0.03486312	      0.09027868
      4.18644068	      0.03329926	      0.03511845	      0.09081093
      4.20338983	      0.03350638	      0.03522751	      0.09135934
      4.22033898	      0.03327237	      0.03510427	      0.09183079
      4.23728814	      0.03256410	      0.03472863	      0.09214851
      4.25423729	      0.03151675	      0.03416558	      0.09243570
      4.27118644	      0.03050566	      0.03361308	      0.09246256
      4.28813559	      0.02976703	      0.03320365	      0.09226556
      4.30508475	      0.02931465	      0.03295038	      0.09195952
      4.32203390	      0.02916680	      0.03286719	      0.09165451
      4.33898305	      0.02930254	      0.03294358	      0.09149388
      4.35593220	      0.02958944	      0.03310446	      0.09130637
      4.37288136	      0.03011140	      0.03339516	      0.09114148
      4.38983051	      0.03062691	      0.03367982	      0.09090055
      4.40677966	      0.03081100	      0.03378089	      0.09050284
      4.42372881	      0.03051307	      0.03361716	      0.08994441
      4.44067797	      0.02990347	      0.03327966	      0.08941718
      4.45762712	      0.02936660	      0.03297957	      0.08920365
      4.47457627	      0.02906286	      0.03280857	      0.08928218
      4.49152542	      0.02910229	      0.03283082	      0.08977828
      4.50847458	      0.02926029	      0.03291982	      0.09030151
      4.52542373	      0.02948671	      0.03304694	      0.09059765
      4.54237288	      0.02960650	      0.03311400	      0.09071944
      4.55932203	      0.02978757	      0.03321511	      0.09042481
      4.57627119	      0.03001430	      0.03334128	      0.08990247
      4.59322034	      0.03042910	      0.03357088	      0.08911180
      4.61016949	      0.03074859	      0.03374666	      0.08879819
      4.62711864	      0.03134179	      0.03407062	      0.08854278
      4.64406780	      0.03205662	      0.03445696	      0.08833701
      4.66101695	      0.03280170	      0.03485510	      0.08799752
      4.67796610	      0.03346225	      0.03520430	      0.08748307
      4.69491525	      0.03392001	      0.03544427	      0.08651151
      4.71186441	      0.03427480	      0.03562916	      0.08548163
      4.72881356	      0.03460976	      0.03580283	      0.08431875
      4.74576271	      0.03492960	      0.03596789	      0.08312676
      4.76271186	      0.03518637	      0.03609985	      0.08185176
      4.77966102	      0.03529912	      0.03615764	      0.08048080
      4.79661017	      0.03530013	      0.03615816	      0.07899263
      4.81355932	      0.03517755	      0.03609532	      0.07734489
      4.83050847	      0.03508112	      0.03604581	      0.07736088
      4.84745763	      0.03488824	      0.03594659	      0.07724916
      4.86440678	      0.03480882	      0.03590565	      0.07627349
      4.88135593	      0.03480396	      0.03590314	      0.07460345
      4.89830508	      0.03498272	      0.03599523	      0.07395337
      4.91525424	      0.03520817	      0.03611103	      0.07535041
      4.93220339	      0.03545922	      0.03623954	      0.07736941
      4.94915254	      0.03561612	      0.03631963	      0.07937401
      4.96610169	      0.03552343	      0.03627234	      0.08115648
      4.98305085	      0.03523070	      0.03612258	      0.08259677
      5.00000000	      0.03465340	      0.03582540	      0.08410004
      5.01694915	      0.03393469	      0.03545194	      0.08551745
      5.03389831	      0.03316263	      0.03504633	      0.08665017
      5.05084746	      0.03255455	      0.03472354	      0.08750557
      5.06779661	      0.03212015	      0.03449109	      0.08795053
      5.08474576	      0.03182741	      0.03433355	      0.08807858
      5.10169492	      0.03151305	      0.03416358	      0.08758104
      5.11864407	      0.03106478	      0.03391972	      0.08662781
      5.13559322	      0.03047290	      0.03359503	      0.08527484
      5.15254237	      0.02996917	      0.03331620	      0.08383884
      5.16949153	      0.02969555	      0.03316376	      0.08267246
      5.18644068	      0.02971624	      0.03317532	      0.08183691
      5.20338983	      0.02989744	      0.03327631	      0.08132765
      5.22033898	      0.03016914	      0.03342717	      0.08081090
      5.23728814	      0.03052937	      0.03362614	      0.08033833
      5.25423729	      0.03083157	      0.03379216	      0.07969685
      5.27118644	      0.03126833	      0.03403067	      0.07929510
      5.28813559	      0.03179918	      0.03431833	      0.07916751
      5.30508475	      0.03228974	      0.03458202	      0.07933359
      5.32203390	      0.03283305	      0.03487175	      0.07960136
      5.33898305	      0.03345386	      0.03519989	      0.08003380
      5.35593220	      0.03413949	      0.03555876	      0.08048107
      5.37288136	      0.03475624	      0.03587852	      0.08072162
      5.38983051	      0.03503068	      0.03601989	      0.08073623
      5.40677966	      0.03492852	      0.03596733	      0.08050204
      5.42372881	      0.03469184	      0.03584526	      0.08039629
      5.44067797	      0.03449781	      0.03574488	      0.08049892
      5.45762712	      0.03435308	      0.03566982	      0.08069158
      5.47457627	      0.03411178	      0.03554433	      0.08096497
      5.49152542	      0.03373795	      0.03534903	      0.08119255
      5.50847458	      0.03325257	      0.03509383	      0.08129193
      5.52542373	      0.03276237	      0.03483420	      0.08107036
      5.54237288	      0.03224143	      0.03455614	      0.08048305
      5.55932203	      0.03178020	      0.03430808	      0.07953420
      5.57627119	      0.03146021	      0.03413492	      0.07855541
      5.59322034	      0.03120055	      0.03399376	      0.07781692
      5.61016949	      0.03117333	      0.03397893	      0.07700323
      5.62711864	      0.03114535	      0.03396368	      0.07609550
      5.64406780	      0.03111458	      0.03394690	      0.07514103
      5.66101695	      0.03102463	      0.03389779	      0.07424753
      5.67796610	      0.03063082	      0.03368197	      0.07344030
      5.69491525	      0.03022967	      0.03346068	      0.07302482
      5.71186441	      0.02982955	      0.03323850	      0.07302826
      5.72881356	      0.02966715	      0.03314790	      0.07341052
      5.74576271	      0.02985832	      0.03325453	      0.07417519
      5.76271186	      0.03043364	      0.03357338	      0.07537052
      5.77966102	      0.03142379	      0.03411516	      0.07674749
      5.79661017	      0.03277051	      0.03483852	      0.07788772
      5.81355932	      0.03431244	      0.03564872	      0.07890479
      5.83050847	      0.03580746	      0.03641706	      0.07973481
      5.84745763	      0.03702998	      0.03703351	      0.08047678
      5.86440678	      0.03791668	      0.03747428	      0.08154392
      5.88135593	      0.03838118	      0.03770312	      0.08219519
      5.89830508	      0.03879528	      0.03790596	      0.08331801
      5.91525424	      0.03923238	      0.03811891	      0.08463379
      5.93220339	      0.03950495	      0.03825109	      0.08599541
      5.94915254	      0.03960417	      0.03829910	      0.08728254
      5.96610169	      0.03945951	      0.03822909	      0.08831228
      5.98305085	      0.03919282	      0.03809968	      0.08903083
      6.00000000	      0.03893166	      0.03797253	      0.08949114
      6.01694915	      0.03874836	      0.03788304	      0.08961817
      6.03389831	      0.03849964	      0.03776126	      0.08985338
      6.05084746	      0.03835646	      0.03769098	      0.09005295
      6.06779661	      0.03821461	      0.03762122	      0.09038372
      6.08474576	      0.03829495	      0.03766074	      0.09057819
      6.10169492	      0.03835578	      0.03769064	      0.09075505
      6.11864407	      0.03853188	      0.03777707	      0.09076432
      6.13559322	      0.03873879	      0.03787836	      0.09097059
      6.15254237	      0.03888169	      0.03794816	      0.09134276
      6.16949153	      0.03882943	      0.03792265	      0.09170733
      6.18644068	      0.03865809	      0.03783889	      0.09212716
      6.20338983	      0.03826049	      0.03764379	      0.09276309
      6.22033898	      0.03784799	      0.03744032	      0.09382661
      6.23728814	      0.03743686	      0.03723641	      0.09421196
      6.25423729	      0.03702320	      0.03703012	      0.09485394
      6.27118644	      0.03662507	      0.03683048	      0.09462240
      6.28813559	      0.03623373	      0.03663318	      0.09337741
      6.30508475	      0.03587922	      0.03645353	      0.09116824
      6.32203390	      0.03556466	      0.03629338	      0.08852432
      6.33898305	      0.03543083	      0.03622503	      0.08601573
      6.35593220	      0.03556830	      0.03629524	      0.08412159
      6.37288136	      0.03598815	      0.03650883	      0.08301603
      6.38983051	      0.03651216	      0.03677366	      0.08249611
      6.40677966	      0.03670478	      0.03687053	      0.08230082
      6.42372881	      0.03616463	      0.03659823	      0.08230816
      6.44067797	      0.03480237	      0.03590232	      0.08248360
      6.45762712	      0.03303657	      0.03497966	      0.08268600
      6.47457627	      0.03136198	      0.03408159	      0.08291360
      6.49152542	      0.03006230	      0.03336792	      0.08316120
      6.50847458	      0.02916335	      0.03286524	      0.08321370
      6.52542373	      0.02866725	      0.03258450	      0.08342155
      6.54237288	      0.02867031	      0.03258625	      0.08327461
      6.55932203	      0.02915468	      0.03286036	      0.08338312
      6.57627119	      0.03001923	      0.03334402	      0.08673176
      6.59322034	      0.03100589	      0.03388756	      0.09112532
      6.61016949	      0.03170802	      0.03426910	      0.09376596
      6.62711864	      0.03185001	      0.03434574	      0.09478855
      6.64406780	      0.03157358	      0.03419637	      0.09357334
      6.66101695	      0.03108863	      0.03393274	      0.09173305
      6.67796610	      0.03076017	      0.03375301	      0.08925062
      6.69491525	      0.03067302	      0.03370516	      0.08712576
      6.71186441	      0.03077949	      0.03376360	      0.08596277
      6.72881356	      0.03085477	      0.03380487	      0.08545840
      6.74576271	      0.03071859	      0.03373019	      0.08598489
      6.76271186	      0.03041724	      0.03356433	      0.08740341
      6.77966102	      0.03018260	      0.03343463	      0.08941560
      6.79661017	      0.03018364	      0.03343520	      0.09193008
      6.81355932	      0.03021539	      0.03345278	      0.09348514
      6.83050847	      0.03004816	      0.03336008	      0.09369182
      6.84745763	      0.02957760	      0.03309784	      0.09202911
      6.86440678	      0.02908477	      0.03282093	      0.09000503
      6.88135593	      0.02868224	      0.03259302	      0.08773004
      6.89830508	      0.02860225	      0.03254755	      0.08637723
      6.91525424	      0.02878772	      0.03265290	      0.08604403
      6.93220339	      0.02910241	      0.03283088	      0.08650428
      6.94915254	      0.02951467	      0.03306260	      0.08805373
      6.96610169	      0.02995891	      0.03331050	      0.09011454
      6.98305085	      0.03041757	      0.03356452	      0.09205849
      7.00000000	      0.03091166	      0.03383602	      0.09371666
      7.01694915	      0.03112470	      0.03395242	      0.09380423
      7.03389831	      0.03093158	      0.03384692	      0.09236355
      7.05084746	      0.03061296	      0.03367214	      0.09030538
      7.06779661	      0.03035199	      0.03352831	      0.08807525
      7.08474576	      0.03047876	      0.03359826	      0.08723015
      7.10169492	      0.03079781	      0.03377365	      0.08704692
      7.11864407	      0.03112492	      0.03395254	      0.08745257
      7.13559322	      0.03132444	      0.03406119	      0.08734589
      7.15254237	      0.03132883	      0.03406357	      0.08724500
      7.16949153	      0.03116837	      0.03397623	      0.08656634
      7.18644068	      0.03074926	      0.03374702	      0.08549484
      7.20338983	      0.03021357	      0.03345177	      0.08421707
      7.22033898	      0.02967431	      0.03315190	      0.08329443
      7.23728814	      0.02931022	      0.03294789	      0.08358507
      7.25423729	      0.02917015	      0.03286907	      0.08397899
      7.27118644	      0.02916772	      0.03286770	      0.08426263
      7.28813559	      0.02918984	      0.03288016	      0.08439273
      7.30508475	      0.02910300	      0.03283122	      0.08434852
      7.32203390	      0.02884644	      0.03268618	      0.08400568
      7.33898305	      0.02837286	      0.03241677	      0.08343937
      7.35593220	      0.02771520	      0.03203886	      0.08292158
      7.37288136	      0.02697375	      0.03160740	      0.08265936
      7.38983051	      0.02640702	      0.03127360	      0.08237559
      7.40677966	      0.02619522	      0.03114793	      0.08245857
      7.42372881	      0.02639861	      0.03126862	      0.08249075
      7.44067797	      0.02700852	      0.03162777	      0.08226511
      7.45762712	      0.02787431	      0.03213070	      0.08195202
      7.47457627	      0.02883158	      0.03267776	      0.08138649
      7.49152542	      0.02973413	      0.03318530	      0.08048273
      7.50847458	      0.03049685	      0.03360823	      0.07963829
      7.52542373	      0.03109584	      0.03393668	      0.07872531
      7.54237288	      0.03152161	      0.03416822	      0.07818046
      7.55932203	      0.03180585	      0.03432192	      0.07756263
      7.57627119	      0.03194321	      0.03439596	      0.07709863
      7.59322034	      0.03192680	      0.03438712	      0.07679839
      7.61016949	      0.03178983	      0.03431328	      0.07668422
      7.62711864	      0.03159154	      0.03420609	      0.07665750
      7.64406780	      0.03144459	      0.03412645	      0.07635658
      7.66101695	      0.03149122	      0.03415174	      0.07569053
      7.67796610	      0.03178304	      0.03430961	      0.07487671
      7.69491525	      0.03225592	      0.03456391	      0.07428883
      7.71186441	      0.03278468	      0.03484605	      0.07388160
      7.72881356	      0.03323532	      0.03508472	      0.07379248
      7.74576271	      0.03348029	      0.03521378	      0.07380666
      7.76271186	      0.03353371	      0.03524187	      0.07378066
      7.77966102	      0.03332473	      0.03513188	      0.07367705
      7.79661017	      0.03298436	      0.03495201	      0.07348687
      7.81355932	      0.03259810	      0.03474676	      0.07286679
      7.83050847	      0.03245783	      0.03467192	      0.07217008
      7.84745763	      0.03272014	      0.03481173	      0.07197727
      7.86440678	      0.03334588	      0.03514303	      0.07246790
      7.88135593	      0.03410654	      0.03554160	      0.07315465
      7.89830508	      0.03458722	      0.03579117	      0.07382100
      7.91525424	      0.03478858	      0.03589521	      0.07403747
      7.93220339	      0.03470077	      0.03584988	      0.07395059
      7.94915254	      0.03464396	      0.03582052	      0.07361297
      7.96610169	      0.03483028	      0.03591672	      0.07296992
      7.98305085	      0.03523604	      0.03612532	      0.07204189
      8.00000000	      0.03574022	      0.03638285	      0.07106623
      8.01694915	      0.03620762	      0.03661998	      0.07031822
      8.03389831	      0.03660987	      0.03682283	      0.07023549
      8.05084746	      0.03693699	      0.03698698	      0.07096953
      8.06779661	      0.03729733	      0.03716696	      0.07122705
      8.08474576	      0.03768977	      0.03736198	      0.07114404
      8.10169492	      0.03791085	      0.03747139	      0.07074020
      8.11864407	      0.03761182	      0.03732332	      0.07016019
      8.13559322	      0.03644949	      0.03674209	      0.06960835
      8.15254237	      0.03462730	      0.03581191	      0.06950595
      8.16949153	      0.03285122	      0.03488140	      0.07030326
      8.18644068	      0.03169263	      0.03426078	      0.07082079
      8.20338983	      0.03122613	      0.03400770	      0.07133014
      8.22033898	      0.03126646	      0.03402965	      0.07186412
      8.23728814	      0.03167385	      0.03425063	      0.07252007
      8.25423729	      0.03216829	      0.03451693	      0.07343974
      8.27118644	      0.03209595	      0.03447809	      0.07453954
      8.28813559	      0.03167601	      0.03425180	      0.07591801
      8.30508475	      0.03136628	      0.03408393	      0.07747793
      8.32203390	      0.03181024	      0.03432429	      0.07897221
      8.33898305	      0.03338446	      0.03516335	      0.08026963
      8.35593220	      0.03577463	      0.03640036	      0.08113798
      8.37288136	      0.03832153	      0.03767381	      0.08156597
      8.38983051	      0.04045252	      0.03870712	      0.08171593
      8.40677966	      0.04146134	      0.03918680	      0.08368964
      8.42372881	      0.04063802	      0.03879577	      0.08205462
      8.44067797	      0.03886191	      0.03793850	      0.08255825
      8.45762712	      0.03766097	      0.03734770	      0.08364183
      8.47457627	      0.03712366	      0.03708032	      0.08477480
      8.49152542	      0.03681549	      0.03692610	      0.08579991
      8.50847458	      0.03638689	      0.03671052	      0.08629262
      8.52542373	      0.03589259	      0.03646032	      0.08610355
      8.54237288	      0.03556644	      0.03629429	      0.08531336
      8.55932203	      0.03555305	      0.03628746	      0.08415051
      8.57627119	      0.03577665	      0.03640139	      0.08295484
      8.59322034	      0.03597726	      0.03650330	      0.08164245
      8.61016949	      0.03620087	      0.03661657	      0.08123215
      8.62711864	      0.03654465	      0.03679002	      0.08134971
      8.64406780	      0.03697737	      0.03700719	      0.08255061
      8.66101695	      0.03755387	      0.03729456	      0.08430714
      8.67796610	      0.03799356	      0.03751225	      0.08610686
      8.69491525	      0.03836511	      0.03769522	      0.08773472
      8.71186441	      0.03865048	      0.03783516	      0.08908137
      8.72881356	      0.03865286	      0.03783632	      0.09000512
      8.74576271	      0.03860016	      0.03781052	      0.09043886
      8.76271186	      0.03834514	      0.03768541	      0.09085220
      8.77966102	      0.03814046	      0.03758470	      0.09076178
      8.79661017	      0.03798069	      0.03750590	      0.09043638
      8.81355932	      0.03783759	      0.03743518	      0.08992577
      8.83050847	      0.03767752	      0.03735590	      0.08927915
      8.84745763	      0.03757447	      0.03730479	      0.08838644
      8.86440678	      0.03758277	      0.03730891	      0.08753370
      8.88135593	      0.03773502	      0.03738440	      0.08647930
      8.89830508	      0.03800495	      0.03751787	      0.08581437
      8.91525424	      0.03846206	      0.03774283	      0.08576747
      8.93220339	      0.03912903	      0.03806867	      0.08648513
      8.94915254	      0.03991839	      0.03845073	      0.08771727
      8.96610169	      0.04031652	      0.03864200	      0.08944766
      8.98305085	      0.04024471	      0.03860757	      0.09081984
      9.00000000	      0.03969112	      0.03834112	      0.09253059
      9.01694915	      0.03904124	      0.03802594	      0.09390951
      9.03389831	      0.03855415	      0.03778798	      0.09517715
      9.05084746	      0.03840880	      0.03771668	      0.09611408
      9.06779661	      0.03844301	      0.03773347	      0.09755602
      9.08474576	      0.03864985	      0.03783485	      0.09884418
      9.10169492	      0.03872927	      0.03787370	      0.10051148
      9.11864407	      0.03849655	      0.03775974	      0.10195895
      9.13559322	      0.03793234	      0.03748202	      0.10322612
      9.15254237	      0.03718910	      0.03711299	      0.10413309
      9.16949153	      0.03642980	      0.03673216	      0.10470093
      9.18644068	      0.03578464	      0.03640546	      0.10469307
      9.20338983	      0.03524793	      0.03613141	      0.10405161
      9.22033898	      0.03467057	      0.03583427	      0.10278400
      9.23728814	      0.03416992	      0.03557461	      0.10100822
      9.25423729	      0.03370556	      0.03533206	      0.09921888
      9.27118644	      0.03337923	      0.03516060	      0.09739940
      9.28813559	      0.03324243	      0.03508847	      0.09570639
      9.30508475	      0.03319644	      0.03506419	      0.09435028
      9.32203390	      0.03320209	      0.03506718	      0.09323437
      9.33898305	      0.03320666	      0.03506959	      0.09242175
      9.35593220	      0.03338698	      0.03516468	      0.09197295
      9.37288136	      0.03380085	      0.03538196	      0.09187083
      9.38983051	      0.03446562	      0.03572820	      0.09195461
      9.40677966	      0.03531326	      0.03616488	      0.09200404
      9.42372881	      0.03623533	      0.03663399	      0.09203824
      9.44067797	      0.03701331	      0.03702517	      0.09181969
      9.45762712	      0.03744232	      0.03723913	      0.09129644
      9.47457627	      0.03743659	      0.03723628	      0.09027988
      9.49152542	      0.03700509	      0.03702106	      0.08882775
      9.50847458	      0.03637046	      0.03670224	      0.08726613
      9.52542373	      0.03573753	      0.03638148	      0.08590073
      9.54237288	      0.03518350	      0.03609838	      0.08480403
      9.55932203	      0.03484629	      0.03592497	      0.08398619
      9.57627119	      0.03477537	      0.03588839	      0.08340340
      9.59322034	      0.03502336	      0.03601613	      0.08291655
      9.61016949	      0.03557290	      0.03629759	      0.08251582
      9.62711864	      0.03615246	      0.03659207	      0.08220910
      9.64406780	      0.03675522	      0.03689586	      0.08202733
      9.66101695	      0.03713051	      0.03708374	      0.08200485
      9.67796610	      0.03730353	      0.03717004	      0.08241888
      9.69491525	      0.03717037	      0.03710364	      0.08288705
      9.71186441	      0.03678955	      0.03691309	      0.08354993
      9.72881356	      0.03634360	      0.03668868	      0.08423512
      9.74576271	      0.03608392	      0.03655737	      0.08513828
      9.76271186	      0.03609280	      0.03656187	      0.08610160
      9.77966102	      0.03650742	      0.03677128	      0.08747676
      9.79661017	      0.03690736	      0.03697214	      0.08867367
      9.81355932	      0.03744837	      0.03724214	      0.09011768
      9.83050847	      0.03788204	      0.03745716	      0.09154555
      9.84745763	      0.03809209	      0.03756086	      0.09292551
      9.86440678	      0.03776310	      0.03739831	      0.09349670
      9.88135593	      0.03699606	      0.03701654	      0.09386541
      9.89830508	      0.03575191	      0.03638880	      0.09366195
      9.91525424	      0.03443011	      0.03570979	      0.09346095
      9.93220339	      0.03308783	      0.03500679	      0.09343535
      9.94915254	      0.03180671	      0.03432239	      0.09343367
      9.96610169	      0.03055657	      0.03364112	      0.09345871
      9.98305085	      0.02929129	      0.03293725	      0.09317026
     10.00000000	      0.02803443	      0.03222285	      0.09239567
     10.01694915	      0.02693936	      0.03158725	      0.09115751
     10.03389831	      0.02618074	      0.03113932	      0.08955760
     10.05084746	      0.02588409	      0.03096240	      0.08776747
     10.06779661	      0.02598877	      0.03102494	      0.08611852
     10.08474576	      0.02630249	      0.03121164	      0.08463658
     10.10169492	      0.02664443	      0.03141386	      0.08353433
     10.11864407	      0.02673593	      0.03146775	      0.08253106
     10.13559322	      0.02669135	      0.03144151	      0.08161534
     10.15254237	      0.02654327	      0.03135417	      0.08072232
     10.16949153	      0.02640611	      0.03127306	      0.07965872
     10.18644068	      0.02632596	      0.03122556	      0.07878600
     10.20338983	      0.02628672	      0.03120228	      0.07810596
     10.22033898	      0.02622783	      0.03116731	      0.07771771
     10.23728814	      0.02613881	      0.03111437	      0.07752944
     10.25423729	      0.02603750	      0.03105402	      0.07753069
     10.27118644	      0.02591047	      0.03097817	      0.07737217
     10.28813559	      0.02578212	      0.03090135	      0.07742894
     10.30508475	      0.02573549	      0.03087339	      0.07744565
     10.32203390	      0.02576489	      0.03089102	      0.07746430
     10.33898305	      0.02585019	      0.03094211	      0.07748267
     10.35593220	      0.02593718	      0.03099413	      0.07754554
     10.37288136	      0.02602110	      0.03104423	      0.07760629
     10.38983051	      0.02611618	      0.03110090	      0.07754677
     10.40677966	      0.02623164	      0.03116957	      0.07732338
     10.42372881	      0.02634839	      0.03123886	      0.07693901
     10.44067797	      0.02647638	      0.03131464	      0.07661066
     10.45762712	      0.02659642	      0.03138555	      0.07638855
     10.47457627	      0.02671659	      0.03145637	      0.07638132
     10.49152542	      0.02684433	      0.03153148	      0.07679263
     10.50847458	      0.02685057	      0.03153515	      0.07757268
     10.52542373	      0.02673154	      0.03146517	      0.07844579
     10.54237288	      0.02644284	      0.03129480	      0.07916196
     10.55932203	      0.02609189	      0.03108643	      0.07959922
     10.57627119	      0.02573518	      0.03087320	      0.07972309
     10.59322034	      0.02544452	      0.03069836	      0.07949861
     10.61016949	      0.02519440	      0.03054711	      0.07929447
     10.62711864	      0.02500324	      0.03043100	      0.07908745
     10.64406780	      0.02487361	      0.03035202	      0.07914222
     10.66101695	      0.02478806	      0.03029977	      0.07945533
     10.67796610	      0.02483489	      0.03032838	      0.07987361
     10.69491525	      0.02483098	      0.03032599	      0.08005451
     10.71186441	      0.02478010	      0.03029491	      0.08000685
     10.72881356	      0.02456095	      0.03016065	      0.07964160
     10.74576271	      0.02424889	      0.02996844	      0.07913076
     10.76271186	      0.02392658	      0.02976860	      0.07850172
     10.77966102	      0.02366542	      0.02960569	      0.07790195
     10.79661017	      0.02348458	      0.02949236	      0.07745037
     10.81355932	      0.02340815	      0.02944433	      0.07734419
     10.83050847	      0.02342556	      0.02945527	      0.07756313
     10.84745763	      0.02358406	      0.02955476	      0.07790622
     10.86440678	      0.02390460	      0.02975493	      0.07837273
     10.88135593	      0.02430184	      0.03000114	      0.07879645
     10.89830508	      0.02475025	      0.03027666	      0.07910203
     10.91525424	      0.02521807	      0.03056146	      0.07931354
     10.93220339	      0.02567525	      0.03083724	      0.07947466
     10.94915254	      0.02607134	      0.03107419	      0.07968771
     10.96610169	      0.02630831	      0.03121509	      0.07969003
     10.98305085	      0.02640205	      0.03127065	      0.07964151
     11.00000000	      0.02632549	      0.03122528	      0.07904764
     11.01694915	      0.02607833	      0.03107835	      0.07847667
     11.03389831	      0.02564269	      0.03081768	      0.07790556
     11.05084746	      0.02512792	      0.03050678	      0.07745013
     11.06779661	      0.02471239	      0.03025349	      0.07727983
     11.08474576	      0.02454459	      0.03015060	      0.07737584
     11.10169492	      0.02467300	      0.03022937	      0.07763428
     11.11864407	      0.02487960	      0.03035567	      0.07803579
     11.13559322	      0.02496151	      0.03040560	      0.07794651
     11.15254237	      0.02493255	      0.03038795	      0.07749261
     11.16949153	      0.02485004	      0.03033763	      0.07662709
     11.18644068	      0.02473451	      0.03026703	      0.07556641
     11.20338983	      0.02470099	      0.03024651	      0.07454054
     11.22033898	      0.02471261	      0.03025363	      0.07377082
     11.23728814	      0.02490463	      0.03037093	      0.07340282
     11.25423729	      0.02520025	      0.03055066	      0.07350301
     11.27118644	      0.02555921	      0.03076747	      0.07409815
     11.28813559	      0.02577719	      0.03089840	      0.07503302
     11.30508475	      0.02591518	      0.03098099	      0.07635134
     11.32203390	      0.02607967	      0.03107915	      0.07792775
     11.33898305	      0.02642560	      0.03128459	      0.07980790
     11.35593220	      0.02668342	      0.03143684	      0.08126155
     11.37288136	      0.02735838	      0.03183196	      0.08309007
     11.38983051	      0.02811796	      0.03227082	      0.08489300
     11.40677966	      0.02907481	      0.03281531	      0.08632186
     11.42372881	      0.02995270	      0.03330705	      0.08702546
     11.44067797	      0.03067615	      0.03370688	      0.08682431
     11.45762712	      0.03106183	      0.03391811	      0.08581169
     11.47457627	      0.03115143	      0.03396699	      0.08383500
     11.49152542	      0.03105200	      0.03391274	      0.08095994
     11.50847458	      0.03084686	      0.03380054	      0.07744408
     11.52542373	      0.03069601	      0.03371779	      0.07374673
     11.54237288	      0.03070819	      0.03372448	      0.07024781
     11.55932203	      0.03061765	      0.03367472	      0.06715075
     11.57627119	      0.03059393	      0.03366168	      0.06395365
     11.59322034	      0.03039546	      0.03355232	      0.06034665
     11.61016949	      0.03006846	      0.03337134	      0.05657775
     11.62711864	      0.02949317	      0.03305056	      0.05699742
     11.64406780	      0.02893159	      0.03273439	      0.05852639
     11.66101695	      0.02845796	      0.03246534	      0.05988274
     11.67796610	      0.02815979	      0.03229481	      0.06074195
     11.69491525	      0.02812492	      0.03227481	      0.06097285
     11.71186441	      0.02838364	      0.03242292	      0.06040527
     11.72881356	      0.02876185	      0.03263822	      0.05977546
     11.74576271	      0.02900829	      0.03277775	      0.05930071
     11.76271186	      0.02900326	      0.03277491	      0.05891325
     11.77966102	      0.02873493	      0.03262295	      0.05847028
     11.79661017	      0.02837665	      0.03241893	      0.05807556
     11.81355932	      0.02791965	      0.03215682	      0.05782844
     11.83050847	      0.02760476	      0.03197497	      0.05781386
     11.84745763	      0.02749782	      0.03191297	      0.05785020
     11.86440678	      0.02748948	      0.03190813	      0.05779238
     11.88135593	      0.02760239	      0.03197359	      0.05766619
     11.89830508	      0.02764393	      0.03199764	      0.05762244
     11.91525424	      0.02750534	      0.03191733	      0.05753532
     11.93220339	      0.02715224	      0.03171180	      0.05727804
     11.94915254	      0.02669548	      0.03144394	      0.05675628
     11.96610169	      0.02628732	      0.03120263	      0.05601846
     11.98305085	      0.02605140	      0.03106230	      0.05522727
     12.00000000	      0.02605989	      0.03106736	      0.05457778
     12.01694915	      0.02636028	      0.03124591	      0.05407143
     12.03389831	      0.02688088	      0.03155294	      0.05357178
     12.05084746	      0.02750141	      0.03191505	      0.05274692
     12.06779661	      0.02800933	      0.03220843	      0.05251016
     12.08474576	      0.02828088	      0.03236418	      0.05303086
     12.10169492	      0.02826696	      0.03235621	      0.05322017
     12.11864407	      0.02799839	      0.03220213	      0.05302479
     12.13559322	      0.02757672	      0.03195873	      0.05255868
     12.15254237	      0.02705497	      0.03165495	      0.05190272
     12.16949153	      0.02652922	      0.03134587	      0.05093749
     12.18644068	      0.02599389	      0.03102800	      0.05082403
     12.20338983	      0.02555287	      0.03076366	      0.05171623
     12.22033898	      0.02520232	      0.03055191	      0.05252570
     12.23728814	      0.02490370	      0.03037037	      0.05367542
     12.25423729	      0.02461903	      0.03019629	      0.05457592
     12.27118644	      0.02432116	      0.03001306	      0.05544305
     12.28813559	      0.02401804	      0.02982544	      0.05619893
     12.30508475	      0.02385266	      0.02972258	      0.05708231
     12.32203390	      0.02394515	      0.02978015	      0.05805460
     12.33898305	      0.02431198	      0.03000739	      0.05891001
     12.35593220	      0.02482504	      0.03032237	      0.05960394
     12.37288136	      0.02526354	      0.03058899	      0.06013736
     12.38983051	      0.02560844	      0.03079709	      0.05980013
     12.40677966	      0.02581343	      0.03092010	      0.05893421
     12.42372881	      0.02601913	      0.03104306	      0.05822120
     12.44067797	      0.02632108	      0.03122266	      0.06352614
     12.45762712	      0.02674694	      0.03147423	      0.06892467
     12.47457627	      0.02730419	      0.03180041	      0.07373641
     12.49152542	      0.02793975	      0.03216839	      0.07713111
     12.50847458	      0.02855440	      0.03252031	      0.07945476
     12.52542373	      0.02900579	      0.03277634	      0.08064607
     12.54237288	      0.02930440	      0.03294462	      0.08101051
     12.55932203	      0.02951058	      0.03306031	      0.08072657
     12.57627119	      0.02972126	      0.03317812	      0.07999646
     12.59322034	      0.02987403	      0.03326327	      0.07918095
     12.61016949	      0.03001836	      0.03334353	      0.07801716
     12.62711864	      0.03007562	      0.03337532	      0.07669637
     12.64406780	      0.03003916	      0.03335508	      0.07541886
     12.66101695	      0.02986408	      0.03325774	      0.07420475
     12.67796610	      0.02952031	      0.03306576	      0.07311277
     12.69491525	      0.02909847	      0.03282866	      0.07242436
     12.71186441	      0.02860584	      0.03254959	      0.07216883
     12.72881356	      0.02807017	      0.03224338	      0.07202127
     12.74576271	      0.02746430	      0.03189352	      0.07157684
     12.76271186	      0.02685269	      0.03153639	      0.07127899
     12.77966102	      0.02632975	      0.03122781	      0.07137365
     12.79661017	      0.02607290	      0.03107512	      0.07189346
     12.81355932	      0.02606787	      0.03107212	      0.07314713
     12.83050847	      0.02621887	      0.03116198	      0.07457436
     12.84745763	      0.02643925	      0.03129268	      0.07577415
     12.86440678	      0.02662799	      0.03140417	      0.07705637
     12.88135593	      0.02660432	      0.03139021	      0.07822148
     12.89830508	      0.02654007	      0.03135228	      0.07891123
     12.91525424	      0.02637812	      0.03125648	      0.07922141
     12.93220339	      0.02617081	      0.03113341	      0.07895770
     12.94915254	      0.02599229	      0.03102704	      0.07818766
     12.96610169	      0.02594341	      0.03099786	      0.07726025
     12.98305085	      0.02584481	      0.03093889	      0.07655285
     13.00000000	      0.02578062	      0.03090045	      0.07600288
     13.01694915	      0.02560577	      0.03079548	      0.07588402
     13.03389831	      0.02518926	      0.03054399	      0.07572678
     13.05084746	      0.02469065	      0.03024018	      0.07562933
     13.06779661	      0.02401008	      0.02982050	      0.07477319
     13.08474576	      0.02322974	      0.02933191	      0.07297234
     13.10169492	      0.02235566	      0.02877477	      0.07003176
     13.11864407	      0.02148048	      0.02820591	      0.06641194
     13.13559322	      0.02062431	      0.02763808	      0.06220529
     13.15254237	      0.01972396	      0.02702808	      0.05766612
     13.16949153	      0.01887258	      0.02643831	      0.05298861
     13.18644068	      0.01807335	      0.02587244	      0.04887018
     13.20338983	      0.01739847	      0.02538479	      0.04684127
     13.22033898	      0.01691469	      0.02502938	      0.04603884
     13.23728814	      0.01671176	      0.02487879	      0.04521200
     13.25423729	      0.01680888	      0.02495098	      0.04849798
     13.27118644	      0.01718581	      0.02522918	      0.05226840
     13.28813559	      0.01770678	      0.02560872	      0.05580458
     13.30508475	      0.01811630	      0.02590317	      0.05961001
     13.32203390	      0.01847381	      0.02615751	      0.06339875
     13.33898305	      0.01878474	      0.02637671	      0.06728567
     13.35593220	      0.01911587	      0.02660818	      0.07150723
     13.37288136	      0.01949499	      0.02687074	      0.07583397
     13.38983051	      0.01998550	      0.02720668	      0.08037716
     13.40677966	      0.02061650	      0.02763285	      0.08507537
     13.42372881	      0.02146456	      0.02819546	      0.09017822
     13.44067797	      0.02255582	      0.02890330	      0.09580341
     13.45762712	      0.02392979	      0.02977060	      0.10177457
     13.47457627	      0.02547989	      0.03071969	      0.10752132
     13.49152542	      0.02709422	      0.03167790	      0.11290293
     13.50847458	      0.02861466	      0.03255460	      0.11761220
     13.52542373	      0.02991204	      0.03328443	      0.12154962
     13.54237288	      0.03105484	      0.03391429	      0.12493966
     13.55932203	      0.03217126	      0.03451852	      0.12775702
     13.57627119	      0.03318481	      0.03505805	      0.13023298
     13.59322034	      0.03422279	      0.03560212	      0.13256773
     13.61016949	      0.03527593	      0.03614576	      0.13497183
     13.62711864	      0.03642106	      0.03672776	      0.13748308
     13.64406780	      0.03759342	      0.03731419	      0.13982764
     13.66101695	      0.03865316	      0.03783647	      0.14193318
     13.67796610	      0.03939528	      0.03819796	      0.14353795
     13.69491525	      0.03978571	      0.03838678	      0.14429158
     13.71186441	      0.03981739	      0.03840206	      0.14452430
     13.72881356	      0.03958396	      0.03828933	      0.14412277
     13.74576271	      0.03913563	      0.03807188	      0.14328493
     13.76271186	      0.03862149	      0.03782097	      0.14237639
     13.77966102	      0.03818017	      0.03760426	      0.14147705
     13.79661017	      0.03801301	      0.03752185	      0.14108487
     13.81355932	      0.03809440	      0.03756200	      0.14139704
     13.83050847	      0.03840890	      0.03771673	      0.14192695
     13.84745763	      0.03882570	      0.03792082	      0.14257251
     13.86440678	      0.03920443	      0.03810533	      0.14299241
     13.88135593	      0.03942688	      0.03821328	      0.14285842
     13.89830508	      0.03941673	      0.03820836	      0.14221503
     13.91525424	      0.03924217	      0.03812366	      0.14113474
     13.93220339	      0.03908325	      0.03804639	      0.14020097
     13.94915254	      0.03889433	      0.03795432	      0.13956176
     13.96610169	      0.03877614	      0.03789661	      0.13905219
     13.98305085	      0.03860596	      0.03781336	      0.13838663
     14.00000000	      0.03837038	      0.03769781	      0.13748430
     14.01694915	      0.03807711	      0.03755347	      0.13642428
     14.03389831	      0.03768758	      0.03736089	      0.13569244
     14.05084746	      0.03726080	      0.03714875	      0.13525353
     14.06779661	      0.03671868	      0.03687752	      0.13519175
     14.08474576	      0.03615759	      0.03659467	      0.13535619
     14.10169492	      0.03561364	      0.03631836	      0.13560099
     14.11864407	      0.03515907	      0.03608584	      0.13539262
     14.13559322	      0.03471353	      0.03585647	      0.13444779
     14.15254237	      0.03408739	      0.03553162	      0.13239452
     14.16949153	      0.03335878	      0.03514983	      0.12992302
     14.18644068	      0.03250085	      0.03469488	      0.12704665
     14.20338983	      0.03152694	      0.03417111	      0.12393631
     14.22033898	      0.03064947	      0.03369222	      0.12108289
     14.23728814	      0.02989997	      0.03327772	      0.11858779
     14.25423729	      0.02922075	      0.03289757	      0.11656396
     14.27118644	      0.02866759	      0.03258470	      0.11492866
     14.28813559	      0.02822704	      0.03233336	      0.11415634
     14.30508475	      0.02801760	      0.03221318	      0.11402777
     14.32203390	      0.02808668	      0.03225287	      0.11437800
     14.33898305	      0.02850468	      0.03249198	      0.11492562
     14.35593220	      0.02927752	      0.03292951	      0.11532893
     14.37288136	      0.03019926	      0.03344385	      0.11568410
     14.38983051	      0.03113031	      0.03395548	      0.11565474
     14.40677966	      0.03197090	      0.03441086	      0.11579704
     14.42372881	      0.03261557	      0.03475607	      0.11624565
     14.44067797	      0.03288545	      0.03489956	      0.11724206
     14.45762712	      0.03264461	      0.03477154	      0.11859355
     14.47457627	      0.03187966	      0.03436173	      0.11973278
     14.49152542	      0.03085681	      0.03380599	      0.12022103
     14.50847458	      0.02985591	      0.03325319	      0.11980973
     14.52542373	      0.02904654	      0.03279936	      0.11869937
     14.54237288	      0.02842909	      0.03244887	      0.11724227
     14.55932203	      0.02810970	      0.03226608	      0.11586715
     14.57627119	      0.02834208	      0.03239917	      0.11490857
     14.59322034	      0.02923174	      0.03290375	      0.11469319
     14.61016949	      0.03049825	      0.03360900	      0.11495337
     14.62711864	      0.03159806	      0.03420963	      0.11548159
     14.64406780	      0.03220622	      0.03453727	      0.11595753
     14.66101695	      0.03237493	      0.03462761	      0.11598238
     14.67796610	      0.03234431	      0.03461123	      0.11606603
     14.69491525	      0.03242237	      0.03465297	      0.11584461
     14.71186441	      0.03291816	      0.03491691	      0.11596373
     14.72881356	      0.03364950	      0.03530266	      0.11638098
     14.74576271	      0.03443401	      0.03571182	      0.11642829
     14.76271186	      0.03510092	      0.03605599	      0.11613995
     14.77966102	      0.03555931	      0.03629065	      0.11518958
     14.79661017	      0.03564703	      0.03633539	      0.11362606
     14.81355932	      0.03525839	      0.03613677	      0.11155489
     14.83050847	      0.03448207	      0.03573673	      0.10944782
     14.84745763	      0.03348427	      0.03521588	      0.10735146
     14.86440678	      0.03245915	      0.03467262	      0.10609081
     14.88135593	      0.03155446	      0.03418602	      0.10513891
     14.89830508	      0.03083075	      0.03379171	      0.10405686
     14.91525424	      0.03021703	      0.03345369	      0.10332390
     14.93220339	      0.02961503	      0.03311877	      0.10177775
     14.94915254	      0.02890897	      0.03272159	      0.09935177
     14.96610169	      0.02811259	      0.03226774	      0.09580429
     14.98305085	      0.02736967	      0.03183852	      0.09093704
