Model Marker Errors from IK
version=1
nRows=569
nColumns=4
inDegrees=no
endheader
time	total_squared_error	marker_error_RMS	marker_error_max
      0.00000000	      0.02169964	      0.02834944	      0.05525683
      0.01666667	      0.02202705	      0.02856250	      0.05796885
      0.03333333	      0.02211923	      0.02862221	      0.05892438
      0.05000000	      0.02192243	      0.02849459	      0.05831689
      0.06666667	      0.02150450	      0.02822167	      0.05668323
      0.08333333	      0.02099335	      0.02788425	      0.05429792
      0.10000000	      0.02051808	      0.02756681	      0.05178015
      0.11666667	      0.02012390	      0.02730072	      0.05176155
      0.13333333	      0.01994254	      0.02717743	      0.05164516
      0.15000000	      0.02003484	      0.02724025	      0.05137850
      0.16666667	      0.02045022	      0.02752119	      0.05101984
      0.18333333	      0.02109653	      0.02795269	      0.05066411
      0.20000000	      0.02178560	      0.02840553	      0.05149281
      0.21666667	      0.02234348	      0.02876693	      0.05451168
      0.23333333	      0.02259554	      0.02892873	      0.05740784
      0.25000000	      0.02246371	      0.02884422	      0.05985329
      0.26666667	      0.02208449	      0.02859972	      0.06050423
      0.28333333	      0.02161158	      0.02829185	      0.06034974
      0.30000000	      0.02136909	      0.02813268	      0.05991379
      0.31666667	      0.02151581	      0.02822909	      0.06112260
      0.33333333	      0.02208191	      0.02859805	      0.05886923
      0.35000000	      0.02286023	      0.02909768	      0.05770317
      0.36666667	      0.02379146	      0.02968443	      0.05515852
      0.38333333	      0.02480160	      0.03030805	      0.05206663
      0.40000000	      0.02586034	      0.03094819	      0.05479755
      0.41666667	      0.02690284	      0.03156583	      0.05847657
      0.43333333	      0.02786397	      0.03212474	      0.06066398
      0.45000000	      0.02855956	      0.03252325	      0.06371220
      0.46666667	      0.02905010	      0.03280137	      0.06565222
      0.48333333	      0.02909905	      0.03282899	      0.06759385
      0.50000000	      0.02881948	      0.03267091	      0.06794893
      0.51666667	      0.02830654	      0.03237886	      0.06816305
      0.53333333	      0.02784042	      0.03211116	      0.06770962
      0.55000000	      0.02745681	      0.03188917	      0.06691400
      0.56666667	      0.02703142	      0.03164117	      0.06614526
      0.58333333	      0.02653324	      0.03134825	      0.06662113
      0.60000000	      0.02611969	      0.03110299	      0.06779519
      0.61666667	      0.02607352	      0.03107549	      0.06956427
      0.63333333	      0.02256231	      0.02890746	      0.05981192
      0.65000000	      0.02287602	      0.02910773	      0.06083237
      0.66666667	      0.02347497	      0.02948632	      0.06248136
      0.68333333	      0.02398119	      0.02980255	      0.06385302
      0.70000000	      0.02383233	      0.02970991	      0.06435773
      0.71666667	      0.02273867	      0.02902022	      0.06351116
      0.73333333	      0.02086415	      0.02779832	      0.06055026
      0.75000000	      0.01884688	      0.02642030	      0.05474607
      0.76666667	      0.01754696	      0.02549289	      0.04827106
      0.78333333	      0.01706122	      0.02513756	      0.04998710
      0.80000000	      0.01740857	      0.02539216	      0.05482301
      0.81666667	      0.01866363	      0.02629155	      0.05744835
      0.83333333	      0.02044517	      0.02751778	      0.05813731
      0.85000000	      0.02259083	      0.02892572	      0.05686533
      0.86666667	      0.02484063	      0.03033189	      0.06125635
      0.88333333	      0.02688056	      0.03155275	      0.06636093
      0.90000000	      0.02829963	      0.03237490	      0.06852664
      0.91666667	      0.02888755	      0.03270947	      0.06755625
      0.93333333	      0.02870864	      0.03260802	      0.06511444
      0.95000000	      0.02801348	      0.03221081	      0.06596779
      0.96666667	      0.02706846	      0.03166284	      0.06597282
      0.98333333	      0.02610315	      0.03109314	      0.06561893
      1.00000000	      0.02526085	      0.03058737	      0.06539965
      1.01666667	      0.02462783	      0.03020168	      0.06536797
      1.03333333	      0.02413298	      0.02989672	      0.06492122
      1.05000000	      0.02381001	      0.02969600	      0.06398591
      1.06666667	      0.02363776	      0.02958838	      0.06248678
      1.08333333	      0.02363638	      0.02958752	      0.06062052
      1.10000000	      0.02381671	      0.02970017	      0.05858345
      1.11666667	      0.02421792	      0.02994929	      0.05680587
      1.13333333	      0.02485610	      0.03034133	      0.06158591
      1.15000000	      0.02565170	      0.03082309	      0.06679392
      1.16666667	      0.02638384	      0.03125987	      0.07096477
      1.18333333	      0.02689077	      0.03155874	      0.07411808
      1.20000000	      0.02719006	      0.03173388	      0.07518747
      1.21666667	      0.02743108	      0.03187422	      0.07517505
      1.23333333	      0.02764622	      0.03199897	      0.07442157
      1.25000000	      0.02785551	      0.03211986	      0.07319407
      1.26666667	      0.02782758	      0.03210375	      0.07138184
      1.28333333	      0.02773889	      0.03205256	      0.06999661
      1.30000000	      0.02757126	      0.03195556	      0.06975045
      1.31666667	      0.02748333	      0.03190456	      0.07031286
      1.33333333	      0.02760458	      0.03197486	      0.07134638
      1.35000000	      0.02794110	      0.03216917	      0.07208216
      1.36666667	      0.02829259	      0.03237088	      0.07198670
      1.38333333	      0.02839205	      0.03242773	      0.07092328
      1.40000000	      0.02796215	      0.03218129	      0.06898301
      1.41666667	      0.02691643	      0.03157380	      0.06618705
      1.43333333	      0.02560430	      0.03079460	      0.06287340
      1.45000000	      0.02456713	      0.03016445	      0.06022533
      1.46666667	      0.02413232	      0.02989631	      0.05864320
      1.48333333	      0.02434213	      0.03002599	      0.05833188
      1.50000000	      0.02499235	      0.03042438	      0.05808827
      1.51666667	      0.02596109	      0.03100841	      0.05828829
      1.53333333	      0.02712014	      0.03169305	      0.05857453
      1.55000000	      0.02834746	      0.03240225	      0.05917160
      1.56666667	      0.02943085	      0.03301562	      0.06318499
      1.58333333	      0.03005201	      0.03336222	      0.06835320
      1.60000000	      0.02995871	      0.03331039	      0.07145004
      1.61666667	      0.02915365	      0.03285978	      0.07232522
      1.63333333	      0.02783664	      0.03210898	      0.07087430
      1.65000000	      0.02635896	      0.03124512	      0.06761863
      1.66666667	      0.02518877	      0.03054370	      0.06393048
      1.68333333	      0.02455474	      0.03015683	      0.06065484
      1.70000000	      0.02434037	      0.03002491	      0.05862975
      1.71666667	      0.02431915	      0.03001182	      0.05813362
      1.73333333	      0.02446973	      0.03010459	      0.05921489
      1.75000000	      0.02497786	      0.03041556	      0.06179232
      1.76666667	      0.02603821	      0.03105444	      0.06531758
      1.78333333	      0.02762583	      0.03198717	      0.06941646
      1.80000000	      0.02923141	      0.03290357	      0.07345968
      1.81666667	      0.03002171	      0.03334539	      0.07581060
      1.83333333	      0.02941073	      0.03300434	      0.07500347
      1.85000000	      0.02745905	      0.03189047	      0.07017909
      1.86666667	      0.02483923	      0.03033103	      0.06190374
      1.88333333	      0.02236465	      0.02878056	      0.05227992
      1.90000000	      0.02063507	      0.02764528	      0.04813088
      1.91666667	      0.01990430	      0.02715136	      0.04814791
      1.93333333	      0.02008606	      0.02727505	      0.04995570
      1.95000000	      0.02077517	      0.02773898	      0.05145087
      1.96666667	      0.02138529	      0.02814335	      0.05291276
      1.98333333	      0.02150458	      0.02822173	      0.05331491
      2.00000000	      0.02101046	      0.02789561	      0.05135888
      2.01666667	      0.02030636	      0.02742421	      0.04795784
      2.03333333	      0.01972092	      0.02702600	      0.04676511
      2.05000000	      0.01955107	      0.02690936	      0.05149286
      2.06666667	      0.01980920	      0.02708642	      0.05488336
      2.08333333	      0.02006847	      0.02726310	      0.05615466
      2.10000000	      0.02031449	      0.02742970	      0.05478855
      2.11666667	      0.02041142	      0.02749506	      0.05199420
      2.13333333	      0.02047120	      0.02753530	      0.04872419
      2.15000000	      0.02030638	      0.02742422	      0.04720114
      2.16666667	      0.01990361	      0.02715089	      0.04527873
      2.18333333	      0.01948841	      0.02686620	      0.04270236
      2.20000000	      0.01923158	      0.02668859	      0.04206483
      2.21666667	      0.01912286	      0.02661304	      0.04261274
      2.23333333	      0.01905722	      0.02656733	      0.04315326
      2.25000000	      0.01894805	      0.02649113	      0.04378315
      2.26666667	      0.01882380	      0.02640412	      0.04435974
      2.28333333	      0.01880244	      0.02638914	      0.04499785
      2.30000000	      0.01881914	      0.02640085	      0.04542212
      2.31666667	      0.01864314	      0.02627711	      0.04579128
      2.33333333	      0.01812774	      0.02591134	      0.04605696
      2.35000000	      0.01740173	      0.02538718	      0.04628222
      2.36666667	      0.01669281	      0.02486468	      0.04623706
      2.38333333	      0.01633403	      0.02459602	      0.04631766
      2.40000000	      0.01653904	      0.02474989	      0.04627437
      2.41666667	      0.01724368	      0.02527162	      0.04643496
      2.43333333	      0.01798895	      0.02581196	      0.04689851
      2.45000000	      0.01842675	      0.02612417	      0.04806177
      2.46666667	      0.01850247	      0.02617779	      0.05005017
      2.48333333	      0.01859501	      0.02624317	      0.05295876
      2.50000000	      0.01923810	      0.02669311	      0.05841581
      2.51666667	      0.02072883	      0.02770802	      0.06543044
      2.53333333	      0.02287435	      0.02910667	      0.07185657
      2.55000000	      0.02512348	      0.03050409	      0.07637268
      2.56666667	      0.02700529	      0.03162588	      0.07857498
      2.58333333	      0.02840584	      0.03243560	      0.07913632
      2.60000000	      0.02929648	      0.03294017	      0.07797357
      2.61666667	      0.02951000	      0.03305999	      0.07535782
      2.63333333	      0.02891575	      0.03272543	      0.07205974
      2.65000000	      0.02731641	      0.03180753	      0.06743262
      2.66666667	      0.02527739	      0.03059738	      0.06215775
      2.68333333	      0.02322263	      0.02932742	      0.05565917
      2.70000000	      0.02158987	      0.02827764	      0.04979378
      2.71666667	      0.02061333	      0.02763072	      0.04858005
      2.73333333	      0.02021974	      0.02736566	      0.04937366
      2.75000000	      0.02028010	      0.02740647	      0.05123349
      2.76666667	      0.02072700	      0.02770680	      0.05411039
      2.78333333	      0.02167453	      0.02833303	      0.05709653
      2.80000000	      0.02312182	      0.02926369	      0.06006079
      2.81666667	      0.02507515	      0.03047473	      0.06241139
      2.83333333	      0.02745919	      0.03189055	      0.06389902
      2.85000000	      0.03046024	      0.03358805	      0.06447156
      2.86666667	      0.03444571	      0.03571788	      0.07855031
      2.88333333	      0.03938303	      0.03819203	      0.09505184
      2.90000000	      0.04448308	      0.04058967	      0.10947718
      2.91666667	      0.04873393	      0.04248483	      0.11978387
      2.93333333	      0.05118269	      0.04353912	      0.12458750
      2.95000000	      0.05133850	      0.04360534	      0.12382996
      2.96666667	      0.04935347	      0.04275402	      0.11801834
      2.98333333	      0.04624885	      0.04138744	      0.10932352
      3.00000000	      0.04334277	      0.04006604	      0.10103612
      3.01666667	      0.04127258	      0.03909749	      0.09501988
      3.03333333	      0.03978741	      0.03838760	      0.09127301
      3.05000000	      0.03812854	      0.03757883	      0.08665922
      3.06666667	      0.03596060	      0.03649485	      0.07890802
      3.08333333	      0.03368008	      0.03531870	      0.07287949
      3.10000000	      0.03187439	      0.03435888	      0.07479504
      3.11666667	      0.03065561	      0.03369559	      0.07623058
      3.13333333	      0.02966884	      0.03314885	      0.07633813
      3.15000000	      0.02850438	      0.03249181	      0.07436452
      3.16666667	      0.02705680	      0.03165602	      0.07011953
      3.18333333	      0.02551355	      0.03073998	      0.06482431
      3.20000000	      0.02408930	      0.02986966	      0.05913377
      3.21666667	      0.02280036	      0.02905956	      0.05438115
      3.23333333	      0.02164570	      0.02831418	      0.05122285
      3.25000000	      0.02070105	      0.02768945	      0.04958269
      3.26666667	      0.02013825	      0.02731046	      0.05064157
      3.28333333	      0.01971483	      0.02702182	      0.05138124
      3.30000000	      0.01926964	      0.02671498	      0.05208018
      3.31666667	      0.01850439	      0.02617915	      0.05272536
      3.33333333	      0.01747738	      0.02544229	      0.05352717
      3.35000000	      0.01657227	      0.02477474	      0.05428273
      3.36666667	      0.01613343	      0.02444452	      0.05470796
      3.38333333	      0.01616055	      0.02446506	      0.05487678
      3.40000000	      0.01627388	      0.02455069	      0.05439710
      3.41666667	      0.01618305	      0.02448208	      0.05358750
      3.43333333	      0.01576506	      0.02416384	      0.05211378
      3.45000000	      0.01511574	      0.02366098	      0.05034211
      3.46666667	      0.01452135	      0.02319111	      0.04822000
      3.48333333	      0.01417872	      0.02291589	      0.04661446
      3.50000000	      0.01419749	      0.02293105	      0.04532138
      3.51666667	      0.01460567	      0.02325835	      0.04495207
      3.53333333	      0.01521914	      0.02374177	      0.04436216
      3.55000000	      0.01580183	      0.02419200	      0.04581568
      3.56666667	      0.01627584	      0.02455217	      0.05028689
      3.58333333	      0.01676328	      0.02491711	      0.05492078
      3.60000000	      0.01746474	      0.02543309	      0.05955796
      3.61666667	      0.01849990	      0.02617597	      0.06436664
      3.63333333	      0.01976239	      0.02705440	      0.06880048
      3.65000000	      0.02086277	      0.02779739	      0.07200277
      3.66666667	      0.02162384	      0.02829987	      0.07430559
      3.68333333	      0.02165515	      0.02832036	      0.07490248
      3.70000000	      0.02104208	      0.02791660	      0.07395102
      3.71666667	      0.02020218	      0.02735377	      0.07246926
      3.73333333	      0.01973215	      0.02703369	      0.07137360
      3.75000000	      0.02019021	      0.02734567	      0.07107920
      3.76666667	      0.02188701	      0.02847157	      0.07156033
      3.78333333	      0.02474715	      0.03027476	      0.07248919
      3.80000000	      0.02822499	      0.03233218	      0.07331640
      3.81666667	      0.03151051	      0.03416220	      0.07369163
      3.83333333	      0.03381348	      0.03538857	      0.07261717
      3.85000000	      0.03488039	      0.03594254	      0.07091140
      3.86666667	      0.03511289	      0.03606213	      0.07353605
      3.88333333	      0.03501912	      0.03601395	      0.07462017
      3.90000000	      0.03473629	      0.03586822	      0.08080293
      3.91666667	      0.03426426	      0.03562368	      0.08699312
      3.93333333	      0.03389256	      0.03542993	      0.09039148
      3.95000000	      0.03360544	      0.03527954	      0.09144906
      3.96666667	      0.03315735	      0.03504354	      0.08938007
      3.98333333	      0.03216612	      0.03451576	      0.08521226
      4.00000000	      0.03094091	      0.03385202	      0.07987205
      4.01666667	      0.02970298	      0.03316791	      0.07650083
      4.03333333	      0.02860364	      0.03254833	      0.07694941
      4.05000000	      0.02770622	      0.03203367	      0.07481002
      4.06666667	      0.02703389	      0.03164262	      0.06981489
      4.08333333	      0.02679130	      0.03150032	      0.07366117
      4.10000000	      0.02727093	      0.03178104	      0.07910945
      4.11666667	      0.02837144	      0.03241595	      0.08449185
      4.13333333	      0.02949940	      0.03305405	      0.08789871
      4.15000000	      0.02992399	      0.03329108	      0.08767193
      4.16666667	      0.02908007	      0.03281828	      0.08228291
      4.18333333	      0.02730098	      0.03179854	      0.07312814
      4.20000000	      0.02533779	      0.03063391	      0.06313687
      4.21666667	      0.02393928	      0.02977650	      0.05588318
      4.23333333	      0.02335064	      0.02940813	      0.05327287
      4.25000000	      0.02343954	      0.02946406	      0.05484600
      4.26666667	      0.02384244	      0.02971621	      0.05699935
      4.28333333	      0.02409017	      0.02987019	      0.05908066
      4.30000000	      0.02385457	      0.02972377	      0.06001747
      4.31666667	      0.02318824	      0.02930569	      0.05911034
      4.33333333	      0.02231346	      0.02874760	      0.05822963
      4.35000000	      0.02172899	      0.02836860	      0.05766139
      4.36666667	      0.02170067	      0.02835011	      0.05940580
      4.38333333	      0.02236299	      0.02877949	      0.06446014
      4.40000000	      0.02351397	      0.02951081	      0.07016027
      4.41666667	      0.02515701	      0.03052444	      0.07714035
      4.43333333	      0.02699195	      0.03161806	      0.08342373
      4.45000000	      0.02856854	      0.03252836	      0.08655782
      4.46666667	      0.02990849	      0.03328246	      0.08731389
      4.48333333	      0.03075435	      0.03374982	      0.08540122
      4.50000000	      0.03106560	      0.03392017	      0.08164762
      4.51666667	      0.03102602	      0.03389855	      0.07720445
      4.53333333	      0.03064229	      0.03368827	      0.07180585
      4.55000000	      0.03009210	      0.03338446	      0.06563765
      4.56666667	      0.02980407	      0.03322430	      0.06033420
      4.58333333	      0.02991889	      0.03328824	      0.06049425
      4.60000000	      0.03023937	      0.03346605	      0.05990338
      4.61666667	      0.03074924	      0.03374701	      0.05900714
      4.63333333	      0.03153652	      0.03417630	      0.05841645
      4.65000000	      0.03281491	      0.03486212	      0.05911621
      4.66666667	      0.03452837	      0.03576071	      0.06314378
      4.68333333	      0.03588035	      0.03645411	      0.06528222
      4.70000000	      0.03582478	      0.03642586	      0.06532717
      4.71666667	      0.03429814	      0.03564129	      0.06349018
      4.73333333	      0.03253237	      0.03471171	      0.06038332
      4.75000000	      0.03169239	      0.03426065	      0.05736089
      4.76666667	      0.03181313	      0.03432585	      0.06054233
      4.78333333	      0.03239301	      0.03463728	      0.06457650
      4.80000000	      0.03291005	      0.03491261	      0.06835630
      4.81666667	      0.03320916	      0.03507091	      0.07086870
      4.83333333	      0.03312013	      0.03502387	      0.07089341
      4.85000000	      0.03255134	      0.03472183	      0.06837552
      4.86666667	      0.03146609	      0.03413812	      0.06368299
      4.88333333	      0.03019554	      0.03344179	      0.06010455
      4.90000000	      0.02916634	      0.03286693	      0.06068258
      4.91666667	      0.02821673	      0.03232745	      0.06075405
      4.93333333	      0.02691890	      0.03157525	      0.06010681
      4.95000000	      0.02514020	      0.03051424	      0.05873999
      4.96666667	      0.02302021	      0.02919932	      0.05694453
      4.98333333	      0.02131311	      0.02809581	      0.05480326
      5.00000000	      0.02072809	      0.02770752	      0.06346071
      5.01666667	      0.02294970	      0.02915457	      0.08649483
      5.03333333	      0.03050545	      0.03361296	      0.10808152
      5.05000000	      0.04576824	      0.04117184	      0.12460304
      5.06666667	      0.06771282	      0.05007876	      0.15104508
      5.08333333	      0.08985763	      0.05768934	      0.19527984
      5.10000000	      0.10526818	      0.06244054	      0.22804959
      5.11666667	      0.10882467	      0.06348656	      0.24207111
      5.13333333	      0.09791847	      0.06022134	      0.23114776
      5.15000000	      0.07682975	      0.05334366	      0.19616355
      5.16666667	      0.05589132	      0.04549779	      0.14633171
      5.18333333	      0.04319885	      0.03999947	      0.12221298
      5.20000000	      0.03837134	      0.03769828	      0.12353327
      5.21666667	      0.04264897	      0.03974407	      0.12487427
      5.23333333	      0.05501576	      0.04514001	      0.13329228
      5.25000000	      0.06976896	      0.05083341	      0.16613190
      5.26666667	      0.07604281	      0.05306977	      0.17855674
      5.28333333	      0.06815087	      0.05024049	      0.16353058
      5.30000000	      0.05240638	      0.04405652	      0.12777320
      5.31666667	      0.03903975	      0.03802521	      0.09833057
      5.33333333	      0.03165046	      0.03423798	      0.07727311
      5.35000000	      0.02833484	      0.03239504	      0.07174819
      5.36666667	      0.02833615	      0.03239579	      0.07240587
      5.38333333	      0.03057643	      0.03365205	      0.07732271
      5.40000000	      0.03819806	      0.03761307	      0.09592884
      5.41666667	      0.04914063	      0.04266173	      0.11746695
      5.43333333	      0.06574546	      0.04934589	      0.15802834
      5.45000000	      0.08314554	      0.05549292	      0.19215348
      5.46666667	      0.09591490	      0.05960204	      0.21403148
      5.48333333	      0.10171212	      0.06137683	      0.22230935
      5.50000000	      0.10349069	      0.06191113	      0.22321009
      5.51666667	      0.10615669	      0.06270350	      0.22428447
      5.53333333	      0.11083903	      0.06407144	      0.22807734
      5.55000000	      0.11338928	      0.06480434	      0.22911307
      5.56666667	      0.10805202	      0.06326078	      0.21897275
      5.58333333	      0.09361774	      0.05888398	      0.19338125
      5.60000000	      0.07494526	      0.05268539	      0.15522648
      5.61666667	      0.05897756	      0.04673708	      0.12329250
      5.63333333	      0.05013831	      0.04309263	      0.11004476
      5.65000000	      0.04440973	      0.04055619	      0.09551930
      5.66666667	      0.04278312	      0.03980653	      0.09013349
      5.68333333	      0.04256073	      0.03970294	      0.08638403
      5.70000000	      0.04172515	      0.03931127	      0.08378008
      5.71666667	      0.04010587	      0.03854092	      0.08105700
      5.73333333	      0.03815630	      0.03759250	      0.07723264
      5.75000000	      0.03631160	      0.03667253	      0.07409199
      5.76666667	      0.03484616	      0.03592490	      0.07442806
      5.78333333	      0.03375018	      0.03535543	      0.07405757
      5.80000000	      0.03273075	      0.03481738	      0.07349651
      5.81666667	      0.03177637	      0.03430601	      0.07302828
      5.83333333	      0.03129413	      0.03404470	      0.07402274
      5.85000000	      0.03159344	      0.03420712	      0.07468450
      5.86666667	      0.03270510	      0.03480374	      0.07636352
      5.88333333	      0.03433452	      0.03566019	      0.07709859
      5.90000000	      0.03613006	      0.03658074	      0.07724865
      5.91666667	      0.03766664	      0.03735051	      0.07598274
      5.93333333	      0.03868320	      0.03785117	      0.07594983
      5.95000000	      0.03926547	      0.03813498	      0.07961239
      5.96666667	      0.03962813	      0.03831068	      0.08294405
      5.98333333	      0.03972906	      0.03835944	      0.08573466
      6.00000000	      0.03940413	      0.03820225	      0.08840283
      6.01666667	      0.03852536	      0.03777387	      0.09069296
      6.03333333	      0.03720246	      0.03711966	      0.09232029
      6.05000000	      0.03562514	      0.03632423	      0.09285360
      6.06666667	      0.03392670	      0.03544777	      0.09212905
      6.08333333	      0.03226096	      0.03456661	      0.09066307
      6.10000000	      0.03078111	      0.03376450	      0.08831598
      6.11666667	      0.02981473	      0.03323025	      0.08560809
      6.13333333	      0.02960897	      0.03311538	      0.08272885
      6.15000000	      0.03015311	      0.03341828	      0.07957634
      6.16666667	      0.03113167	      0.03395622	      0.08520878
      6.18333333	      0.03208986	      0.03447482	      0.09254221
      6.20000000	      0.03277255	      0.03483961	      0.09892914
      6.21666667	      0.03297018	      0.03494449	      0.10364059
      6.23333333	      0.03231796	      0.03459713	      0.10590604
      6.25000000	      0.03055195	      0.03363857	      0.10424551
      6.26666667	      0.02784750	      0.03211524	      0.09874237
      6.28333333	      0.02470084	      0.03024642	      0.09065904
      6.30000000	      0.02152392	      0.02823442	      0.08115937
      6.31666667	      0.01879471	      0.02638372	      0.07217087
      6.33333333	      0.01685031	      0.02498170	      0.06522892
      6.35000000	      0.01583312	      0.02421594	      0.06158569
      6.36666667	      0.01568113	      0.02409943	      0.06163104
      6.38333333	      0.01614120	      0.02445040	      0.06435247
      6.40000000	      0.01691761	      0.02503155	      0.06777560
      6.41666667	      0.01780597	      0.02568035	      0.07002432
      6.43333333	      0.01872945	      0.02633787	      0.07023400
      6.45000000	      0.01967126	      0.02699195	      0.06867257
      6.46666667	      0.02049798	      0.02755330	      0.06656909
      6.48333333	      0.02083344	      0.02777785	      0.06363734
      6.50000000	      0.02071956	      0.02770182	      0.06047725
      6.51666667	      0.02049378	      0.02755048	      0.05787951
      6.53333333	      0.02046825	      0.02753331	      0.05743307
      6.55000000	      0.02078721	      0.02774701	      0.06042577
      6.56666667	      0.02153467	      0.02824147	      0.06476191
      6.58333333	      0.02280967	      0.02906549	      0.06844583
      6.60000000	      0.02440341	      0.03006377	      0.07037889
      6.61666667	      0.02590686	      0.03097601	      0.06988152
      6.63333333	      0.02702134	      0.03163527	      0.06689534
      6.65000000	      0.02773750	      0.03205175	      0.06387187
      6.66666667	      0.02801654	      0.03221257	      0.06069184
      6.68333333	      0.02765667	      0.03200502	      0.05758955
      6.70000000	      0.02661096	      0.03139413	      0.05372479
      6.71666667	      0.02536322	      0.03064928	      0.05188898
      6.73333333	      0.02416639	      0.02991741	      0.05132588
      6.75000000	      0.02330049	      0.02937654	      0.05066531
      6.76666667	      0.02278747	      0.02905134	      0.04894346
      6.78333333	      0.02256609	      0.02890988	      0.04783392
      6.80000000	      0.02272109	      0.02900899	      0.04707292
      6.81666667	      0.02320044	      0.02931340	      0.04654108
      6.83333333	      0.02406522	      0.02985472	      0.04923712
      6.85000000	      0.02530803	      0.03061592	      0.05285742
      6.86666667	      0.02684255	      0.03153044	      0.05927281
      6.88333333	      0.02822306	      0.03233108	      0.06510551
      6.90000000	      0.02886585	      0.03269718	      0.06914754
      6.91666667	      0.02853571	      0.03250966	      0.07046833
      6.93333333	      0.02750887	      0.03191938	      0.06923104
      6.95000000	      0.02636244	      0.03124719	      0.06606282
      6.96666667	      0.02555391	      0.03076428	      0.06332725
      6.98333333	      0.02510972	      0.03049573	      0.06185066
      7.00000000	      0.02509086	      0.03048428	      0.06074898
      7.01666667	      0.02535816	      0.03064622	      0.05987352
      7.03333333	      0.02576416	      0.03089058	      0.05859512
      7.05000000	      0.02623707	      0.03117280	      0.06083245
      7.06666667	      0.02660735	      0.03139200	      0.06264573
      7.08333333	      0.02679457	      0.03150225	      0.06352034
      7.10000000	      0.02691330	      0.03157196	      0.06400988
      7.11666667	      0.02709494	      0.03167832	      0.06251651
      7.13333333	      0.02736287	      0.03183457	      0.06193824
      7.15000000	      0.02768628	      0.03202214	      0.06103198
      7.16666667	      0.02793353	      0.03216481	      0.06132060
      7.18333333	      0.02819081	      0.03231260	      0.06511540
      7.20000000	      0.02832378	      0.03238872	      0.06875244
      7.21666667	      0.02817878	      0.03230570	      0.07149282
      7.23333333	      0.02758582	      0.03196400	      0.07207286
      7.25000000	      0.02666589	      0.03142651	      0.07142397
      7.26666667	      0.02570216	      0.03085339	      0.06835695
      7.28333333	      0.02511678	      0.03050002	      0.06622825
      7.30000000	      0.02483154	      0.03032634	      0.06193221
      7.31666667	      0.02491368	      0.03037645	      0.06141376
      7.33333333	      0.02515454	      0.03052294	      0.06092190
      7.35000000	      0.02546397	      0.03071009	      0.06147284
      7.36666667	      0.02575834	      0.03088709	      0.06499968
      7.38333333	      0.02593828	      0.03099479	      0.06799566
      7.40000000	      0.02601173	      0.03103865	      0.07064234
      7.41666667	      0.02604680	      0.03105956	      0.07225634
      7.43333333	      0.02619696	      0.03114896	      0.07243257
      7.45000000	      0.02649720	      0.03132695	      0.07131976
      7.46666667	      0.02680461	      0.03150815	      0.06886656
      7.48333333	      0.02687562	      0.03154985	      0.06705014
      7.50000000	      0.02665664	      0.03142106	      0.06435866
      7.51666667	      0.02609182	      0.03108639	      0.06183220
      7.53333333	      0.02526167	      0.03058786	      0.05986934
      7.55000000	      0.02440943	      0.03006747	      0.05896057
      7.56666667	      0.02379090	      0.02968408	      0.05864121
      7.58333333	      0.02338778	      0.02943151	      0.05845523
      7.60000000	      0.02319814	      0.02931195	      0.05897096
      7.61666667	      0.02328211	      0.02936495	      0.05965894
      7.63333333	      0.02364875	      0.02959527	      0.06015329
      7.65000000	      0.02397981	      0.02980170	      0.05978420
      7.66666667	      0.02386977	      0.02973324	      0.05733579
      7.68333333	      0.02318762	      0.02930530	      0.05347115
      7.70000000	      0.02212631	      0.02862678	      0.05332301
      7.71666667	      0.02092718	      0.02784027	      0.05248989
      7.73333333	      0.01965449	      0.02698044	      0.05150488
      7.75000000	      0.01835836	      0.02607564	      0.04998093
      7.76666667	      0.01692549	      0.02503737	      0.04886029
      7.78333333	      0.01522016	      0.02374257	      0.04802313
      7.80000000	      0.01345919	      0.02232686	      0.04792545
      7.81666667	      0.01260457	      0.02160639	      0.04862720
      7.83333333	      0.01385518	      0.02265292	      0.04990407
      7.85000000	      0.01786832	      0.02572527	      0.05137681
      7.86666667	      0.02413197	      0.02989609	      0.06133259
      7.88333333	      0.03084188	      0.03379781	      0.07312942
      7.90000000	      0.03609092	      0.03656092	      0.08014218
      7.91666667	      0.03875210	      0.03788487	      0.08355251
      7.93333333	      0.03862304	      0.03782173	      0.08427300
      7.95000000	      0.03667387	      0.03685501	      0.08251444
      7.96666667	      0.03426913	      0.03562621	      0.07798106
      7.98333333	      0.03504875	      0.03602918	      0.07117927
      8.00000000	      0.03706203	      0.03704953	      0.06098829
      8.01666667	      0.04132899	      0.03912420	      0.07132860
      8.03333333	      0.04451999	      0.04060651	      0.07907820
      8.05000000	      0.04515773	      0.04089632	      0.08328485
      8.06666667	      0.04360773	      0.04018832	      0.08473899
      8.08333333	      0.04086620	      0.03890454	      0.08418774
      8.10000000	      0.03774490	      0.03738929	      0.08273121
      8.11666667	      0.03516047	      0.03608656	      0.07999719
      8.13333333	      0.03363907	      0.03529719	      0.07643456
      8.15000000	      0.03350265	      0.03522554	      0.07136530
      8.16666667	      0.03452654	      0.03575977	      0.06592911
      8.18333333	      0.03627674	      0.03665492	      0.06338456
      8.20000000	      0.03830832	      0.03766732	      0.06665372
      8.21666667	      0.04012133	      0.03854835	      0.06869137
      8.23333333	      0.04142222	      0.03916831	      0.07497653
      8.25000000	      0.04231701	      0.03958910	      0.08204178
      8.26666667	      0.04296826	      0.03989257	      0.08719955
      8.28333333	      0.04336633	      0.04007693	      0.08864046
      8.30000000	      0.04322164	      0.04001002	      0.08640359
      8.31666667	      0.04257176	      0.03970808	      0.08229044
      8.33333333	      0.04144678	      0.03917992	      0.07813510
      8.35000000	      0.04025415	      0.03861210	      0.07434072
      8.36666667	      0.03897481	      0.03799357	      0.07026744
      8.38333333	      0.03766831	      0.03735134	      0.06683666
      8.40000000	      0.03640966	      0.03672201	      0.06399042
      8.41666667	      0.03534993	      0.03618365	      0.06469089
      8.43333333	      0.03436073	      0.03567380	      0.06797893
      8.45000000	      0.03308076	      0.03500305	      0.06969077
      8.46666667	      0.03151667	      0.03416554	      0.07009999
      8.48333333	      0.02984786	      0.03324870	      0.06952557
      8.50000000	      0.02842102	      0.03244427	      0.06132123
      8.51666667	      0.02743812	      0.03187831	      0.06124584
      8.53333333	      0.02693797	      0.03158643	      0.06134019
      8.55000000	      0.02694807	      0.03159235	      0.06150179
      8.56666667	      0.02758184	      0.03196169	      0.06094510
      8.58333333	      0.02872984	      0.03262005	      0.06061301
      8.60000000	      0.03001032	      0.03333907	      0.06466015
      8.61666667	      0.03015610	      0.03341994	      0.05890443
      8.63333333	      0.02958414	      0.03310149	      0.05814728
      8.65000000	      0.02846297	      0.03246820	      0.05698976
      8.66666667	      0.02717842	      0.03172709	      0.05535698
      8.68333333	      0.02587962	      0.03095972	      0.05418313
      8.70000000	      0.02458903	      0.03017789	      0.05512078
      8.71666667	      0.02314636	      0.02927922	      0.05371408
      8.73333333	      0.02176127	      0.02838966	      0.05125632
      8.75000000	      0.02073830	      0.02771435	      0.05133149
      8.76666667	      0.02020003	      0.02735232	      0.05199563
      8.78333333	      0.01995631	      0.02718681	      0.05237957
      8.80000000	      0.01949355	      0.02686975	      0.05249466
      8.81666667	      0.01895109	      0.02649325	      0.05231830
      8.83333333	      0.01838916	      0.02609751	      0.05197010
      8.85000000	      0.01790220	      0.02574965	      0.05181526
      8.86666667	      0.01753818	      0.02548651	      0.05175718
      8.88333333	      0.01734491	      0.02534569	      0.05188665
      8.90000000	      0.01731940	      0.02532705	      0.05207266
      8.91666667	      0.01738634	      0.02537595	      0.05241333
      8.93333333	      0.01749848	      0.02545765	      0.05241760
      8.95000000	      0.01755344	      0.02549760	      0.05245151
      8.96666667	      0.01758156	      0.02551801	      0.05187338
      8.98333333	      0.01760987	      0.02553855	      0.05148382
      9.00000000	      0.01778518	      0.02566536	      0.05122188
      9.01666667	      0.01820512	      0.02596659	      0.05077721
      9.03333333	      0.01887632	      0.02644094	      0.05049769
      9.05000000	      0.01947655	      0.02685803	      0.05030527
      9.06666667	      0.01989011	      0.02714168	      0.05035588
      9.08333333	      0.01992724	      0.02716700	      0.05113713
      9.10000000	      0.01962154	      0.02695781	      0.04971121
      9.11666667	      0.01901665	      0.02653904	      0.04921810
      9.13333333	      0.01834192	      0.02606397	      0.04859958
      9.15000000	      0.01778764	      0.02566713	      0.04798737
      9.16666667	      0.01742799	      0.02540632	      0.04727117
      9.18333333	      0.01728166	      0.02529944	      0.04652810
      9.20000000	      0.01733010	      0.02533487	      0.04589951
      9.21666667	      0.01748362	      0.02544684	      0.04526624
      9.23333333	      0.01763072	      0.02555366	      0.04468190
      9.25000000	      0.01767506	      0.02558578	      0.04407260
      9.26666667	      0.01756595	      0.02550668	      0.04345788
      9.28333333	      0.01737448	      0.02536728	      0.04300209
      9.30000000	      0.01715282	      0.02520495	      0.04263197
      9.31666667	      0.01695190	      0.02505690	      0.04235185
      9.33333333	      0.01678398	      0.02493249	      0.04216743
      9.35000000	      0.01676152	      0.02491580	      0.04233427
      9.36666667	      0.01661683	      0.02480803	      0.04226201
      9.38333333	      0.01660843	      0.02480175	      0.04255937
      9.40000000	      0.01662872	      0.02481690	      0.04300153
      9.41666667	      0.01666387	      0.02484312	      0.04357862
      9.43333333	      0.01668842	      0.02486141	      0.04420244
      9.45000000	      0.01667779	      0.02485349	      0.04499261
      9.46666667	      0.01672507	      0.02488869	      0.04576927
