Model Marker Errors from IK
version=1
nRows=380
nColumns=4
inDegrees=no
endheader
time	total_squared_error	marker_error_RMS	marker_error_max
      0.00000000	      0.02574309	      0.03087795	      0.05300125
      0.01666667	      0.02522823	      0.03056761	      0.05290650
      0.03333333	      0.02506529	      0.03046874	      0.05142065
      0.05000000	      0.02502698	      0.03044545	      0.05064247
      0.06666667	      0.02499100	      0.03042356	      0.04972432
      0.08333333	      0.02487371	      0.03035208	      0.04989645
      0.10000000	      0.02457288	      0.03016797	      0.05067885
      0.11666667	      0.02421233	      0.02994583	      0.05133576
      0.13333333	      0.02387207	      0.02973467	      0.05153855
      0.15000000	      0.02366796	      0.02960728	      0.05187687
      0.16666667	      0.02350824	      0.02950721	      0.05176470
      0.18333333	      0.02355865	      0.02953883	      0.05165879
      0.20000000	      0.02376520	      0.02966804	      0.05176788
      0.21666667	      0.02406313	      0.02985342	      0.05189930
      0.23333333	      0.02433328	      0.03002054	      0.05233879
      0.25000000	      0.02455215	      0.03015525	      0.05307018
      0.26666667	      0.02473185	      0.03026540	      0.05377248
      0.28333333	      0.02487842	      0.03035495	      0.05469358
      0.30000000	      0.02488604	      0.03035960	      0.05492081
      0.31666667	      0.02476760	      0.03028727	      0.05489396
      0.33333333	      0.02457236	      0.03016765	      0.05436145
      0.35000000	      0.02434804	      0.03002964	      0.05384640
      0.36666667	      0.02414133	      0.02990189	      0.05331304
      0.38333333	      0.02402142	      0.02982754	      0.05304943
      0.40000000	      0.02405694	      0.02984959	      0.05335645
      0.41666667	      0.02428684	      0.02999187	      0.05352309
      0.43333333	      0.02460115	      0.03018532	      0.05322040
      0.45000000	      0.02495951	      0.03040438	      0.05255765
      0.46666667	      0.02542315	      0.03068547	      0.05389158
      0.48333333	      0.02611227	      0.03109857	      0.06056880
      0.50000000	      0.02694433	      0.03159016	      0.06714297
      0.51666667	      0.02745408	      0.03188758	      0.07116422
      0.53333333	      0.02696527	      0.03160243	      0.06918361
      0.55000000	      0.02551778	      0.03074253	      0.06154150
      0.56666667	      0.02378858	      0.02968263	      0.05905201
      0.58333333	      0.02234455	      0.02876762	      0.05639711
      0.60000000	      0.02152813	      0.02823717	      0.05613595
      0.61666667	      0.02175633	      0.02838644	      0.06228665
      0.63333333	      0.02326072	      0.02935146	      0.07158870
      0.65000000	      0.02566446	      0.03083076	      0.08210321
      0.66666667	      0.02790030	      0.03214568	      0.08969916
      0.68333333	      0.02831121	      0.03238153	      0.09036027
      0.70000000	      0.02584919	      0.03094152	      0.08115698
      0.71666667	      0.02186247	      0.02845560	      0.06750703
      0.73333333	      0.01886784	      0.02643499	      0.05337114
      0.75000000	      0.01832103	      0.02604912	      0.05257971
      0.76666667	      0.01908537	      0.02658694	      0.05310081
      0.78333333	      0.02038558	      0.02747765	      0.05576729
      0.80000000	      0.02180477	      0.02841803	      0.05840256
      0.81666667	      0.02298753	      0.02917859	      0.05662757
      0.83333333	      0.02373885	      0.02965159	      0.05333721
      0.85000000	      0.02435378	      0.03003318	      0.05378082
      0.86666667	      0.02461346	      0.03019288	      0.05402656
      0.88333333	      0.02388828	      0.02974477	      0.05392892
      0.90000000	      0.02236193	      0.02877880	      0.05368350
      0.91666667	      0.02158052	      0.02827151	      0.05311440
      0.93333333	      0.02206227	      0.02858533	      0.05203725
      0.95000000	      0.02251965	      0.02888012	      0.05142795
      0.96666667	      0.02311053	      0.02925655	      0.05161490
      0.98333333	      0.02280992	      0.02906564	      0.04657514
      1.00000000	      0.02106307	      0.02793052	      0.04767225
      1.01666667	      0.02012750	      0.02730317	      0.04619594
      1.03333333	      0.01938646	      0.02679584	      0.04358866
      1.05000000	      0.01851843	      0.02618908	      0.04161167
      1.06666667	      0.01767662	      0.02558691	      0.04362534
      1.08333333	      0.01783508	      0.02570133	      0.04774395
      1.10000000	      0.01922507	      0.02668407	      0.05227196
      1.11666667	      0.02216286	      0.02865042	      0.05893957
      1.13333333	      0.02677298	      0.03148955	      0.06861893
      1.15000000	      0.03244426	      0.03466467	      0.07451911
      1.16666667	      0.03610153	      0.03656629	      0.07143930
      1.18333333	      0.04144820	      0.03918059	      0.08553383
      1.20000000	      0.04640352	      0.04145659	      0.09048233
      1.21666667	      0.04740516	      0.04190163	      0.08775505
      1.23333333	      0.04501096	      0.04082980	      0.08018895
      1.25000000	      0.04100722	      0.03897160	      0.07076138
      1.26666667	      0.03714074	      0.03708885	      0.06427915
      1.28333333	      0.03439813	      0.03569320	      0.07148148
      1.30000000	      0.03284254	      0.03487679	      0.07856695
      1.31666667	      0.03259386	      0.03474450	      0.08568718
      1.33333333	      0.03392414	      0.03544643	      0.09352937
      1.35000000	      0.03668653	      0.03686137	      0.10137018
      1.36666667	      0.03998172	      0.03848122	      0.10694187
      1.38333333	      0.04254876	      0.03969735	      0.10794409
      1.40000000	      0.04357552	      0.04017347	      0.10417602
      1.41666667	      0.04283876	      0.03983241	      0.09668721
      1.43333333	      0.04091377	      0.03892718	      0.09528211
      1.45000000	      0.03855222	      0.03778704	      0.09532260
      1.46666667	      0.03631426	      0.03667387	      0.09342245
      1.48333333	      0.03466228	      0.03582999	      0.08964308
      1.50000000	      0.03388022	      0.03542348	      0.08401546
      1.51666667	      0.03396452	      0.03546753	      0.07696885
      1.53333333	      0.03476624	      0.03588368	      0.06860926
      1.55000000	      0.03634130	      0.03668752	      0.07349294
      1.56666667	      0.03831521	      0.03767070	      0.07829962
      1.58333333	      0.04008778	      0.03853223	      0.07870409
      1.60000000	      0.04123413	      0.03907928	      0.07493542
      1.61666667	      0.04150056	      0.03920533	      0.06933872
      1.63333333	      0.04096592	      0.03895197	      0.06770618
      1.65000000	      0.03955957	      0.03827753	      0.06413499
      1.66666667	      0.03782412	      0.03742851	      0.05907243
      1.68333333	      0.03615795	      0.03659486	      0.05943015
      1.70000000	      0.03513194	      0.03607192	      0.06318264
      1.71666667	      0.03507601	      0.03604319	      0.06646032
      1.73333333	      0.03595881	      0.03649394	      0.06818507
      1.75000000	      0.03753481	      0.03728509	      0.06900498
      1.76666667	      0.03931957	      0.03816124	      0.06829855
      1.78333333	      0.04111152	      0.03902113	      0.06948297
      1.80000000	      0.04257934	      0.03971162	      0.07132852
      1.81666667	      0.04328448	      0.04003909	      0.07202817
      1.83333333	      0.04303399	      0.03992307	      0.07103062
      1.85000000	      0.04183116	      0.03936118	      0.06995090
      1.86666667	      0.04034634	      0.03865629	      0.06828633
      1.88333333	      0.03899790	      0.03800483	      0.06669321
      1.90000000	      0.03818994	      0.03760907	      0.06574335
      1.91666667	      0.03792065	      0.03747624	      0.06514067
      1.93333333	      0.03809886	      0.03756420	      0.06485352
      1.95000000	      0.03843956	      0.03773178	      0.06471388
      1.96666667	      0.03878525	      0.03790106	      0.06518347
      1.98333333	      0.03913361	      0.03807090	      0.06651491
      2.00000000	      0.03942905	      0.03821433	      0.06728142
      2.01666667	      0.03974949	      0.03836930	      0.06712655
      2.03333333	      0.04006579	      0.03852166	      0.06571972
      2.05000000	      0.04033896	      0.03865276	      0.06483997
      2.06666667	      0.04058769	      0.03877174	      0.06474441
      2.08333333	      0.04086894	      0.03890584	      0.06476801
      2.10000000	      0.04119327	      0.03905991	      0.06499447
      2.11666667	      0.04137151	      0.03914433	      0.06591518
      2.13333333	      0.04135269	      0.03913542	      0.06764823
      2.15000000	      0.04105116	      0.03899248	      0.06843962
      2.16666667	      0.04051905	      0.03873894	      0.06668439
      2.18333333	      0.03992904	      0.03845586	      0.06595770
      2.20000000	      0.03936020	      0.03818095	      0.06283615
      2.21666667	      0.03887514	      0.03794496	      0.06171690
      2.23333333	      0.03864049	      0.03783027	      0.06036748
      2.25000000	      0.03849082	      0.03775693	      0.05932343
      2.26666667	      0.03858856	      0.03780484	      0.05815899
      2.28333333	      0.03876858	      0.03789292	      0.05757411
      2.30000000	      0.03902811	      0.03801954	      0.05842638
      2.31666667	      0.03932178	      0.03816231	      0.05938252
      2.33333333	      0.03949891	      0.03824817	      0.06024999
      2.35000000	      0.03965883	      0.03832552	      0.06105190
      2.36666667	      0.03989821	      0.03844101	      0.06169300
      2.38333333	      0.04038998	      0.03867719	      0.06240115
      2.40000000	      0.04121253	      0.03906904	      0.06367137
      2.41666667	      0.04232969	      0.03959503	      0.06489476
      2.43333333	      0.04368180	      0.04022244	      0.06606108
      2.45000000	      0.04514601	      0.04089100	      0.06942839
      2.46666667	      0.04655124	      0.04152252	      0.07317603
      2.48333333	      0.04766480	      0.04201622	      0.07698678
      2.50000000	      0.04836741	      0.04232476	      0.08017434
      2.51666667	      0.04874606	      0.04249011	      0.08349669
      2.53333333	      0.04906095	      0.04262713	      0.08646612
      2.55000000	      0.04939344	      0.04277133	      0.08924350
      2.56666667	      0.04982583	      0.04295813	      0.09141438
      2.58333333	      0.05043959	      0.04322190	      0.09291382
      2.60000000	      0.05131193	      0.04359406	      0.09389804
      2.61666667	      0.05245737	      0.04407795	      0.09444601
      2.63333333	      0.05366438	      0.04458217	      0.09442751
      2.65000000	      0.05478691	      0.04504603	      0.09419836
      2.66666667	      0.05559118	      0.04537546	      0.09370109
      2.68333333	      0.05561703	      0.04538601	      0.09289808
      2.70000000	      0.05516249	      0.04520017	      0.09173643
      2.71666667	      0.05428771	      0.04484034	      0.09015063
      2.73333333	      0.05323532	      0.04440359	      0.08845261
      2.75000000	      0.05237090	      0.04404160	      0.08681957
      2.76666667	      0.05170912	      0.04376246	      0.08541714
      2.78333333	      0.05104659	      0.04348120	      0.08439066
      2.80000000	      0.05057500	      0.04327988	      0.08370940
      2.81666667	      0.05024421	      0.04313811	      0.08299666
      2.83333333	      0.05016726	      0.04310506	      0.08222780
      2.85000000	      0.05022254	      0.04312881	      0.08117659
      2.86666667	      0.05034109	      0.04317968	      0.08023803
      2.88333333	      0.05056724	      0.04327656	      0.07916012
      2.90000000	      0.05091299	      0.04342426	      0.07818266
      2.91666667	      0.05133315	      0.04360307	      0.07731846
      2.93333333	      0.05158445	      0.04370967	      0.07641408
      2.95000000	      0.05146654	      0.04365969	      0.07534042
      2.96666667	      0.05110350	      0.04350543	      0.07654491
      2.98333333	      0.05049038	      0.04324366	      0.07945139
      3.00000000	      0.04976262	      0.04293087	      0.08241500
      3.01666667	      0.04895202	      0.04257978	      0.08484074
      3.03333333	      0.04800971	      0.04216797	      0.08620874
      3.05000000	      0.04703995	      0.04173992	      0.08673734
      3.06666667	      0.04604699	      0.04129702	      0.08695318
      3.08333333	      0.04509715	      0.04086888	      0.08705267
      3.10000000	      0.04425742	      0.04048659	      0.08728512
      3.11666667	      0.04352119	      0.04014842	      0.08736084
      3.13333333	      0.04290799	      0.03986458	      0.08697270
      3.15000000	      0.04240896	      0.03963209	      0.08606272
      3.16666667	      0.04206009	      0.03946874	      0.08471501
      3.18333333	      0.04186874	      0.03937885	      0.08300655
      3.20000000	      0.04184649	      0.03936839	      0.08117493
      3.21666667	      0.04200560	      0.03944316	      0.07968249
      3.23333333	      0.04225178	      0.03955857	      0.07867279
      3.25000000	      0.04247173	      0.03966141	      0.07804662
      3.26666667	      0.04248183	      0.03966612	      0.07806740
      3.28333333	      0.04223909	      0.03955263	      0.07800722
      3.30000000	      0.04179922	      0.03934614	      0.07803938
      3.31666667	      0.04128259	      0.03910224	      0.07794446
      3.33333333	      0.04087349	      0.03890801	      0.07759244
      3.35000000	      0.04055849	      0.03875779	      0.07664381
      3.36666667	      0.04047644	      0.03871857	      0.07479913
      3.38333333	      0.04063851	      0.03879600	      0.07230350
      3.40000000	      0.04109806	      0.03901475	      0.06999238
      3.41666667	      0.04166581	      0.03928331	      0.06794648
      3.43333333	      0.04215484	      0.03951317	      0.06739337
      3.45000000	      0.04239441	      0.03962529	      0.06838962
      3.46666667	      0.04238972	      0.03962310	      0.07100847
      3.48333333	      0.04234905	      0.03960408	      0.07470533
      3.50000000	      0.04240588	      0.03963065	      0.07919556
      3.51666667	      0.04255595	      0.03970071	      0.08446012
      3.53333333	      0.04271490	      0.03977478	      0.09002694
      3.55000000	      0.04297661	      0.03989644	      0.09672898
      3.56666667	      0.04370888	      0.04023490	      0.10480202
      3.58333333	      0.04535868	      0.04098721	      0.11453096
      3.60000000	      0.04772100	      0.04204099	      0.12451077
      3.61666667	      0.04981023	      0.04295141	      0.13158703
      3.63333333	      0.05055595	      0.04327173	      0.13399075
      3.65000000	      0.04965254	      0.04288336	      0.13037965
      3.66666667	      0.04752176	      0.04195313	      0.12050378
      3.68333333	      0.04501058	      0.04082963	      0.10731441
      3.70000000	      0.04271546	      0.03977505	      0.09375019
      3.71666667	      0.04086692	      0.03890488	      0.08230940
      3.73333333	      0.03932198	      0.03816241	      0.07424369
      3.75000000	      0.03808741	      0.03755855	      0.06975211
      3.76666667	      0.03706171	      0.03704937	      0.06892754
      3.78333333	      0.03650095	      0.03676802	      0.07011838
      3.80000000	      0.03660408	      0.03681992	      0.07249993
      3.81666667	      0.03717304	      0.03710497	      0.07518031
      3.83333333	      0.03758810	      0.03731155	      0.07689602
      3.85000000	      0.03781024	      0.03742164	      0.07906896
      3.86666667	      0.03816539	      0.03759698	      0.08196783
      3.88333333	      0.03890283	      0.03795847	      0.08611414
      3.90000000	      0.03976400	      0.03837631	      0.09091291
      3.91666667	      0.04033345	      0.03865012	      0.09555596
      3.93333333	      0.04053024	      0.03874429	      0.09848754
      3.95000000	      0.04049047	      0.03872528	      0.09915917
      3.96666667	      0.04018876	      0.03858073	      0.09680436
      3.98333333	      0.03959295	      0.03829368	      0.09231331
      4.00000000	      0.03873830	      0.03787812	      0.08554990
      4.01666667	      0.03785939	      0.03744596	      0.07720038
      4.03333333	      0.03729912	      0.03716785	      0.06855865
      4.05000000	      0.03739722	      0.03721669	      0.06194455
      4.06666667	      0.03810543	      0.03756744	      0.06081681
      4.08333333	      0.03933492	      0.03816869	      0.06226326
      4.10000000	      0.04088535	      0.03891365	      0.06494270
      4.11666667	      0.04242133	      0.03963787	      0.06759282
      4.13333333	      0.04366201	      0.04021332	      0.06939261
      4.15000000	      0.04442312	      0.04056231	      0.06979098
      4.16666667	      0.04471423	      0.04069499	      0.06869530
      4.18333333	      0.04465355	      0.04066737	      0.06636751
      4.20000000	      0.04452399	      0.04060833	      0.06339722
      4.21666667	      0.04474034	      0.04070687	      0.06060357
      4.23333333	      0.04532035	      0.04096988	      0.06521937
      4.25000000	      0.04590344	      0.04123260	      0.06869141
      4.26666667	      0.04605175	      0.04129916	      0.06905718
      4.28333333	      0.04556381	      0.04107978	      0.06649803
      4.30000000	      0.04458035	      0.04063403	      0.06331666
      4.31666667	      0.04335618	      0.04007224	      0.06317954
      4.33333333	      0.04213350	      0.03950316	      0.06215327
      4.35000000	      0.04106045	      0.03899689	      0.06080710
      4.36666667	      0.04018489	      0.03857887	      0.05928859
      4.38333333	      0.03949961	      0.03824851	      0.05770282
      4.40000000	      0.03910352	      0.03805626	      0.05593992
      4.41666667	      0.03904425	      0.03802740	      0.05476994
      4.43333333	      0.03933313	      0.03816782	      0.05388168
      4.45000000	      0.03989756	      0.03844070	      0.05377821
      4.46666667	      0.04066066	      0.03880658	      0.05416887
      4.48333333	      0.04149351	      0.03920200	      0.05557644
      4.50000000	      0.04220516	      0.03953675	      0.05747550
      4.51666667	      0.04269068	      0.03976350	      0.05846819
      4.53333333	      0.04266848	      0.03975316	      0.06043321
      4.55000000	      0.04212796	      0.03950057	      0.06204216
      4.56666667	      0.04123270	      0.03907860	      0.06289328
      4.58333333	      0.04008876	      0.03853270	      0.06383966
      4.60000000	      0.03908536	      0.03804741	      0.06431532
      4.61666667	      0.03824238	      0.03763488	      0.06514988
      4.63333333	      0.03766130	      0.03734786	      0.06552574
      4.65000000	      0.03741187	      0.03722398	      0.06634994
      4.66666667	      0.03745050	      0.03724319	      0.06755483
      4.68333333	      0.03797163	      0.03750142	      0.06868945
      4.70000000	      0.03880784	      0.03791210	      0.07029607
      4.71666667	      0.03999896	      0.03848952	      0.07175032
      4.73333333	      0.04110296	      0.03901707	      0.07271184
      4.75000000	      0.04182032	      0.03935608	      0.07265160
      4.76666667	      0.04195213	      0.03941805	      0.07188633
      4.78333333	      0.04171927	      0.03930850	      0.07058078
      4.80000000	      0.04151697	      0.03921308	      0.06931456
      4.81666667	      0.04149254	      0.03920154	      0.06779572
      4.83333333	      0.04152974	      0.03921911	      0.06947955
      4.85000000	      0.04144601	      0.03917956	      0.07164389
      4.86666667	      0.04121137	      0.03906849	      0.07199103
      4.88333333	      0.04064967	      0.03880133	      0.06939352
      4.90000000	      0.04013669	      0.03855573	      0.06590729
      4.91666667	      0.03980234	      0.03839480	      0.06453912
      4.93333333	      0.03980866	      0.03839785	      0.06537977
      4.95000000	      0.04020284	      0.03858749	      0.06651789
      4.96666667	      0.04094315	      0.03894115	      0.06747925
      4.98333333	      0.04190920	      0.03939787	      0.06838731
      5.00000000	      0.04286851	      0.03984624	      0.06905099
      5.01666667	      0.04362322	      0.04019546	      0.06947714
      5.03333333	      0.04413879	      0.04043229	      0.06962497
      5.05000000	      0.04448962	      0.04059266	      0.06967198
      5.06666667	      0.04477247	      0.04072149	      0.06955536
      5.08333333	      0.04503478	      0.04084060	      0.06965202
      5.10000000	      0.04524564	      0.04093610	      0.06961290
      5.11666667	      0.04545272	      0.04102967	      0.06982799
      5.13333333	      0.04569820	      0.04114032	      0.07016939
      5.15000000	      0.04598300	      0.04126832	      0.07073552
      5.16666667	      0.04624092	      0.04138389	      0.07160869
      5.18333333	      0.04637273	      0.04144284	      0.07250677
      5.20000000	      0.04638796	      0.04144964	      0.07324531
      5.21666667	      0.04636647	      0.04144004	      0.07383624
      5.23333333	      0.04635625	      0.04143547	      0.07421457
      5.25000000	      0.04641121	      0.04146003	      0.07449738
      5.26666667	      0.04658870	      0.04153923	      0.07481975
      5.28333333	      0.04690328	      0.04167923	      0.07532204
      5.30000000	      0.04728599	      0.04184893	      0.07604584
      5.31666667	      0.04761586	      0.04199465	      0.07668726
      5.33333333	      0.04773830	      0.04204860	      0.07749266
      5.35000000	      0.04772820	      0.04204416	      0.07800897
      5.36666667	      0.04759741	      0.04198651	      0.07806125
      5.38333333	      0.04754382	      0.04196287	      0.07782284
      5.40000000	      0.04764524	      0.04200760	      0.07734704
      5.41666667	      0.04791586	      0.04212673	      0.07670949
      5.43333333	      0.04831763	      0.04230298	      0.07608663
      5.45000000	      0.04869038	      0.04246584	      0.07595645
      5.46666667	      0.04892029	      0.04256598	      0.07591989
      5.48333333	      0.04888177	      0.04254922	      0.07596139
      5.50000000	      0.04859792	      0.04242550	      0.07594733
      5.51666667	      0.04814983	      0.04222946	      0.07588385
      5.53333333	      0.04764346	      0.04200682	      0.07585457
      5.55000000	      0.04717565	      0.04180007	      0.07577636
      5.56666667	      0.04679531	      0.04163123	      0.07566306
      5.58333333	      0.04653696	      0.04151616	      0.07555246
      5.60000000	      0.04639030	      0.04145068	      0.07550289
      5.61666667	      0.04628462	      0.04140344	      0.07526440
      5.63333333	      0.04612788	      0.04133328	      0.07521206
      5.65000000	      0.04591639	      0.04123842	      0.07502289
      5.66666667	      0.04566206	      0.04112405	      0.07491073
      5.68333333	      0.04542479	      0.04101707	      0.07477320
      5.70000000	      0.04525857	      0.04094195	      0.07501287
      5.71666667	      0.04522568	      0.04092707	      0.07576726
      5.73333333	      0.04527986	      0.04095158	      0.07656253
      5.75000000	      0.04547073	      0.04103780	      0.07722497
      5.76666667	      0.04566444	      0.04112512	      0.07703931
      5.78333333	      0.04572638	      0.04115300	      0.07608655
      5.80000000	      0.04560305	      0.04109747	      0.07626172
      5.81666667	      0.04535866	      0.04098720	      0.07550685
      5.83333333	      0.04497786	      0.04081478	      0.07510170
      5.85000000	      0.04447614	      0.04058651	      0.07286308
      5.86666667	      0.04362619	      0.04019683	      0.07042199
      5.88333333	      0.04240995	      0.03963255	      0.06769881
      5.90000000	      0.04099961	      0.03896799	      0.06463702
      5.91666667	      0.03963265	      0.03831287	      0.06254304
      5.93333333	      0.03844982	      0.03773682	      0.06210599
      5.95000000	      0.03743181	      0.03723390	      0.06143841
      5.96666667	      0.03655307	      0.03679426	      0.06081672
      5.98333333	      0.03607403	      0.03655236	      0.06010613
      6.00000000	      0.03610407	      0.03656758	      0.05866419
      6.01666667	      0.03670393	      0.03687011	      0.05857675
      6.03333333	      0.03766384	      0.03734912	      0.06637585
      6.05000000	      0.03874489	      0.03788134	      0.07351369
      6.06666667	      0.03973858	      0.03836403	      0.08073158
      6.08333333	      0.03613731	      0.03658441	      0.06119506
      6.10000000	      0.03415828	      0.03556854	      0.05967316
      6.11666667	      0.03155104	      0.03418416	      0.05742500
      6.13333333	      0.02883586	      0.03268019	      0.05454993
      6.15000000	      0.02659330	      0.03138370	      0.05211196
      6.16666667	      0.02517282	      0.03053402	      0.05080595
      6.18333333	      0.02454475	      0.03015070	      0.05089760
      6.20000000	      0.02447746	      0.03010935	      0.05182811
      6.21666667	      0.02470422	      0.03024849	      0.05280227
      6.23333333	      0.02503024	      0.03044743	      0.05339031
      6.25000000	      0.02533086	      0.03062973	      0.05402524
      6.26666667	      0.02552632	      0.03074767	      0.05433190
      6.28333333	      0.02549807	      0.03073065	      0.05443006
      6.30000000	      0.02525817	      0.03058575	      0.05448448
      6.31666667	      0.02494959	      0.03039834	      0.05433625
