Model Marker Errors from IK
version=1
nRows=280
nColumns=4
inDegrees=no
endheader
time	total_squared_error	marker_error_RMS	marker_error_max
      0.00000000	      0.03031801	      0.03350954	      0.06320596
      0.01923077	      0.02880049	      0.03266014	      0.06127484
      0.03846154	      0.02774518	      0.03205619	      0.06084175
      0.05769231	      0.02697857	      0.03161022	      0.06111389
      0.07692308	      0.02649246	      0.03132415	      0.06188192
      0.09615385	      0.02618651	      0.03114275	      0.06353054
      0.11538462	      0.02591424	      0.03098042	      0.06468521
      0.13461538	      0.02549979	      0.03073169	      0.06488407
      0.15384615	      0.02498208	      0.03041812	      0.06401339
      0.17307692	      0.02463341	      0.03020511	      0.06257047
      0.19230769	      0.02460737	      0.03018914	      0.06108882
      0.21153846	      0.02480302	      0.03030891	      0.05949927
      0.23076923	      0.02506252	      0.03046706	      0.05830965
      0.25000000	      0.02532844	      0.03062826	      0.05726750
      0.26923077	      0.02554539	      0.03075916	      0.05712116
      0.28846154	      0.02569242	      0.03084755	      0.05720867
      0.30769231	      0.02563151	      0.03081096	      0.05733587
      0.32692308	      0.02531940	      0.03062280	      0.05672635
      0.34615385	      0.02481843	      0.03031833	      0.05530385
      0.36538462	      0.02426309	      0.02997721	      0.05311339
      0.38461538	      0.02365422	      0.02959868	      0.05262046
      0.40384615	      0.02295653	      0.02915890	      0.05120770
      0.42307692	      0.02219073	      0.02866843	      0.04961459
      0.44230769	      0.02160809	      0.02828957	      0.04782532
      0.46153846	      0.02128792	      0.02807920	      0.04611990
      0.48076923	      0.02139150	      0.02814743	      0.04552522
      0.50000000	      0.02186167	      0.02845508	      0.04643150
      0.51923077	      0.02249732	      0.02886579	      0.04895399
      0.53846154	      0.02302021	      0.02919932	      0.05109081
      0.55769231	      0.02301956	      0.02919891	      0.05123654
      0.57692308	      0.02275235	      0.02902894	      0.05037025
      0.59615385	      0.02227718	      0.02872422	      0.04965356
      0.61538462	      0.02180222	      0.02841636	      0.05069063
      0.63461538	      0.02151103	      0.02822596	      0.05189647
      0.65384615	      0.02146096	      0.02819309	      0.05250335
      0.67307692	      0.02161422	      0.02829358	      0.05300164
      0.69230769	      0.02184665	      0.02844530	      0.05321737
      0.71153846	      0.02211271	      0.02861799	      0.05351591
      0.73076923	      0.02233185	      0.02875944	      0.05381394
      0.75000000	      0.02250445	      0.02887037	      0.05392216
      0.76923077	      0.02263480	      0.02895386	      0.05512619
      0.78846154	      0.02262993	      0.02895074	      0.05696660
      0.80769231	      0.02244162	      0.02883004	      0.05776542
      0.82692308	      0.02222508	      0.02869061	      0.05931208
      0.84615385	      0.02207275	      0.02859212	      0.05915934
      0.86538462	      0.02202168	      0.02855902	      0.05900366
      0.88461538	      0.02197409	      0.02852814	      0.05874932
      0.90384615	      0.02189358	      0.02847584	      0.05828909
      0.92307692	      0.02184267	      0.02844271	      0.05761949
      0.94230769	      0.02191769	      0.02849151	      0.05742453
      0.96153846	      0.02193384	      0.02850201	      0.05687600
      0.98076923	      0.02199192	      0.02853972	      0.05665397
      1.00000000	      0.02201723	      0.02855614	      0.05650876
      1.01923077	      0.02201119	      0.02855222	      0.05669868
      1.03846154	      0.02198626	      0.02853605	      0.05669896
      1.05769231	      0.02187965	      0.02846678	      0.05641285
      1.07692308	      0.02166153	      0.02832453	      0.05597093
      1.09615385	      0.02130378	      0.02808966	      0.05496415
      1.11538462	      0.02093776	      0.02784731	      0.05420542
      1.13461538	      0.02060150	      0.02762279	      0.05370881
      1.15384615	      0.02033020	      0.02744031	      0.05299988
      1.17307692	      0.02013428	      0.02730777	      0.05218630
      1.19230769	      0.01999352	      0.02721214	      0.05201390
      1.21153846	      0.01979929	      0.02707964	      0.05203928
      1.23076923	      0.01957368	      0.02692491	      0.05250357
      1.25000000	      0.01937145	      0.02678547	      0.05286171
      1.26923077	      0.01928311	      0.02672432	      0.05298014
      1.28846154	      0.01938878	      0.02679744	      0.05444261
      1.30769231	      0.01953613	      0.02689908	      0.05455670
      1.32692308	      0.01974270	      0.02704091	      0.05560433
      1.34615385	      0.01981221	      0.02708848	      0.05515587
      1.36538462	      0.01969112	      0.02700557	      0.05383833
      1.38461538	      0.01942006	      0.02681905	      0.05175660
      1.40384615	      0.01921390	      0.02667632	      0.04999534
      1.42307692	      0.01939190	      0.02679960	      0.04935432
      1.44230769	      0.02013820	      0.02731043	      0.05081604
      1.46153846	      0.02141453	      0.02816258	      0.05416738
      1.48076923	      0.02279426	      0.02905567	      0.05779013
      1.50000000	      0.02373394	      0.02964852	      0.06046680
      1.51923077	      0.02416413	      0.02991601	      0.06163898
      1.53846154	      0.02428340	      0.02998975	      0.06127673
      1.55769231	      0.02440632	      0.03006556	      0.05971353
      1.57692308	      0.02475854	      0.03028173	      0.05829521
      1.59615385	      0.02516934	      0.03053191	      0.05735489
      1.61538462	      0.02542381	      0.03068587	      0.05651978
      1.63461538	      0.02539112	      0.03066614	      0.05543534
      1.65384615	      0.02494855	      0.03039771	      0.05423136
      1.67307692	      0.02418684	      0.02993007	      0.05228277
      1.69230769	      0.02316263	      0.02928950	      0.05473999
      1.71153846	      0.02208608	      0.02860075	      0.05719952
      1.73076923	      0.02118601	      0.02801191	      0.05939560
      1.75000000	      0.02073196	      0.02771011	      0.06112732
      1.76923077	      0.02084132	      0.02778310	      0.06230564
      1.78846154	      0.02138047	      0.02814017	      0.06291366
      1.80769231	      0.02208828	      0.02860218	      0.06302679
      1.82692308	      0.02268999	      0.02898914	      0.06271990
      1.84615385	      0.02316092	      0.02928843	      0.06204260
      1.86538462	      0.02360313	      0.02956670	      0.06110838
      1.88461538	      0.02400897	      0.02981981	      0.06011448
      1.90384615	      0.02411472	      0.02988541	      0.05915817
      1.92307692	      0.02381042	      0.02969625	      0.05854115
      1.94230769	      0.02313441	      0.02927166	      0.05817668
      1.96153846	      0.02245217	      0.02883681	      0.05796170
      1.98076923	      0.02179502	      0.02841167	      0.05803753
      2.00000000	      0.02120534	      0.02802468	      0.05759991
      2.01923077	      0.02071704	      0.02770014	      0.05671525
      2.03846154	      0.02044053	      0.02751466	      0.05520187
      2.05769231	      0.02045094	      0.02752167	      0.05351751
      2.07692308	      0.02066023	      0.02766213	      0.05223304
      2.09615385	      0.02105042	      0.02792212	      0.05098355
      2.11538462	      0.02145948	      0.02819212	      0.05029769
      2.13461538	      0.02184031	      0.02844117	      0.05111211
      2.15384615	      0.02219295	      0.02866986	      0.05136695
      2.17307692	      0.02247811	      0.02885346	      0.05080469
      2.19230769	      0.02265474	      0.02896661	      0.05031872
      2.21153846	      0.02268692	      0.02898718	      0.05049186
      2.23076923	      0.02265549	      0.02896709	      0.05068983
      2.25000000	      0.02265651	      0.02896774	      0.05075452
      2.26923077	      0.02276008	      0.02903388	      0.05085979
      2.28846154	      0.02291565	      0.02913293	      0.05070288
      2.30769231	      0.02310431	      0.02925261	      0.05029290
      2.32692308	      0.02332183	      0.02938999	      0.04997422
      2.34615385	      0.02349570	      0.02949934	      0.05062351
      2.36538462	      0.02357876	      0.02955144	      0.05096663
      2.38461538	      0.02364766	      0.02959458	      0.05114448
      2.40384615	      0.02378697	      0.02968162	      0.05151722
      2.42307692	      0.02392226	      0.02976592	      0.05208935
      2.44230769	      0.02401560	      0.02982393	      0.05289658
      2.46153846	      0.02399424	      0.02981066	      0.05376032
      2.48076923	      0.02378794	      0.02968223	      0.05457868
      2.50000000	      0.02339658	      0.02943705	      0.05535968
      2.51923077	      0.02293131	      0.02914289	      0.05616038
      2.53846154	      0.02264982	      0.02896346	      0.05713644
      2.55769231	      0.02266567	      0.02897359	      0.05837038
      2.57692308	      0.02291410	      0.02913195	      0.05946691
      2.59615385	      0.02313661	      0.02927305	      0.06074031
      2.61538462	      0.02325464	      0.02934762	      0.06273701
      2.63461538	      0.02331265	      0.02938421	      0.06348339
      2.65384615	      0.02338235	      0.02942810	      0.06406653
      2.67307692	      0.02358137	      0.02955307	      0.06428120
      2.69230769	      0.02392762	      0.02976925	      0.06396894
      2.71153846	      0.02451054	      0.03012968	      0.06444206
      2.73076923	      0.02528416	      0.03060148	      0.06533232
      2.75000000	      0.02625457	      0.03118319	      0.06614204
      2.76923077	      0.02737424	      0.03184118	      0.06769519
      2.78846154	      0.02838373	      0.03242298	      0.06882878
      2.80769231	      0.02896084	      0.03275093	      0.06969579
      2.82692308	      0.02908651	      0.03282192	      0.07008504
      2.84615385	      0.02891398	      0.03272443	      0.07001260
      2.86538462	      0.02848725	      0.03248205	      0.06940653
      2.88461538	      0.02803564	      0.03222355	      0.06886074
      2.90384615	      0.02769239	      0.03202568	      0.06855220
      2.92307692	      0.02755922	      0.03194858	      0.06862057
      2.94230769	      0.02748341	      0.03190461	      0.06858517
      2.96153846	      0.02737507	      0.03184166	      0.06803103
      2.98076923	      0.02734822	      0.03182605	      0.06655675
      3.00000000	      0.02755319	      0.03194509	      0.06463701
      3.01923077	      0.02809190	      0.03225586	      0.06292702
      3.03846154	      0.02892412	      0.03273016	      0.06169486
      3.05769231	      0.02985580	      0.03325312	      0.06134542
      3.07692308	      0.03060606	      0.03366835	      0.06151031
      3.09615385	      0.03096584	      0.03386566	      0.06169085
      3.11538462	      0.03090080	      0.03383008	      0.06169908
      3.13461538	      0.03061059	      0.03367084	      0.06123650
      3.15384615	      0.03024136	      0.03346716	      0.06043879
      3.17307692	      0.02954265	      0.03307827	      0.06080575
      3.19230769	      0.02828387	      0.03236589	      0.05912581
      3.21153846	      0.02665261	      0.03141868	      0.05525033
      3.23076923	      0.02514375	      0.03051639	      0.05076511
      3.25000000	      0.02397041	      0.02979585	      0.04777558
      3.26923077	      0.02347250	      0.02948477	      0.04857339
      3.28846154	      0.02365565	      0.02959958	      0.04912518
      3.30769231	      0.02413507	      0.02989802	      0.05052380
      3.32692308	      0.02447584	      0.03010835	      0.05125242
      3.34615385	      0.02460992	      0.03019070	      0.05123807
      3.36538462	      0.02469040	      0.03024003	      0.05043442
      3.38461538	      0.02481467	      0.03031603	      0.05101112
      3.40384615	      0.02480667	      0.03031115	      0.05059915
      3.42307692	      0.02444353	      0.03008847	      0.04932688
      3.44230769	      0.02373264	      0.02964771	      0.04697901
      3.46153846	      0.02276606	      0.02903769	      0.04514576
      3.48076923	      0.02181699	      0.02842599	      0.04477013
      3.50000000	      0.02116321	      0.02799683	      0.04360370
      3.51923077	      0.02085183	      0.02779010	      0.04354582
      3.53846154	      0.02059906	      0.02762115	      0.04225055
      3.55769231	      0.02046788	      0.02753306	      0.04370772
      3.57692308	      0.02044916	      0.02752047	      0.04538201
      3.59615385	      0.02046130	      0.02752864	      0.04609431
      3.61538462	      0.02044890	      0.02752029	      0.04543086
      3.63461538	      0.02031748	      0.02743172	      0.04585082
      3.65384615	      0.02021920	      0.02736529	      0.04514593
      3.67307692	      0.02021399	      0.02736177	      0.04341635
      3.69230769	      0.02028945	      0.02741279	      0.04201517
      3.71153846	      0.02029400	      0.02741587	      0.03953415
      3.73076923	      0.02014809	      0.02731713	      0.03903226
      3.75000000	      0.01988983	      0.02714149	      0.03887786
      3.76923077	      0.01955736	      0.02691369	      0.03887045
      3.78846154	      0.01923786	      0.02669295	      0.03896977
      3.80769231	      0.01885208	      0.02642395	      0.03913415
      3.82692308	      0.01884305	      0.02641762	      0.03928578
      3.84615385	      0.01949497	      0.02687073	      0.04050505
      3.86538462	      0.02097973	      0.02787521	      0.04489200
      3.88461538	      0.02307023	      0.02923103	      0.05324454
      3.90384615	      0.02491676	      0.03037833	      0.06265347
      3.92307692	      0.02574749	      0.03088059	      0.06795911
      3.94230769	      0.02533334	      0.03063123	      0.06337494
      3.96153846	      0.02401453	      0.02982326	      0.04992401
      3.98076923	      0.02248250	      0.02885628	      0.04742944
      4.00000000	      0.02149329	      0.02821432	      0.04933695
      4.01923077	      0.02163045	      0.02830420	      0.05396323
      4.03846154	      0.02325567	      0.02934827	      0.05891943
      4.05769231	      0.02543160	      0.03069057	      0.06233312
      4.07692308	      0.02678146	      0.03149454	      0.06244241
      4.09615385	      0.02640451	      0.03127211	      0.05912454
      4.11538462	      0.02449285	      0.03011881	      0.05403450
      4.13461538	      0.02280082	      0.02905985	      0.04923343
      4.15384615	      0.02341686	      0.02944981	      0.04925734
      4.17307692	      0.02664204	      0.03141245	      0.06609822
      4.19230769	      0.03039309	      0.03355101	      0.08303995
      4.21153846	      0.03297621	      0.03494769	      0.09027665
      4.23076923	      0.03418354	      0.03558169	      0.08905130
      4.25000000	      0.03427536	      0.03562945	      0.09054785
      4.26923077	      0.03378279	      0.03537251	      0.09443880
      4.28846154	      0.03301100	      0.03496612	      0.09416695
      4.30769231	      0.03211711	      0.03448946	      0.08991119
      4.32692308	      0.03114632	      0.03396421	      0.08248118
      4.34615385	      0.03028466	      0.03349111	      0.07353700
      4.36538462	      0.02952936	      0.03307083	      0.06458777
      4.38461538	      0.02852652	      0.03250443	      0.05957137
      4.40384615	      0.02769755	      0.03202866	      0.06289784
      4.42307692	      0.02794943	      0.03217396	      0.06605881
      4.44230769	      0.02955518	      0.03308529	      0.06927520
      4.46153846	      0.03113875	      0.03396008	      0.07389702
      4.48076923	      0.03056548	      0.03364602	      0.07870540
      4.50000000	      0.03109069	      0.03393386	      0.08466374
      4.51923077	      0.03172241	      0.03427688	      0.08941863
      4.53846154	      0.03214875	      0.03450644	      0.09225608
      4.55769231	      0.03215288	      0.03450866	      0.09274108
      4.57692308	      0.03203459	      0.03444512	      0.09175272
      4.59615385	      0.03156533	      0.03419191	      0.08862266
      4.61538462	      0.03082127	      0.03378651	      0.08413793
      4.63461538	      0.02976980	      0.03320520	      0.07879590
      4.65384615	      0.02878499	      0.03265135	      0.07393510
      4.67307692	      0.02794598	      0.03217198	      0.06996427
      4.69230769	      0.02729758	      0.03179656	      0.06737362
      4.71153846	      0.02676086	      0.03148243	      0.06594030
      4.73076923	      0.02636521	      0.03124883	      0.06543465
      4.75000000	      0.02601969	      0.03104339	      0.06576228
      4.76923077	      0.02547293	      0.03071550	      0.06591682
      4.78846154	      0.02469948	      0.03024559	      0.06543444
      4.80769231	      0.02394686	      0.02978122	      0.06431445
      4.82692308	      0.02351884	      0.02951386	      0.06278703
      4.84615385	      0.02349079	      0.02949626	      0.06143026
      4.86538462	      0.02377253	      0.02967261	      0.05963972
      4.88461538	      0.02415574	      0.02991082	      0.05728098
      4.90384615	      0.02447755	      0.03010940	      0.05588946
      4.92307692	      0.02463196	      0.03020422	      0.05459202
      4.94230769	      0.02465568	      0.03021876	      0.05354331
      4.96153846	      0.02463814	      0.03020801	      0.05265291
      4.98076923	      0.02485000	      0.03033761	      0.05254318
      5.00000000	      0.02520747	      0.03055503	      0.05304937
      5.01923077	      0.02559126	      0.03078676	      0.05397524
      5.03846154	      0.02590940	      0.03097753	      0.05506632
      5.05769231	      0.02613304	      0.03111094	      0.05628087
      5.07692308	      0.02623074	      0.03116904	      0.05643259
      5.09615385	      0.02625303	      0.03118228	      0.05671736
      5.11538462	      0.02622889	      0.03116794	      0.05715984
      5.13461538	      0.02621741	      0.03116112	      0.05755096
      5.15384615	      0.02612397	      0.03110554	      0.05771559
      5.17307692	      0.02601127	      0.03103837	      0.05781410
      5.19230769	      0.02584598	      0.03093959	      0.05775336
      5.21153846	      0.02568264	      0.03084167	      0.05772079
      5.23076923	      0.02539291	      0.03066722	      0.05767806
      5.25000000	      0.02508138	      0.03047852	      0.05747624
      5.26923077	      0.02483267	      0.03032703	      0.05740473
      5.28846154	      0.02464524	      0.03021236	      0.05744370
      5.30769231	      0.02440894	      0.03006717	      0.05746423
      5.32692308	      0.02416842	      0.02991867	      0.05724998
      5.34615385	      0.02404951	      0.02984497	      0.05687072
      5.36538462	      0.02405845	      0.02985052	      0.05632310
