Coordinates
version=1
nRows=165
nColumns=63
inDegrees=yes

Units are S.I. units (second, meters, Newtons, ...)
If the header above contains a line with 'inDegrees', this indicates whether rotational values are in degrees (yes) or radians (no).

endheader
time	pelvis_tilt	pelvis_list	pelvis_rotation	pelvis_tx	pelvis_ty	pelvis_tz	hip_flexion_r	hip_adduction_r	hip_rotation_r	knee_angle_r	knee_angle_r_beta	ankle_angle_r	subtalar_angle_r	mtp_angle_r	hip_flexion_l	hip_adduction_l	hip_rotation_l	knee_angle_l	knee_angle_l_beta	ankle_angle_l	subtalar_angle_l	mtp_angle_l	L5_S1_Flex_Ext	L5_S1_Lat_Bending	L5_S1_axial_rotation	L4_L5_Flex_Ext	L4_L5_Lat_Bending	L4_L5_axial_rotation	L3_L4_Flex_Ext	L3_L4_Lat_Bending	L3_L4_axial_rotation	L2_L3_Flex_Ext	L2_L3_Lat_Bending	L2_L3_axial_rotation	L1_L2_Flex_Ext	L1_L2_Lat_Bending	L1_L2_axial_rotation	L1_T12_Flex_Ext	L1_T12_Lat_Bending	L1_T12_axial_rotation	Abs_r3	Abs_r2	Abs_r1	Abs_t1	Abs_t2	neck_flexion	neck_bending	neck_rotation	arm_flex_r	arm_add_r	arm_rot_r	elbow_flex_r	pro_sup_r	wrist_flex_r	wrist_dev_r	arm_flex_l	arm_add_l	arm_rot_l	elbow_flex_l	pro_sup_l	wrist_flex_l	wrist_dev_l
0.000000	2.029039	-4.904476	87.658641	0.214199	0.665790	0.624285	4.753305	4.699180	-3.166839	1.727698	0.030154	15.463152	-6.431731	0.000000	3.990814	-5.437214	3.326193	1.261994	0.022026	23.632692	1.127826	0.000000	0.075910	0.799724	0.248038	0.140973	1.063633	0.263541	0.124713	1.944449	0.263541	0.086758	1.944449	0.217033	0.070490	1.630798	0.201531	0.043375	1.238773	0.186029	0.542220	9.046640	1.379514	0.000000	0.000000	25.333798	-8.270703	8.591627	12.171289	-12.256910	78.033315	47.586209	88.030289	2.466792	-2.415419	11.465527	-7.887483	55.353172	41.260218	78.903665	21.184480	-6.311099
0.016667	2.214393	-5.157608	87.678919	0.214048	0.665788	0.626436	5.102622	4.896943	-2.277323	1.405892	0.024537	15.310692	-7.005739	0.000000	4.475326	-5.634413	2.317822	1.413493	0.024670	23.820307	2.317357	0.000000	0.066549	0.821530	0.200218	0.123587	1.092635	0.212732	0.109333	1.997469	0.212732	0.076058	1.997469	0.175191	0.061797	1.675265	0.162677	0.038026	1.272551	0.150163	0.475350	9.293316	1.113552	0.000000	0.000000	25.691200	-8.201111	8.316942	12.975724	-12.226265	79.374951	47.363650	87.412996	1.746948	-2.734544	11.534052	-7.908822	54.855946	41.438550	79.641627	21.089489	-5.760154
0.033333	2.352416	-5.395504	87.629346	0.214050	0.665768	0.628338	5.425322	5.059000	-1.553755	1.142017	0.019932	15.155588	-7.451290	0.000000	4.897888	-5.794750	1.437980	1.541770	0.026909	23.962479	3.288447	0.000000	0.059881	0.837010	0.183004	0.111205	1.113223	0.194442	0.098379	2.035105	0.194442	0.068438	2.035105	0.160128	0.055606	1.706830	0.148691	0.034216	1.296528	0.137253	0.427725	9.468420	1.017813	0.000000	0.000000	25.964618	-8.175062	8.056727	13.619733	-12.217862	80.415933	47.196393	86.946898	1.053137	-3.019964	11.650177	-7.908308	54.594784	41.529685	80.217179	20.947617	-5.430322
0.050000	2.446961	-5.618489	87.517004	0.214187	0.665733	0.630007	5.722949	5.187768	-0.980990	0.931421	0.016256	14.999599	-7.778503	0.000000	5.263160	-5.920707	0.674077	1.648718	0.028776	24.063167	4.061597	0.000000	0.055652	0.846741	0.193097	0.103351	1.126165	0.205165	0.091430	2.058766	0.205165	0.063604	2.058766	0.168960	0.051678	1.726674	0.156891	0.031799	1.311602	0.144823	0.397515	9.578503	1.073947	0.000000	0.000000	26.161960	-8.188102	7.813103	14.117945	-12.229250	81.182078	47.079592	86.616805	0.389462	-3.270644	11.808239	-7.888298	54.547321	41.543348	80.647771	20.762642	-5.298192
0.066667	2.501879	-5.826890	87.348976	0.214442	0.665684	0.631463	5.997049	5.285665	-0.543880	0.769451	0.013429	14.844486	-7.997496	0.000000	5.575804	-6.014766	0.013523	1.736233	0.030303	24.126326	4.657306	0.000000	0.053604	0.851304	0.227198	0.099549	1.132234	0.241397	0.088067	2.069859	0.241397	0.061265	2.069859	0.198798	0.049777	1.735978	0.184598	0.030630	1.318669	0.170398	0.382892	9.630116	1.263605	0.000000	0.000000	26.291139	-8.235778	7.588194	14.484988	-12.257979	81.699202	47.008398	86.407526	-0.239974	-3.485548	12.002569	-7.851153	54.691192	41.489266	80.950853	20.538342	-5.340349
0.083333	2.521020	-6.021034	87.132345	0.214796	0.665625	0.632725	6.249167	5.355110	-0.227279	0.651455	0.011370	14.692009	-8.118388	0.000000	5.840482	-6.079406	-0.556268	1.806206	0.031524	24.155916	5.096076	0.000000	0.053483	0.851276	0.282007	0.099323	1.132198	0.299632	0.087867	2.069794	0.299632	0.061126	2.069794	0.246756	0.049664	1.735923	0.229131	0.030560	1.318627	0.211505	0.382025	9.629810	1.568438	0.000000	0.000000	26.360065	-8.313638	7.384122	14.735493	-12.301601	81.993122	46.977963	86.303869	-0.831070	-3.663642	12.227504	-7.799231	55.004031	41.377166	81.143876	20.278493	-5.533382
0.100000	2.508236	-6.201247	86.874192	0.215234	0.665559	0.633811	6.480850	5.398520	-0.016042	0.572781	0.009997	14.543928	-8.151298	0.000000	6.061855	-6.117109	-1.047888	1.860532	0.032472	24.155893	5.398406	0.000000	0.055032	0.847239	0.354226	0.102199	1.126828	0.376365	0.090411	2.059977	0.376365	0.062896	2.059977	0.309948	0.051102	1.727690	0.287809	0.031445	1.312373	0.265669	0.393085	9.584136	1.970098	0.000000	0.000000	26.376648	-8.417228	7.203008	14.884086	-12.357664	82.089654	46.983440	86.290644	-1.379721	-3.803892	12.477376	-7.734891	55.463475	41.216776	81.244291	19.986873	-5.853877
0.116667	2.467377	-6.367856	86.581600	0.215736	0.665488	0.634740	6.693642	5.418314	0.104979	0.528777	0.009229	14.402003	-8.106345	0.000000	6.244584	-6.130356	-1.473923	1.901105	0.033181	24.130214	5.584796	0.000000	0.057994	0.839770	0.440555	0.107700	1.116894	0.468090	0.095278	2.041816	0.468090	0.066281	2.041816	0.385486	0.053853	1.712459	0.357951	0.033138	1.300803	0.330416	0.414244	9.499644	2.450235	0.000000	0.000000	26.348801	-8.542095	7.046977	14.945398	-12.423720	82.014613	47.019982	86.352659	-1.881826	-3.905261	12.746521	-7.660493	56.047159	41.017821	81.269548	19.667260	-6.278422
0.133333	2.402296	-6.521186	86.261652	0.216286	0.665416	0.635530	6.889089	5.416910	0.150929	0.514790	0.008985	14.267994	-7.993648	0.000000	6.393331	-6.121628	-1.846965	1.929818	0.033682	24.082838	5.675746	0.000000	0.062114	0.829448	0.537695	0.115351	1.103166	0.571301	0.102047	2.016721	0.571301	0.070990	2.016721	0.470483	0.057679	1.691411	0.436878	0.035492	1.284816	0.403272	0.443672	9.382887	2.990501	0.000000	0.000000	26.284433	-8.683786	6.918149	14.934056	-12.497319	81.793818	47.082739	86.474725	-2.333281	-3.966715	13.029272	-7.578395	56.732716	40.790028	81.237098	19.323431	-6.783604
0.150000	2.316842	-6.661565	85.921431	0.216865	0.665344	0.636201	7.068737	5.396726	0.136955	0.526168	0.009183	14.143662	-7.823327	0.000000	6.512757	-6.093405	-2.179600	1.948565	0.034009	24.017721	5.691757	0.000000	0.067135	0.816854	0.642348	0.124677	1.086416	0.682494	0.110297	1.986098	0.682494	0.076729	1.986098	0.562054	0.062342	1.665728	0.521907	0.038361	1.265307	0.481761	0.479541	9.240414	3.572545	0.000000	0.000000	26.191456	-8.837848	6.818648	14.864689	-12.576010	81.453083	47.166865	86.641649	-2.729985	-3.987219	13.319963	-7.490957	57.497784	40.543124	81.164390	18.959164	-7.346010
0.166667	2.214868	-6.789319	85.568019	0.217457	0.665276	0.636770	7.234131	5.360181	0.078204	0.558258	0.009743	14.030766	-7.605499	0.000000	6.607523	-6.048169	-2.484418	1.959240	0.034195	23.938821	5.653328	0.000000	0.072802	0.802565	0.751213	0.135201	1.067412	0.798164	0.119607	1.951357	0.798164	0.083206	1.951357	0.657311	0.067604	1.636591	0.610360	0.041599	1.243173	0.563410	0.520020	9.078776	4.178020	0.000000	0.000000	26.077780	-8.999826	6.750595	14.751927	-12.657344	81.018225	47.267511	86.838241	-3.067833	-3.965738	13.612929	-7.400537	58.319996	40.286836	81.068875	18.578236	-7.942227
0.183333	2.101142	-6.896089	85.208739	0.218038	0.665227	0.637307	7.390139	5.307202	-0.026640	0.618239	0.010790	13.981270	-7.282135	0.000000	6.681754	-5.988059	-2.849132	1.972621	0.034429	23.861376	5.659970	0.000000	0.078984	0.787192	0.854224	0.146680	1.046965	0.907613	0.129762	1.913978	0.907613	0.090270	1.913978	0.747446	0.073344	1.605242	0.694057	0.045131	1.219360	0.640668	0.564172	8.904872	4.750937	0.000000	0.000000	25.924341	-9.162041	6.704098	14.615647	-12.748356	80.546948	47.399237	87.016147	-3.373087	-3.935292	13.907234	-7.307895	59.173468	40.047852	80.951407	18.100360	-8.540397
0.200000	1.983437	-7.003004	84.856979	0.218564	0.665187	0.637786	7.546383	5.245825	-0.241770	0.681313	0.011891	13.973330	-6.762729	0.000000	6.754526	-5.920123	-3.174962	1.977489	0.034514	23.757594	5.612777	0.000000	0.085532	0.772393	0.956844	0.158841	1.027282	1.016647	0.140520	1.877996	1.016647	0.097754	1.877996	0.837239	0.079425	1.575063	0.777436	0.048873	1.196436	0.717633	0.610945	8.737461	5.321681	0.000000	0.000000	25.799416	-9.335084	6.699901	14.462921	-12.826342	79.981161	47.522232	87.306165	-3.576827	-3.799566	14.186996	-7.216760	60.080011	39.822669	80.852116	17.582046	-9.105761
0.216667	1.864326	-7.102216	84.514964	0.219004	0.665160	0.638234	7.692122	5.180812	-0.278235	0.732687	0.012788	13.887334	-6.501679	0.000000	6.825663	-5.844540	-3.554773	1.984330	0.034633	23.670678	5.626917	0.000000	0.090570	0.759193	1.052803	0.168198	1.009727	1.118603	0.148798	1.845902	1.118603	0.103513	1.845902	0.921203	0.084103	1.548146	0.855402	0.051752	1.175990	0.789602	0.646933	8.588143	5.855374	0.000000	0.000000	25.710504	-9.511307	6.780405	14.363576	-12.904103	79.472227	47.662430	87.859724	-3.789777	-3.590398	14.449163	-7.122298	60.954090	39.624144	80.944500	17.130938	-9.598458
0.233333	1.741980	-7.193123	84.178737	0.219387	0.665147	0.638668	7.833667	5.107539	-0.308807	0.785724	0.013713	13.823427	-6.202874	0.000000	6.893199	-5.759630	-3.955699	1.987929	0.034696	23.586872	5.654773	0.000000	0.094432	0.746426	1.142227	0.175370	0.992747	1.213616	0.155142	1.814860	1.213616	0.107926	1.814860	0.999448	0.087690	1.522112	0.928059	0.053958	1.156214	0.856670	0.674518	8.443721	6.352723	0.000000	0.000000	25.653842	-9.685544	6.862111	14.289764	-12.964214	78.918828	47.781133	88.951005	-3.936585	-3.413128	14.705533	-7.044276	61.853368	39.455646	81.051731	16.688315	-10.034515
0.250000	1.615852	-7.274206	83.863594	0.219703	0.665140	0.639093	7.968844	5.024864	-0.243431	0.836856	0.014606	13.752347	-6.024733	0.000000	6.959330	-5.663373	-4.343233	1.989416	0.034722	23.506690	5.674077	0.000000	0.097437	0.733857	1.217072	0.180950	0.976030	1.293139	0.160079	1.784301	1.293139	0.111361	1.784301	1.064938	0.090480	1.496482	0.988871	0.055676	1.136745	0.912804	0.695984	8.301541	6.768989	0.000000	0.000000	25.628928	-9.844608	6.955956	14.247352	-12.999540	78.357788	47.850172	90.301768	-3.916165	-3.262950	14.904106	-6.978635	62.584356	39.333377	81.268036	16.313394	-10.358662
0.266667	1.487433	-7.339394	83.573391	0.219975	0.665141	0.639506	8.089576	4.934643	-0.096303	0.883400	0.015418	13.692956	-5.945684	0.000000	7.017237	-5.557599	-4.735158	1.987988	0.034697	23.439004	5.717218	0.000000	0.099769	0.720978	1.274982	0.185280	0.958900	1.354668	0.163910	1.752985	1.354668	0.114025	1.752985	1.115609	0.092645	1.470218	1.035923	0.057008	1.116795	0.956236	0.712636	8.155845	7.091066	0.000000	0.000000	25.618149	-9.973764	7.046765	14.246006	-13.008736	77.925863	47.869480	91.023681	-3.713514	-3.081228	15.053998	-6.941935	63.171478	39.259994	81.470807	15.987544	-10.583309
0.283333	1.360921	-7.384546	83.315681	0.220206	0.665154	0.639897	8.188688	4.840080	0.115447	0.923263	0.016114	13.649350	-5.957774	0.000000	7.062513	-5.445982	-5.123724	1.985188	0.034648	23.382828	5.781203	0.000000	0.101339	0.708002	1.313221	0.188196	0.941643	1.395297	0.166489	1.721436	1.395297	0.115820	1.721436	1.149068	0.094103	1.443758	1.066992	0.057905	1.096695	0.984916	0.723852	8.009060	7.303740	0.000000	0.000000	25.604216	-10.051175	7.164357	14.270012	-12.992910	77.634124	47.852197	90.695468	-3.295095	-2.800949	15.137579	-6.935434	63.540575	39.239277	81.669572	15.743277	-10.694092
0.300000	1.243367	-7.407065	83.097025	0.220383	0.665184	0.640260	8.263354	4.745283	0.232916	0.959814	0.016752	13.671416	-5.838864	0.000000	7.092169	-5.335497	-5.528415	1.981640	0.034586	23.337159	5.902773	0.000000	0.102102	0.695714	1.331621	0.189614	0.925300	1.414847	0.167744	1.691560	1.414847	0.116693	1.691560	1.165168	0.094812	1.418700	1.081942	0.058341	1.077661	0.998716	0.729307	7.870058	7.406076	0.000000	0.000000	25.574200	-10.057484	7.333673	14.324339	-12.954712	77.543930	47.799222	88.885450	-2.646730	-2.445643	15.174994	-6.959656	63.754026	39.243371	81.744836	15.580658	-10.732258
0.316667	1.145615	-7.410678	82.926543	0.220492	0.665223	0.640565	8.310139	4.663690	0.469168	0.985331	0.017197	13.666030	-5.937768	0.000000	7.106515	-5.235897	-5.862884	1.976088	0.034489	23.300378	5.990047	0.000000	0.102255	0.685557	1.329020	0.189899	0.911791	1.412083	0.167996	1.666863	1.412083	0.116868	1.666863	1.162892	0.094954	1.397988	1.079829	0.058429	1.061928	0.996765	0.730401	7.755159	7.391609	0.000000	0.000000	25.522735	-9.978063	7.595994	14.382492	-12.903411	77.574807	47.742401	85.875647	-1.784449	-1.929762	15.128529	-7.005264	63.697667	39.300084	81.798872	15.514329	-10.624977
0.333333	1.072747	-7.399219	82.825097	0.220489	0.665279	0.640816	8.334846	4.593358	0.559460	1.006972	0.017575	13.699140	-5.906630	0.000000	7.115705	-5.151445	-6.164722	1.977263	0.034510	23.275593	6.121744	0.000000	0.101959	0.678376	1.307528	0.189348	0.902240	1.389249	0.167508	1.649403	1.389249	0.116529	1.649403	1.144087	0.094679	1.383344	1.062367	0.058259	1.050804	0.980646	0.728282	7.673925	7.272081	0.000000	0.000000	25.452737	-9.822083	7.950463	14.430968	-12.844683	77.666381	47.653001	82.082466	-0.674228	-1.341840	15.056566	-7.058968	63.559275	39.347898	81.695406	15.519743	-10.509244
0.350000	1.022643	-7.377618	82.766811	0.220415	0.665343	0.640999	8.339052	4.537888	0.596516	1.020181	0.017806	13.738931	-5.857312	0.000000	7.115907	-5.084968	-6.480452	1.980789	0.034571	23.270115	6.335964	0.000000	0.100897	0.673962	1.275111	0.187376	0.896370	1.354806	0.165764	1.638672	1.354806	0.115315	1.638672	1.115722	0.093693	1.374344	1.036028	0.057653	1.043967	0.956333	0.720698	7.623995	7.091786	0.000000	0.000000	25.376476	-9.597098	8.388281	14.475415	-12.792557	77.869407	47.586204	77.235207	0.520610	-0.627051	14.939884	-7.115879	63.263694	39.411763	81.592238	15.628500	-10.343648
0.366667	0.993654	-7.349255	82.766324	0.220278	0.665412	0.641078	8.319431	4.497480	0.749064	1.017748	0.017763	13.717052	-6.064703	0.000000	7.111651	-5.034225	-6.765961	1.990137	0.034734	23.267348	6.590757	0.000000	0.099984	0.671417	1.235512	0.185680	0.892985	1.312732	0.164263	1.632483	1.312732	0.114271	1.632483	1.081073	0.092845	1.369154	1.003854	0.057131	1.040025	0.926634	0.714173	7.595203	6.871550	0.000000	0.000000	25.296123	-9.322461	8.850258	14.486767	-12.747351	78.133295	47.540262	71.551438	1.766550	0.168546	14.802230	-7.179857	62.903241	39.505245	81.519807	15.788927	-10.135018
0.383333	0.992603	-7.313429	82.856845	0.220051	0.665490	0.641038	8.276585	4.473612	0.746873	1.006798	0.017572	13.712371	-6.187406	0.000000	7.104838	-5.004028	-6.960641	2.001990	0.034941	23.250478	6.862748	0.000000	0.099177	0.671277	1.189944	0.184182	0.892798	1.264315	0.162939	1.632143	1.264315	0.113350	1.632143	1.041201	0.092096	1.368868	0.966829	0.056670	1.039808	0.892458	0.708415	7.593620	6.618110	0.000000	0.000000	25.219730	-9.022595	9.303663	14.446651	-12.728288	78.407443	47.529714	65.427594	2.984300	0.969616	14.683355	-7.243669	62.607999	39.623748	81.472501	15.943004	-9.946880
0.400000	1.018047	-7.272292	82.998009	0.219810	0.665593	0.640853	8.212682	4.468481	0.454958	0.991306	0.017302	13.792015	-5.932908	0.000000	7.084919	-4.999149	-7.139050	2.010517	0.035090	23.247111	7.188867	0.000000	0.099138	0.673551	1.144519	0.184109	0.895822	1.216052	0.162873	1.637671	1.216052	0.113305	1.637671	1.001454	0.092059	1.373504	0.929922	0.056647	1.043330	0.858389	0.708131	7.619339	6.365472	0.000000	0.000000	25.156121	-8.710900	9.782334	14.375661	-12.735743	78.775333	47.598709	58.040042	4.167029	2.077564	14.584908	-7.292818	62.372439	39.739380	81.541972	16.104397	-9.768142
0.416667	1.058981	-7.223510	83.201916	0.219570	0.665711	0.640498	8.121812	4.474651	0.167984	0.962730	0.016803	13.861821	-5.767647	0.000000	7.049420	-5.007641	-7.246265	2.011658	0.035110	23.234432	7.520023	0.000000	0.100712	0.676023	1.102892	0.187032	0.899110	1.171822	0.165460	1.643682	1.171822	0.115104	1.643682	0.965030	0.093521	1.378546	0.896099	0.057547	1.047159	0.827169	0.719376	7.647305	6.133952	0.000000	0.000000	25.087192	-8.396125	10.213168	14.263312	-12.760049	79.151234	47.657902	50.973451	5.197939	2.930640	14.546041	-7.336304	62.351096	39.845166	81.738118	16.146354	-9.726225
0.433333	1.115377	-7.156013	83.482515	0.219315	0.665854	0.639955	7.991134	4.490558	-0.116410	0.921629	0.016085	13.917160	-5.700851	0.000000	6.988479	-5.027469	-7.267299	2.005398	0.035001	23.220067	7.849482	0.000000	0.102511	0.678462	1.064593	0.190372	0.902355	1.131130	0.168415	1.649613	1.131130	0.117159	1.649613	0.931519	0.095191	1.383520	0.864982	0.058575	1.050938	0.798445	0.732223	7.674899	5.920947	0.000000	0.000000	25.005840	-8.087353	10.579803	14.081415	-12.808053	79.360113	47.728453	44.713290	6.053583	3.537185	14.559780	-7.366321	62.503221	39.942816	82.046988	16.116445	-9.711106
0.450000	1.184125	-7.085819	83.845545	0.219045	0.665997	0.639223	7.838710	4.513049	-0.382778	0.869246	0.015171	13.946022	-5.761893	0.000000	6.922824	-5.057270	-7.215282	1.995881	0.034835	23.208434	8.219099	0.000000	0.107106	0.680134	1.027953	0.198906	0.904578	1.092200	0.175964	1.653677	1.092200	0.122411	1.653677	0.899459	0.099459	1.386928	0.835212	0.061200	1.053527	0.770965	0.765047	7.693807	5.717168	0.000000	0.000000	24.915018	-7.791807	10.856510	13.799448	-12.864212	79.248265	47.791267	39.789038	6.664316	3.755936	14.580632	-7.353995	62.660664	39.959497	82.709289	16.097037	-9.839454
0.466667	1.259251	-7.009507	84.282037	0.218761	0.666143	0.638328	7.664421	4.536876	-0.701044	0.812537	0.014181	13.960161	-5.852112	0.000000	6.848870	-5.090791	-7.072342	1.983896	0.034626	23.198583	8.588979	0.000000	0.113393	0.680422	0.994512	0.210582	0.904961	1.056669	0.186293	1.654377	1.056669	0.129597	1.654377	0.870198	0.105297	1.387516	0.808041	0.064793	1.053973	0.745884	0.809954	7.697066	5.531180	0.000000	0.000000	24.816556	-7.511548	11.026736	13.427003	-12.923573	78.787389	47.860327	36.007913	7.061021	3.626315	14.626397	-7.301120	62.964837	39.880482	83.197124	16.064438	-10.014665
0.483333	1.336264	-6.924185	84.803790	0.218424	0.666294	0.637311	7.466881	4.557014	-1.038096	0.751333	0.013113	13.920726	-6.054211	0.000000	6.771438	-5.121465	-6.829135	1.976440	0.034495	23.191744	8.962402	0.000000	0.120182	0.679132	0.955436	0.223189	0.903245	1.015151	0.197446	1.651241	1.015151	0.137356	1.651241	0.836006	0.111601	1.384885	0.776292	0.068672	1.051975	0.716577	0.858445	7.682474	5.313848	0.000000	0.000000	24.714292	-7.251280	11.090175	13.037535	-12.979724	78.138919	47.936075	32.963985	7.284739	3.265799	14.661739	-7.214636	63.338422	39.736792	83.097550	15.967248	-10.063702
0.500000	1.410834	-6.842419	85.360635	0.218100	0.666410	0.636208	7.267376	4.574045	-1.432045	0.696300	0.012153	13.889421	-6.227052	0.000000	6.695170	-5.149768	-6.501576	1.968468	0.034356	23.200290	9.284889	0.000000	0.128172	0.675510	0.923606	0.238029	0.898428	0.981332	0.210574	1.642435	0.981332	0.146488	1.642435	0.808156	0.119021	1.377500	0.750430	0.073238	1.046365	0.692705	0.915523	7.641506	5.136821	0.000000	0.000000	24.647812	-7.018418	10.976326	12.604998	-13.017923	77.178991	47.983050	31.102684	7.282400	2.700909	14.753421	-7.074154	63.910181	39.425420	82.455597	15.947879	-10.098466
0.516667	1.481955	-6.761593	85.978959	0.217703	0.666509	0.635068	7.071900	4.579391	-2.020727	0.656683	0.011461	13.897185	-6.203245	0.000000	6.631152	-5.170058	-6.105079	1.970614	0.034394	23.217009	9.592279	0.000000	0.135974	0.670679	0.881766	0.252517	0.892004	0.936876	0.223391	1.630690	0.936876	0.155404	1.630690	0.771545	0.126265	1.367650	0.716435	0.077695	1.038883	0.661324	0.971247	7.586860	4.904116	0.000000	0.000000	24.613806	-6.829902	10.727941	12.216527	-13.023928	76.173617	47.938623	30.107601	7.126787	2.038525	14.834001	-6.888806	64.381614	39.029576	81.151912	15.891190	-9.881272
0.533333	1.551886	-6.679301	86.640686	0.217212	0.666579	0.633923	6.877674	4.578780	-2.561060	0.618395	0.010793	13.892547	-6.288898	0.000000	6.577096	-5.184468	-5.664716	1.980235	0.034562	23.251591	9.890056	0.000000	0.142363	0.666339	0.828843	0.264382	0.886231	0.880645	0.233888	1.620138	0.880645	0.162707	1.620138	0.725237	0.132198	1.358799	0.673435	0.081346	1.032160	0.621632	1.016884	7.537765	4.609774	0.000000	0.000000	24.621703	-6.701481	10.390310	11.863410	-12.993881	75.104851	47.737501	30.120673	6.878363	1.331740	14.912079	-6.673218	64.734680	38.576345	79.174159	15.769284	-9.395892
0.550000	1.625089	-6.597033	87.330654	0.216618	0.666617	0.632796	6.690384	4.576123	-2.998273	0.580681	0.010135	13.871014	-6.535389	0.000000	6.533766	-5.195665	-5.158743	1.991308	0.034755	23.302260	10.114886	0.000000	0.147312	0.664010	0.761137	0.273573	0.883133	0.808708	0.242019	1.614474	0.808708	0.168363	1.614474	0.665994	0.136794	1.354049	0.618423	0.084174	1.028552	0.570852	1.052236	7.511415	4.233213	0.000000	0.000000	24.665396	-6.637421	10.018507	11.547237	-12.916096	74.030363	47.288153	31.104512	6.583902	0.553107	14.954737	-6.435327	64.738817	38.108009	76.893056	15.522971	-8.628982
0.566667	1.701507	-6.504180	88.042353	0.215891	0.666630	0.631719	6.503955	4.569607	-3.390804	0.547778	0.009561	13.875992	-6.836291	0.000000	6.491152	-5.202293	-4.582365	1.998839	0.034886	23.378992	10.266192	0.000000	0.149133	0.664823	0.678542	0.276955	0.884215	0.720951	0.245010	1.616451	0.720951	0.170444	1.616451	0.593725	0.138485	1.355708	0.551316	0.085214	1.029811	0.508907	1.065241	7.520614	3.773850	0.000000	0.000000	24.728047	-6.636022	9.671126	11.263373	-12.797326	73.031699	46.528211	32.740411	6.253199	-0.351176	14.969779	-6.176118	64.329357	37.584472	74.556462	15.212386	-7.743323
0.583333	1.785203	-6.401681	88.754163	0.215040	0.666611	0.630699	6.320093	4.564342	-3.713650	0.517906	0.009039	13.906920	-7.200763	0.000000	6.446425	-5.208752	-3.955211	1.996287	0.034842	23.491803	10.344212	0.000000	0.148431	0.670022	0.585009	0.275651	0.891129	0.621572	0.243857	1.629092	0.621572	0.169642	1.629092	0.511883	0.137833	1.366309	0.475320	0.084814	1.037864	0.438756	1.060228	7.579424	3.253643	0.000000	0.000000	24.788074	-6.695492	9.411298	11.012315	-12.655187	72.189426	45.436776	34.275314	5.877023	-1.274964	14.969312	-5.912372	63.628414	37.006055	72.453563	14.533590	-6.839025
0.600000	1.867752	-6.290305	89.433512	0.214121	0.666555	0.629750	6.138367	4.556919	-3.908675	0.487887	0.008515	13.943510	-7.690194	0.000000	6.396007	-5.210411	-3.348263	1.980168	0.034560	23.648313	10.418938	0.000000	0.145872	0.677942	0.489422	0.270899	0.901663	0.520011	0.239653	1.648349	0.520011	0.166717	1.648349	0.428244	0.135457	1.382460	0.397655	0.083351	1.050133	0.367066	1.041951	7.669019	2.722018	0.000000	0.000000	24.816279	-6.788745	9.236974	10.820977	-12.502489	71.707396	44.021645	35.059247	5.363871	-2.226350	14.951372	-5.656005	62.586653	36.317684	70.866284	13.491605	-6.073183
0.616667	1.936739	-6.172998	90.068197	0.213177	0.666466	0.628871	5.959000	4.538972	-3.970944	0.457055	0.007977	13.978159	-8.323082	0.000000	6.342497	-5.198599	-2.821090	1.953686	0.034098	23.856742	10.580340	0.000000	0.142284	0.686596	0.397189	0.264235	0.913173	0.422013	0.233758	1.669390	0.422013	0.162616	1.669390	0.347540	0.132125	1.400107	0.322716	0.081301	1.063538	0.297892	1.016318	7.766916	2.209046	0.000000	0.000000	24.791705	-6.882090	9.182156	10.710855	-12.340806	71.681305	42.285424	35.456894	4.520347	-3.214729	14.912993	-5.427677	61.262780	35.511211	70.102347	11.914852	-5.394902
0.633333	1.988458	-6.051958	90.634749	0.212244	0.666361	0.628089	5.786052	4.509327	-4.003455	0.431351	0.007529	14.014837	-8.953195	0.000000	6.281540	-5.169512	-2.192823	1.908937	0.033317	24.055729	10.552766	0.000000	0.137940	0.694869	0.319689	0.256169	0.924176	0.339670	0.226622	1.689505	0.339670	0.157652	1.689505	0.279728	0.128091	1.416978	0.259748	0.078819	1.076353	0.239767	0.985295	7.860501	1.778016	0.000000	0.000000	24.695810	-6.966878	9.196934	10.672429	-12.202565	72.002293	40.287211	35.744994	3.312828	-4.236517	14.952723	-5.215804	60.448005	34.497618	69.443492	9.796387	-5.020411
0.650000	2.020882	-5.931085	91.105093	0.211374	0.666255	0.627417	5.623270	4.469701	-4.064543	0.415583	0.007253	14.058994	-9.488031	0.000000	6.212647	-5.125380	-1.494163	1.850377	0.032295	24.224748	10.340323	0.000000	0.132927	0.702292	0.262821	0.246859	0.934048	0.279247	0.218386	1.707552	0.279247	0.151922	1.707552	0.229968	0.123436	1.432113	0.213542	0.075954	1.087850	0.197116	0.949484	7.944465	1.461731	0.000000	0.000000	24.530176	-7.057093	9.251407	10.717338	-12.117334	72.652745	38.086677	36.297561	1.886443	-5.259022	15.054129	-5.030094	60.172383	33.282052	68.903278	7.189808	-4.970995
0.666667	2.024636	-5.813348	91.454016	0.210615	0.666156	0.626896	5.480522	4.411881	-4.211010	0.420484	0.007339	14.123545	-9.818372	0.000000	6.138259	-5.060426	-0.799757	1.784313	0.031142	24.341314	9.998145	0.000000	0.126567	0.707347	0.231807	0.235047	0.940771	0.246295	0.207936	1.719843	0.246295	0.144653	1.719843	0.202831	0.117530	1.442422	0.188343	0.072320	1.095680	0.173855	0.904053	8.001648	1.289240	0.000000	0.000000	24.315035	-7.167437	9.287880	10.824844	-12.106110	73.502530	35.769607	36.890292	0.489211	-6.131054	15.213079	-4.881243	60.431650	31.888222	68.568553	4.150170	-5.289253
0.683333	1.998962	-5.701508	91.639586	0.210049	0.666060	0.626529	5.359778	4.343761	-4.198426	0.445518	0.007776	14.143623	-10.234690	0.000000	6.051282	-4.980443	-0.160992	1.709155	0.029830	24.384610	9.532851	0.000000	0.118313	0.709871	0.230185	0.219719	0.944129	0.244571	0.194377	1.725982	0.244571	0.135220	1.725982	0.201412	0.109866	1.447570	0.187025	0.067604	1.099591	0.172638	0.845099	8.030208	1.280218	0.000000	0.000000	24.073719	-7.301377	9.290470	10.983206	-12.188619	74.495883	33.461446	36.888672	-0.790814	-6.636568	15.386655	-4.798295	61.078390	30.428019	68.564923	0.759773	-5.835862
0.700000	1.949151	-5.594845	91.682843	0.209655	0.665991	0.626354	5.267980	4.264408	-4.235214	0.502583	0.008772	14.181656	-10.443549	0.000000	5.959483	-4.887950	0.419050	1.634272	0.028523	24.336455	8.969235	0.000000	0.106850	0.710879	0.251259	0.198431	0.945469	0.266963	0.175544	1.728432	0.266963	0.122119	1.728432	0.219852	0.099221	1.449625	0.204148	0.061054	1.101152	0.188444	0.763219	8.041608	1.397428	0.000000	0.000000	23.834612	-7.507473	9.252834	11.172787	-12.363887	75.511235	31.178535	36.574340	-1.846890	-6.790524	15.612402	-4.787174	62.194664	28.921188	68.816001	-2.964268	-6.626793
0.716667	1.885261	-5.496182	91.560015	0.209456	0.665957	0.626388	5.215076	4.183727	-4.438485	0.603987	0.010542	14.293615	-10.209002	0.000000	5.860411	-4.797976	0.785878	1.558260	0.027197	24.240265	8.506512	0.000000	0.091233	0.712108	0.298781	0.169429	0.947103	0.317455	0.149887	1.731419	0.317455	0.104270	1.731419	0.261434	0.084719	1.452130	0.242760	0.052131	1.103055	0.224086	0.651668	8.055505	1.661732	0.000000	0.000000	23.616557	-7.788697	9.182341	11.353410	-12.654250	76.332261	29.019254	36.020513	-2.727455	-6.583096	15.993111	-4.830147	64.420522	27.314411	68.651209	-7.007791	-7.776168
0.733333	1.803992	-5.416774	91.237718	0.209530	0.665938	0.626604	5.202977	4.107874	-4.533543	0.725800	0.012668	14.415840	-9.830317	0.000000	5.752266	-4.709583	1.144101	1.471847	0.025689	24.040440	7.789536	0.000000	0.072122	0.713052	0.369288	0.133939	0.948359	0.392368	0.118490	1.733714	0.392368	0.082429	1.733714	0.323127	0.066973	1.454055	0.300046	0.041211	1.104517	0.276966	0.515164	8.066186	2.053866	0.000000	0.000000	23.450953	-8.132907	9.106207	11.564663	-13.033279	77.132581	27.002611	34.880993	-3.467101	-6.068182	16.371594	-4.957224	66.605829	25.761421	69.185856	-11.101346	-9.012303
0.750000	1.707251	-5.355274	90.751268	0.209853	0.665930	0.626980	5.225458	4.040349	-4.293029	0.853528	0.014897	14.469578	-9.701259	0.000000	5.638712	-4.623414	1.540676	1.377225	0.024037	23.730509	6.835955	0.000000	0.049566	0.712855	0.464720	0.092049	0.948097	0.493765	0.081432	1.733235	0.493765	0.056649	1.733235	0.406630	0.046027	1.453653	0.377585	0.028322	1.104212	0.348540	0.354046	8.063955	2.584631	0.000000	0.000000	23.323359	-8.559977	8.909026	11.760079	-13.493457	77.731021	25.099020	34.664731	-4.207801	-5.880907	16.857333	-5.177582	69.243481	24.228025	69.994143	-15.228928	-10.459017
0.766667	1.603240	-5.316945	90.126095	0.210409	0.665921	0.627479	5.284843	3.985842	-3.894165	0.981261	0.017126	14.525297	-9.549654	0.000000	5.528966	-4.548455	1.976961	1.280914	0.022356	23.337050	5.677477	0.000000	0.024002	0.712024	0.578308	0.044574	0.946992	0.614452	0.039433	1.731215	0.614452	0.027432	1.731215	0.506019	0.022288	1.451959	0.469875	0.013715	1.102925	0.433731	0.171445	8.054556	3.216374	0.000000	0.000000	23.249440	-9.065882	8.585908	11.886410	-14.023150	77.856527	23.428365	34.795964	-4.925576	-5.798535	17.358968	-5.485472	71.753036	22.778794	71.247364	-18.939586	-11.860982
0.783333	1.497378	-5.322351	89.373605	0.211185	0.665886	0.628073	5.399678	3.951026	-3.326605	1.100220	0.019202	14.576283	-9.411914	0.000000	5.444051	-4.491860	2.423080	1.185180	0.020685	22.883720	4.376161	0.000000	-0.001130	0.710925	0.705789	-0.002098	0.945530	0.749901	-0.001856	1.728543	0.749901	-0.001291	1.728543	0.617566	-0.001049	1.449718	0.573454	-0.000646	1.101223	0.529342	-0.008070	8.042125	3.925389	0.000000	0.000000	23.227522	-9.657699	8.123028	11.925569	-14.599582	77.396163	22.034042	35.092483	-5.556341	-5.919704	17.807227	-5.877094	73.846510	21.441668	72.811139	-22.009939	-13.209427
0.800000	1.387375	-5.362414	88.512838	0.212164	0.665831	0.628740	5.559731	3.932404	-2.658267	1.209981	0.021118	14.648745	-9.216525	0.000000	5.376078	-4.449599	2.894638	1.093077	0.019078	22.387582	2.920007	0.000000	-0.026485	0.708665	0.840955	-0.049186	0.942524	0.893514	-0.043513	1.723047	0.893514	-0.030270	1.723047	0.735835	-0.024594	1.445109	0.683276	-0.015134	1.097721	0.630716	-0.189182	8.016555	4.677137	0.000000	0.000000	23.245333	-10.339019	7.495552	11.913906	-15.197946	76.461562	20.945193	34.981961	-5.977248	-6.148544	18.161400	-6.364249	75.313816	20.345630	74.053435	-24.266086	-14.180320
0.816667	1.274937	-5.439518	87.578259	0.213303	0.665748	0.629464	5.767883	3.928191	-1.950118	1.309722	0.022859	14.757210	-8.936232	0.000000	5.334447	-4.421099	3.342642	1.010352	0.017634	21.868426	1.392694	0.000000	-0.050937	0.705187	0.969794	-0.094596	0.937899	1.030407	-0.083685	1.714591	1.030407	-0.058216	1.714591	0.848570	-0.047300	1.438017	0.787958	-0.029106	1.092334	0.727346	-0.363840	7.977215	5.393706	0.000000	0.000000	23.309772	-11.088245	6.768033	11.905894	-15.782653	75.258037	20.130435	34.423046	-6.180523	-6.437185	18.316300	-6.931419	75.701601	19.587556	74.937755	-25.499497	-14.601270
0.833333	1.167976	-5.554579	86.560673	0.214609	0.665625	0.630244	6.023619	3.950851	-1.079278	1.396506	0.024374	14.877785	-8.746988	0.000000	5.317048	-4.415940	3.726018	0.937291	0.016359	21.352951	-0.180988	0.000000	-0.073218	0.701055	1.100518	-0.135973	0.932404	1.169300	-0.120290	1.704546	1.169300	-0.083681	1.704546	0.962953	-0.067990	1.429592	0.894171	-0.041837	1.085935	0.825389	-0.522989	7.930477	6.120752	0.000000	0.000000	23.412182	-11.956135	5.887382	11.844200	-16.338457	73.599784	19.566502	33.966604	-6.213375	-6.724826	18.346071	-7.560497	75.245139	19.094911	75.476058	-25.775384	-14.636150
0.850000	1.075566	-5.689114	85.538177	0.215932	0.665492	0.631079	6.315583	3.991922	-0.295400	1.492633	0.026051	15.042091	-8.431734	0.000000	5.322497	-4.432929	4.027666	0.882146	0.015396	20.862196	-1.684165	0.000000	-0.095185	0.698349	1.206623	-0.176767	0.928804	1.282037	-0.156379	1.697966	1.282037	-0.108786	1.697966	1.055796	-0.088388	1.424073	0.980382	-0.054388	1.081743	0.904968	-0.679894	7.899865	6.710878	0.000000	0.000000	23.532428	-12.910609	5.022693	11.851219	-16.844472	72.089311	19.177399	32.906063	-6.006641	-6.949642	18.088588	-8.222121	73.266992	19.067428	75.777381	-25.170587	-13.946806
0.866667	1.008188	-5.837730	84.530452	0.217204	0.665351	0.631979	6.642669	4.055373	0.381606	1.611894	0.028133	15.259056	-7.995569	0.000000	5.350153	-4.479140	4.223260	0.843154	0.014716	20.413915	-3.060413	0.000000	-0.116650	0.698805	1.293984	-0.216631	0.929411	1.374858	-0.191645	1.699074	1.374858	-0.133320	1.699074	1.132236	-0.108321	1.425003	1.051362	-0.066654	1.082449	0.970488	-0.833221	7.905021	7.196749	0.000000	0.000000	23.669085	-13.949914	4.223259	11.870310	-17.297339	70.637481	18.906160	31.579254	-5.637575	-7.136685	17.642881	-8.885115	70.090309	19.400069	75.983560	-23.814115	-12.785537
0.883333	0.956394	-5.998984	83.555926	0.218367	0.665184	0.632879	6.991247	4.131526	1.063853	1.737187	0.030320	15.475200	-7.652284	0.000000	5.399912	-4.539352	4.272190	0.814370	0.014213	20.064742	-4.225709	0.000000	-0.135519	0.701591	1.365982	-0.251672	0.933116	1.451356	-0.222644	1.705848	1.451356	-0.154884	1.705848	1.195234	-0.125843	1.430684	1.109860	-0.077435	1.086764	1.024487	-0.967996	7.936536	7.597182	0.000000	0.000000	23.801520	-15.071044	3.508788	11.805832	-17.713799	68.713039	18.789504	30.492641	-5.225642	-7.255533	16.965259	-9.485253	65.438715	20.073196	76.796010	-21.894926	-11.137346
0.900000	0.926572	-6.150586	82.660775	0.219360	0.665031	0.633758	7.333484	4.216182	1.611580	1.872906	0.032688	15.720316	-7.265384	0.000000	5.450848	-4.612206	4.403438	0.787023	0.013736	19.741697	-5.433137	0.000000	-0.153964	0.707267	1.421256	-0.285927	0.940665	1.510085	-0.252947	1.719648	1.510085	-0.175965	1.719648	1.243599	-0.142971	1.442258	1.154771	-0.087975	1.095556	1.065942	-1.099750	8.000742	7.904600	0.000000	0.000000	23.918044	-16.224337	2.955189	11.807610	-18.068905	67.501173	18.654475	28.831947	-4.772291	-7.586888	16.179843	-10.029423	59.965278	20.887140	77.873763	-19.542332	-9.334100
0.916667	0.919748	-6.304950	81.857182	0.220159	0.664882	0.634566	7.684102	4.302424	1.814966	2.035595	0.035528	16.041904	-6.560268	0.000000	5.521952	-4.700950	4.219207	0.773088	0.013493	19.591897	-6.086300	0.000000	-0.168631	0.715920	1.466154	-0.313164	0.952173	1.557789	-0.277043	1.740687	1.557789	-0.192728	1.740687	1.282885	-0.156590	1.459903	1.191250	-0.096356	1.108959	1.099616	-1.204512	8.098625	8.154309	0.000000	0.000000	24.013589	-17.378936	2.590692	11.817605	-18.389753	66.557490	18.528416	27.249102	-4.399381	-8.083884	15.364303	-10.509358	54.240027	21.702472	79.143868	-17.132113	-7.520813
0.933333	0.923718	-6.457918	81.165541	0.220783	0.664742	0.635244	8.014820	4.384915	1.860920	2.187371	0.038177	16.361528	-5.832015	0.000000	5.604968	-4.790199	3.959734	0.763490	0.013325	19.526497	-6.500113	0.000000	-0.178650	0.725046	1.499880	-0.331771	0.964311	1.593622	-0.293504	1.762877	1.593622	-0.204179	1.762877	1.312395	-0.165894	1.478514	1.218652	-0.102081	1.123096	1.124910	-1.276080	8.201865	8.341882	0.000000	0.000000	24.082659	-18.478565	2.414184	11.897394	-18.665412	66.231647	18.378606	25.701137	-4.168886	-8.824329	14.538742	-10.919891	48.510311	22.391566	80.506537	-14.615895	-5.816711
0.950000	0.929904	-6.614162	80.609723	0.221246	0.664607	0.635734	8.317851	4.460144	1.822328	2.314934	0.040403	16.639174	-5.229289	0.000000	5.702692	-4.868835	3.839788	0.751956	0.013124	19.473787	-6.956840	0.000000	-0.182123	0.733073	1.516938	-0.338220	0.974987	1.611747	-0.299210	1.782394	1.611747	-0.208148	1.782394	1.327321	-0.169119	1.494883	1.232512	-0.104065	1.135531	1.137703	-1.300885	8.292672	8.436754	0.000000	0.000000	24.129102	-19.463147	2.435089	12.096430	-18.873436	66.765057	18.174880	24.285036	-4.131513	-9.745233	13.698392	-11.245926	42.997009	22.958657	81.943403	-12.210725	-4.201149
0.966667	0.929987	-6.763173	80.167933	0.221571	0.664495	0.636052	8.591755	4.511654	1.435384	2.442146	0.042623	16.937351	-4.337454	0.000000	5.803507	-4.930489	3.668247	0.742531	0.012960	19.479677	-7.217999	0.000000	-0.181157	0.739046	1.518363	-0.336428	0.982931	1.613261	-0.297624	1.796915	1.613261	-0.207045	1.796915	1.328568	-0.168223	1.507062	1.233670	-0.103513	1.144782	1.138773	-1.293990	8.360231	8.444681	0.000000	0.000000	24.173913	-20.304110	2.633260	12.419886	-19.033849	67.957876	17.964707	23.379257	-4.257999	-10.723208	12.906844	-11.522729	38.506157	23.360035	82.473820	-9.966242	-2.871838
0.983333	0.921778	-6.909570	79.837797	0.221776	0.664388	0.636176	8.838289	4.541182	0.835389	2.570596	0.044865	17.229674	-3.333497	0.000000	5.911704	-4.973442	3.460899	0.738912	0.012896	19.494838	-7.349126	0.000000	-0.174951	0.743021	1.499706	-0.324902	0.988218	1.593438	-0.287427	1.806581	1.593438	-0.199952	1.806581	1.312243	-0.162460	1.515168	1.218511	-0.099967	1.150939	1.124780	-1.249658	8.405199	8.340916	0.000000	0.000000	24.236379	-20.992896	2.977220	12.847469	-19.153319	69.615552	17.795684	22.563977	-4.259492	-11.547614	12.079112	-11.757718	34.562512	23.655884	82.676494	-7.940875	-1.768323
1.000000	0.901462	-7.051840	79.604673	0.221871	0.664279	0.636153	9.056304	4.548037	0.158008	2.696344	0.047060	17.461731	-2.376211	0.000000	6.026985	-4.995030	3.194538	0.741902	0.012949	19.503011	-7.346519	0.000000	-0.164770	0.745026	1.460953	-0.305994	0.990884	1.552263	-0.270700	1.811456	1.552263	-0.188315	1.811456	1.278334	-0.153005	1.519256	1.187025	-0.094149	1.154045	1.095715	-1.176933	8.427880	8.125384	0.000000	0.000000	24.336721	-21.525985	3.451774	13.356082	-19.231556	71.553026	17.668789	21.802937	-4.091434	-12.077905	11.215105	-11.940199	31.089046	23.901300	82.658679	-6.214056	-0.825816
1.016667	0.874296	-7.181459	79.461520	0.221850	0.664175	0.636013	9.241575	4.534354	-0.586963	2.828402	0.049365	17.647856	-1.432559	0.000000	6.140929	-4.998195	2.900209	0.752508	0.013134	19.490802	-7.257995	0.000000	-0.152694	0.746239	1.403333	-0.283569	0.992498	1.491042	-0.250862	1.814407	1.491042	-0.174515	1.814407	1.227917	-0.141792	1.521731	1.140208	-0.087250	1.155925	1.052500	-1.090681	8.441610	7.804919	0.000000	0.000000	24.480190	-21.923246	4.016386	13.911977	-19.277616	73.604075	17.588281	20.999970	-3.796577	-12.260151	10.365962	-12.080404	28.255643	24.097735	82.332859	-4.860332	-0.045337
1.033333	0.844116	-7.290440	79.401689	0.221712	0.664089	0.635808	9.387070	4.504571	-1.311852	2.960193	0.051665	17.760356	-0.597566	0.000000	6.246081	-4.985074	2.611229	0.769895	0.013437	19.454255	-7.115570	0.000000	-0.141204	0.747610	1.329217	-0.262230	0.994321	1.412293	-0.231984	1.817739	1.412293	-0.161382	1.817739	1.163065	-0.131122	1.524526	1.079989	-0.080684	1.158048	0.996912	-1.008605	8.457113	7.392704	0.000000	0.000000	24.665921	-22.210162	4.645459	14.495272	-19.294614	75.701302	17.520367	20.194273	-3.489510	-12.206382	9.591247	-12.184648	26.234361	24.228996	81.646325	-3.938771	0.567156
1.050000	0.817218	-7.377744	79.405752	0.221479	0.664013	0.635549	9.487175	4.467294	-1.897497	3.074996	0.053669	17.799152	0.038081	0.000000	6.335888	-4.963018	2.354313	0.788658	0.013765	19.406497	-6.946703	0.000000	-0.130666	0.749477	1.249378	-0.242659	0.996804	1.327464	-0.214671	1.822278	1.327464	-0.149338	1.822278	1.093206	-0.121336	1.528333	1.015120	-0.074662	1.160940	0.937034	-0.933333	8.478232	6.948667	0.000000	0.000000	24.872761	-22.374407	5.251390	15.031503	-19.305783	77.558513	17.497860	19.508019	-3.282469	-12.013835	8.956836	-12.258596	25.184048	24.281106	80.598995	-3.431678	0.998125
1.066667	0.789683	-7.443409	79.462487	0.221183	0.663932	0.635247	9.539999	4.422975	-2.218930	3.152858	0.055028	17.754120	0.342394	0.000000	6.407119	-4.927543	2.323669	0.801886	0.013996	19.300408	-7.022057	0.000000	-0.121543	0.751254	1.167982	-0.225718	0.999167	1.240981	-0.199683	1.826598	1.240981	-0.138912	1.826598	1.021985	-0.112865	1.531956	0.948986	-0.069450	1.163692	0.875987	-0.868170	8.498331	6.495968	0.000000	0.000000	25.100061	-22.439006	5.795878	15.489493	-19.306804	79.075187	17.507786	18.900449	-3.161848	-11.802693	8.386599	-12.353864	24.242759	24.379111	80.188874	-3.188616	1.446430
1.083333	0.765640	-7.483403	79.561724	0.220844	0.663855	0.634925	9.542849	4.376997	-2.234896	3.184144	0.055574	17.641863	0.292290	0.000000	6.457060	-4.885406	2.378714	0.812169	0.014175	19.201604	-7.124548	0.000000	-0.114485	0.753307	1.093103	-0.212610	1.001899	1.161422	-0.188087	1.831591	1.161422	-0.130845	1.831591	0.956465	-0.106311	1.536144	0.888146	-0.065417	1.166873	0.819827	-0.817753	8.521563	6.079509	0.000000	0.000000	25.325288	-22.427491	6.225187	15.810759	-19.303708	79.957545	17.565940	18.601930	-3.167706	-11.638098	8.009214	-12.470873	24.154686	24.432957	79.658543	-3.187840	1.774696
1.100000	0.745746	-7.505353	79.699421	0.220472	0.663769	0.634595	9.514338	4.329075	-2.074128	3.181471	0.055527	17.538613	0.090838	0.000000	6.493700	-4.838863	2.568690	0.816610	0.014253	19.106611	-7.325618	0.000000	-0.108691	0.755556	1.024108	-0.201850	1.004890	1.088114	-0.178568	1.837059	1.088114	-0.124223	1.837059	0.896094	-0.100930	1.540730	0.832087	-0.062106	1.170356	0.768081	-0.776367	8.547001	5.695779	0.000000	0.000000	25.542416	-22.352577	6.511539	15.984628	-19.297789	80.116374	17.682676	18.711387	-3.290001	-11.565833	7.746870	-12.624873	24.347208	24.514117	79.390963	-3.250660	2.054082
1.116667	0.722829	-7.509575	79.853026	0.220115	0.663676	0.634275	9.454670	4.278570	-1.653019	3.133721	0.054694	17.414222	-0.375967	0.000000	6.516254	-4.785332	2.775629	0.816443	0.014250	19.053310	-7.482166	0.000000	-0.104292	0.756622	0.963743	-0.193680	1.006307	1.023977	-0.171341	1.839650	1.023977	-0.119195	1.839650	0.843275	-0.096845	1.542903	0.783041	-0.059592	1.172007	0.722807	-0.744945	8.559057	5.360049	0.000000	0.000000	25.729722	-22.239855	6.618940	16.029136	-19.278494	79.594648	17.843064	19.250116	-3.504723	-11.568714	7.577225	-12.821523	24.778197	24.642067	79.165240	-3.320628	2.302515
1.133333	0.690049	-7.495927	79.998689	0.219823	0.663574	0.633987	9.368364	4.222756	-0.963764	3.047075	0.053181	17.267501	-1.109903	0.000000	6.522903	-4.722120	2.920287	0.813091	0.014191	19.058533	-7.527783	0.000000	-0.101515	0.755097	0.915019	-0.188523	1.004280	0.972207	-0.166779	1.835944	0.972207	-0.116021	1.835944	0.800641	-0.094267	1.539795	0.743453	-0.058006	1.169646	0.686264	-0.725111	8.541813	5.089059	0.000000	0.000000	25.867891	-22.108639	6.531861	15.951059	-19.232429	78.353244	18.045104	20.450477	-3.832425	-11.579475	7.459918	-13.040508	25.238433	24.828620	78.966323	-3.332031	2.562529
1.150000	0.642185	-7.460995	80.129896	0.219612	0.663477	0.633767	9.258050	4.157659	-0.038023	2.932608	0.051184	17.085965	-2.109212	0.000000	6.511068	-4.644277	2.997339	0.806731	0.014080	19.107310	-7.486667	0.000000	-0.101001	0.749873	0.879647	-0.187568	0.997331	0.934625	-0.165934	1.823240	0.934625	-0.115434	1.823240	0.769691	-0.093789	1.529140	0.714713	-0.057712	1.161553	0.659736	-0.721438	8.482709	4.892335	0.000000	0.000000	25.928407	-21.971644	6.256288	15.776329	-19.157843	76.499314	18.279664	22.268387	-4.281888	-11.534678	7.405190	-13.262416	25.740056	25.033222	78.705417	-3.292514	2.786930
1.166667	0.588767	-7.401728	80.246845	0.219471	0.663411	0.633660	9.132860	4.088695	0.941552	2.822252	0.049258	16.920440	-3.149077	0.000000	6.478780	-4.561983	2.989898	0.799992	0.013962	19.197298	-7.336621	0.000000	-0.103268	0.741765	0.862580	-0.191779	0.986547	0.916491	-0.169659	1.803527	0.916491	-0.118025	1.803527	0.754757	-0.095895	1.512606	0.700846	-0.059007	1.148993	0.646935	-0.737634	8.390990	4.797410	0.000000	0.000000	25.862542	-21.876955	5.747831	15.525614	-19.079264	74.184891	18.540698	24.413150	-4.774251	-11.386965	7.479199	-13.456834	26.514306	25.137777	78.298434	-3.318326	2.833706
1.183333	0.526498	-7.319169	80.333609	0.219408	0.663376	0.633665	8.995764	4.012116	1.973730	2.722782	0.047522	16.733951	-4.260113	0.000000	6.424024	-4.472249	2.877625	0.793389	0.013847	19.325345	-7.080337	0.000000	-0.108688	0.730645	0.863653	-0.201845	0.971758	0.917631	-0.178564	1.776490	0.917631	-0.124220	1.776490	0.755696	-0.100928	1.489931	0.701718	-0.062104	1.131769	0.647740	-0.776348	8.265201	4.803379	0.000000	0.000000	25.673952	-21.783024	5.114088	15.205440	-18.987000	71.455522	18.841415	26.900620	-5.310248	-11.076764	7.603098	-13.576332	27.059273	25.206545	78.034878	-3.271510	2.853551
1.200000	0.464400	-7.218897	80.397917	0.219380	0.663389	0.633785	8.856326	3.934960	3.000362	2.643977	0.046146	16.541749	-5.377945	0.000000	6.353890	-4.383752	2.611738	0.792164	0.013826	19.486898	-6.647921	0.000000	-0.116711	0.718331	0.883500	-0.216745	0.955380	0.938719	-0.191745	1.746550	0.938719	-0.133389	1.746550	0.773063	-0.108378	1.464821	0.717844	-0.066689	1.112695	0.662625	-0.833658	8.125906	4.913764	0.000000	0.000000	25.353769	-21.698072	4.390075	14.794338	-18.907016	68.190635	19.208933	29.908343	-5.869960	-10.582241	7.837998	-13.622594	27.682534	25.146059	77.851902	-3.317002	2.731560
1.216667	0.401704	-7.101896	80.449176	0.219369	0.663472	0.634017	8.716550	3.853451	3.892620	2.585890	0.045132	16.395314	-6.318797	0.000000	6.270697	-4.294157	2.172608	0.796080	0.013894	19.691546	-6.008272	0.000000	-0.126591	0.705162	0.918973	-0.235092	0.937866	0.976409	-0.207976	1.714531	0.976409	-0.144681	1.714531	0.804101	-0.117552	1.437967	0.746666	-0.072334	1.092296	0.689230	-0.904227	7.976935	5.111053	0.000000	0.000000	24.887857	-21.648857	3.611399	14.396302	-18.868184	65.033977	19.543616	32.537481	-6.410569	-10.097109	8.227709	-13.586656	28.579430	24.839965	77.503637	-3.393539	2.345435
1.233333	0.355679	-6.975697	80.499035	0.219366	0.663620	0.634303	8.576594	3.782749	4.654496	2.541037	0.044349	16.273606	-7.099813	0.000000	6.176102	-4.221418	1.730017	0.802532	0.014007	19.871703	-5.378116	0.000000	-0.138431	0.693999	0.963230	-0.257079	0.923019	1.023432	-0.227428	1.687389	1.023432	-0.158212	1.687389	0.842826	-0.128547	1.415203	0.782625	-0.079099	1.075004	0.722423	-0.988796	7.850654	5.357197	0.000000	0.000000	24.347849	-21.580524	2.903305	14.029406	-18.810293	62.208418	19.846275	35.106274	-6.833555	-9.559894	8.723664	-13.497151	29.670010	24.363876	77.027551	-3.483519	1.758270
1.250000	0.327810	-6.859935	80.543723	0.219356	0.663797	0.634602	8.456063	3.726721	5.259910	2.509588	0.043801	16.204459	-7.654572	0.000000	6.092058	-4.172061	0.998598	0.819423	0.014302	20.130030	-4.358111	0.000000	-0.149617	0.685935	1.016300	-0.277854	0.912294	1.079819	-0.245806	1.667783	1.079819	-0.170998	1.667783	0.889263	-0.138935	1.398759	0.825744	-0.085491	1.062514	0.762225	-1.068701	7.759437	5.652357	0.000000	0.000000	23.781588	-21.499963	2.277907	13.600463	-18.773865	59.009195	20.229368	38.322306	-7.273753	-8.883743	9.307966	-13.357120	30.945975	23.764286	76.504999	-3.615845	1.058589
1.266667	0.312109	-6.762396	80.597731	0.219346	0.663987	0.634833	8.340410	3.688401	5.932001	2.447305	0.042714	16.104611	-8.331598	0.000000	6.019082	-4.137204	0.365885	0.832679	0.014533	20.331375	-3.487699	0.000000	-0.158429	0.680365	1.063841	-0.294218	0.904886	1.130331	-0.260283	1.654241	1.130331	-0.181068	1.654241	0.930861	-0.147117	1.387401	0.864371	-0.090526	1.053886	0.797881	-1.131641	7.696430	5.916766	0.000000	0.000000	23.239058	-21.375995	1.800208	13.260481	-18.750953	56.361746	20.593709	41.274476	-7.686027	-8.196840	9.861745	-13.166995	32.001935	23.130099	76.053533	-3.759427	0.225696
1.283333	0.303596	-6.696355	80.648126	0.219347	0.664157	0.634994	8.254484	3.662089	6.536586	2.378969	0.041521	16.023340	-8.928563	0.000000	5.971302	-4.115695	-0.249239	0.844636	0.014742	20.501087	-2.676718	0.000000	-0.163863	0.677032	1.107915	-0.304310	0.900453	1.177159	-0.269210	1.646136	1.177159	-0.187279	1.646136	0.969425	-0.152163	1.380604	0.900181	-0.093631	1.048723	0.830936	-1.170456	7.658723	6.161889	0.000000	0.000000	22.754037	-21.212613	1.450594	12.965530	-18.711274	54.002433	20.982585	44.382975	-8.102464	-7.433223	10.343831	-12.938119	32.690689	22.578182	75.872599	-3.951610	-0.533983
1.300000	0.295519	-6.655946	80.681789	0.219369	0.664310	0.635094	8.196120	3.638893	6.993324	2.314174	0.040390	15.970872	-9.334476	0.000000	5.943636	-4.101705	-0.954522	0.858323	0.014981	20.675749	-1.783468	0.000000	-0.167352	0.675241	1.151149	-0.310789	0.898070	1.223096	-0.274942	1.641781	1.223096	-0.191266	1.641781	1.007255	-0.155403	1.376951	0.935309	-0.095625	1.045948	0.863362	-1.195377	7.638460	6.402346	0.000000	0.000000	22.344580	-21.025256	1.212654	12.674481	-18.646553	51.594300	21.445139	47.938221	-8.555003	-6.532536	10.789207	-12.722033	33.367075	22.120420	75.556449	-4.218699	-1.190516
1.316667	0.287074	-6.653807	80.700925	0.219409	0.664424	0.635148	8.184504	3.622382	7.281818	2.268525	0.039593	15.962279	-9.548157	0.000000	5.949877	-4.094423	-1.586435	0.870483	0.015193	20.789421	-1.059057	0.000000	-0.166701	0.674584	1.194577	-0.309580	0.897197	1.269238	-0.273873	1.640183	1.269238	-0.190522	1.640183	1.045255	-0.154798	1.375612	0.970594	-0.095253	1.044931	0.895933	-1.190726	7.631029	6.643879	0.000000	0.000000	22.010563	-20.825699	1.042115	12.389822	-18.576184	49.243142	21.973007	51.383506	-8.931844	-5.569706	11.165691	-12.494096	33.778346	21.784840	75.409541	-4.468160	-1.705909
1.333333	0.266867	-6.676548	80.694968	0.219485	0.664509	0.635192	8.206748	3.602622	7.455951	2.239592	0.039088	15.953335	-9.667716	0.000000	5.979536	-4.083213	-2.222539	0.885278	0.015451	20.872506	-0.377441	0.000000	-0.163887	0.673091	1.239100	-0.304355	0.895211	1.316543	-0.269251	1.636553	1.316543	-0.187307	1.636553	1.084212	-0.152186	1.372567	1.006768	-0.093645	1.042618	0.929325	-1.170632	7.614137	6.891500	0.000000	0.000000	21.752078	-20.617184	0.920355	12.125816	-18.479423	46.999113	22.547869	54.813828	-9.272638	-4.592219	11.434025	-12.270856	33.689694	21.643412	75.612603	-4.592043	-1.949429
1.350000	0.245922	-6.710789	80.676620	0.219587	0.664578	0.635249	8.251514	3.586510	7.475904	2.240179	0.039099	15.950429	-9.653104	0.000000	6.020316	-4.075320	-2.766464	0.903148	0.015763	20.920348	0.158682	0.000000	-0.160109	0.671542	1.285462	-0.297338	0.893151	1.365803	-0.263043	1.632787	1.365803	-0.182989	1.632787	1.124779	-0.148677	1.369408	1.044438	-0.091486	1.040219	0.964096	-1.143642	7.596618	7.149352	0.000000	0.000000	21.556811	-20.412269	0.806771	11.852805	-18.355896	44.769032	23.176909	58.061777	-9.539237	-3.684854	11.619803	-12.106958	33.219579	21.711382	76.170003	-4.592533	-1.926371
1.366667	0.208454	-6.732316	80.647815	0.219759	0.664621	0.635376	8.292968	3.560054	7.445607	2.257829	0.039407	15.933586	-9.648842	0.000000	6.051114	-4.053188	-3.165694	0.921086	0.016076	20.931366	0.501870	0.000000	-0.157804	0.666348	1.338677	-0.293058	0.886243	1.422344	-0.259256	1.620159	1.422344	-0.180354	1.620159	1.171342	-0.146537	1.358817	1.087675	-0.090169	1.032173	1.004008	-1.127178	7.537865	7.445319	0.000000	0.000000	21.401275	-20.210226	0.619156	11.562748	-18.198685	42.530372	23.837669	61.169542	-9.750177	-2.909839	11.739090	-12.323009	29.001407	22.695516	80.461739	-5.001237	-1.304897
1.383333	0.185391	-6.739406	80.619008	0.219877	0.664710	0.635548	8.326675	3.542845	7.243955	2.298873	0.040123	15.919580	-9.471291	0.000000	6.067973	-4.040158	-3.421699	0.941480	0.016432	20.914686	0.678264	0.000000	-0.156335	0.663368	1.394887	-0.290330	0.882279	1.482068	-0.256843	1.612913	1.482068	-0.178676	1.612913	1.220527	-0.145173	1.352740	1.133346	-0.089330	1.027557	1.046166	-1.116687	7.504152	7.757946	0.000000	0.000000	21.288590	-20.044373	0.418228	11.273798	-18.064933	40.356294	24.508658	64.072346	-9.919702	-2.310775	12.020789	-12.394036	27.770715	23.169944	82.814590	-5.196830	-0.991936
1.400000	0.171176	-6.732055	80.591238	0.219947	0.664832	0.635761	8.353259	3.529443	6.879981	2.361437	0.041215	15.920902	-9.106404	0.000000	6.072086	-4.031036	-3.562698	0.963287	0.016813	20.884064	0.732240	0.000000	-0.155274	0.662175	1.454176	-0.288359	0.880693	1.545062	-0.255099	1.610013	1.545062	-0.177462	1.610013	1.272404	-0.144187	1.350308	1.181518	-0.088723	1.025710	1.090632	-1.109103	7.490661	8.087689	0.000000	0.000000	21.241529	-19.922111	0.209728	10.952479	-17.938105	38.047523	25.195691	66.981429	-10.012078	-1.848976	12.437638	-12.332300	29.502416	23.150958	83.421718	-5.317974	-0.895031
1.416667	0.167864	-6.708090	80.573019	0.219971	0.664981	0.636012	8.366344	3.521805	6.410951	2.435711	0.042511	15.924557	-8.624097	0.000000	6.061144	-4.026257	-3.543743	0.982656	0.017151	20.833557	0.608163	0.000000	-0.154948	0.662859	1.509816	-0.287754	0.881603	1.604180	-0.254564	1.611676	1.604180	-0.177090	1.611676	1.321089	-0.143885	1.351703	1.226726	-0.088537	1.026769	1.132362	-1.106778	7.498398	8.397145	0.000000	0.000000	21.269100	-19.828798	0.015759	10.707605	-17.844608	36.151769	25.825628	69.454093	-10.093085	-1.594679	12.954929	-12.160740	33.787959	22.702973	82.558546	-5.558900	-1.003762
1.433333	0.169926	-6.671285	80.576211	0.219943	0.665145	0.636285	8.372311	3.512608	5.764280	2.524784	0.044066	15.962681	-7.924011	0.000000	6.041384	-4.020324	-3.378499	0.997357	0.017407	20.762233	0.334502	0.000000	-0.154687	0.664608	1.558854	-0.287269	0.883928	1.656283	-0.254135	1.615928	1.656283	-0.176792	1.615928	1.363998	-0.143642	1.355268	1.266569	-0.088388	1.029478	1.169141	-1.104913	7.518177	8.669880	0.000000	0.000000	21.365022	-19.754730	-0.166097	10.566058	-17.790270	34.835915	26.375012	71.306028	-10.122957	-1.531660	13.556945	-11.879431	40.355600	21.873016	80.513112	-6.110500	-1.193555
1.450000	0.175825	-6.618482	80.600528	0.219903	0.665305	0.636556	8.347815	3.505475	5.149130	2.585933	0.045133	15.975823	-7.271378	0.000000	6.007758	-4.015695	-3.131686	1.005578	0.017551	20.731722	0.048845	0.000000	-0.154810	0.666578	1.600016	-0.287497	0.886548	1.700017	-0.254337	1.620717	1.700017	-0.176932	1.620717	1.400014	-0.143756	1.359285	1.300013	-0.088458	1.032529	1.200012	-1.105791	7.540461	8.898807	0.000000	0.000000	21.500130	-19.675978	-0.350712	10.528089	-17.755704	34.055142	26.818401	72.586491	-10.050908	-1.539748	14.238074	-11.510020	48.852769	20.752811	77.415692	-6.929528	-1.419335
1.466667	0.165909	-6.558182	80.607203	0.219891	0.665448	0.636800	8.320958	3.481924	4.538023	2.657187	0.046377	15.986974	-6.583971	0.000000	5.966119	-3.992933	-2.866489	1.010026	0.017628	20.706621	-0.278141	0.000000	-0.154839	0.666769	1.641882	-0.287552	0.886803	1.744500	-0.254385	1.621183	1.744500	-0.176966	1.621183	1.436647	-0.143784	1.359676	1.334029	-0.088475	1.032826	1.231412	-1.106001	7.542627	9.131656	0.000000	0.000000	21.659951	-19.625507	-0.563486	10.532830	-17.738587	33.676286	27.194342	73.408788	-9.998565	-1.643127	14.936808	-11.052092	58.927142	19.270087	73.431160	-8.046914	-1.827374
1.483333	0.158314	-6.477540	80.628531	0.219894	0.665592	0.637000	8.264181	3.456025	3.821351	2.715900	0.047401	16.031436	-5.737187	0.000000	5.902909	-3.969354	-2.551471	1.005999	0.017558	20.703399	-0.618773	0.000000	-0.156619	0.666545	1.678255	-0.290857	0.886505	1.783146	-0.257310	1.620638	1.783146	-0.179000	1.620638	1.468473	-0.145437	1.359219	1.363582	-0.089492	1.032478	1.258691	-1.118715	7.540091	9.333950	0.000000	0.000000	21.791843	-19.556794	-0.800842	10.589476	-17.720538	33.710630	27.454728	73.718273	-9.817885	-1.725157	15.719194	-10.525544	70.247271	17.678075	68.747466	-9.633383	-2.322654
1.500000	0.165080	-6.382942	80.685077	0.219863	0.665735	0.637113	8.180376	3.435150	2.935207	2.758903	0.048152	16.146911	-4.640655	0.000000	5.823739	-3.955847	-2.209320	0.995154	0.017369	20.735673	-0.910266	0.000000	-0.159474	0.667812	1.705021	-0.296159	0.888190	1.811585	-0.261999	1.623717	1.811585	-0.182262	1.623717	1.491893	-0.148087	1.361802	1.385329	-0.091123	1.034440	1.278766	-1.139105	7.554420	9.482814	0.000000	0.000000	21.889984	-19.478886	-1.056724	10.641703	-17.698692	33.925516	27.608848	73.699771	-9.498112	-1.740199	16.525173	-9.911260	82.478821	15.891719	63.562954	-11.330209	-2.876868
1.516667	0.189921	-6.273687	80.750088	0.219830	0.665880	0.637087	8.051438	3.432923	2.306685	2.751756	0.048027	16.179498	-3.888671	0.000000	5.717269	-3.957163	-1.809014	0.975766	0.017030	20.791720	-1.242266	0.000000	-0.163793	0.671163	1.721123	-0.304180	0.892646	1.828693	-0.269095	1.631865	1.828693	-0.187199	1.631865	1.505983	-0.152098	1.368635	1.398412	-0.093591	1.039631	1.290842	-1.169955	7.592325	9.572370	0.000000	0.000000	21.954670	-19.374436	-1.275773	10.762796	-17.676881	34.801816	27.608530	72.945508	-9.092038	-1.748939	17.288436	-9.229750	95.048122	14.024534	58.182782	-13.016620	-3.446922
1.533333	0.263227	-6.154862	80.903565	0.219689	0.666016	0.636906	7.886848	3.467837	1.634666	2.710235	0.047303	16.246562	-3.134063	0.000000	5.599151	-4.001467	-1.390856	0.951465	0.016606	20.898186	-1.451522	0.000000	-0.168834	0.680331	1.709576	-0.313541	0.904841	1.816425	-0.277377	1.654158	1.816425	-0.192960	1.654158	1.495879	-0.156779	1.387332	1.389031	-0.096472	1.053833	1.282182	-1.205962	7.696046	9.508151	0.000000	0.000000	21.992053	-19.250911	-1.436917	10.976959	-17.657121	36.519814	27.406326	71.328834	-8.558296	-1.837337	17.997352	-8.517597	107.525239	12.127193	52.531675	-14.389716	-4.111080
1.550000	0.347007	-6.027841	81.049669	0.219531	0.666138	0.636561	7.692186	3.507800	1.120630	2.638483	0.046050	16.316405	-2.513422	0.000000	5.455317	-4.052466	-0.981947	0.923697	0.016122	21.014404	-1.656496	0.000000	-0.175249	0.691168	1.694495	-0.325454	0.919254	1.800401	-0.287916	1.680506	1.800401	-0.200292	1.680506	1.482683	-0.162736	1.409430	1.376777	-0.100137	1.070620	1.270871	-1.251784	7.818633	9.424271	0.000000	0.000000	22.018324	-19.127573	-1.578215	11.254024	-17.637600	38.999218	27.009745	68.804559	-7.888391	-1.948051	18.648950	-7.761545	119.785067	10.298819	47.027043	-15.736345	-4.817097
1.566667	0.468951	-5.915039	81.267796	0.219257	0.666169	0.635982	7.473588	3.581109	0.859642	2.511507	0.043834	16.315808	-2.295736	0.000000	5.316923	-4.136622	-0.469770	0.891628	0.015562	21.151522	-1.885871	0.000000	-0.180107	0.707513	1.655784	-0.334477	0.940993	1.759271	-0.295898	1.720248	1.759271	-0.205844	1.720248	1.448811	-0.167247	1.442761	1.345325	-0.102913	1.095938	1.241838	-1.286487	8.003531	9.208974	0.000000	0.000000	22.105190	-18.964627	-1.609711	11.458912	-17.578516	41.378601	26.563873	66.693133	-7.144013	-1.880302	19.101080	-6.999315	130.727200	8.722724	41.913395	-16.610094	-5.337150
1.583333	0.635464	-5.801686	81.537341	0.218920	0.666122	0.635141	7.218194	3.696967	0.771143	2.342133	0.040878	16.309728	-2.341753	0.000000	5.159450	-4.261985	0.038136	0.848840	0.014815	21.325911	-2.077457	0.000000	-0.184767	0.729342	1.601913	-0.343130	0.970025	1.702033	-0.303553	1.773323	1.702033	-0.211170	1.773323	1.401674	-0.171574	1.487275	1.301554	-0.105576	1.129751	1.201435	-1.319770	8.250467	8.909360	0.000000	0.000000	22.210373	-18.780044	-1.574519	11.628311	-17.509161	44.039894	26.021435	64.301385	-6.375243	-1.861188	19.383410	-6.243292	140.350839	7.363911	37.216294	-16.986062	-5.768745
1.600000	0.830779	-5.702641	81.902044	0.218455	0.665975	0.634068	6.945503	3.836284	0.805367	2.132385	0.037217	16.271400	-2.671780	0.000000	5.014457	-4.411264	0.579699	0.803095	0.014017	21.536083	-2.189227	0.000000	-0.186951	0.755191	1.521689	-0.347187	1.004404	1.616795	-0.307142	1.836171	1.616795	-0.213666	1.836171	1.331478	-0.173603	1.539985	1.236373	-0.106824	1.169791	1.141267	-1.335372	8.542869	8.463179	0.000000	0.000000	22.356833	-18.593013	-1.428185	11.774301	-17.425122	46.951075	25.397251	61.660729	-5.598496	-1.895306	19.450434	-5.521851	148.066138	6.275695	32.894331	-16.773374	-6.111464
1.616667	1.052612	-5.615303	82.359985	0.217871	0.665722	0.632811	6.662530	3.999723	0.901609	1.901023	0.033179	16.224056	-3.207853	0.000000	4.883521	-4.582859	1.194897	0.754736	0.013173	21.765395	-2.292349	0.000000	-0.187514	0.784120	1.423912	-0.348232	1.042880	1.512906	-0.308067	1.906509	1.512906	-0.214310	1.906509	1.245923	-0.174126	1.598978	1.156928	-0.107146	1.214602	1.067934	-1.339395	8.870122	7.919370	0.000000	0.000000	22.527041	-18.425253	-1.253466	11.782910	-17.298468	49.544238	24.794197	59.325034	-4.883341	-1.963933	19.341626	-4.878246	153.758810	5.506087	29.087568	-15.973617	-6.202200
1.633333	1.326236	-5.532697	82.906781	0.217065	0.665367	0.631416	6.369226	4.209568	1.044036	1.656993	0.028920	16.143407	-3.958090	0.000000	4.765389	-4.799982	1.717014	0.709021	0.012375	22.076634	-2.150887	0.000000	-0.187106	0.820444	1.313650	-0.347475	1.091191	1.395753	-0.307397	1.994828	1.395753	-0.213844	1.994828	1.149444	-0.173747	1.673050	1.067341	-0.106913	1.270868	0.985238	-1.336482	9.281028	7.306129	0.000000	0.000000	22.710135	-18.315357	-1.075237	11.447446	-17.433557	48.794380	24.760036	59.936303	-4.586094	-1.661872	19.169438	-4.192689	158.896724	4.891357	24.343003	-14.401916	-6.266199
1.650000	1.598232	-5.450312	83.551322	0.216181	0.664952	0.629968	6.079739	4.415785	0.996147	1.432230	0.024997	16.119581	-4.596757	0.000000	4.664237	-5.015943	2.240236	0.669787	0.011690	22.396255	-1.892029	0.000000	-0.186026	0.855257	1.180296	-0.345468	1.137492	1.254065	-0.305622	2.079471	1.254065	-0.212609	2.079471	1.032759	-0.172743	1.744040	0.958991	-0.106295	1.324793	0.885222	-1.328762	9.674836	6.564454	0.000000	0.000000	22.882568	-18.185030	-0.851082	11.207066	-17.424965	49.446505	24.500777	59.282471	-4.319851	-1.732345	18.773916	-3.748758	160.419167	4.831835	21.471932	-12.479640	-6.024603
1.666667	1.863903	-5.360939	84.281275	0.215240	0.664496	0.628506	5.784831	4.618468	0.896216	1.217571	0.021251	16.087602	-5.332135	0.000000	4.571971	-5.223366	2.865760	0.637176	0.011121	22.672661	-1.706363	0.000000	-0.184985	0.887505	1.028919	-0.343535	1.180382	1.093227	-0.303911	2.157880	1.093227	-0.211419	2.157880	0.900304	-0.171777	1.809800	0.835997	-0.105700	1.374745	0.771689	-1.321326	10.039635	5.722540	0.000000	0.000000	23.027390	-18.049588	-0.642442	11.018292	-17.232942	51.424581	24.030442	57.578169	-4.108940	-2.062923	18.175727	-3.571257	158.291111	5.366859	20.685794	-10.327738	-5.485241
1.683333	2.127944	-5.267923	85.089748	0.214240	0.664009	0.627091	5.494717	4.820425	0.730172	1.022221	0.017841	16.050278	-6.119718	0.000000	4.493285	-5.426560	3.620232	0.613226	0.010703	22.881797	-1.652199	0.000000	-0.183686	0.917819	0.862660	-0.341124	1.220699	0.916576	-0.301778	2.231585	0.916576	-0.209935	2.231585	0.754827	-0.170571	1.871616	0.700911	-0.104958	1.421701	0.646995	-1.312052	10.382549	4.797855	0.000000	0.000000	23.146316	-17.906603	-0.455285	10.867368	-16.854207	54.917798	23.317604	54.981779	-4.015109	-2.619016	17.414208	-3.696442	152.427072	6.475913	22.420748	-8.242458	-4.718400
1.700000	2.387050	-5.174672	85.952508	0.213175	0.663521	0.625802	5.222497	5.015484	0.472447	0.853403	0.014895	16.012064	-6.886519	0.000000	4.434623	-5.619621	4.499689	0.603307	0.010530	22.995327	-1.767337	0.000000	-0.181952	0.946036	0.689701	-0.337904	1.258227	0.732807	-0.298930	2.300191	0.732807	-0.207953	2.300191	0.603488	-0.168961	1.929156	0.560382	-0.103968	1.465409	0.517275	-1.299668	10.701745	3.835908	0.000000	0.000000	23.244203	-17.750890	-0.324818	10.756592	-16.311774	60.097256	22.329163	51.631805	-4.048403	-3.343816	16.680652	-4.060246	144.146250	8.016159	25.820457	-6.436625	-3.912965
1.716667	2.662669	-5.080076	86.850135	0.211986	0.663118	0.624613	4.965498	5.221740	0.040602	0.718313	0.012537	15.983434	-7.471566	0.000000	4.383123	-5.823958	5.447245	0.600295	0.010477	23.001867	-2.021306	0.000000	-0.179662	0.977515	0.510281	-0.333651	1.300095	0.542174	-0.295167	2.376729	0.542174	-0.205336	2.376729	0.446496	-0.166834	1.993348	0.414604	-0.102659	1.514170	0.382711	-1.283309	11.057843	2.838031	0.000000	0.000000	23.294504	-17.642410	-0.163691	10.701147	-15.663165	66.800787	21.099609	47.643080	-4.227212	-4.198611	16.111856	-4.132277	139.805406	8.667858	25.482859	-4.383152	-3.814161
1.733333	2.927604	-4.998211	87.743594	0.210804	0.662738	0.623615	4.747048	5.420458	-0.467232	0.613478	0.010707	15.955656	-7.968238	0.000000	4.359100	-6.019353	6.423988	0.607486	0.010603	22.917591	-2.383780	0.000000	-0.176357	1.007486	0.333578	-0.327513	1.339957	0.354427	-0.289737	2.449603	0.354427	-0.201558	2.449603	0.291881	-0.163765	2.054466	0.271032	-0.100770	1.560597	0.250184	-1.259701	11.396889	1.855263	0.000000	0.000000	23.342639	-17.530140	-0.041452	10.691663	-14.901776	74.677501	19.700724	43.334848	-4.551605	-5.129564	15.566696	-4.241184	135.303183	9.338395	25.145966	-2.708622	-3.742064
1.750000	3.161170	-4.950677	88.604157	0.209672	0.662364	0.622860	4.595001	5.590642	-1.058696	0.540141	0.009427	15.921511	-8.312503	0.000000	4.384379	-6.183499	7.517135	0.621873	0.010854	22.736532	-2.995820	0.000000	-0.170008	1.033107	0.158896	-0.315722	1.374032	0.168827	-0.279306	2.511896	0.168827	-0.194302	2.511896	0.139034	-0.157869	2.106711	0.129103	-0.097143	1.600282	0.119172	-1.214349	11.686711	0.883731	0.000000	0.000000	23.425207	-17.366926	0.056323	10.783238	-14.018010	84.533839	17.977126	38.250267	-5.005705	-6.217006	15.057570	-4.397448	130.586747	10.054236	24.878252	-1.560393	-3.640450
1.766667	3.355150	-4.929918	89.419461	0.208640	0.662005	0.622373	4.501547	5.727821	-1.714261	0.493465	0.008613	15.891740	-8.531330	0.000000	4.453922	-6.312022	8.635951	0.640074	0.011171	22.504315	-3.714314	0.000000	-0.161571	1.053113	-0.006175	-0.300054	1.400640	-0.006561	-0.265445	2.560538	-0.006561	-0.184660	2.560538	-0.005404	-0.150035	2.147507	-0.005018	-0.092322	1.631272	-0.004632	-1.154087	11.913021	-0.034346	0.000000	0.000000	23.517001	-17.159697	0.101202	10.965757	-13.050860	95.228825	16.133246	32.793815	-5.431164	-7.416042	14.632668	-4.586062	125.974037	10.820007	24.664258	-0.998820	-3.399456
1.783333	3.507003	-4.926445	90.147902	0.207757	0.661671	0.622170	4.456781	5.832065	-2.393227	0.470762	0.008216	15.871083	-8.599232	0.000000	4.554970	-6.407316	9.632511	0.661237	0.011541	22.300934	-4.332352	0.000000	-0.153007	1.067208	-0.153087	-0.284149	1.419387	-0.162655	-0.251375	2.594810	-0.162655	-0.174872	2.594810	-0.133951	-0.142082	2.176251	-0.124383	-0.087428	1.653106	-0.114815	-1.092913	12.072475	-0.851425	0.000000	0.000000	23.608846	-16.909053	0.072453	11.216437	-12.130479	105.366800	14.447078	27.692214	-5.859024	-8.577366	14.309874	-4.800290	121.530643	11.612663	24.580439	-0.960760	-3.084605
1.800000	3.576974	-4.958053	90.749755	0.207115	0.661385	0.622286	4.493975	5.866955	-3.108334	0.492840	0.008602	15.865956	-8.491185	0.000000	4.707133	-6.428302	10.481103	0.690297	0.012048	22.072914	-4.925462	0.000000	-0.143305	1.070704	-0.277708	-0.266132	1.424037	-0.295065	-0.235436	2.603311	-0.295065	-0.163783	2.603311	-0.242995	-0.133073	2.183381	-0.225638	-0.081884	1.658521	-0.208281	-1.023613	12.112023	-1.544531	0.000000	0.000000	23.733629	-16.623928	0.015455	11.703102	-11.098313	116.595069	12.639408	21.283360	-5.985560	-10.009329	14.124043	-5.004564	118.047433	12.295507	24.077303	-1.432158	-2.833149
1.816667	3.624600	-5.016387	91.254370	0.206608	0.661134	0.622710	4.580940	5.885325	-3.836127	0.514463	0.008979	15.864279	-8.245094	0.000000	4.900605	-6.433284	11.177220	0.720361	0.012573	21.907601	-5.361401	0.000000	-0.134101	1.070846	-0.377789	-0.249039	1.424225	-0.401401	-0.220314	2.603654	-0.401401	-0.153264	2.603654	-0.330565	-0.124526	2.183668	-0.306953	-0.076625	1.658740	-0.283342	-0.957870	12.113620	-2.101148	0.000000	0.000000	23.882959	-16.299464	-0.088532	12.126138	-10.280021	125.472162	11.239796	16.253104	-5.974350	-11.024912	14.097111	-5.200719	114.818010	13.053062	24.189233	-2.420274	-2.356199
1.833333	3.645721	-5.114851	91.647429	0.206224	0.660925	0.623423	4.736475	5.882308	-4.459333	0.542047	0.009461	15.846370	-7.991196	0.000000	5.146776	-6.417025	11.727064	0.755251	0.013182	21.784335	-5.681373	0.000000	-0.124223	1.067868	-0.451987	-0.230695	1.420265	-0.480236	-0.204086	2.596415	-0.480236	-0.141975	2.596415	-0.395489	-0.115354	2.177597	-0.367239	-0.070981	1.654128	-0.338990	-0.887313	12.079940	-2.513816	0.000000	0.000000	24.073375	-15.983320	-0.215553	12.493804	-9.694251	132.065163	10.242708	12.334635	-5.863732	-11.675715	14.157655	-5.345456	111.940845	13.630882	24.938275	-3.505158	-1.744151
1.850000	3.654082	-5.232692	91.914221	0.205970	0.660818	0.624439	4.936827	5.873266	-4.877850	0.569521	0.009940	15.769828	-7.867675	0.000000	5.419515	-6.392217	12.201838	0.796273	0.013898	21.671009	-6.029936	0.000000	-0.116973	1.063478	-0.495255	-0.217230	1.414426	-0.526209	-0.192175	2.585741	-0.526209	-0.133688	2.585741	-0.433348	-0.108621	2.168645	-0.402395	-0.066838	1.647328	-0.371441	-0.835526	12.030280	-2.754460	0.000000	0.000000	24.276122	-15.712061	-0.357650	12.935943	-9.364633	137.164796	9.556208	8.608646	-5.640430	-12.150944	14.573301	-5.425345	111.118180	13.946483	24.493951	-4.751895	-1.484355
1.866667	3.650624	-5.390046	92.080436	0.205811	0.660751	0.625689	5.200078	5.854199	-5.150140	0.599121	0.010457	15.672845	-7.808018	0.000000	5.740898	-6.360672	12.453589	0.851314	0.014858	21.606623	-6.160538	0.000000	-0.109811	1.058316	-0.521122	-0.203930	1.407560	-0.553692	-0.180408	2.573190	-0.553692	-0.125503	2.573190	-0.455982	-0.101970	2.158118	-0.423412	-0.062746	1.639332	-0.390841	-0.784368	11.971884	-2.898324	0.000000	0.000000	24.513134	-15.467083	-0.415838	13.307061	-9.260045	139.767228	9.251855	6.217799	-5.346966	-12.234915	14.951471	-5.501030	109.604719	14.261687	25.187956	-5.936940	-1.160003
1.883333	3.622844	-5.560775	92.087901	0.205787	0.660743	0.627108	5.500185	5.814561	-5.256823	0.641884	0.011203	15.571847	-7.747736	0.000000	6.066089	-6.310427	12.503198	0.917262	0.016009	21.576663	-6.206024	0.000000	-0.105864	1.050818	-0.512112	-0.196600	1.397588	-0.544119	-0.173924	2.554960	-0.544119	-0.120992	2.554960	-0.448098	-0.098305	2.142829	-0.416091	-0.060491	1.627718	-0.384084	-0.756175	11.887068	-2.848212	0.000000	0.000000	24.773526	-15.270594	-0.476083	13.577174	-9.412660	139.872331	9.384886	4.910459	-4.993139	-11.956476	15.340456	-5.586551	108.032804	14.612598	26.754935	-7.279089	-0.817166
1.900000	3.615393	-5.744198	92.044099	0.205770	0.660769	0.628581	5.816829	5.794216	-5.236877	0.679208	0.011854	15.449835	-7.780729	0.000000	6.402984	-6.285671	12.323835	0.992581	0.017324	21.636453	-5.962378	0.000000	-0.102514	1.046909	-0.503020	-0.190379	1.392389	-0.534459	-0.168420	2.545454	-0.534459	-0.117163	2.545454	-0.440143	-0.095194	2.134857	-0.408704	-0.058576	1.621662	-0.377265	-0.732247	11.842844	-2.797649	0.000000	0.000000	25.053786	-15.080963	-0.367959	13.747091	-9.796363	137.408031	9.918524	5.044418	-4.657390	-11.371624	15.591759	-5.671901	105.700353	14.942474	28.807631	-8.067715	-0.521424
1.916667	3.606495	-5.906456	91.924581	0.205790	0.660861	0.630040	6.110471	5.773218	-5.076767	0.713226	0.012448	15.327673	-7.896719	0.000000	6.703026	-6.262040	11.910747	1.068338	0.018646	21.760005	-5.497822	0.000000	-0.102293	1.043522	-0.485729	-0.189968	1.387885	-0.516087	-0.168057	2.537220	-0.516087	-0.116910	2.537220	-0.425013	-0.094989	2.127951	-0.394655	-0.058450	1.616416	-0.364297	-0.730667	11.804532	-2.701478	0.000000	0.000000	25.319126	-14.900849	-0.160986	13.863959	-10.390851	132.737247	10.799991	6.386980	-4.408231	-10.611672	15.759792	-5.776866	103.322745	15.254728	30.897039	-8.631374	-0.486591
1.933333	3.596068	-6.060000	91.797193	0.205726	0.660968	0.631443	6.392736	5.744110	-4.854093	0.746583	0.013030	15.195736	-8.069339	0.000000	6.992027	-6.237005	11.352727	1.147650	0.020030	21.970819	-4.755980	0.000000	-0.101885	1.041080	-0.476811	-0.189211	1.384636	-0.506612	-0.167387	2.531281	-0.506612	-0.116445	2.531281	-0.417210	-0.094611	2.122970	-0.387409	-0.058217	1.612632	-0.357608	-0.727756	11.776902	-2.651881	0.000000	0.000000	25.605968	-14.725417	0.176028	13.919424	-11.204053	125.702737	12.058510	9.649169	-4.319096	-9.619931	15.730138	-5.886431	100.415140	15.635862	33.112502	-8.879563	-0.606490
1.950000	3.592455	-6.189306	91.669703	0.205572	0.661079	0.632706	6.639408	5.717028	-4.565865	0.774496	0.013518	15.070665	-8.315741	0.000000	7.245857	-6.217338	10.634332	1.225234	0.021384	22.256176	-3.750236	0.000000	-0.102036	1.039499	-0.474321	-0.189491	1.382534	-0.503966	-0.167635	2.527438	-0.503966	-0.116617	2.527438	-0.415031	-0.094751	2.119746	-0.385386	-0.058303	1.610184	-0.355741	-0.728833	11.759020	-2.638033	0.000000	0.000000	25.892434	-14.528802	0.546401	13.883160	-12.228394	116.269080	13.708638	15.132782	-4.445911	-8.450768	15.482897	-5.979322	97.159714	16.111009	35.533688	-8.953717	-0.905400
1.966667	3.586430	-6.295063	91.563691	0.205316	0.661180	0.633791	6.848682	5.681386	-4.253795	0.795432	0.013883	14.970049	-8.598809	0.000000	7.463409	-6.192084	9.839167	1.300402	0.022696	22.590735	-2.573943	0.000000	-0.101622	1.037231	-0.479252	-0.188722	1.379517	-0.509206	-0.166955	2.521923	-0.509206	-0.116144	2.521923	-0.419346	-0.094366	2.115121	-0.389393	-0.058067	1.606671	-0.359439	-0.725875	11.733365	-2.665458	0.000000	0.000000	26.168709	-14.276810	0.933507	13.746372	-13.440942	104.537777	15.747395	23.047786	-4.794898	-7.141969	15.070232	-6.083913	93.913571	16.717300	37.917047	-9.023236	-1.425531
1.983333	3.525956	-6.379513	91.487532	0.205132	0.661282	0.634662	7.019537	5.594161	-3.946638	0.807771	0.014098	14.926215	-8.892091	0.000000	7.642005	-6.116024	9.151921	1.373250	0.023968	22.870222	-1.510549	0.000000	-0.100337	1.025148	-0.501073	-0.186337	1.363447	-0.532390	-0.164844	2.492545	-0.532390	-0.114676	2.492545	-0.438439	-0.093173	2.090482	-0.407122	-0.057333	1.587954	-0.375805	-0.716700	11.596679	-2.786817	0.000000	0.000000	26.421173	-13.892141	1.338012	13.895622	-14.343531	95.790828	17.317616	28.781289	-4.844047	-6.436516	14.322692	-6.439571	88.004042	17.820013	42.811207	-9.433350	-1.864491
2.000000	3.434999	-6.454429	91.423979	0.204968	0.661353	0.635293	7.162240	5.478354	-3.622390	0.810359	0.014143	14.918637	-9.217612	0.000000	7.786090	-6.012603	8.504630	1.445570	0.025230	23.109005	-0.509156	0.000000	-0.097297	1.006954	-0.526510	-0.180689	1.339249	-0.559417	-0.159849	2.448308	-0.559417	-0.111200	2.448308	-0.460696	-0.090350	2.053381	-0.427789	-0.055595	1.559772	-0.394882	-0.694980	11.390868	-2.928289	0.000000	0.000000	26.655685	-13.415472	1.679089	13.996092	-15.123172	87.559773	18.874982	34.802408	-4.774958	-5.873751	13.395444	-6.886993	81.498226	19.212984	48.349642	-9.902693	-2.392598
2.016667	3.312787	-6.525321	91.371983	0.204834	0.661384	0.635673	7.279660	5.334070	-3.266516	0.802548	0.014007	14.941205	-9.594399	0.000000	7.899943	-5.883712	7.878875	1.523581	0.026592	23.302547	0.443809	0.000000	-0.092107	0.982623	-0.557560	-0.171052	1.306889	-0.592408	-0.151323	2.389150	-0.592408	-0.105269	2.389150	-0.487865	-0.085531	2.003765	-0.453018	-0.052630	1.522083	-0.418170	-0.657912	11.115631	-3.100983	0.000000	0.000000	26.872555	-12.815482	1.984915	14.049097	-15.749770	80.404798	20.425461	40.526837	-4.511709	-5.455616	12.336112	-7.404775	74.561549	20.880851	54.354941	-10.265192	-2.982240
2.033333	3.159072	-6.593898	91.323283	0.204746	0.661375	0.635811	7.370953	5.163256	-2.899506	0.786245	0.013723	14.986474	-10.002054	0.000000	7.983611	-5.729729	7.266529	1.610003	0.028100	23.451323	1.317069	0.000000	-0.084335	0.952056	-0.589741	-0.156618	1.266234	-0.626600	-0.138554	2.314828	-0.626600	-0.096386	2.314828	-0.516023	-0.078313	1.941432	-0.479164	-0.048189	1.474734	-0.442306	-0.602396	10.769845	-3.279961	0.000000	0.000000	27.050826	-12.100877	2.199133	14.013088	-16.206032	74.508815	22.021433	45.509998	-3.999209	-5.136996	11.297212	-7.927755	68.184434	22.746182	59.828049	-10.270233	-3.653824
2.050000	2.973469	-6.648494	91.267144	0.204743	0.661333	0.635700	7.420392	4.969764	-2.540246	0.761130	0.013284	15.047354	-10.419355	0.000000	8.021261	-5.553686	6.667800	1.702801	0.029719	23.558964	2.086217	0.000000	-0.075296	0.915923	-0.621249	-0.139831	1.218177	-0.660077	-0.123703	2.226974	-0.660077	-0.086055	2.226974	-0.543593	-0.069919	1.867749	-0.504765	-0.043024	1.418764	-0.465937	-0.537829	10.361099	-3.455199	0.000000	0.000000	27.163528	-11.298505	2.358651	13.876260	-16.478021	69.873095	23.722848	49.492116	-3.206083	-4.929439	10.304836	-8.435947	62.134744	24.741307	65.051740	-9.731020	-4.367715
2.066667	2.760201	-6.707417	91.188955	0.204845	0.661229	0.635395	7.450535	4.759276	-2.193882	0.732977	0.012793	15.098508	-10.844299	0.000000	8.035317	-5.358658	6.149692	1.803072	0.031470	23.631818	2.663070	0.000000	-0.063388	0.874813	-0.650707	-0.117718	1.163502	-0.691376	-0.104140	2.127021	-0.691376	-0.072446	2.127021	-0.569369	-0.058862	1.783920	-0.528700	-0.036220	1.355086	-0.488030	-0.452773	9.896065	-3.619038	0.000000	0.000000	27.259306	-10.375803	2.463785	13.665447	-16.557990	66.793485	25.561495	51.908000	-2.180329	-4.794515	9.415196	-8.908514	56.627090	26.823929	69.754473	-8.551838	-5.029190
2.083333	2.520003	-6.770314	91.089652	0.205049	0.661075	0.634932	7.463499	4.532049	-1.922679	0.705068	0.012306	15.141563	-11.187521	0.000000	8.030698	-5.145643	5.673211	1.911236	0.033357	23.688578	3.101772	0.000000	-0.048653	0.829492	-0.679617	-0.090353	1.103225	-0.722093	-0.079932	2.016828	-0.722093	-0.055605	2.016828	-0.594665	-0.045179	1.691501	-0.552189	-0.027800	1.284884	-0.509713	-0.347522	9.383384	-3.779824	0.000000	0.000000	27.326899	-9.366054	2.537971	13.431070	-16.447749	65.493681	27.506393	52.207163	-0.924420	-4.650350	8.661384	-9.333718	51.893723	28.964686	73.703943	-6.779533	-5.522807
2.100000	2.269969	-6.821210	90.952211	0.205382	0.660902	0.634354	7.448015	4.309699	-1.737130	0.682729	0.011916	15.197613	-11.424856	0.000000	7.992691	-4.937256	5.082845	2.022096	0.035292	23.768470	3.612346	0.000000	-0.033752	0.782848	-0.698303	-0.062681	1.041187	-0.741946	-0.055451	1.903416	-0.741946	-0.038575	1.903416	-0.611015	-0.031342	1.596383	-0.567371	-0.019286	1.212631	-0.523727	-0.241088	8.855730	-3.883749	0.000000	0.000000	27.331231	-8.337961	2.568027	13.252713	-16.247135	64.864149	29.730080	51.254291	0.637529	-4.534057	8.071980	-9.685354	48.133864	31.127911	76.846890	-4.500694	-5.811519
2.116667	2.021463	-6.866764	90.758570	0.205845	0.660723	0.633729	7.417863	4.103900	-1.608297	0.666702	0.011636	15.245784	-11.563618	0.000000	7.932057	-4.745321	4.352679	2.134366	0.037252	23.879658	4.229229	0.000000	-0.019416	0.737130	-0.703559	-0.036058	0.980382	-0.747531	-0.031899	1.792257	-0.747531	-0.022191	1.792257	-0.615614	-0.018030	1.503155	-0.571642	-0.011094	1.141814	-0.527669	-0.138688	8.338558	-3.912984	0.000000	0.000000	27.291627	-7.330870	2.573362	13.172494	-15.996458	64.714066	32.161130	50.243025	2.448007	-4.605074	7.633078	-9.948028	45.429585	33.267530	79.057416	-1.878470	-5.815276
2.133333	1.776284	-6.929909	90.482158	0.206456	0.660539	0.633145	7.407485	3.918607	-1.526377	0.658217	0.011488	15.293810	-11.591905	0.000000	7.874526	-4.570125	3.565105	2.243510	0.039157	23.979950	4.775473	0.000000	-0.003961	0.693686	-0.688929	-0.007356	0.922603	-0.731988	-0.006508	1.686629	-0.731988	-0.004527	1.686629	-0.602813	-0.003678	1.414565	-0.559755	-0.002263	1.074520	-0.516697	-0.028293	7.847118	-3.831619	0.000000	0.000000	27.226469	-6.424815	2.563905	13.262207	-15.643909	65.879188	34.564861	48.622215	4.556712	-4.843993	7.357612	-10.094770	43.985300	35.290836	80.089726	0.982871	-5.604581
2.150000	1.580082	-6.998653	90.162285	0.207080	0.660359	0.632640	7.410241	3.788274	-1.495797	0.656190	0.011453	15.333232	-11.507631	0.000000	7.822248	-4.452146	2.724047	2.351840	0.041047	24.106447	5.357496	0.000000	0.010474	0.658571	-0.650410	0.019452	0.875899	-0.691060	0.017208	1.601249	-0.691060	0.011971	1.601249	-0.569108	0.009727	1.342957	-0.528458	0.005985	1.020126	-0.487807	0.074818	7.449883	-3.617383	0.000000	0.000000	27.135926	-5.672668	2.485313	13.197790	-15.465596	65.166857	37.321202	49.056522	6.549697	-4.699454	7.227366	-10.141579	42.998077	37.191437	80.917291	3.880018	-5.194690
2.166667	1.427286	-7.077853	89.768302	0.207778	0.660217	0.632259	7.437795	3.712533	-1.454932	0.661607	0.011547	15.361491	-11.339197	0.000000	7.775806	-4.388139	1.848173	2.454158	0.042833	24.227010	5.887352	0.000000	0.024224	0.631968	-0.587015	0.044986	0.840517	-0.623703	0.039798	1.536567	-0.623703	0.027686	1.536567	-0.513638	0.022494	1.288709	-0.476950	0.013842	0.978918	-0.440261	0.173029	7.148947	-3.264801	0.000000	0.000000	27.021883	-5.101155	2.421167	13.200759	-15.272569	64.677632	39.960942	50.226439	8.471331	-4.639894	7.273561	-10.050309	42.970357	38.867539	80.624349	6.800526	-4.573725
2.183333	1.328194	-7.153074	89.315532	0.208505	0.660142	0.632032	7.478494	3.697756	-1.409106	0.672562	0.011738	15.381131	-11.078681	0.000000	7.726426	-4.383596	0.986681	2.550242	0.044510	24.336829	6.314353	0.000000	0.035602	0.615686	-0.500063	0.066117	0.818862	-0.531317	0.058491	1.496979	-0.531317	0.040690	1.496979	-0.437556	0.033060	1.255507	-0.406302	0.020343	0.953698	-0.375048	0.254305	6.964763	-2.781203	0.000000	0.000000	26.897262	-4.749287	2.381449	13.280812	-15.075496	64.534606	42.372980	51.444021	10.190122	-4.580851	7.554296	-9.862986	44.066095	40.269215	78.773909	9.564928	-3.932923
2.200000	1.282640	-7.240663	88.823125	0.209236	0.660082	0.631926	7.543812	3.743251	-1.177983	0.677903	0.011832	15.337229	-10.996029	0.000000	7.694942	-4.436251	0.110877	2.639982	0.046076	24.460756	6.725725	0.000000	0.047767	0.609826	-0.402465	0.088708	0.811069	-0.427619	0.078477	1.482732	-0.427619	0.054593	1.482732	-0.352157	0.044357	1.243558	-0.327003	0.027294	0.944621	-0.301849	0.341196	6.898478	-2.238391	0.000000	0.000000	26.794878	-4.583406	2.429730	13.380339	-14.870435	64.349054	44.521138	52.672101	11.580334	-4.297528	7.696056	-9.631534	43.570946	41.553995	77.902777	12.282828	-2.847779
2.216667	1.301893	-7.314160	88.304409	0.209919	0.660079	0.631958	7.615807	3.852867	-1.001237	0.698592	0.012193	15.318101	-10.736126	0.000000	7.653663	-4.552644	-0.683323	2.711853	0.047331	24.593288	6.993798	0.000000	0.058170	0.615936	-0.288680	0.108028	0.819195	-0.306722	0.095568	1.497587	-0.306722	0.066483	1.497587	-0.252595	0.054017	1.256017	-0.234552	0.033239	0.954085	-0.216510	0.415505	6.967593	-1.605550	0.000000	0.000000	26.714481	-4.627539	2.508920	13.524704	-14.688282	64.435992	46.333240	53.399289	12.562850	-3.898668	7.950835	-9.346338	43.380533	42.570496	76.238997	14.715319	-1.666505
2.233333	1.372458	-7.381948	87.759822	0.210534	0.660113	0.632083	7.692960	4.011603	-0.817470	0.719845	0.012564	15.306238	-10.380244	0.000000	7.614977	-4.719187	-1.472206	2.773956	0.048415	24.745698	7.261743	0.000000	0.068534	0.633031	-0.176025	0.127275	0.841931	-0.187026	0.112595	1.539150	-0.187026	0.078328	1.539150	-0.154022	0.063641	1.290876	-0.143020	0.039161	0.980564	-0.132019	0.489534	7.160968	-0.978998	0.000000	0.000000	26.675537	-4.805094	2.748052	13.752995	-14.487330	64.756183	47.706162	54.141627	13.096220	-3.313196	8.136513	-8.985905	42.911812	43.336849	74.018755	16.803645	-0.414561
2.250000	1.484306	-7.440521	87.233914	0.211041	0.660174	0.632319	7.779567	4.203151	-0.676038	0.758587	0.013240	15.316996	-9.920350	0.000000	7.578817	-4.918522	-2.134591	2.811936	0.049078	24.904250	7.429524	0.000000	0.079181	0.658586	-0.064124	0.147048	0.875919	-0.068132	0.130087	1.601285	-0.068132	0.090496	1.601285	-0.056109	0.073528	1.342988	-0.052101	0.045244	1.020149	-0.048093	0.565585	7.450054	-0.356640	0.000000	0.000000	26.682870	-5.123387	3.027716	14.090410	-14.282161	65.489513	48.591376	54.777720	13.173743	-2.745828	8.362980	-8.607732	42.670668	43.802050	71.270684	18.434642	0.725856
2.266667	1.631859	-7.494977	86.745282	0.211408	0.660218	0.632584	7.876020	4.417425	-0.567250	0.815208	0.014228	15.353972	-9.398773	0.000000	7.548726	-5.139910	-2.690592	2.820995	0.049236	25.080373	7.535072	0.000000	0.091340	0.690930	0.043157	0.169628	0.918937	0.045854	0.150063	1.679928	0.045854	0.104393	1.679928	0.037762	0.084818	1.408945	0.035065	0.052192	1.070251	0.032368	0.652433	7.815941	0.240026	0.000000	0.000000	26.737815	-5.540868	3.311734	14.443330	-14.110752	66.101288	49.082975	55.952748	12.870808	-2.173858	8.506353	-8.199000	42.193939	44.055661	68.768269	19.571039	1.844332
2.283333	1.808678	-7.548701	86.313872	0.211656	0.660247	0.632815	7.966664	4.651162	-0.393799	0.859191	0.014996	15.382222	-8.982473	0.000000	7.532191	-5.377168	-3.109731	2.818503	0.049192	25.258505	7.561023	0.000000	0.105637	0.728392	0.134663	0.196179	0.968762	0.143079	0.173551	1.771013	0.143079	0.120733	1.771013	0.117830	0.098095	1.485337	0.109413	0.060361	1.128279	0.100997	0.754555	8.239717	0.748952	0.000000	0.000000	26.843232	-5.990829	3.631667	14.782135	-13.952935	66.598968	49.220173	57.459612	12.242284	-1.556616	8.526100	-7.784429	41.573519	44.138411	66.438888	20.116831	3.003607
2.300000	1.975698	-7.598097	85.928455	0.211843	0.660265	0.633019	8.059103	4.865129	-0.212855	0.914761	0.015966	15.433933	-8.600803	0.000000	7.518036	-5.591357	-3.388115	2.793204	0.048751	25.407601	7.480856	0.000000	0.121412	0.764067	0.218958	0.225474	1.016209	0.232643	0.199467	1.857752	0.232643	0.138762	1.857752	0.191588	0.112743	1.558085	0.177903	0.069375	1.183539	0.164218	0.867232	8.643274	1.217777	0.000000	0.000000	26.981481	-6.463233	3.844331	15.093420	-13.809206	67.044849	49.029506	59.005299	11.458208	-1.171290	8.522511	-7.431424	41.175672	44.042838	64.401004	20.102406	3.946332
2.316667	2.126435	-7.637707	85.590788	0.211967	0.660287	0.633220	8.159959	5.045601	-0.195507	1.010982	0.017645	15.554260	-8.042400	0.000000	7.502692	-5.776266	-3.576171	2.752288	0.048036	25.524149	7.343410	0.000000	0.136795	0.796635	0.293711	0.254042	1.059525	0.312068	0.224740	1.936938	0.312068	0.156343	1.936938	0.256998	0.127028	1.624498	0.238641	0.078165	1.233988	0.220284	0.977112	9.011694	1.633535	0.000000	0.000000	27.141346	-6.951175	3.939113	15.367772	-13.696586	67.481276	48.621289	60.113776	10.652597	-0.990629	8.522435	-7.144567	41.016892	43.808242	62.737653	19.677228	4.641244
2.333333	2.247074	-7.674655	85.294883	0.212053	0.660309	0.633431	8.267810	5.187785	-0.189142	1.127897	0.019686	15.670821	-7.538589	0.000000	7.492537	-5.920562	-3.679947	2.699876	0.047122	25.589450	7.140744	0.000000	0.152759	0.823844	0.359963	0.283690	1.095713	0.382461	0.250969	2.003095	0.382461	0.174589	2.003095	0.314968	0.141852	1.679983	0.292470	0.087287	1.276135	0.269973	1.091146	9.319489	2.002008	0.000000	0.000000	27.304754	-7.416956	3.919684	15.566944	-13.613272	67.829460	48.091739	60.779595	9.904959	-1.019508	8.567668	-6.918751	41.166004	43.425082	61.426228	19.054440	5.020344
2.350000	2.331062	-7.693537	85.066847	0.212096	0.660345	0.633646	8.368062	5.278103	-0.360211	1.277188	0.022291	15.827505	-6.906563	0.000000	7.480384	-6.017775	-3.784370	2.653903	0.046319	25.629477	7.002666	0.000000	0.166881	0.844094	0.409698	0.309915	1.122645	0.435304	0.274169	2.052330	0.435304	0.190729	2.052330	0.358486	0.154966	1.721276	0.332880	0.095356	1.307502	0.307274	1.192017	9.548560	2.278618	0.000000	0.000000	27.457431	-7.839011	3.801360	15.694484	-13.569797	68.217406	47.582120	60.128207	9.257966	-1.066836	8.687346	-6.770438	41.673562	42.961300	60.290953	18.343553	5.163571
2.366667	2.366920	-7.702057	84.877862	0.212131	0.660384	0.633887	8.464935	5.314478	-0.608765	1.448790	0.025286	15.968602	-6.275643	0.000000	7.467367	-6.058590	-3.855472	2.609917	0.045552	25.625902	6.834616	0.000000	0.180142	0.856277	0.448270	0.334541	1.138849	0.476287	0.295955	2.081953	0.476287	0.205884	2.081953	0.392236	0.167280	1.746121	0.364219	0.102933	1.326374	0.336203	1.286734	9.686380	2.493144	0.000000	0.000000	27.583044	-8.201421	3.600880	15.736144	-13.557192	68.587472	47.150896	58.407402	8.704838	-1.163834	8.898264	-6.670483	42.497062	42.400878	59.358318	17.748864	5.050132
2.383333	2.357573	-7.699957	84.703533	0.212187	0.660429	0.634157	8.549250	5.310499	-0.778670	1.622971	0.028326	16.021195	-5.857641	0.000000	7.451358	-6.050541	-3.896404	2.574510	0.044934	25.583969	6.615166	0.000000	0.191784	0.861572	0.479133	0.356163	1.145890	0.509079	0.315083	2.094825	0.509079	0.219190	2.094825	0.419242	0.178091	1.756917	0.389296	0.109586	1.334575	0.359350	1.369897	9.746272	2.664795	0.000000	0.000000	27.679109	-8.485297	3.401254	15.701940	-13.567080	68.885680	46.813163	56.281905	8.204924	-1.429526	9.184919	-6.588269	43.507413	41.743409	58.753391	17.433930	4.662672
2.400000	2.301289	-7.679790	84.551246	0.212269	0.660484	0.634429	8.620402	5.253180	-1.109430	1.821969	0.031799	16.082208	-5.291641	0.000000	7.417081	-5.991833	-3.925572	2.533192	0.044213	25.508518	6.400056	0.000000	0.201014	0.859406	0.501067	0.373303	1.143010	0.532384	0.330246	2.089560	0.532384	0.229739	2.089560	0.438434	0.186662	1.752501	0.407117	0.114859	1.331220	0.375801	1.435824	9.721773	2.786786	0.000000	0.000000	27.728719	-8.709445	3.170396	15.632003	-13.609994	69.279624	46.651984	52.866558	7.726576	-1.529692	9.528660	-6.578091	44.759791	41.148003	58.166817	17.200571	4.196568
2.416667	2.215460	-7.652776	84.410098	0.212374	0.660541	0.634699	8.681560	5.168154	-1.488911	2.025082	0.035344	16.116236	-4.734479	0.000000	7.377244	-5.903971	-3.972006	2.496215	0.043567	25.420352	6.224622	0.000000	0.208334	0.852721	0.515997	0.386897	1.134118	0.548246	0.342272	2.073305	0.548246	0.238105	2.073305	0.451497	0.193459	1.738868	0.419247	0.119042	1.320864	0.386998	1.488108	9.646146	2.869819	0.000000	0.000000	27.742427	-8.878245	2.952298	15.562902	-13.674837	69.677048	46.590470	49.582135	7.307969	-1.672193	9.858793	-6.611948	46.015168	40.652337	57.796324	17.075855	3.697034
2.433333	2.108514	-7.621265	84.271132	0.212519	0.660593	0.634963	8.735260	5.064969	-1.887703	2.230101	0.038923	16.147072	-4.195961	0.000000	7.328109	-5.796533	-4.001191	2.455484	0.042856	25.315555	6.038330	0.000000	0.213275	0.842814	0.526995	0.396073	1.120942	0.559932	0.350389	2.049217	0.559932	0.243752	2.049217	0.461120	0.198047	1.718666	0.428183	0.121865	1.305518	0.395246	1.523400	9.534076	2.930987	0.000000	0.000000	27.724189	-8.996638	2.771427	15.533187	-13.740630	70.039750	46.554050	47.559590	7.019695	-2.025926	10.149701	-6.682281	47.188690	40.264579	57.677579	17.076079	3.138755
2.450000	1.993325	-7.586371	84.123212	0.212699	0.660633	0.635228	8.784157	4.956573	-2.304310	2.437202	0.042537	16.195694	-3.659605	0.000000	7.267731	-5.682982	-3.990942	2.410118	0.042064	25.197230	5.800328	0.000000	0.215499	0.831652	0.538629	0.400202	1.106098	0.572293	0.354043	2.022079	0.572293	0.246293	2.022079	0.471300	0.200112	1.695905	0.437636	0.123136	1.288229	0.403971	1.539284	9.407817	2.995691	0.000000	0.000000	27.679995	-9.091332	2.625792	15.540744	-13.793043	70.277051	46.521320	47.394785	6.922924	-2.653096	10.372072	-6.780134	48.202413	40.029418	57.675469	17.095712	2.657736
2.466667	1.880982	-7.551326	83.971949	0.212892	0.660656	0.635503	8.832562	4.851858	-2.757054	2.645481	0.046172	16.285987	-3.099488	0.000000	7.201946	-5.574313	-3.934334	2.363244	0.041246	25.074502	5.510949	0.000000	0.215463	0.821080	0.551092	0.400137	1.092037	0.585535	0.353985	1.996375	0.585535	0.246253	1.996375	0.482205	0.200079	1.674347	0.447762	0.123116	1.271854	0.413319	1.539032	9.288227	3.065007	0.000000	0.000000	27.616333	-9.187426	2.532090	15.619260	-13.832685	70.560359	46.476027	48.396335	6.985163	-3.364427	10.542912	-6.874824	49.031673	39.862439	57.841010	17.218654	2.128872
2.483333	1.775430	-7.512405	83.835966	0.213094	0.660662	0.635787	8.873400	4.754480	-3.197172	2.844752	0.049650	16.407847	-2.586821	0.000000	7.131819	-5.473947	-3.843529	2.318482	0.040465	24.956859	5.223239	0.000000	0.212932	0.811000	0.566133	0.395436	1.078630	0.601516	0.349826	1.971866	0.601516	0.243360	1.971866	0.495366	0.197729	1.653792	0.459983	0.121669	1.256239	0.424600	1.520953	9.174197	3.148661	0.000000	0.000000	27.549173	-9.269915	2.479846	15.701034	-13.828838	70.691749	46.378250	50.787733	7.210469	-4.149561	10.685076	-6.962851	49.676785	39.756136	58.189885	17.379301	1.633971
2.500000	1.693335	-7.479451	83.683257	0.213315	0.660636	0.636098	8.928167	4.678134	-3.736390	3.059641	0.053401	16.606005	-1.923821	0.000000	7.063867	-5.404470	-3.840605	2.280397	0.039800	24.885910	5.050188	0.000000	0.209186	0.804446	0.591181	0.388479	1.069913	0.628129	0.343671	1.955930	0.628129	0.239078	1.955930	0.517283	0.194250	1.640426	0.480334	0.119529	1.246087	0.443386	1.494193	9.100052	3.287970	0.000000	0.000000	27.490362	-9.373581	2.494662	15.817628	-13.817837	70.800142	46.241015	54.177170	7.479531	-5.007115	10.813130	-7.012252	50.160534	39.667883	58.465987	17.590360	1.268818
2.516667	1.628246	-7.444840	83.542855	0.213567	0.660593	0.636424	8.973242	4.622897	-4.204894	3.250965	0.056740	16.810983	-1.371498	0.000000	6.992141	-5.352578	-3.691112	2.238909	0.039076	24.807100	4.706938	0.000000	0.204055	0.799676	0.625944	0.378950	1.063569	0.665065	0.335241	1.944332	0.665065	0.233214	1.944332	0.547701	0.189485	1.630699	0.508579	0.116597	1.238698	0.469458	1.457541	9.046095	3.481312	0.000000	0.000000	27.444350	-9.506466	2.518424	15.917187	-13.788785	70.818337	46.075388	57.655535	7.795056	-5.704443	10.992229	-7.051032	50.700293	39.551424	58.569742	17.755758	0.874837
2.533333	1.578880	-7.416962	83.432568	0.213821	0.660520	0.636754	9.017225	4.584723	-4.639628	3.418024	0.059656	17.018304	-0.903008	0.000000	6.931734	-5.316553	-3.434596	2.200538	0.038407	24.742672	4.280333	0.000000	0.199393	0.796276	0.669860	0.370293	1.059047	0.711726	0.327583	1.936066	0.711726	0.227887	1.936066	0.586127	0.185157	1.623766	0.544261	0.113933	1.233432	0.502395	1.424247	9.007635	3.725559	0.000000	0.000000	27.416313	-9.672507	2.516433	15.961861	-13.750061	70.640526	45.912152	61.102810	8.129167	-6.206548	11.212187	-7.050476	51.220834	39.390089	58.625880	17.930739	0.520978
2.550000	1.539741	-7.393433	83.354963	0.214101	0.660421	0.637072	9.050597	4.561588	-5.038217	3.544667	0.061866	17.217695	-0.505721	0.000000	6.880600	-5.292328	-3.104074	2.164243	0.037773	24.704644	3.817553	0.000000	0.195041	0.793171	0.721865	0.362212	1.054917	0.766981	0.320434	1.928515	0.766981	0.222913	1.928515	0.631632	0.181116	1.617434	0.586515	0.111447	1.228621	0.541399	1.393162	8.972506	4.014796	0.000000	0.000000	27.409196	-9.853985	2.476985	15.937154	-13.696985	70.222653	45.754304	64.612470	8.417614	-6.563728	11.457835	-7.034635	51.757296	39.243567	58.601336	17.987001	0.252465
2.566667	1.505824	-7.369825	83.310413	0.214410	0.660307	0.637347	9.066276	4.547127	-5.355366	3.629518	0.063347	17.380564	-0.259964	0.000000	6.838368	-5.276664	-2.740298	2.141158	0.037370	24.696893	3.386276	0.000000	0.190718	0.789393	0.777118	0.354183	1.049893	0.825688	0.313331	1.919330	0.825688	0.217972	1.919330	0.679979	0.177101	1.609730	0.631409	0.108977	1.222770	0.582839	1.362283	8.929772	4.322099	0.000000	0.000000	27.417760	-10.032635	2.381560	15.861030	-13.630711	69.633044	45.598945	67.990419	8.678273	-6.770067	11.697026	-7.002928	52.252052	39.113607	58.537892	17.978408	0.064701
2.583333	1.519654	-7.350697	83.304484	0.214605	0.660148	0.637534	9.073209	4.570076	-5.688485	3.711069	0.064770	17.605677	-0.005866	0.000000	6.798758	-5.302781	-2.299376	2.119086	0.036985	24.724559	2.910747	0.000000	0.187506	0.792475	0.825543	0.348217	1.053992	0.877140	0.308054	1.926824	0.877140	0.214301	1.926824	0.722350	0.174118	1.616015	0.670754	0.107141	1.227544	0.619157	1.339336	8.964636	4.591424	0.000000	0.000000	27.428004	-10.205599	2.354530	15.748714	-13.565095	68.874678	45.459623	71.938346	9.052644	-6.847943	11.892731	-6.928862	52.649895	38.941584	58.511615	18.094802	0.016695
2.600000	1.536178	-7.319914	83.316481	0.214773	0.660010	0.637715	9.064761	4.593422	-5.958077	3.775990	0.065903	17.803025	0.159616	0.000000	6.756478	-5.330369	-1.886483	2.106193	0.036760	24.755853	2.495954	0.000000	0.183793	0.795032	0.868326	0.341322	1.057392	0.922596	0.301953	1.933040	0.922596	0.210057	1.933040	0.759785	0.170670	1.621228	0.705515	0.105019	1.231504	0.651244	1.312815	8.993556	4.829368	0.000000	0.000000	27.417084	-10.367531	2.286626	15.639336	-13.494885	68.128145	45.325983	75.566103	9.430021	-6.856985	12.080538	-6.856892	53.019245	38.774293	58.430952	18.191619	-0.022576
2.616667	1.550502	-7.273506	83.343274	0.214911	0.659905	0.637898	9.039164	4.611959	-6.150916	3.825087	0.066760	17.959832	0.226215	0.000000	6.709626	-5.354274	-1.528193	2.104102	0.036724	24.785194	2.168164	0.000000	0.179436	0.796302	0.903103	0.333231	1.059082	0.959547	0.294796	1.936129	0.959547	0.205078	1.936129	0.790215	0.166624	1.623819	0.733771	0.102530	1.233472	0.677328	1.281695	9.007930	5.022790	0.000000	0.000000	27.376276	-10.513582	2.165713	15.545256	-13.420754	67.445001	45.198149	78.690902	9.797911	-6.808552	12.258913	-6.794224	53.363128	38.614946	58.282076	18.259667	-0.071570
2.633333	1.557734	-7.207503	83.381734	0.215016	0.659848	0.638092	8.994652	4.620481	-6.253776	3.859165	0.067355	18.063322	0.183666	0.000000	6.656300	-5.369345	-1.251080	2.114436	0.036904	24.806998	1.953641	0.000000	0.174293	0.795526	0.927512	0.323679	1.058050	0.985482	0.286345	1.934243	0.985482	0.199199	1.934243	0.811573	0.161848	1.622237	0.753604	0.099591	1.232270	0.695634	1.244955	8.999154	5.158545	0.000000	0.000000	27.296854	-10.638903	1.979657	15.478832	-13.343372	66.876802	45.076244	81.129954	10.143821	-6.714003	12.426325	-6.748064	53.684570	38.466754	58.051161	18.289753	-0.148746
2.650000	1.552981	-7.117935	83.428730	0.215085	0.659852	0.638306	8.929455	4.613781	-6.253428	3.879029	0.067702	18.100719	0.021703	0.000000	6.594598	-5.370431	-1.081719	2.138816	0.037329	24.815681	1.878650	0.000000	0.168219	0.791944	0.939190	0.312399	1.053285	0.997889	0.276367	1.925532	0.997889	0.192257	1.925532	0.821791	0.156208	1.614931	0.763092	0.096120	1.226721	0.704392	1.201570	8.958625	5.223492	0.000000	0.000000	27.170095	-10.738644	1.716324	15.452422	-13.263411	66.475103	44.960393	82.700473	10.455259	-6.584698	12.581243	-6.725617	53.986597	38.332929	57.724379	18.272687	-0.272560
2.666667	1.531350	-7.000833	83.481135	0.215115	0.659932	0.638549	8.841806	4.586654	-6.136648	3.885485	0.067815	18.059248	-0.269941	0.000000	6.522617	-5.352378	-1.046684	2.178864	0.038028	24.805661	1.969455	0.000000	0.161072	0.784793	0.935772	0.299126	1.043775	0.994258	0.264625	1.908147	0.994258	0.184089	1.908147	0.818801	0.149571	1.600351	0.760315	0.092036	1.215645	0.701829	1.150519	8.877740	5.204486	0.000000	0.000000	26.987274	-10.807955	1.363580	15.478384	-13.181543	66.291462	44.850719	83.219670	10.719733	-6.431997	12.722134	-6.734089	54.272235	38.216683	57.287904	18.199275	-0.461473
2.683333	1.487947	-6.852226	83.535816	0.215103	0.660102	0.638829	8.729938	4.533893	-5.890208	3.879338	0.067707	17.926132	-0.701532	0.000000	6.438455	-5.310035	-1.172551	2.236202	0.039029	24.771354	2.252322	0.000000	0.152708	0.773315	0.914897	0.283594	1.028509	0.972078	0.250884	1.880238	0.972078	0.174530	1.880238	0.800535	0.141805	1.576944	0.743354	0.087257	1.197865	0.686173	1.090779	8.747896	5.088385	0.000000	0.000000	26.739665	-10.841987	0.909292	15.569079	-13.098438	66.377433	44.747346	82.504756	10.924750	-6.267259	12.847467	-6.780687	54.544510	38.121228	56.727908	18.060325	-0.733942
2.700000	1.417880	-6.668145	83.589645	0.215044	0.660374	0.639155	8.592082	4.450293	-5.500881	3.861393	0.067394	17.688596	-1.283335	0.000000	6.340211	-5.238251	-1.485894	2.312453	0.040360	24.707177	2.753515	0.000000	0.142985	0.756748	0.874201	0.265537	1.006475	0.928839	0.234910	1.839958	0.928839	0.163417	1.839958	0.764926	0.132776	1.543161	0.710289	0.081701	1.172203	0.655651	1.021326	8.560490	4.862045	0.000000	0.000000	26.418546	-10.835890	0.341325	15.736863	-13.014768	66.784573	44.650398	80.372943	11.057817	-6.101844	12.955710	-6.872615	54.806446	38.049777	56.030564	17.846644	-1.108426
2.716667	1.316255	-6.444619	83.639493	0.214938	0.660764	0.639535	8.426472	4.330648	-4.955441	3.832456	0.066889	17.333864	-2.025617	0.000000	6.225980	-5.131873	-2.013288	2.409239	0.042049	24.607547	3.499299	0.000000	0.131758	0.734333	0.811321	0.244689	0.976663	0.862029	0.216466	1.785457	0.862029	0.150587	1.785457	0.709906	0.122351	1.497451	0.659198	0.075287	1.137481	0.608491	0.941137	8.306919	4.512324	0.000000	0.000000	26.015192	-10.784815	-0.352454	15.994095	-12.931205	67.564439	44.559999	76.641444	11.106442	-5.947112	13.045332	-7.017079	55.061071	38.005540	55.182046	17.549041	-1.603384
2.733333	1.178179	-6.177679	83.682229	0.214779	0.661285	0.639978	8.231339	4.169751	-4.240661	3.793331	0.066206	16.849160	-2.938643	0.000000	6.093863	-4.985749	-2.781307	2.528181	0.044125	24.466880	4.515938	0.000000	0.118886	0.705307	0.723894	0.220783	0.938059	0.769137	0.195318	1.714885	0.769137	0.135875	1.714885	0.633407	0.110397	1.438263	0.588164	0.067931	1.092521	0.542920	0.849190	7.978579	4.026079	0.000000	0.000000	25.520877	-10.683911	-1.184180	16.353134	-12.848419	68.768585	44.476273	71.127470	11.058133	-5.814422	13.114800	-7.221285	55.311409	37.991731	54.168527	17.158323	-2.237272
