Coordinates
version=1
nRows=154
nColumns=63
inDegrees=yes

Units are S.I. units (second, meters, Newtons, ...)
If the header above contains a line with 'inDegrees', this indicates whether rotational values are in degrees (yes) or radians (no).

endheader
time	pelvis_tilt	pelvis_list	pelvis_rotation	pelvis_tx	pelvis_ty	pelvis_tz	hip_flexion_r	hip_adduction_r	hip_rotation_r	knee_angle_r	knee_angle_r_beta	ankle_angle_r	subtalar_angle_r	mtp_angle_r	hip_flexion_l	hip_adduction_l	hip_rotation_l	knee_angle_l	knee_angle_l_beta	ankle_angle_l	subtalar_angle_l	mtp_angle_l	L5_S1_Flex_Ext	L5_S1_Lat_Bending	L5_S1_axial_rotation	L4_L5_Flex_Ext	L4_L5_Lat_Bending	L4_L5_axial_rotation	L3_L4_Flex_Ext	L3_L4_Lat_Bending	L3_L4_axial_rotation	L2_L3_Flex_Ext	L2_L3_Lat_Bending	L2_L3_axial_rotation	L1_L2_Flex_Ext	L1_L2_Lat_Bending	L1_L2_axial_rotation	L1_T12_Flex_Ext	L1_T12_Lat_Bending	L1_T12_axial_rotation	Abs_r3	Abs_r2	Abs_r1	Abs_t1	Abs_t2	neck_flexion	neck_bending	neck_rotation	arm_flex_r	arm_add_r	arm_rot_r	elbow_flex_r	pro_sup_r	wrist_flex_r	wrist_dev_r	arm_flex_l	arm_add_l	arm_rot_l	elbow_flex_l	pro_sup_l	wrist_flex_l	wrist_dev_l
0.000000	9.619675	-2.236155	98.895776	0.117667	0.792262	0.857336	10.709251	6.596683	-3.584676	10.091386	0.176128	26.604493	3.263305	0.000000	11.786623	-4.967373	1.260078	12.415470	0.216691	32.066767	8.536315	0.000000	0.299026	0.933432	-0.952449	0.555321	1.241465	-1.011978	0.491269	2.269546	-1.011978	0.341757	2.269546	-0.833393	0.277675	1.903454	-0.773865	0.170863	1.445886	-0.714337	2.135911	10.559169	-5.297238	0.000000	0.000000	26.968143	5.633428	15.301012	14.940251	-16.530325	48.253557	57.931137	85.709887	18.308068	29.984386	17.918888	-11.003682	55.917475	53.709874	78.485261	4.781935	18.135635
0.016949	9.307324	-1.919224	99.401349	0.116462	0.792431	0.855519	9.948314	6.269714	-3.735111	9.678857	0.168928	26.615969	2.831772	0.000000	11.328669	-4.599008	1.545182	12.299882	0.214673	31.981023	8.330703	0.000000	0.288933	0.888894	-1.010514	0.536578	1.182229	-1.073671	0.474688	2.161257	-1.073671	0.330222	2.161257	-0.884200	0.268303	1.812632	-0.821043	0.165096	1.376897	-0.757886	2.063820	10.055346	-5.620176	0.000000	0.000000	26.712971	5.326464	13.800419	14.714090	-16.393595	48.634826	57.542940	87.870748	18.483039	27.955689	18.830672	-10.890144	58.158760	52.933973	80.032143	6.393185	16.786620
0.033898	9.054387	-1.670721	99.836385	0.115450	0.792575	0.854126	9.375088	5.989341	-3.914451	9.405821	0.164163	26.663202	2.492158	0.000000	10.984304	-4.291347	1.829855	12.209391	0.213094	31.942564	8.169453	0.000000	0.281331	0.852351	-1.063188	0.522460	1.133627	-1.129637	0.462199	2.072406	-1.129637	0.321533	2.072406	-0.930289	0.261244	1.738114	-0.863840	0.160753	1.320291	-0.797391	2.009520	9.641963	-5.913132	0.000000	0.000000	26.526762	5.125099	12.602011	14.598550	-16.347507	49.131497	57.299657	88.914810	18.686197	26.495190	19.520681	-10.848654	59.893592	52.388878	80.937601	7.701763	15.909866
0.050847	8.854700	-1.484182	100.202379	0.114622	0.792697	0.853113	8.970867	5.752154	-4.112213	9.257322	0.161571	26.741612	2.236117	0.000000	10.740644	-4.039205	2.108409	12.140322	0.211889	31.944940	8.047226	0.000000	0.275927	0.823036	-1.109965	0.512423	1.094638	-1.179338	0.453320	2.001130	-1.179338	0.315356	2.001130	-0.971219	0.256225	1.678335	-0.901846	0.157664	1.274883	-0.832474	1.970916	9.310348	-6.173291	0.000000	0.000000	26.400661	5.015566	11.680094	14.581140	-16.379111	49.721650	57.183797	88.990924	18.889437	25.520527	20.009055	-10.871139	61.172466	52.047406	81.241644	8.725565	15.426674
0.067797	8.702098	-1.353145	100.500827	0.113967	0.792801	0.852436	8.716950	5.554745	-4.317914	9.218401	0.160891	26.846622	2.055303	0.000000	10.584803	-3.837395	2.375153	12.089002	0.210993	31.981700	7.958683	0.000000	0.272427	0.800183	-1.150339	0.505923	1.064243	-1.222235	0.447570	1.945565	-1.222235	0.311356	1.945565	-1.006546	0.252975	1.631733	-0.934650	0.155665	1.239483	-0.862754	1.945916	9.051829	-6.397838	0.000000	0.000000	26.325809	4.984100	11.008975	14.649370	-16.475456	50.383363	57.177872	88.247945	19.064655	24.949339	20.315935	-10.949526	62.045877	51.882371	80.984284	9.482486	15.258345
0.084746	8.590416	-1.271147	100.733223	0.113477	0.792890	0.852050	8.594633	5.393704	-4.521072	9.274100	0.161864	26.973655	1.941369	0.000000	10.503896	-3.680733	2.624397	12.051758	0.210343	32.046394	7.898485	0.000000	0.270538	0.783025	-1.183803	0.502416	1.041423	-1.257791	0.444467	1.903847	-1.257791	0.309198	1.903847	-1.035828	0.251222	1.596744	-0.961840	0.154586	1.212906	-0.887853	1.932427	8.857735	-6.583959	0.000000	0.000000	26.293351	5.016937	10.562958	14.790749	-16.623593	51.094718	57.264393	86.834724	19.183750	24.699263	20.461463	-11.075743	62.564322	51.866588	80.205529	9.990424	15.326179
0.101695	8.513488	-1.231724	100.901062	0.113141	0.792969	0.851910	8.585212	5.265622	-4.711204	9.409461	0.164226	27.118131	1.885971	0.000000	10.485036	-3.564032	2.850451	12.024917	0.209874	32.132570	7.861292	0.000000	0.269968	0.770795	-1.209853	0.501358	1.025158	-1.285469	0.443531	1.874112	-1.285469	0.308547	1.874112	-1.058621	0.250693	1.571806	-0.983006	0.154260	1.193962	-0.907390	1.928356	8.719391	-6.728840	0.000000	0.000000	26.294429	5.100309	10.316350	14.992787	-16.810572	51.833793	57.425871	84.900115	19.218615	24.687939	20.465780	-11.241717	62.778297	51.972873	78.945390	10.267274	15.551477
0.118644	8.465150	-1.228414	101.005839	0.112950	0.793040	0.851971	8.669986	5.167091	-4.877826	9.609526	0.167718	27.275474	1.880762	0.000000	10.515340	-3.482107	3.047625	12.004804	0.209523	32.233778	7.841764	0.000000	0.270424	0.762728	-1.227982	0.502204	1.014428	-1.304730	0.444279	1.854496	-1.304730	0.309067	1.854496	-1.074484	0.251116	1.555354	-0.997735	0.154520	1.181465	-0.920986	1.931611	8.628128	-6.829665	0.000000	0.000000	26.320188	5.220451	10.243458	15.242994	-17.023442	52.578670	57.644815	82.592972	19.141149	24.833005	20.349026	-11.439377	62.738297	52.174040	77.243878	10.330932	15.855540
0.135593	8.439237	-1.254753	101.049050	0.112894	0.793109	0.852191	8.830249	5.094701	-5.010457	9.859337	0.172078	27.441106	1.917396	0.000000	10.581920	-3.429772	3.210230	11.987747	0.209226	32.343567	7.834562	0.000000	0.271612	0.758055	-1.237683	0.504411	1.008213	-1.315038	0.446231	1.843135	-1.315038	0.310425	1.843135	-1.082973	0.252219	1.545826	-1.005617	0.155199	1.174227	-0.928262	1.940097	8.575272	-6.883621	0.000000	0.000000	26.361769	5.363598	10.318587	15.528879	-17.249255	53.307427	57.903738	80.062147	18.923247	25.052098	20.131342	-11.660649	62.494818	52.442906	75.141002	10.199294	16.159669
0.152542	8.429583	-1.304280	101.032190	0.112964	0.793178	0.852523	9.047300	5.045042	-5.098614	10.143935	0.177045	27.610448	1.987528	0.000000	10.671893	-3.401842	3.332575	11.970072	0.208917	32.455486	7.834347	0.000000	0.273240	0.756011	-1.238451	0.507433	1.005495	-1.315854	0.448905	1.838166	-1.315854	0.312285	1.838166	-1.083644	0.253730	1.541658	-1.006241	0.156129	1.171061	-0.928838	1.951723	8.552151	-6.887892	0.000000	0.000000	26.410316	5.515985	10.516044	15.837953	-17.475059	53.998144	58.185150	77.456493	18.536806	25.262858	19.832870	-11.897462	62.098356	52.752284	72.676771	9.890255	16.385164
0.169492	8.430025	-1.370530	100.956753	0.113149	0.793251	0.852923	9.302436	5.014707	-5.131814	10.448364	0.182358	27.778923	2.082811	0.000000	10.772372	-3.393131	3.408970	11.948106	0.208534	32.563085	7.835779	0.000000	0.275014	0.755829	-1.229779	0.510728	1.005253	-1.306641	0.451820	1.837724	-1.306641	0.314313	1.837724	-1.076057	0.255378	1.541287	-0.999196	0.157143	1.170780	-0.922335	1.964394	8.550093	-6.839664	0.000000	0.000000	26.456972	5.663844	10.810134	16.157725	-17.687905	54.628902	58.471561	74.924864	17.953722	25.382922	19.473751	-12.141742	61.599406	53.074990	69.891197	9.421712	16.453326
0.186441	8.413123	-1.436331	100.777783	0.113507	0.793382	0.853259	9.541719	4.995644	-5.041809	10.732189	0.187312	27.942190	2.199371	0.000000	10.834821	-3.391975	3.347762	11.908321	0.207839	32.655407	7.840904	0.000000	0.274903	0.754698	-1.201966	0.510522	1.003749	-1.277089	0.451637	1.834973	-1.277089	0.314186	1.834973	-1.051720	0.255275	1.538981	-0.976597	0.157079	1.169028	-0.901475	1.963601	8.537298	-6.684974	0.000000	0.000000	26.473709	5.761924	11.144640	16.536655	-17.919088	55.354962	58.842295	73.462748	17.091143	24.910936	19.114701	-12.423842	61.272036	53.374951	66.299849	8.793790	15.926587
0.203390	8.386797	-1.513411	100.554798	0.113970	0.793512	0.853517	9.763290	4.982779	-4.875025	10.957146	0.191238	28.079598	2.367896	0.000000	10.887446	-3.396782	3.165377	11.857882	0.206959	32.722337	7.907799	0.000000	0.276772	0.752754	-1.167368	0.513993	1.001163	-1.240329	0.454708	1.830246	-1.240329	0.316322	1.830246	-1.021447	0.257010	1.535016	-0.948487	0.158147	1.166016	-0.875526	1.976953	8.515305	-6.492552	0.000000	0.000000	26.447045	5.819560	11.562547	16.884487	-18.074810	55.990282	59.159804	72.538701	15.851224	24.113744	18.738489	-12.697762	61.042075	53.609211	62.041268	7.962447	14.797159
0.220339	8.348851	-1.570613	100.282835	0.114532	0.793660	0.853683	9.946157	4.987378	-4.536005	11.152792	0.194653	28.182042	2.427061	0.000000	10.890960	-3.403429	2.933477	11.790551	0.205784	32.755584	7.932763	0.000000	0.276092	0.748292	-1.117039	0.512730	0.995229	-1.186853	0.453591	1.819398	-1.186853	0.315545	1.819398	-0.977409	0.256379	1.525918	-0.907594	0.157759	1.159105	-0.837779	1.972094	8.464834	-6.212633	0.000000	0.000000	26.385427	5.792127	11.822555	17.143232	-18.110241	56.329563	59.384539	72.147846	14.183199	22.911261	18.389668	-12.900865	60.868446	53.686622	57.850669	7.086860	12.964211
0.237288	8.306678	-1.611421	100.004209	0.115101	0.793785	0.853768	10.088182	5.001049	-4.137561	11.310375	0.197403	28.268968	2.471771	0.000000	10.864037	-3.406200	2.728994	11.722647	0.204599	32.753776	7.869524	0.000000	0.273932	0.743427	-1.063677	0.508720	0.988758	-1.130156	0.450043	1.807569	-1.130156	0.313077	1.807569	-0.930717	0.254373	1.515997	-0.864237	0.156525	1.151569	-0.797758	1.956671	8.409798	-5.915851	0.000000	0.000000	26.277369	5.692600	12.058944	17.334998	-18.009174	56.366278	59.480335	72.251983	12.063579	21.320839	18.075552	-13.010094	60.699381	53.598568	53.857363	6.135753	10.691817
0.254237	8.258537	-1.631851	99.682765	0.115726	0.793898	0.853766	10.185446	5.030630	-3.617392	11.432042	0.199527	28.325125	2.437012	0.000000	10.789745	-3.417200	2.441194	11.638591	0.203132	32.726661	7.830862	0.000000	0.269664	0.738072	-0.993046	0.500793	0.981636	-1.055112	0.443031	1.794548	-1.055112	0.308199	1.794548	-0.868916	0.250410	1.505076	-0.806850	0.154086	1.143273	-0.744785	1.926182	8.349218	-5.523026	0.000000	0.000000	26.125450	5.540676	12.253240	17.394456	-17.769667	55.925572	59.437471	72.758793	9.627970	19.379641	17.890369	-13.043374	60.744060	53.330252	50.042950	5.148382	8.058284
0.271186	8.205525	-1.639912	99.343554	0.116317	0.793988	0.853661	10.245941	5.059942	-3.095188	11.523568	0.201124	28.376051	2.424099	0.000000	10.669552	-3.419119	2.217395	11.517226	0.201014	32.653219	7.676822	0.000000	0.264442	0.733713	-0.920054	0.491096	0.975839	-0.977557	0.434452	1.783951	-0.977557	0.302231	1.783951	-0.805047	0.245561	1.496188	-0.747544	0.151102	1.136522	-0.690040	1.888884	8.299913	-5.117064	0.000000	0.000000	25.947830	5.332967	12.498247	17.377515	-17.427583	55.183781	59.213601	73.405864	6.859906	17.096191	17.739192	-13.001814	60.746136	52.935603	46.823402	4.161063	5.358973
0.288136	8.145575	-1.641699	98.966963	0.116892	0.794046	0.853461	10.291109	5.086186	-2.560787	11.615348	0.202726	28.437711	2.418052	0.000000	10.515360	-3.415210	1.987717	11.373266	0.198501	32.557508	7.481405	0.000000	0.258499	0.730847	-0.839183	0.480058	0.972027	-0.891632	0.424688	1.776982	-0.891632	0.295438	1.776982	-0.734286	0.240042	1.490344	-0.681837	0.147706	1.132082	-0.629388	1.846431	8.267490	-4.667287	0.000000	0.000000	25.755658	5.080875	12.834257	17.249421	-17.005844	54.075301	58.806537	74.082199	3.977761	14.610077	17.603395	-12.920254	60.689655	52.472849	44.162842	3.215242	2.799294
0.305085	8.081035	-1.646596	98.575110	0.117388	0.794074	0.853158	10.333090	5.095580	-2.126811	11.715941	0.204482	28.529215	2.519640	0.000000	10.336445	-3.399963	1.801794	11.198931	0.195458	32.431777	7.213125	0.000000	0.252942	0.730324	-0.759227	0.469739	0.971330	-0.806679	0.415559	1.775709	-0.806679	0.289088	1.775709	-0.664324	0.234882	1.489276	-0.616872	0.144531	1.131271	-0.569421	1.806740	8.261566	-4.222595	0.000000	0.000000	25.569645	4.797194	13.305374	17.049087	-16.541986	52.723357	58.180302	74.710117	1.090352	12.045052	17.387608	-12.813408	60.387773	52.019713	42.128399	2.233153	0.598804
0.322034	8.014647	-1.658615	98.175435	0.117774	0.794079	0.852746	10.379191	5.083721	-1.825184	11.832344	0.206513	28.656958	2.751650	0.000000	10.139720	-3.374263	1.661775	10.996239	0.191921	32.277200	6.874872	0.000000	0.248439	0.732627	-0.683028	0.461376	0.974394	-0.725717	0.408160	1.781309	-0.725717	0.283941	1.781309	-0.597650	0.230700	1.493973	-0.554960	0.141958	1.134839	-0.512271	1.774575	8.287621	-3.798798	0.000000	0.000000	25.401364	4.493911	13.905724	16.788280	-16.064983	51.129932	57.335354	75.545841	-1.591154	9.568952	17.012650	-12.686761	59.685891	51.637923	40.869909	1.143614	-1.115134
0.338983	7.950889	-1.673754	97.772871	0.118031	0.794079	0.852208	10.432495	5.050969	-1.670359	11.980401	0.209097	28.821468	3.124594	0.000000	9.922866	-3.335638	1.617356	10.766927	0.187918	32.096096	6.404076	0.000000	0.245100	0.737973	-0.612144	0.455175	0.981504	-0.650403	0.402675	1.794308	-0.650403	0.280125	1.794308	-0.535626	0.227600	1.504875	-0.497367	0.140050	1.143121	-0.459108	1.750724	8.348101	-3.404559	0.000000	0.000000	25.260830	4.153703	14.581768	16.482440	-15.613312	49.346971	56.290292	76.703604	-3.949782	7.345502	16.432570	-12.551893	58.523743	51.352437	40.578633	-0.167507	-2.398808
0.355932	7.888622	-1.674869	97.372521	0.118157	0.794115	0.851526	10.478393	4.998321	-1.645069	12.168968	0.212389	29.022121	3.611612	0.000000	9.674900	-3.288419	1.624146	10.524991	0.183696	31.905301	5.865482	0.000000	0.241326	0.745150	-0.543265	0.448166	0.991050	-0.577219	0.396474	1.811758	-0.577219	0.275811	1.811758	-0.475357	0.224095	1.519510	-0.441403	0.137894	1.154238	-0.407449	1.723766	8.429288	-3.021479	0.000000	0.000000	25.133839	3.789877	15.240176	16.122250	-15.225039	47.364265	55.084988	78.259201	-5.815794	5.485832	15.633993	-12.400827	56.826191	51.140196	41.588342	-1.543970	-3.242261
0.372881	7.829243	-1.657470	96.989556	0.118150	0.794222	0.850684	10.506387	4.927310	-1.724859	12.385468	0.216167	29.237821	4.163707	0.000000	9.396619	-3.233124	1.664031	10.275969	0.179349	31.716425	5.310167	0.000000	0.238525	0.753612	-0.482529	0.442964	1.002303	-0.512687	0.391872	1.832331	-0.512687	0.272610	1.832331	-0.422213	0.221494	1.536765	-0.392055	0.136293	1.167344	-0.361897	1.703758	8.525005	-2.683680	0.000000	0.000000	24.980346	3.407891	15.866729	15.763213	-14.938201	45.392228	53.728887	79.724823	-7.270398	4.151876	14.641779	-12.278308	54.696422	50.990982	43.633408	-2.927469	-3.676978
0.389831	7.774770	-1.595382	96.651242	0.117982	0.794454	0.849711	10.487545	4.836968	-1.958388	12.622964	0.220312	29.471066	4.822009	0.000000	9.074406	-3.173334	1.728187	10.031998	0.175091	31.544165	4.797995	0.000000	0.234344	0.762503	-0.431159	0.435200	1.014129	-0.458107	0.385004	1.853950	-0.458107	0.267832	1.853950	-0.377265	0.217612	1.554896	-0.350317	0.133904	1.181117	-0.323370	1.673896	8.625587	-2.397980	0.000000	0.000000	24.751329	3.004092	16.356914	15.416178	-14.779201	43.520341	52.248474	81.382812	-8.246918	3.269172	13.547590	-12.192670	52.314697	50.824172	46.859051	-4.202128	-3.675941
0.406780	7.723828	-1.480505	96.351400	0.117666	0.794835	0.848576	10.423434	4.724847	-2.343859	12.910370	0.225328	29.741141	5.593846	0.000000	8.693647	-3.107425	1.878042	9.785874	0.170796	31.373297	4.255543	0.000000	0.229013	0.771462	-0.386892	0.425300	1.026044	-0.411073	0.376246	1.875732	-0.411073	0.261739	1.875732	-0.338531	0.212662	1.573165	-0.314350	0.130858	1.194994	-0.290169	1.635819	8.726929	-2.151777	0.000000	0.000000	24.432388	2.625981	16.732230	15.078666	-14.800991	41.975955	50.682731	82.507641	-9.039585	2.892863	12.430953	-12.172844	49.989278	50.569066	51.028414	-5.447401	-3.370666
0.423729	7.670244	-1.296683	96.105409	0.117184	0.795410	0.847343	10.289286	4.592778	-2.830948	13.220338	0.230738	30.017975	6.392414	0.000000	8.240394	-3.018634	2.229883	9.527588	0.166288	31.177861	3.556924	0.000000	0.219688	0.778805	-0.351832	0.407982	1.035811	-0.373821	0.360925	1.893587	-0.373821	0.251081	1.893587	-0.307853	0.204002	1.588140	-0.285863	0.125530	1.206370	-0.263874	1.569207	8.810002	-1.956783	0.000000	0.000000	24.020308	2.317269	16.918396	14.812950	-15.007950	41.022627	48.979487	83.241357	-9.618598	2.726166	11.413834	-12.239942	48.012136	50.155263	56.017900	-6.672303	-2.767740
0.440678	7.625544	-1.059079	95.902007	0.116592	0.796155	0.845982	10.100837	4.471095	-3.267848	13.546331	0.236428	30.263224	7.025698	0.000000	7.736305	-2.927717	2.752426	9.265885	0.161720	30.971189	2.732797	0.000000	0.208386	0.786271	-0.325490	0.386994	1.045741	-0.345833	0.342358	1.911740	-0.345833	0.238164	1.911740	-0.284804	0.193507	1.603365	-0.264461	0.119072	1.217934	-0.244118	1.488481	8.894459	-1.810278	0.000000	0.000000	23.536567	2.090955	17.016445	14.603209	-15.394480	40.740526	47.196682	83.549792	-10.071346	2.907040	10.450420	-12.352291	46.227641	49.544302	61.689005	-7.661092	-1.644461
0.457627	7.587086	-0.769346	95.738953	0.115899	0.797080	0.844483	9.844228	4.356848	-3.695093	13.857559	0.241860	30.484348	7.577458	0.000000	7.183686	-2.838703	3.373271	9.004368	0.157156	30.766774	1.866582	0.000000	0.195057	0.793913	-0.306609	0.362241	1.055904	-0.325772	0.320459	1.930319	-0.325772	0.222931	1.930319	-0.268283	0.181130	1.618947	-0.249120	0.111456	1.229771	-0.229957	1.393274	8.980898	-1.705269	0.000000	0.000000	23.003163	1.951664	17.023320	14.473968	-15.948253	41.237403	45.329569	83.669413	-10.384951	3.231633	9.590095	-12.540255	44.831351	48.767213	67.463074	-8.671365	-0.163104
0.474576	7.555236	-0.422165	95.610491	0.115118	0.798191	0.842786	9.495231	4.257443	-4.091126	14.122877	0.246491	30.679264	8.066822	0.000000	6.565542	-2.757919	4.071636	8.732097	0.152404	30.560202	0.960801	0.000000	0.178439	0.802594	-0.299017	0.331378	1.067449	-0.317706	0.293157	1.951426	-0.317706	0.203937	1.951426	-0.261640	0.165698	1.636649	-0.242951	0.101960	1.243217	-0.224263	1.274569	9.079098	-1.663044	0.000000	0.000000	22.439296	1.891215	16.991767	14.438008	-16.653181	42.490854	43.434181	83.827644	-10.570805	3.476449	8.757668	-12.801356	43.683059	47.886896	73.127802	-9.812048	1.365968
0.491525	7.524622	-0.028349	95.517704	0.114287	0.799462	0.840841	9.050667	4.168515	-4.466754	14.320151	0.249934	30.854175	8.543484	0.000000	5.887844	-2.685059	4.778616	8.450062	0.147481	30.355382	0.088747	0.000000	0.161060	0.810957	-0.295073	0.299105	1.078573	-0.313515	0.264606	1.971760	-0.313515	0.184076	1.971760	-0.258188	0.149560	1.653703	-0.239746	0.092030	1.256172	-0.221304	1.150436	9.173706	-1.641105	0.000000	0.000000	21.867936	1.868800	16.841347	14.376215	-17.457769	44.140720	41.580959	84.301176	-10.552481	3.602388	8.016725	-13.131959	43.017478	46.939028	77.917194	-11.248070	2.471690
0.508475	7.496095	0.395634	95.447551	0.113458	0.800841	0.838596	8.517741	4.104663	-4.709333	14.433297	0.251909	30.987406	8.883398	0.000000	5.157610	-2.618928	5.565142	8.154478	0.142322	30.107398	-0.900961	0.000000	0.145128	0.818772	-0.300010	0.269517	1.088967	-0.318761	0.238430	1.990763	-0.318761	0.165866	1.990763	-0.262509	0.134766	1.669641	-0.243758	0.082926	1.268278	-0.225008	1.036632	9.262117	-1.668566	0.000000	0.000000	21.310798	1.880727	16.599080	14.293151	-18.294952	46.053878	39.791604	84.922435	-10.559976	3.536730	7.250749	-13.481014	42.471648	45.930857	82.043814	-12.639929	3.079498
0.525424	7.468249	0.852510	95.409017	0.112656	0.802294	0.836081	7.887530	4.065785	-4.826384	14.449543	0.252192	31.071630	9.086082	0.000000	4.377637	-2.560927	6.391406	7.858210	0.137152	29.817485	-1.958600	0.000000	0.129440	0.825448	-0.308667	0.240383	1.097846	-0.327959	0.212657	2.006995	-0.327959	0.147937	2.006995	-0.270084	0.120198	1.683254	-0.250792	0.073962	1.278620	-0.231500	0.924577	9.337637	-1.716715	0.000000	0.000000	20.799086	1.896556	16.244403	14.130724	-19.105675	47.972441	38.097553	85.549603	-10.665768	3.351324	6.551893	-13.820364	42.192898	44.839157	85.252199	-13.882576	3.180431
0.542373	7.444775	1.323600	95.395955	0.111916	0.803761	0.833307	7.178756	4.055943	-4.805657	14.364421	0.250706	31.097099	9.130873	0.000000	3.567201	-2.516060	7.200989	7.565941	0.132051	29.488856	-3.029855	0.000000	0.116804	0.831609	-0.319807	0.216917	1.106041	-0.339795	0.191897	2.021975	-0.339795	0.133495	2.021975	-0.279831	0.108464	1.695818	-0.259843	0.066742	1.288163	-0.239855	0.834319	9.407332	-1.778670	0.000000	0.000000	20.330498	1.876831	15.815636	13.864766	-19.832704	49.740971	36.499489	86.050041	-10.837720	3.080238	5.922607	-14.134312	42.160784	43.666915	87.545917	-14.872142	2.928069
0.559322	7.428055	1.795273	95.399616	0.111241	0.805176	0.830311	6.416575	4.071823	-4.680279	14.198381	0.247808	31.080270	9.061957	0.000000	2.741967	-2.485214	7.972670	7.284119	0.127132	29.132276	-4.097014	0.000000	0.108668	0.837803	-0.335703	0.201807	1.114278	-0.356685	0.178530	2.037034	-0.356685	0.124196	2.037034	-0.293740	0.100909	1.708447	-0.272759	0.062093	1.297757	-0.251778	0.776202	9.477393	-1.867081	0.000000	0.000000	19.909398	1.816070	15.323918	13.498069	-20.437782	51.237548	35.000829	86.499040	-11.002662	2.827626	5.303988	-14.419770	42.151656	42.474126	89.181393	-15.513698	2.578627
0.576271	7.426233	2.272767	95.416776	0.110619	0.806536	0.827241	5.606040	4.122187	-4.440104	13.953164	0.243529	30.994349	8.825742	0.000000	1.908543	-2.471514	8.742112	7.022377	0.122564	28.728598	-5.207450	0.000000	0.102491	0.846234	-0.347379	0.190335	1.125491	-0.369090	0.168382	2.057532	-0.369090	0.117137	2.057532	-0.303957	0.095173	1.725640	-0.282246	0.058563	1.310816	-0.260534	0.732081	9.572764	-1.932019	0.000000	0.000000	19.522389	1.678387	14.794321	13.046511	-20.929807	52.602611	33.572090	86.764521	-11.219335	2.518617	4.861220	-14.678168	42.645090	41.210176	90.256883	-15.895236	2.203650
0.593220	7.439359	2.719984	95.428492	0.110069	0.807764	0.824208	4.808079	4.203964	-4.088962	13.660501	0.238421	30.843509	8.420919	0.000000	1.103094	-2.478382	9.440498	6.766065	0.118090	28.287716	-6.268152	0.000000	0.100754	0.856923	-0.347061	0.187111	1.139708	-0.368753	0.165529	2.083523	-0.368753	0.115152	2.083523	-0.303679	0.093560	1.747438	-0.281987	0.057571	1.327374	-0.260296	0.719677	9.693686	-1.930250	0.000000	0.000000	19.213857	1.538681	14.269274	12.415464	-21.335318	53.417773	32.299665	86.869403	-11.276536	2.293217	4.603744	-14.921789	43.608873	39.948835	90.626467	-15.954463	1.980334
0.610169	7.463167	3.126805	95.443812	0.109573	0.808849	0.821330	4.046924	4.302008	-3.689176	13.337020	0.232775	30.648176	7.914607	0.000000	0.346591	-2.492240	10.158999	6.517867	0.113758	27.791869	-7.372303	0.000000	0.102207	0.869811	-0.342052	0.189808	1.156849	-0.363430	0.167916	2.114859	-0.363430	0.116812	2.114859	-0.299295	0.094909	1.773719	-0.277917	0.058401	1.347337	-0.256539	0.730053	9.839477	-1.902390	0.000000	0.000000	18.975545	1.361634	13.759421	11.730525	-21.656634	54.152505	31.100217	86.671389	-11.272667	2.092178	4.485830	-15.134431	44.975257	38.728601	90.703214	-15.740648	2.039280
0.627119	7.487040	3.477784	95.420667	0.109204	0.809767	0.818737	3.360864	4.405638	-3.234832	13.012246	0.227107	30.419984	7.340882	0.000000	-0.348973	-2.507690	10.839295	6.260239	0.109262	27.251043	-8.487171	0.000000	0.105252	0.883559	-0.317190	0.195463	1.175133	-0.337014	0.172918	2.148285	-0.337014	0.120292	2.148285	-0.277541	0.097737	1.801754	-0.257717	0.060141	1.368633	-0.237893	0.751801	9.994996	-1.764116	0.000000	0.000000	18.816010	1.158089	13.230021	10.975734	-21.931434	54.583840	30.035591	86.214860	-11.039671	2.081862	4.550966	-15.343678	46.863752	37.598785	90.240753	-15.457827	2.283637
0.644068	7.497901	3.745098	95.385357	0.108996	0.810478	0.816541	2.793960	4.491834	-2.792354	12.707034	0.221780	30.179052	6.761340	0.000000	-0.933991	-2.508195	11.509159	6.007764	0.104855	26.679989	-9.600006	0.000000	0.110717	0.894873	-0.285253	0.205613	1.190182	-0.303082	0.181898	2.175795	-0.303082	0.126539	2.175795	-0.249597	0.102812	1.824826	-0.231768	0.063264	1.386159	-0.213940	0.790844	10.122987	-1.586493	0.000000	0.000000	18.738217	0.968693	12.693464	10.299573	-22.118187	55.188818	29.028898	85.659995	-10.678481	2.206947	4.651944	-15.543865	48.767462	36.641342	89.763843	-15.004006	2.799941
0.661017	7.478803	3.920029	95.315937	0.109048	0.810966	0.814806	2.371875	4.546164	-2.350460	12.449389	0.217283	29.945544	6.196051	0.000000	-1.393217	-2.484377	12.046935	5.763159	0.100586	26.120597	-10.575550	0.000000	0.117195	0.900197	-0.248335	0.217642	1.197262	-0.263856	0.192539	2.188739	-0.263856	0.133942	2.188739	-0.217293	0.108827	1.835682	-0.201772	0.066965	1.394405	-0.186251	0.837109	10.183208	-1.381164	0.000000	0.000000	18.728350	0.813332	12.129180	9.789124	-22.168795	56.199458	28.059798	85.259773	-10.142116	2.499697	4.682493	-15.760235	50.361410	35.941678	89.398209	-14.505212	3.514689
0.677966	7.429916	4.004848	95.214146	0.109325	0.811242	0.813583	2.092366	4.568808	-1.900561	12.232307	0.213494	29.702546	5.630720	0.000000	-1.731512	-2.431583	12.574087	5.510177	0.096171	25.538637	-11.580423	0.000000	0.124075	0.899157	-0.193634	0.230420	1.195879	-0.205736	0.203844	2.186211	-0.205736	0.141806	2.186211	-0.169430	0.115216	1.833562	-0.157328	0.070897	1.392795	-0.145225	0.886258	10.171449	-1.076933	0.000000	0.000000	18.791372	0.658505	11.443484	9.392834	-22.191661	57.264607	27.260947	85.113959	-9.440037	3.004855	4.743331	-15.976730	51.844401	35.394186	89.203927	-13.995354	4.265304
0.694915	7.348839	3.995922	95.086821	0.109857	0.811295	0.812932	1.974481	4.551873	-1.492677	12.079321	0.210824	29.478875	5.128163	0.000000	-1.913639	-2.357202	12.821418	5.297870	0.092465	25.054179	-12.226649	0.000000	0.130886	0.890355	-0.134429	0.243068	1.184172	-0.142831	0.215032	2.164809	-0.142831	0.149589	2.164809	-0.117626	0.121541	1.815612	-0.109224	0.074788	1.379160	-0.100822	0.934904	10.071875	-0.747655	0.000000	0.000000	18.923828	0.547906	10.678380	9.244016	-22.112529	58.948215	26.531476	85.115307	-8.596990	3.605684	4.740997	-16.213950	52.911930	35.048772	89.142714	-13.357827	5.129008
0.711864	7.218490	3.934479	94.958847	0.110626	0.811199	0.812807	1.976428	4.479085	-1.153282	12.002389	0.209481	29.296366	4.696793	0.000000	-1.989128	-2.246155	12.820526	5.116838	0.089306	24.665952	-12.533715	0.000000	0.134111	0.871431	-0.072523	0.249057	1.159003	-0.077056	0.220331	2.118797	-0.077056	0.153275	2.118797	-0.063458	0.124535	1.777022	-0.058925	0.076631	1.349847	-0.054392	0.957941	9.857802	-0.403351	0.000000	0.000000	19.040195	0.458595	9.838526	9.314332	-21.934826	61.240635	25.844287	85.234736	-7.817843	4.173364	4.701104	-16.487751	53.628435	34.843012	89.122475	-12.628524	5.975942
0.728814	7.059634	3.803157	94.823056	0.111624	0.810928	0.813203	2.117646	4.378519	-0.811523	11.991653	0.209294	29.142217	4.257803	0.000000	-1.945757	-2.108526	12.730567	4.952149	0.086431	24.329144	-12.730312	0.000000	0.137190	0.844510	-0.018021	0.254776	1.123199	-0.019148	0.225390	2.053343	-0.019148	0.156795	2.053343	-0.015769	0.127395	1.722126	-0.014642	0.078390	1.308147	-0.013516	0.979935	9.553271	-0.100228	0.000000	0.000000	19.186241	0.448703	8.966229	9.683793	-21.599449	64.643452	25.060701	85.424354	-7.346578	4.432235	4.575179	-16.804196	53.925758	34.761523	89.121162	-11.980910	6.711975
0.745763	6.900720	3.635279	94.688512	0.112717	0.810533	0.814103	2.366554	4.271022	-0.531407	12.047325	0.210265	29.029429	3.887629	0.000000	-1.805392	-1.972420	12.477672	4.829876	0.084297	24.091202	-12.691547	0.000000	0.137638	0.815338	0.035179	0.255608	1.084399	0.037377	0.226126	1.982412	0.037377	0.157307	1.982412	0.030781	0.127811	1.662637	0.028583	0.078647	1.262958	0.026384	0.983137	9.223264	0.195653	0.000000	0.000000	19.347993	0.473687	8.089173	10.275129	-21.225717	68.657497	24.295697	85.725733	-7.024082	4.518455	4.512386	-17.116931	54.221889	34.665009	89.123183	-11.599097	7.252923
0.762712	6.760343	3.447205	94.570396	0.113796	0.810035	0.815439	2.703972	4.168721	-0.355565	12.167507	0.212363	28.971014	3.639513	0.000000	-1.582608	-1.854725	12.073507	4.758380	0.083049	23.963171	-12.407555	0.000000	0.135580	0.787425	0.089498	0.251785	1.047275	0.095091	0.222744	1.914545	0.095091	0.154954	1.914545	0.078311	0.125899	1.605717	0.072717	0.077470	1.219721	0.067123	0.968432	8.907509	0.497760	0.000000	0.000000	19.535142	0.543465	7.226333	10.973512	-20.883462	72.810557	23.602973	86.159051	-6.803496	4.454615	4.589968	-17.388974	54.734806	34.503769	89.122927	-11.505370	7.633001
0.779661	6.644909	3.242442	94.449544	0.114881	0.809467	0.817089	3.113134	4.083659	-0.258714	12.335660	0.215298	28.964343	3.525528	0.000000	-1.292948	-1.765856	11.480218	4.735460	0.082649	23.955813	-11.842223	0.000000	0.132290	0.762036	0.139616	0.245676	1.013508	0.148342	0.217339	1.852815	0.148342	0.151194	1.852815	0.122164	0.122845	1.553944	0.113438	0.075591	1.180394	0.104712	0.944935	8.620307	0.776502	0.000000	0.000000	19.741926	0.676581	6.430924	11.814035	-20.529560	77.294739	22.903997	86.623609	-6.687475	4.185915	4.715602	-17.604816	55.195584	34.309132	89.123703	-11.603226	7.856064
0.796610	6.567014	3.028123	94.378696	0.115836	0.808844	0.818921	3.561702	4.024835	-0.280379	12.516961	0.218462	29.005094	3.547080	0.000000	-0.938388	-1.715569	10.753687	4.774917	0.083338	24.071478	-11.006137	0.000000	0.129349	0.741722	0.176705	0.240215	0.986490	0.187749	0.212508	1.803422	0.187749	0.147833	1.803422	0.154617	0.120114	1.512519	0.143572	0.073910	1.148927	0.132528	0.923929	8.390506	0.982778	0.000000	0.000000	19.983006	0.888831	5.749704	12.679181	-20.211280	81.597983	22.282977	87.086593	-6.653052	3.869233	4.885002	-17.757322	55.668729	34.103714	89.119814	-11.973201	7.921421
0.813559	6.529270	2.814502	94.348869	0.116656	0.808193	0.820797	4.021591	4.000115	-0.385084	12.696124	0.221589	29.089036	3.683317	0.000000	-0.554132	-1.705268	9.972130	4.850736	0.084661	24.280034	-10.018277	0.000000	0.126222	0.727169	0.202196	0.234407	0.967134	0.214833	0.207370	1.768038	0.214833	0.144259	1.768038	0.176921	0.117210	1.482842	0.164284	0.072123	1.126384	0.151647	0.901592	8.225877	1.124552	0.000000	0.000000	20.254013	1.164763	5.172005	13.481888	-19.962184	85.313228	21.820815	87.431534	-6.559145	3.575283	5.039629	-17.840474	56.025808	33.923293	89.113526	-12.558600	7.815884
0.830508	6.534387	2.594155	94.347116	0.117321	0.807524	0.822588	4.486426	4.011927	-0.539281	12.863695	0.224514	29.194472	3.902809	0.000000	-0.147035	-1.732985	9.169017	4.957608	0.086527	24.555680	-8.960966	0.000000	0.125433	0.719218	0.220054	0.232942	0.956560	0.233808	0.206074	1.748707	0.233808	0.143357	1.748707	0.192548	0.116477	1.466630	0.178794	0.071672	1.114069	0.165041	0.895955	8.135940	1.223876	0.000000	0.000000	20.572902	1.491919	4.678111	14.131617	-19.801616	88.050176	21.578054	87.642343	-6.297655	3.475136	5.154757	-17.858971	56.237568	33.787853	89.106165	-13.234658	7.614135
0.847458	6.582031	2.393311	94.381502	0.117812	0.806891	0.824174	4.911791	4.068239	-0.689457	13.005101	0.226982	29.298466	4.110606	0.000000	0.247124	-1.798465	8.443351	5.099348	0.089000	24.859243	-7.973177	0.000000	0.124810	0.718471	0.223927	0.231785	0.955566	0.237922	0.205051	1.746890	0.237922	0.142645	1.746890	0.195936	0.115899	1.465105	0.181940	0.071316	1.112911	0.167945	0.891506	8.127484	1.245413	0.000000	0.000000	20.887770	1.872937	4.318472	14.659975	-19.731599	89.918090	21.526392	87.729754	-5.955059	3.524726	5.188717	-17.831165	56.248720	33.732581	89.100396	-13.901266	7.430426
0.864407	6.668926	2.215807	94.451882	0.118105	0.806315	0.825452	5.279717	4.160380	-0.868122	13.110078	0.228814	29.398708	4.344038	0.000000	0.615929	-1.900068	7.726786	5.276131	0.092086	25.198903	-6.968943	0.000000	0.125288	0.724483	0.217833	0.232673	0.963563	0.231448	0.205836	1.761509	0.231448	0.143192	1.761509	0.190604	0.116343	1.477366	0.176989	0.071590	1.122225	0.163375	0.894922	8.195499	1.211523	0.000000	0.000000	21.206978	2.266759	4.017234	14.973572	-19.765989	90.624661	21.699266	87.724006	-5.492098	3.801174	5.155806	-17.772680	56.139150	33.734065	89.096572	-14.529344	7.266596
0.881356	6.797776	2.067727	94.577102	0.118171	0.805811	0.826345	5.571925	4.290845	-1.084971	13.164756	0.229768	29.484462	4.576613	0.000000	0.952382	-2.040366	7.046132	5.493353	0.095877	25.560896	-5.965484	0.000000	0.128217	0.737654	0.199861	0.238112	0.981080	0.212353	0.210648	1.793533	0.212353	0.146539	1.793533	0.174879	0.119062	1.504225	0.162387	0.073263	1.142627	0.149896	0.915841	8.344495	1.111568	0.000000	0.000000	21.494752	2.646576	3.761312	15.033029	-19.907425	90.118984	22.085906	87.689428	-4.950491	4.251095	5.077925	-17.696450	56.005089	33.774425	89.097878	-15.044638	7.172187
0.898305	6.960350	1.960626	94.758826	0.117993	0.805401	0.826845	5.779159	4.451099	-1.331777	13.183055	0.230088	29.558311	4.781947	0.000000	1.245225	-2.205985	6.484698	5.758012	0.100496	25.920013	-5.078215	0.000000	0.132917	0.757386	0.171721	0.246839	1.007324	0.182454	0.218369	1.841509	0.182454	0.151910	1.841509	0.150256	0.123426	1.544462	0.139523	0.075949	1.173191	0.128791	0.949410	8.567704	0.955061	0.000000	0.000000	21.704960	2.989039	3.542680	14.836385	-20.148543	88.422990	22.663576	87.708030	-4.328416	4.878655	5.005946	-17.598135	55.992467	33.808423	89.105103	-15.430069	7.183884
0.915254	7.153831	1.920416	94.998592	0.117554	0.805145	0.827042	5.876891	4.641353	-1.594876	13.163461	0.229746	29.592946	4.918082	0.000000	1.472928	-2.401179	6.002882	6.066849	0.105886	26.266453	-4.236903	0.000000	0.134662	0.783539	0.141449	0.250081	1.042106	0.150289	0.221236	1.905096	0.150289	0.153905	1.905096	0.123768	0.125047	1.597792	0.114927	0.076946	1.213701	0.106087	0.961877	8.863544	0.786695	0.000000	0.000000	21.827207	3.243879	3.287855	14.436119	-20.509303	85.868728	23.379099	87.618419	-3.802078	5.501163	5.099879	-17.463359	56.570934	33.712280	89.110625	-15.818558	7.129787
0.932203	7.370388	1.916341	95.301363	0.116880	0.804983	0.826959	5.909091	4.847235	-1.905754	13.130902	0.229177	29.606508	5.013850	0.000000	1.668430	-2.614277	5.646813	6.408550	0.111850	26.592594	-3.488466	0.000000	0.137276	0.813888	0.105654	0.254935	1.082470	0.112257	0.225531	1.978886	0.112257	0.156893	1.978886	0.092447	0.127474	1.659679	0.085843	0.078439	1.260712	0.079240	0.980549	9.206858	0.587613	0.000000	0.000000	21.867610	3.454193	3.009161	13.780654	-20.958028	82.225185	24.260481	87.589404	-3.301706	6.194100	5.247505	-17.287790	57.343143	33.552385	89.121228	-16.054967	7.136585
0.949153	7.591734	1.955766	95.643989	0.116063	0.804948	0.826687	5.875532	5.052867	-2.242150	13.095849	0.228566	29.602187	5.070153	0.000000	1.826885	-2.825271	5.483465	6.779420	0.118323	26.866989	-2.954828	0.000000	0.137814	0.845537	0.071020	0.255934	1.124564	0.075459	0.226414	2.055839	0.075459	0.157507	2.055839	0.062142	0.127974	1.724219	0.057704	0.078747	1.309737	0.053265	0.984391	9.564886	0.394991	0.000000	0.000000	21.789621	3.558107	2.655669	12.988980	-21.451509	78.068170	25.190880	87.576658	-3.020050	6.797065	5.510754	-17.095292	58.496963	33.314349	89.124072	-16.239200	7.120678
0.966102	7.805495	2.028073	96.019712	0.115163	0.805012	0.826274	5.795205	5.248553	-2.593447	13.068930	0.228096	29.579796	5.060726	0.000000	1.950133	-3.031404	5.434979	7.146156	0.124724	27.114977	-2.521152	0.000000	0.135237	0.876075	0.034884	0.251148	1.165180	0.037064	0.222180	2.130090	0.037064	0.154562	2.130090	0.030523	0.125581	1.786493	0.028343	0.077274	1.357041	0.026163	0.965983	9.910339	0.194013	0.000000	0.000000	21.635118	3.562667	2.233462	12.092125	-21.967056	73.468723	26.172679	87.524846	-2.871854	7.341729	5.792921	-16.905193	59.713592	33.047279	89.124540	-16.426860	7.007482
0.983051	7.984250	2.109874	96.408909	0.114303	0.805146	0.825794	5.705384	5.410329	-2.913421	13.071448	0.228140	29.560706	4.960286	0.000000	2.068226	-3.206452	5.467754	7.512680	0.131121	27.338155	-2.172715	0.000000	0.130425	0.900806	-0.007379	0.242213	1.198071	-0.007840	0.214276	2.190219	-0.007840	0.149063	2.190219	-0.006457	0.121113	1.836923	-0.005996	0.074525	1.395348	-0.005534	0.931615	10.190092	-0.041041	0.000000	0.000000	21.424995	3.508717	1.806120	11.253132	-22.416121	69.176977	27.052543	87.414031	-3.046812	7.636526	6.021743	-16.751407	60.733421	32.816188	89.122192	-16.508085	6.904032
1.000000	8.118501	2.189838	96.775061	0.113559	0.805317	0.825277	5.623107	5.532068	-3.160161	13.108240	0.228782	29.547578	4.759327	0.000000	2.182087	-3.345835	5.490652	7.858512	0.137157	27.553029	-1.831361	0.000000	0.123464	0.918182	-0.049309	0.229284	1.221182	-0.052391	0.202838	2.232467	-0.052391	0.141106	2.232467	-0.043146	0.114648	1.872356	-0.040064	0.070547	1.422263	-0.036982	0.881887	10.386655	-0.274245	0.000000	0.000000	21.193793	3.380965	1.368492	10.454515	-22.774686	65.115704	27.851679	87.324623	-3.411139	7.777475	6.146854	-16.639897	61.371745	32.681097	89.118284	-16.439683	6.889949
1.016949	8.207395	2.260673	97.101437	0.112916	0.805508	0.824789	5.559040	5.605619	-3.358375	13.176823	0.229979	29.540961	4.521446	0.000000	2.287579	-3.434813	5.669601	8.160008	0.142419	27.697326	-1.753829	0.000000	0.114791	0.929032	-0.081550	0.213179	1.235613	-0.086646	0.188591	2.258849	-0.086646	0.131195	2.258849	-0.071356	0.106595	1.894483	-0.066259	0.065592	1.439071	-0.061162	0.819944	10.509400	-0.453554	0.000000	0.000000	20.982361	3.173270	0.950445	9.693284	-23.083579	61.268086	28.600490	87.280234	-3.899545	7.776246	6.254971	-16.550571	61.854874	32.573328	89.106763	-16.266655	6.913829
1.033898	8.242310	2.311838	97.397112	0.112458	0.805677	0.824387	5.530575	5.628336	-3.499949	13.281493	0.231806	29.552621	4.234274	0.000000	2.419913	-3.480523	5.699773	8.459759	0.147651	27.885723	-1.504850	0.000000	0.105102	0.930842	-0.118254	0.195185	1.238020	-0.125645	0.172673	2.263250	-0.125645	0.120121	2.263250	-0.103473	0.097598	1.898174	-0.096082	0.060055	1.441875	-0.088691	0.750735	10.529876	-0.657695	0.000000	0.000000	20.809763	2.920817	0.564829	9.094816	-23.207303	58.291984	29.144744	87.208620	-4.532487	7.536788	6.229782	-16.524101	61.819810	32.623110	89.102404	-15.850313	7.151066
1.050847	8.220168	2.356476	97.637623	0.112198	0.805847	0.824051	5.518328	5.597141	-3.582927	13.413429	0.234108	29.584479	3.945390	0.000000	2.535231	-3.474705	5.718915	8.716006	0.152123	28.035992	-1.313284	0.000000	0.094319	0.924438	-0.151351	0.175160	1.229502	-0.160811	0.154957	2.247678	-0.160811	0.107797	2.247678	-0.132432	0.087585	1.885114	-0.122973	0.053894	1.431954	-0.113513	0.673712	10.457426	-0.841771	0.000000	0.000000	20.627102	2.606208	0.263962	8.637111	-23.197961	56.051087	29.528457	87.153424	-5.273168	7.103907	6.117224	-16.549437	61.452156	32.754381	89.100627	-15.362556	7.414812
1.067797	8.172757	2.368752	97.782286	0.112121	0.805969	0.823821	5.551260	5.541580	-3.596937	13.562391	0.236708	29.622320	3.702700	0.000000	2.652126	-3.440257	5.755394	8.918429	0.155656	28.129736	-1.261346	0.000000	0.086599	0.914579	-0.177088	0.160822	1.216391	-0.188156	0.142273	2.223708	-0.188156	0.098973	2.223708	-0.154952	0.080415	1.865010	-0.143884	0.049482	1.416684	-0.132816	0.618565	10.345905	-0.984911	0.000000	0.000000	20.485290	2.241012	0.054794	8.372922	-23.079798	54.719534	29.755728	87.108938	-6.020937	6.480546	5.952989	-16.604300	60.910514	32.920932	89.103138	-14.865092	7.670472
1.084746	8.110239	2.380317	97.821025	0.112156	0.806083	0.823681	5.598763	5.457840	-3.659251	13.739139	0.239793	29.692161	3.684048	0.000000	2.732341	-3.388916	5.729988	9.070323	0.158307	28.190635	-1.237141	0.000000	0.079478	0.904623	-0.182812	0.147598	1.203149	-0.194238	0.130574	2.199501	-0.194238	0.090835	2.199501	-0.159961	0.073803	1.844708	-0.148535	0.045414	1.401261	-0.137109	0.567701	10.233279	-1.016747	0.000000	0.000000	20.316856	1.785677	-0.007021	8.211018	-22.989196	53.682796	29.999059	87.129278	-6.509361	5.956228	5.863777	-16.655959	60.570111	33.020320	89.102696	-14.471541	7.832923
1.101695	8.033268	2.406840	97.782381	0.112270	0.806215	0.823611	5.630427	5.352604	-3.755874	13.920115	0.242952	29.777616	3.844869	0.000000	2.745694	-3.324029	5.692975	9.143593	0.159586	28.201880	-1.248285	0.000000	0.072056	0.893923	-0.173388	0.133815	1.188918	-0.184224	0.118381	2.173485	-0.184224	0.082353	2.173485	-0.151714	0.066911	1.822888	-0.140877	0.041173	1.384687	-0.130041	0.514690	10.112237	-0.964330	0.000000	0.000000	20.092161	1.284207	0.053295	8.154584	-22.895453	53.086084	30.186376	87.176210	-6.819539	5.465844	5.880806	-16.707898	60.546423	33.045054	89.101181	-14.175170	7.935929
1.118644	7.929756	2.429147	97.619507	0.112566	0.806343	0.823593	5.673152	5.220324	-3.817009	14.118915	0.246422	29.886786	4.157826	0.000000	2.702263	-3.234117	5.558037	9.135591	0.159446	28.178244	-1.232876	0.000000	0.065659	0.880654	-0.150271	0.121936	1.171270	-0.159663	0.107872	2.141223	-0.159663	0.075042	2.141223	-0.131487	0.060971	1.795830	-0.122095	0.037518	1.364133	-0.112703	0.468999	9.962137	-0.835761	0.000000	0.000000	19.808627	0.790566	0.339266	8.277047	-22.745865	53.242764	30.247175	87.194166	-7.019074	4.994803	5.872535	-16.765191	60.500697	33.030248	89.102861	-14.042523	7.827704
1.135593	7.817649	2.451229	97.395746	0.112943	0.806447	0.823592	5.709570	5.084391	-3.830538	14.308062	0.249723	30.005032	4.515327	0.000000	2.596186	-3.129492	5.552628	9.025159	0.157519	28.073741	-1.418618	0.000000	0.060245	0.866663	-0.120283	0.111880	1.152662	-0.127801	0.098976	2.107204	-0.127801	0.068854	2.107204	-0.105248	0.055943	1.767299	-0.097730	0.034424	1.342461	-0.090212	0.430321	9.803864	-0.668979	0.000000	0.000000	19.471594	0.336402	0.876781	8.471142	-22.605721	53.667170	30.288356	87.260377	-7.091694	4.683566	5.858294	-16.832185	60.515716	33.014147	89.105035	-14.117968	7.581086
1.152542	7.700130	2.471492	97.086427	0.113435	0.806540	0.823595	5.741811	4.950381	-3.772092	14.484090	0.252795	30.133611	4.918072	0.000000	2.419076	-3.014753	5.641879	8.797696	0.153549	27.898731	-1.790565	0.000000	0.054990	0.852254	-0.076341	0.102121	1.133498	-0.081112	0.090342	2.072170	-0.081112	0.062848	2.072170	-0.066798	0.051063	1.737916	-0.062027	0.031421	1.320141	-0.057256	0.392785	9.640865	-0.424584	0.000000	0.000000	19.058705	-0.087575	1.628209	8.728294	-22.482078	54.345104	30.314271	87.370113	-7.042842	4.513511	5.830504	-16.896104	60.522372	32.991108	89.106651	-14.333090	7.196594
1.169492	7.580155	2.496996	96.711287	0.114003	0.806644	0.823576	5.756849	4.819083	-3.657492	14.633938	0.255410	30.262678	5.376584	0.000000	2.173723	-2.893763	5.823329	8.470680	0.147841	27.667863	-2.324272	0.000000	0.048786	0.837869	-0.021178	0.090600	1.114366	-0.022501	0.080150	2.037195	-0.022501	0.055757	2.037195	-0.018530	0.045302	1.708583	-0.017207	0.027876	1.297859	-0.015883	0.348471	9.478145	-0.117784	0.000000	0.000000	18.545957	-0.483404	2.575321	9.038221	-22.374710	55.227484	30.322587	87.511172	-6.879376	4.489265	5.799498	-16.960114	60.550156	32.969419	89.103687	-14.686291	6.717778
1.186441	7.468190	2.532181	96.302551	0.114621	0.806774	0.823487	5.739839	4.708478	-3.471984	14.735988	0.257192	30.384687	5.822893	0.000000	1.870734	-2.781223	6.095019	8.068261	0.140818	27.405958	-2.981042	0.000000	0.041183	0.824570	0.036764	0.076480	1.096678	0.039062	0.067659	2.004859	0.039062	0.047067	2.004859	0.032169	0.038242	1.681463	0.029871	0.023532	1.277259	0.027573	0.294163	9.327698	0.204472	0.000000	0.000000	17.894879	-0.845105	3.743263	9.395406	-22.276203	56.327659	30.303550	87.629592	-6.712316	4.485894	5.712442	-17.021017	60.443158	32.984958	89.097777	-15.168618	6.182901
1.203390	7.361917	2.567629	95.864693	0.115298	0.806920	0.823313	5.703771	4.612237	-3.238132	14.795167	0.258224	30.504420	6.280810	0.000000	1.527460	-2.670504	6.491705	7.605052	0.132733	27.096476	-3.835568	0.000000	0.032488	0.811156	0.100729	0.060334	1.078838	0.107025	0.053375	1.972245	0.107025	0.037131	1.972245	0.088138	0.030169	1.654110	0.081843	0.018564	1.256481	0.075547	0.232062	9.175961	0.560226	0.000000	0.000000	17.141605	-1.202443	5.019255	9.717528	-22.179245	57.321472	30.296134	87.766225	-6.533006	4.535177	5.563975	-17.098229	60.120737	33.090723	89.093310	-15.634808	5.686408
1.220339	7.276985	2.600041	95.424473	0.115982	0.807092	0.823025	5.646045	4.550908	-2.924140	14.798749	0.258287	30.599210	6.660406	0.000000	1.167945	-2.578551	6.991044	7.114530	0.124172	26.767496	-4.831450	0.000000	0.024497	0.800131	0.165844	0.045493	1.064174	0.176209	0.040245	1.945438	0.176209	0.027997	1.945438	0.145113	0.022747	1.631627	0.134748	0.013997	1.239403	0.124383	0.174976	9.051239	0.922372	0.000000	0.000000	16.256721	-1.583608	6.414148	9.977395	-22.087153	58.146473	30.311469	87.910034	-6.367847	4.579883	5.374011	-17.162597	59.695053	33.219046	89.083741	-16.228524	5.126772
1.237288	7.192214	2.656704	95.019016	0.116662	0.807342	0.822640	5.534194	4.503634	-2.570910	14.745057	0.257350	30.675290	6.961229	0.000000	0.788967	-2.497452	7.419133	6.640844	0.115905	26.487916	-5.682152	0.000000	0.013332	0.788628	0.222096	0.024759	1.048875	0.235977	0.021904	1.917469	0.235977	0.015237	1.917469	0.194334	0.012380	1.608170	0.180453	0.007618	1.221584	0.166572	0.095231	8.921114	1.235234	0.000000	0.000000	15.209030	-2.042167	7.872315	10.231412	-21.970388	58.956204	30.297153	88.000020	-6.276299	4.580061	5.130429	-17.243800	59.066627	33.419931	89.079836	-16.760658	4.643382
1.254237	7.122448	2.723994	94.655587	0.117319	0.807648	0.822149	5.386901	4.482445	-2.193349	14.642250	0.255555	30.723758	7.172613	0.000000	0.414620	-2.443386	7.750175	6.194531	0.108115	26.260994	-6.362292	0.000000	0.001478	0.778026	0.269634	0.002745	1.034775	0.286486	0.002428	1.891693	0.286486	0.001689	1.891693	0.235929	0.001373	1.586551	0.219077	0.000845	1.205163	0.202225	0.010558	8.801188	1.499621	0.000000	0.000000	14.044752	-2.567996	9.342592	10.437926	-21.843230	59.645392	30.282638	88.033715	-6.255187	4.525776	4.857441	-17.326755	58.363819	33.626579	89.075552	-17.370375	4.087019
1.271186	7.063603	2.791469	94.348579	0.117964	0.807983	0.821550	5.215746	4.483200	-1.785105	14.493985	0.252968	30.744994	7.252818	0.000000	0.077808	-2.410579	7.964596	5.812388	0.101445	26.121168	-6.830945	0.000000	-0.008894	0.767225	0.307178	-0.016518	1.020409	0.326376	-0.014613	1.865431	0.326376	-0.010165	1.865431	0.268780	-0.008259	1.564525	0.249582	-0.005082	1.188431	0.230383	-0.063532	8.679001	1.708429	0.000000	0.000000	12.782465	-3.144005	10.802333	10.523678	-21.682166	59.963557	30.288917	88.104372	-6.304487	4.456034	4.542422	-17.413885	57.532714	33.850953	89.072980	-18.017347	3.514532
1.288136	7.023108	2.872200	94.112225	0.118552	0.808356	0.820877	5.013118	4.509042	-1.396103	14.309221	0.249743	30.744968	7.226668	0.000000	-0.235035	-2.402202	8.223091	5.482626	0.095690	26.020451	-7.287812	0.000000	-0.019509	0.757490	0.335985	-0.036230	1.007462	0.356984	-0.032051	1.841762	0.356984	-0.022297	1.841762	0.293987	-0.018116	1.544674	0.272988	-0.011147	1.173353	0.251989	-0.139350	8.568883	1.868650	0.000000	0.000000	11.462177	-3.775637	12.157986	10.486088	-21.506532	59.915415	30.328349	88.172937	-6.401091	4.395658	4.263398	-17.493487	56.802091	34.040325	89.069301	-18.730262	2.939249
1.305085	7.001041	2.969879	93.966928	0.119065	0.808757	0.820161	4.776880	4.560018	-1.040954	14.085896	0.245845	30.723509	7.072740	0.000000	-0.515608	-2.425606	8.454340	5.215053	0.091020	25.994635	-7.594776	0.000000	-0.031436	0.748726	0.349820	-0.058381	0.995805	0.371684	-0.051647	1.820451	0.371684	-0.035929	1.820451	0.306093	-0.029192	1.526801	0.284229	-0.017963	1.159776	0.262365	-0.224547	8.469734	1.945594	0.000000	0.000000	10.144704	-4.426905	13.383514	10.352738	-21.320999	59.581265	30.396503	88.155949	-6.520595	4.336043	4.019539	-17.569296	56.186976	34.177931	89.066994	-19.547607	2.292744
1.322034	6.990969	3.064207	93.890130	0.119537	0.809141	0.819453	4.544600	4.624064	-0.722248	13.851177	0.241749	30.698398	6.817775	0.000000	-0.733669	-2.465669	8.697079	5.027843	0.087752	26.034738	-7.839399	0.000000	-0.042423	0.740097	0.352994	-0.078783	0.984329	0.375056	-0.069696	1.799472	0.375056	-0.048485	1.799472	0.308870	-0.039394	1.509206	0.286808	-0.024240	1.146410	0.264746	-0.303021	8.372127	1.963248	0.000000	0.000000	8.871884	-5.051397	14.456368	10.134948	-21.116252	58.991802	30.470285	88.156773	-6.690779	4.248222	3.821860	-17.644949	55.682779	34.274879	89.064544	-20.369074	1.681655
1.338983	7.002020	3.157352	93.884859	0.119944	0.809490	0.818777	4.316682	4.707959	-0.458921	13.605636	0.237463	30.664517	6.485403	0.000000	-0.891976	-2.531561	8.968693	4.915575	0.085793	26.136033	-8.028989	0.000000	-0.053077	0.732825	0.349617	-0.098570	0.974658	0.371469	-0.087200	1.781791	0.371469	-0.060662	1.781791	0.305915	-0.049287	1.494377	0.284064	-0.030328	1.135146	0.262213	-0.379125	8.289866	1.944467	0.000000	0.000000	7.701287	-5.621215	15.306700	9.793377	-20.904246	58.002624	30.589596	88.165126	-6.800803	4.195919	3.708021	-17.713624	55.369711	34.323112	89.064625	-21.170685	1.141271
1.355932	7.034357	3.239605	93.939220	0.120268	0.809782	0.818187	4.114476	4.803368	-0.281325	13.369242	0.233337	30.628398	6.138178	0.000000	-0.975711	-2.612323	9.314066	4.889791	0.085343	26.272684	-8.254029	0.000000	-0.062732	0.727785	0.340737	-0.116500	0.967954	0.362033	-0.103063	1.769536	0.362033	-0.071697	1.769536	0.298145	-0.058253	1.484099	0.276849	-0.035845	1.127339	0.255552	-0.448091	8.232849	1.895075	0.000000	0.000000	6.681557	-6.109483	15.946576	9.380725	-20.700039	56.807649	30.721004	88.163016	-6.890873	4.092432	3.696594	-17.770487	55.305987	34.303271	89.067738	-22.002103	0.604136
1.372881	7.089656	3.302448	94.072603	0.120479	0.809982	0.817712	3.944243	4.914287	-0.183615	13.136822	0.229281	30.579159	5.746592	0.000000	-0.968853	-2.715710	9.635261	4.961195	0.086589	26.470926	-8.346304	0.000000	-0.069880	0.724977	0.325886	-0.129774	0.964219	0.346254	-0.114806	1.762708	0.346254	-0.079866	1.762708	0.285151	-0.064890	1.478373	0.264783	-0.039929	1.122989	0.244415	-0.499145	8.201082	1.812482	0.000000	0.000000	5.873023	-6.493698	16.322582	8.895196	-20.502386	55.422753	30.862154	88.148487	-6.970402	3.940906	3.805491	-17.823349	55.476091	34.231481	89.079169	-22.747499	0.106868
1.389831	7.170302	3.346855	94.233318	0.120572	0.810091	0.817357	3.814731	5.034392	-0.173767	12.937239	0.225797	30.527974	5.406763	0.000000	-0.892536	-2.832645	9.993069	5.111886	0.089219	26.677062	-8.469260	0.000000	-0.074391	0.726590	0.314313	-0.138151	0.966365	0.333958	-0.122216	1.766631	0.333958	-0.085021	1.766631	0.275024	-0.069079	1.481662	0.255379	-0.042507	1.125488	0.235735	-0.531365	8.219330	1.748116	0.000000	0.000000	5.308543	-6.758154	16.495825	8.358659	-20.340103	53.912161	31.029014	88.165627	-6.965757	3.763936	4.092850	-17.786734	56.273089	33.922084	89.081528	-23.739167	-0.603395
1.406780	7.268755	3.381440	94.415254	0.120543	0.810112	0.817094	3.708902	5.155797	-0.268645	12.766636	0.222820	30.479900	5.161886	0.000000	-0.774625	-2.958176	10.340340	5.314556	0.092757	26.892335	-8.557121	0.000000	-0.076955	0.731882	0.305790	-0.142913	0.973403	0.324902	-0.126429	1.779497	0.324902	-0.087952	1.779497	0.267567	-0.071460	1.492453	0.248455	-0.043972	1.133685	0.229343	-0.549680	8.279193	1.700715	0.000000	0.000000	5.022504	-6.881125	16.489275	7.799607	-20.223283	52.405955	31.203431	88.140052	-6.918376	3.530888	4.535235	-17.703481	57.547056	33.477619	89.091703	-24.811645	-1.395503
1.423729	7.375247	3.404871	94.594200	0.120409	0.810053	0.816894	3.623267	5.271493	-0.411813	12.624960	0.220347	30.429585	4.981461	0.000000	-0.627307	-3.079058	10.694595	5.558649	0.097017	27.093328	-8.676898	0.000000	-0.076571	0.739803	0.303305	-0.142200	0.983938	0.322262	-0.125798	1.798758	0.322262	-0.087513	1.798758	0.265392	-0.071104	1.508607	0.246436	-0.043753	1.145955	0.227479	-0.546938	8.368803	1.686893	0.000000	0.000000	5.022341	-6.837114	16.327204	7.201107	-20.133222	50.823731	31.388988	88.131536	-6.793794	3.278658	5.116719	-17.526249	59.403259	32.801128	89.093704	-26.048457	-2.361555
1.440678	7.488182	3.445561	94.777657	0.120114	0.809987	0.816754	3.517409	5.380051	-0.626852	12.493234	0.218048	30.376811	4.900937	0.000000	-0.487566	-3.201052	10.953277	5.831856	0.101785	27.308459	-8.673536	0.000000	-0.076154	0.750844	0.309107	-0.141426	0.998623	0.328426	-0.125113	1.825603	0.328426	-0.087036	1.825603	0.270469	-0.070717	1.531122	0.251149	-0.043514	1.163058	0.231830	-0.543960	8.493701	1.719161	0.000000	0.000000	5.268430	-6.638335	15.984587	6.563788	-20.082658	49.190535	31.581985	88.037318	-6.612968	2.997319	5.908183	-17.205303	62.147133	31.808414	89.074952	-27.448009	-3.375273
1.457627	7.586727	3.485916	94.899249	0.119809	0.809893	0.816579	3.404939	5.472888	-0.755629	12.368105	0.215864	30.324902	4.808784	0.000000	-0.368429	-3.300596	11.104915	6.101595	0.106493	27.515167	-8.648764	0.000000	-0.073535	0.761793	0.322511	-0.136562	1.013185	0.342668	-0.120811	1.852224	0.342668	-0.084043	1.852224	0.282197	-0.068285	1.553448	0.262040	-0.042018	1.180017	0.241883	-0.525254	8.617555	1.793710	0.000000	0.000000	5.748481	-6.226980	15.576899	5.926225	-20.041510	47.570517	31.770118	87.875432	-6.417578	2.689361	6.686333	-16.842201	65.015637	30.730684	89.054539	-28.898146	-4.482979
1.474576	7.671125	3.541919	94.967147	0.119467	0.809819	0.816316	3.250966	5.550850	-0.786808	12.214878	0.213190	30.268325	4.697509	0.000000	-0.306857	-3.376564	11.211177	6.331123	0.110499	27.679494	-8.701591	0.000000	-0.069731	0.772435	0.341314	-0.129498	1.027338	0.362646	-0.114562	1.878097	0.362646	-0.079696	1.878097	0.298650	-0.064753	1.575148	0.277318	-0.039845	1.196501	0.255986	-0.498085	8.737934	1.898286	0.000000	0.000000	6.407029	-5.618974	15.062744	5.315915	-20.008823	46.064272	31.920181	87.646116	-6.297983	2.303176	7.432813	-16.451216	67.938664	29.622767	89.027644	-30.296562	-5.507262
1.491525	7.734051	3.614818	94.953199	0.119128	0.809791	0.815939	3.051187	5.601859	-0.735335	12.027866	0.209926	30.215871	4.637273	0.000000	-0.314859	-3.425861	11.111476	6.509023	0.113604	27.831982	-8.671894	0.000000	-0.065067	0.782094	0.366386	-0.120835	1.040185	0.389286	-0.106898	1.901583	0.389286	-0.074365	1.901583	0.320588	-0.060421	1.594846	0.297689	-0.037179	1.211463	0.274790	-0.464764	8.847203	2.037731	0.000000	0.000000	7.176353	-4.849794	14.465658	4.782499	-19.983151	44.805065	32.002475	87.362956	-6.317260	1.835382	8.086356	-16.056424	70.709971	28.552523	88.998024	-31.617688	-6.422913
1.508475	7.783459	3.723991	94.861850	0.118765	0.809845	0.815442	2.769003	5.633799	-0.595618	11.774954	0.205512	30.138813	4.630482	0.000000	-0.411178	-3.456159	10.795649	6.638181	0.115858	27.969836	-8.565740	0.000000	-0.062918	0.791839	0.394869	-0.116845	1.053146	0.419548	-0.103368	1.925277	0.419548	-0.071909	1.925277	0.345511	-0.058426	1.614718	0.320831	-0.035951	1.226558	0.296152	-0.449416	8.957440	2.196144	0.000000	0.000000	7.998505	-3.946328	13.769390	4.357714	-19.969011	43.843454	32.006558	87.054448	-6.474157	1.294945	8.630732	-15.646654	73.275039	27.516548	88.959753	-32.885739	-7.237059
1.525424	7.832799	3.862052	94.686667	0.118394	0.809964	0.814860	2.415565	5.666024	-0.333186	11.457176	0.199965	30.021026	4.618251	0.000000	-0.585244	-3.481898	10.249918	6.720688	0.117298	28.103029	-8.371773	0.000000	-0.063570	0.803557	0.428449	-0.118056	1.068731	0.455227	-0.104439	1.953768	0.455227	-0.072654	1.953768	0.374893	-0.059031	1.638613	0.348115	-0.036324	1.244710	0.321337	-0.454075	9.089996	2.382905	0.000000	0.000000	8.844565	-2.988604	12.987529	4.062117	-19.982963	43.228792	31.942527	86.760714	-6.794559	0.737613	9.050191	-15.225738	75.505350	26.580896	88.919992	-33.982650	-7.837496
1.542373	7.876117	4.033456	94.429830	0.118032	0.810155	0.814222	1.991478	5.689216	0.039360	11.085609	0.193480	29.863143	4.624343	0.000000	-0.836977	-3.498394	9.466350	6.764896	0.118070	28.228000	-8.062738	0.000000	-0.068484	0.816723	0.468313	-0.127182	1.086242	0.497583	-0.112513	1.985781	0.497583	-0.078271	1.985781	0.409774	-0.063595	1.665462	0.380504	-0.039132	1.265104	0.351235	-0.489177	9.238937	2.604617	0.000000	0.000000	9.669345	-2.039812	12.110087	3.928064	-20.017775	43.026785	31.789562	86.483845	-7.249381	0.223793	9.364189	-14.836614	77.346650	25.824228	88.886991	-34.723557	-8.098142
1.559322	7.916908	4.214532	94.112850	0.117676	0.810367	0.813515	1.518448	5.708773	0.479218	10.654889	0.185963	29.667031	4.667611	0.000000	-1.139287	-3.507622	8.524322	6.766771	0.118102	28.340800	-7.678634	0.000000	-0.074560	0.831694	0.508975	-0.138465	1.106153	0.540786	-0.122495	2.022181	0.540786	-0.085215	2.022181	0.445353	-0.069236	1.695991	0.413542	-0.042604	1.288294	0.381731	-0.532574	9.408290	2.830765	0.000000	0.000000	10.464113	-1.152845	11.183198	3.927979	-20.064713	43.104836	31.558738	86.310672	-7.771268	-0.202806	9.521094	-14.488518	78.619889	25.275182	88.865287	-35.125841	-8.078995
1.576271	7.947873	4.407963	93.757746	0.117347	0.810602	0.812771	0.993388	5.717419	0.963236	10.162959	0.177377	29.439577	4.749698	0.000000	-1.481406	-3.509566	7.407694	6.743548	0.117697	28.472144	-7.115511	0.000000	-0.082992	0.847214	0.547326	-0.154125	1.126794	0.581534	-0.136348	2.059916	0.581534	-0.094852	2.059916	0.478910	-0.077067	1.727638	0.444702	-0.047422	1.312334	0.410494	-0.592805	9.583852	3.044063	0.000000	0.000000	11.185264	-0.385989	10.213728	4.082483	-20.111333	43.496722	31.240702	86.146254	-8.331040	-0.508086	9.516065	-14.211546	79.210383	24.994772	88.858906	-35.019807	-7.646717
1.593220	7.977452	4.568119	93.359109	0.117063	0.810769	0.812015	0.487236	5.718429	1.432052	9.645131	0.168339	29.207582	4.936475	0.000000	-1.808434	-3.500744	6.349583	6.700104	0.116939	28.579230	-6.666673	0.000000	-0.088657	0.864459	0.585815	-0.164646	1.149731	0.622429	-0.145655	2.101846	0.622429	-0.101326	2.101846	0.512589	-0.082327	1.762805	0.475975	-0.050659	1.339047	0.439362	-0.633270	9.778934	3.258130	0.000000	0.000000	11.846220	0.258259	9.301021	4.319639	-20.163153	43.907725	30.905662	86.060175	-8.802584	-0.595753	9.313674	-13.977005	79.023557	24.955226	88.873460	-34.588961	-6.995200
1.610169	8.010559	4.691866	92.942810	0.116858	0.810865	0.811342	0.014476	5.723226	1.889518	9.105977	0.158929	28.971891	5.175425	0.000000	-2.110634	-3.494972	5.365849	6.626222	0.115649	28.674261	-6.262255	0.000000	-0.093746	0.883068	0.622733	-0.174095	1.174481	0.661654	-0.154015	2.147092	0.661654	-0.107142	2.147092	0.544891	-0.087052	1.800753	0.505970	-0.053566	1.367873	0.467050	-0.669616	9.989445	3.463454	0.000000	0.000000	12.472156	0.754866	8.454169	4.646562	-20.207605	44.306483	30.545857	85.975417	-9.208204	-0.493095	8.962646	-13.810868	78.129763	25.188221	88.875199	-33.853663	-6.088276
1.627119	8.042825	4.747356	92.532463	0.116734	0.810827	0.810864	-0.365519	5.723373	2.263406	8.575567	0.149672	28.764138	5.516185	0.000000	-2.329587	-3.480107	4.654782	6.551420	0.114344	28.715557	-6.140456	0.000000	-0.095205	0.901739	0.660098	-0.176804	1.199313	0.701354	-0.156412	2.192489	0.701354	-0.108809	2.192489	0.577586	-0.088407	1.838827	0.536330	-0.054400	1.396794	0.495074	-0.680037	10.200656	3.671269	0.000000	0.000000	13.065702	1.098873	7.666388	5.021527	-20.238376	44.532469	30.212787	85.817865	-9.542524	-0.169824	8.495099	-13.687333	76.540117	25.661953	88.872159	-32.856494	-5.014616
1.644068	8.080156	4.719321	92.129838	0.116764	0.810609	0.810654	-0.616788	5.750018	2.736956	8.075822	0.140950	28.569864	5.693384	0.000000	-2.455573	-3.469964	4.176912	6.450304	0.112579	28.719757	-6.210958	0.000000	-0.093346	0.919440	0.696464	-0.173354	1.222855	0.739993	-0.153359	2.235526	0.739993	-0.106686	2.235526	0.609406	-0.086682	1.874922	0.565877	-0.053338	1.424212	0.522348	-0.666764	10.400887	3.873526	0.000000	0.000000	13.678055	1.330655	6.964988	5.452532	-20.260930	44.622545	29.937340	85.468173	-9.850904	0.257056	7.908623	-13.628491	74.245608	26.399307	88.836710	-31.691280	-3.881684
1.661017	8.122014	4.578959	91.763684	0.116919	0.810137	0.810877	-0.662501	5.767662	2.963917	7.686134	0.134148	28.445383	6.093135	0.000000	-2.418995	-3.464783	3.885653	6.373715	0.111242	28.711152	-6.391347	0.000000	-0.086705	0.936260	0.723919	-0.161020	1.245226	0.769164	-0.142448	2.276423	0.769164	-0.099095	2.276423	0.633429	-0.080514	1.909222	0.588184	-0.049543	1.450267	0.542939	-0.619326	10.591163	4.026219	0.000000	0.000000	14.342399	1.466864	6.447939	5.943500	-20.256752	44.502106	29.755782	85.081286	-10.184537	0.787255	7.212826	-13.606406	71.198729	27.384044	88.796946	-30.261223	-2.708201
1.677966	8.168082	4.323095	91.454288	0.117158	0.809374	0.811639	-0.478673	5.775062	2.959141	7.440785	0.129866	28.387646	6.660475	0.000000	-2.205903	-3.462052	3.807989	6.324944	0.110391	28.673046	-6.706746	0.000000	-0.076106	0.952078	0.741273	-0.141337	1.266264	0.787603	-0.125035	2.314883	0.787603	-0.086982	2.314883	0.648614	-0.070672	1.941478	0.602285	-0.043487	1.474769	0.555955	-0.543618	10.770098	4.122741	0.000000	0.000000	15.099541	1.511039	6.103268	6.478871	-20.230075	44.144156	29.721197	84.629247	-10.597052	1.346233	6.479815	-13.619444	67.621390	28.569585	88.758298	-28.611164	-1.543884
1.694915	8.213052	3.943550	91.218291	0.117479	0.808283	0.813019	-0.040638	5.765367	2.717816	7.370011	0.128631	28.390905	7.355330	0.000000	-1.790122	-3.446819	3.993631	6.326978	0.110427	28.593511	-7.241974	0.000000	-0.060728	0.966031	0.747711	-0.112779	1.284822	0.794443	-0.099771	2.348808	0.794443	-0.069407	2.348808	0.654247	-0.056392	1.969931	0.607515	-0.034700	1.496382	0.560784	-0.433777	10.927939	4.158546	0.000000	0.000000	15.981072	1.464362	5.952690	7.028325	-20.158916	43.488579	29.880487	84.226223	-11.157748	1.886274	5.774372	-13.672030	63.730146	29.889911	88.727828	-26.812542	-0.488921
1.711864	8.267099	3.449802	91.107752	0.117782	0.806865	0.815075	0.644944	5.736596	2.174817	7.481106	0.130570	28.447618	8.188106	0.000000	-1.154772	-3.437245	4.326309	6.410460	0.111884	28.525180	-7.769149	0.000000	-0.041439	0.979899	0.734020	-0.076956	1.303265	0.779896	-0.068080	2.382525	0.779896	-0.047361	2.382525	0.642267	-0.038480	1.998209	0.596391	-0.023678	1.517863	0.550515	-0.295995	11.084808	4.082396	0.000000	0.000000	17.005411	1.328183	6.012075	7.566015	-20.045112	42.484735	30.295569	83.942332	-11.837387	2.441774	5.174249	-13.734498	59.842329	31.238936	88.711483	-24.981615	0.341514
1.728814	8.326886	2.854492	91.108185	0.118056	0.805155	0.817814	1.565446	5.686512	1.384686	7.775973	0.135716	28.555811	9.122535	0.000000	-0.310239	-3.429961	4.758942	6.582293	0.114883	28.480061	-8.261424	0.000000	-0.019146	0.993437	0.703262	-0.035556	1.321271	0.747216	-0.031455	2.415442	0.747216	-0.021882	2.415442	0.615354	-0.017779	2.025816	0.571400	-0.010940	1.538833	0.527447	-0.136757	11.237953	3.911333	0.000000	0.000000	18.155383	1.126264	6.257813	8.062745	-19.890049	41.113044	30.990356	83.803460	-12.625036	2.962876	4.738155	-13.766493	56.285474	32.510452	88.713229	-23.261950	0.892894
1.745763	8.383048	2.176853	91.223546	0.118291	0.803215	0.821192	2.692028	5.605232	0.364892	8.242783	0.143864	28.724904	10.154257	0.000000	0.722662	-3.424393	5.153168	6.842077	0.119417	28.499086	-8.537421	0.000000	0.005031	1.005439	0.647051	0.009343	1.337234	0.687491	0.008266	2.444624	0.687491	0.005750	2.444624	0.566169	0.004672	2.050291	0.525729	0.002875	1.557425	0.485288	0.035937	11.373727	3.598702	0.000000	0.000000	19.381590	0.892313	6.717674	8.553079	-19.697268	39.565177	31.923370	83.758874	-13.569074	3.332047	4.406897	-13.805163	52.871073	33.801485	88.765929	-21.554138	1.263119
1.762712	8.425814	1.435764	91.436222	0.118469	0.801130	0.825109	3.990053	5.487966	-0.786884	8.860004	0.154636	28.953204	11.204247	0.000000	1.909869	-3.398050	5.602192	7.176667	0.125256	28.544053	-8.782174	0.000000	0.032101	1.014217	0.569288	0.059615	1.348909	0.604868	0.052739	2.465967	0.604868	0.036689	2.465967	0.498127	0.029809	2.068192	0.462546	0.018343	1.571022	0.426966	0.229296	11.473027	3.166207	0.000000	0.000000	20.610287	0.654263	7.314214	9.010438	-19.466435	37.839589	33.067219	83.854596	-14.665490	3.498840	4.226545	-13.775720	49.913918	34.949051	88.867064	-20.024823	1.378721
1.779661	8.451814	0.668671	91.744661	0.118607	0.799002	0.829437	5.397059	5.336288	-2.042922	9.591485	0.167403	29.244503	12.267665	0.000000	3.202616	-3.373788	5.852598	7.583659	0.132360	28.667779	-8.669328	0.000000	0.060202	1.018369	0.467924	0.111802	1.354431	0.497169	0.098906	2.476062	0.497169	0.068805	2.476062	0.409433	0.055904	2.076658	0.380188	0.034400	1.577453	0.350943	0.430019	11.519993	2.602451	0.000000	0.000000	21.765452	0.454063	8.017789	9.493034	-19.214077	36.208780	34.352480	83.990174	-15.972612	3.368482	4.200949	-13.702937	47.378532	35.998455	89.008437	-18.708648	1.329431
1.796610	8.429230	-0.105044	92.109627	0.118818	0.796889	0.833939	6.859335	5.132819	-3.247930	10.397885	0.181477	29.597612	13.225159	0.000000	4.541455	-3.321657	5.851250	8.025878	0.140078	28.856996	-8.206553	0.000000	0.090070	1.011926	0.344313	0.167268	1.345862	0.365832	0.147975	2.460397	0.365832	0.102940	2.460397	0.301274	0.083639	2.063520	0.279754	0.051466	1.567473	0.258235	0.643358	11.447110	1.914964	0.000000	0.000000	22.808346	0.369179	8.786271	10.060970	-18.910901	34.901918	35.698429	84.230211	-17.585934	2.920497	4.222038	-13.668108	44.797064	37.093970	89.213242	-17.526952	1.140641
1.813559	8.359585	-0.853742	92.512875	0.119068	0.794888	0.838438	8.309248	4.879719	-4.398800	11.230144	0.196003	30.002924	14.117279	0.000000	5.871604	-3.241512	5.565385	8.484956	0.148090	29.097487	-7.397229	0.000000	0.120307	0.995908	0.206482	0.223423	1.324558	0.219387	0.197653	2.421451	0.219387	0.137499	2.421451	0.180672	0.111717	2.030856	0.167767	0.068744	1.542661	0.154862	0.859344	11.265910	1.148391	0.000000	0.000000	23.706655	0.405676	9.640404	10.735103	-18.587173	34.056397	37.090651	84.571276	-19.484908	2.212445	4.358871	-13.599413	42.478413	38.107024	89.398898	-16.531697	0.875024
1.830508	8.235115	-1.544252	92.935171	0.119405	0.793078	0.842770	9.680482	4.582151	-5.425073	12.049652	0.210306	30.429305	14.876128	0.000000	7.136067	-3.132805	4.936433	8.946023	0.156138	29.391872	-6.187458	0.000000	0.148344	0.969040	0.066867	0.275489	1.288823	0.071046	0.243714	2.356123	0.071046	0.169542	2.356123	0.058509	0.137752	1.976066	0.054329	0.084764	1.501043	0.050150	1.059603	10.961971	0.371894	0.000000	0.000000	24.442147	0.522906	10.506328	11.523941	-18.247136	33.760928	38.496779	85.031388	-21.630843	1.278928	4.694383	-13.524790	40.697322	39.023065	89.265645	-15.756859	0.535468
1.847458	8.074005	-2.147370	93.389424	0.119733	0.791522	0.846782	10.896070	4.259550	-6.308048	12.789476	0.223218	30.830751	15.473016	0.000000	8.294688	-3.004993	4.070472	9.407853	0.164198	29.723309	-4.681730	0.000000	0.171401	0.935307	-0.070744	0.318309	1.243959	-0.075166	0.281595	2.274106	-0.075166	0.195894	2.274106	-0.061901	0.159163	1.907279	-0.057480	0.097939	1.448791	-0.053058	1.224302	10.580384	-0.393459	0.000000	0.000000	25.028694	0.675595	11.420651	12.397190	-17.910787	33.970429	39.939704	85.614580	-23.801644	0.229535	5.223779	-13.381677	39.468369	39.778791	89.121627	-15.194777	0.156167
1.864407	7.875234	-2.654554	93.852902	0.120091	0.790251	0.850361	11.928478	3.920937	-7.004238	13.431539	0.234425	31.190440	15.864131	0.000000	9.318117	-2.856050	3.013591	9.853697	0.171979	30.082496	-2.932753	0.000000	0.189578	0.895294	-0.188979	0.352066	1.190741	-0.200790	0.311458	2.176818	-0.200790	0.216669	2.176818	-0.165357	0.176042	1.825683	-0.153546	0.108325	1.386810	-0.141734	1.354139	10.127744	-1.051046	0.000000	0.000000	25.447691	0.757222	12.331025	13.293649	-17.576010	34.596221	41.417197	86.294973	-25.772635	-0.803570	6.011533	-13.199601	38.985116	40.396118	88.807230	-14.733922	-0.254080
1.881356	7.645488	-3.050738	94.324408	0.120454	0.789309	0.853354	12.728815	3.576789	-7.514284	13.929749	0.243120	31.491542	16.067384	0.000000	10.173013	-2.690153	1.863993	10.269060	0.179229	30.448212	-1.029452	0.000000	0.202351	0.850720	-0.284683	0.375786	1.131457	-0.302475	0.332443	2.068440	-0.302475	0.231267	2.068440	-0.249097	0.187903	1.734788	-0.231305	0.115623	1.317765	-0.213512	1.445375	9.623513	-1.583320	0.000000	0.000000	25.673138	0.752888	13.233908	14.164557	-17.224953	35.530967	42.891863	86.990816	-27.329546	-1.757331	6.987851	-12.995377	39.120057	40.917268	88.156862	-14.229200	-0.777695
1.898305	7.397673	-3.330136	94.791905	0.120823	0.788711	0.855691	13.278055	3.243178	-7.888114	14.264804	0.248968	31.733629	16.156475	0.000000	10.840959	-2.514695	0.785129	10.641596	0.185731	30.790205	0.832306	0.000000	0.209301	0.803702	-0.356240	0.388692	1.068923	-0.378506	0.343860	1.954120	-0.378506	0.239210	1.954120	-0.311710	0.194357	1.638908	-0.289445	0.119594	1.244934	-0.267180	1.495014	9.091632	-1.981303	0.000000	0.000000	25.677281	0.645392	14.116207	14.996024	-16.863467	36.751112	44.331188	87.679530	-28.321109	-2.573810	8.089486	-12.775450	39.802356	41.357665	86.800040	-13.552596	-1.547556
1.915254	7.150940	-3.488828	95.250121	0.121183	0.788479	0.857332	13.556910	2.948112	-8.072144	14.405577	0.251425	31.891938	16.065564	0.000000	11.319675	-2.352238	-0.238200	10.983311	0.191695	31.136618	2.706477	0.000000	0.210799	0.757125	-0.403592	0.391475	1.006976	-0.428816	0.346322	1.840874	-0.428816	0.240923	1.840874	-0.353143	0.195748	1.543929	-0.327918	0.120451	1.172787	-0.302694	1.505718	8.564750	-2.244655	0.000000	0.000000	25.424102	0.418980	14.955949	15.767380	-16.497320	38.186817	45.703212	88.292379	-28.600137	-3.193605	9.246575	-12.534615	40.906071	41.719861	84.751803	-12.658304	-2.551610
1.932203	6.909765	-3.531537	95.696291	0.121547	0.788591	0.858298	13.582403	2.696870	-8.135225	14.370315	0.250809	31.986604	15.874066	0.000000	11.617245	-2.206327	-1.133366	11.301529	0.197249	31.466692	4.502213	0.000000	0.206510	0.711733	-0.428413	0.383509	0.946605	-0.455189	0.339275	1.730507	-0.455189	0.236020	1.730507	-0.374861	0.191765	1.451366	-0.348085	0.118000	1.102474	-0.321310	1.475079	8.051264	-2.382703	0.000000	0.000000	24.933583	0.085362	15.755095	16.467428	-16.123225	39.762202	46.978896	88.814367	-28.040508	-3.517858	10.390612	-12.296763	42.265232	42.093452	81.939013	-11.671370	-3.712467
1.949153	6.683106	-3.480330	96.101328	0.121949	0.789020	0.858600	13.371902	2.505489	-8.019457	14.140887	0.246805	31.989026	15.539697	0.000000	11.736492	-2.085658	-1.909385	11.562649	0.201806	31.759616	6.186126	0.000000	0.200016	0.668184	-0.429355	0.371450	0.888684	-0.456189	0.328606	1.624622	-0.456189	0.228598	1.624622	-0.375685	0.185735	1.362560	-0.348851	0.114289	1.035017	-0.322016	1.428694	7.558627	-2.387941	0.000000	0.000000	24.238836	-0.343240	16.469712	17.109384	-15.747824	41.507738	48.124824	89.494565	-26.704857	-3.627128	11.538469	-12.083224	44.001187	42.403036	78.419879	-10.598543	-5.170431
1.966102	6.463050	-3.347666	96.464059	0.122401	0.789700	0.858325	12.964907	2.365023	-7.762338	13.761345	0.240181	31.916068	15.083271	0.000000	11.709874	-1.979458	-2.540233	11.797954	0.205913	32.019624	7.688899	0.000000	0.191243	0.625505	-0.406265	0.355156	0.831922	-0.431656	0.314192	1.520853	-0.431656	0.218571	1.520853	-0.355482	0.177588	1.275530	-0.330090	0.109276	0.968907	-0.304699	1.366026	7.075839	-2.259524	0.000000	0.000000	23.396885	-0.837340	17.065317	17.647521	-15.360115	43.247971	49.146574	90.022700	-24.602862	-3.370736	12.662091	-11.897817	45.956511	42.722998	74.356684	-9.711096	-6.750212
1.983051	6.264602	-3.142458	96.777866	0.122897	0.790571	0.857553	12.389770	2.289661	-7.368775	13.262282	0.231470	31.757569	14.483564	0.000000	11.528922	-1.900249	-2.993881	11.958435	0.208714	32.219914	8.953505	0.000000	0.179547	0.585788	-0.366492	0.333436	0.779098	-0.389398	0.294977	1.424284	-0.389398	0.205204	1.424284	-0.320681	0.166727	1.194538	-0.297775	0.102593	0.907385	-0.274869	1.282484	6.626549	-2.038321	0.000000	0.000000	22.505807	-1.376752	17.543832	18.114218	-14.982181	45.042336	50.044011	90.081478	-21.894947	-2.715607	13.726238	-11.775626	48.052180	43.098456	70.059798	-9.050697	-8.237287
2.000000	6.077946	-2.886869	97.080841	0.123378	0.791545	0.856462	11.702517	2.230727	-7.179387	12.701285	0.221679	31.561757	14.112182	0.000000	11.264945	-1.834613	-3.331281	12.108292	0.211330	32.396275	10.072313	0.000000	0.165115	0.548832	-0.322356	0.306635	0.729946	-0.342504	0.271268	1.334429	-0.342504	0.188710	1.334429	-0.282062	0.153326	1.119178	-0.261915	0.094347	0.850140	-0.241767	1.179401	6.208494	-1.792850	0.000000	0.000000	21.625261	-1.940294	17.970261	18.470243	-14.582053	46.661773	50.812512	89.891689	-18.627712	-1.605390	14.733428	-11.725685	50.215359	43.559003	65.701744	-8.580641	-9.488689
2.016949	5.910209	-2.586454	97.368661	0.123842	0.792575	0.855152	10.917737	2.207606	-7.019621	12.081913	0.210869	31.299319	13.734589	0.000000	10.915411	-1.778068	-3.448048	12.213507	0.213166	32.509842	10.886643	0.000000	0.147770	0.515310	-0.274471	0.274423	0.685362	-0.291626	0.242771	1.252924	-0.291626	0.168886	1.252924	-0.240162	0.137219	1.050820	-0.223008	0.084435	0.798215	-0.205853	1.055503	5.829288	-1.526526	0.000000	0.000000	20.804849	-2.535864	18.255147	18.717666	-14.190127	48.153123	51.481190	89.019507	-15.038283	-0.045658	15.708017	-11.769404	52.517284	44.055271	61.474736	-8.133022	-10.375750
2.033898	5.768781	-2.267167	97.640079	0.124274	0.793591	0.853708	10.085106	2.211993	-6.974163	11.435557	0.199588	30.991641	13.443321	0.000000	10.520741	-1.735853	-3.404214	12.286096	0.214433	32.583051	11.449314	0.000000	0.130117	0.486430	-0.226720	0.241641	0.646952	-0.240890	0.213770	1.182706	-0.240890	0.148711	1.182706	-0.198380	0.120827	0.991928	-0.184210	0.074349	0.753480	-0.170040	0.929416	5.502594	-1.260950	0.000000	0.000000	20.063443	-3.171335	18.418950	18.784009	-13.830198	49.354140	52.118122	87.862056	-11.256738	1.846947	16.621055	-11.930478	54.993706	44.650032	57.510853	-8.001860	-11.070760
2.050847	5.662400	-1.937151	97.922758	0.124611	0.794568	0.852277	9.232811	2.242791	-7.052216	10.779099	0.188131	30.644168	13.218208	0.000000	10.113061	-1.716642	-3.276781	12.343051	0.215427	32.646543	11.907553	0.000000	0.111059	0.463532	-0.193465	0.206247	0.616497	-0.205556	0.182458	1.127031	-0.205556	0.126929	1.127031	-0.169282	0.103129	0.945234	-0.157190	0.063459	0.718011	-0.145098	0.793280	5.243565	-1.075992	0.000000	0.000000	19.419627	-3.811384	18.488308	18.730917	-13.533120	50.385963	52.710897	86.137531	-7.410496	4.061530	17.417052	-12.184290	57.405763	45.303477	53.937217	-7.755028	-11.407356
2.067797	5.581767	-1.612432	98.198286	0.124865	0.795477	0.850941	8.398110	2.291313	-7.204290	10.134620	0.176882	30.280905	13.037515	0.000000	9.706163	-1.703971	-3.022978	12.372891	0.215948	32.675537	12.159245	0.000000	0.091686	0.444863	-0.174748	0.170270	0.591668	-0.185670	0.150631	1.081641	-0.185670	0.104788	1.081641	-0.152905	0.085140	0.907165	-0.141983	0.052389	0.689093	-0.131061	0.654903	5.032383	-0.971898	0.000000	0.000000	18.877082	-4.415150	18.438788	18.574877	-13.327013	51.295411	53.248273	83.895443	-3.660060	6.454032	18.073659	-12.531669	59.655328	46.054493	50.863684	-7.343658	-11.349057
2.084746	5.526673	-1.309486	98.464700	0.125056	0.796292	0.849775	7.621239	2.348331	-7.493702	9.529667	0.166324	29.938217	13.011585	0.000000	9.328830	-1.701718	-2.717884	12.386230	0.216180	32.681226	12.281558	0.000000	0.074112	0.429241	-0.168297	0.137634	0.570891	-0.178815	0.121759	1.043657	-0.178815	0.084703	1.043657	-0.147260	0.068821	0.875308	-0.136741	0.042348	0.664894	-0.126223	0.529377	4.855660	-0.936017	0.000000	0.000000	18.440268	-4.947213	18.219816	18.359022	-13.253049	52.188045	53.727765	80.957600	-0.219973	9.077821	18.674696	-12.958056	61.856540	46.890948	48.304257	-6.785890	-10.963143
2.101695	5.486098	-1.038825	98.730603	0.125160	0.796998	0.848768	6.916674	2.404753	-7.833450	8.963430	0.156441	29.624711	13.037193	0.000000	8.990163	-1.696227	-2.363916	12.379899	0.216070	32.657118	12.285903	0.000000	0.059900	0.415142	-0.186211	0.111240	0.552138	-0.197849	0.098409	1.009375	-0.197849	0.068460	1.009375	-0.162934	0.055623	0.846557	-0.151296	0.034227	0.643054	-0.139658	0.427859	4.696165	-1.035647	0.000000	0.000000	18.128341	-5.370963	17.918065	18.187229	-13.311398	53.280583	54.109403	77.572147	2.788618	11.651147	19.111546	-13.429605	63.646692	47.805985	46.335235	-5.978084	-9.940133
2.118644	5.458328	-0.814795	98.958072	0.125232	0.797570	0.847925	6.321125	2.458526	-8.165729	8.467930	0.147793	29.358140	13.107304	0.000000	8.708309	-1.695648	-2.066885	12.367699	0.215857	32.622804	12.255983	0.000000	0.050393	0.403009	-0.226733	0.093585	0.536001	-0.240904	0.082791	0.979875	-0.240904	0.057594	0.979875	-0.198392	0.046795	0.821815	-0.184221	0.028795	0.624260	-0.170050	0.359952	4.558913	-1.261022	0.000000	0.000000	17.956754	-5.630417	17.675047	18.147952	-13.482485	54.659019	54.392916	74.065587	5.384727	14.163803	19.383320	-13.919446	64.942586	48.765016	45.119987	-4.955631	-8.338180
2.135593	5.424512	-0.645983	99.145186	0.125294	0.798004	0.847192	5.832223	2.500133	-8.317607	8.024052	0.140046	29.107926	13.002055	0.000000	8.483177	-1.673068	-1.755030	12.340123	0.215376	32.557545	12.088206	0.000000	0.047092	0.389831	-0.284404	0.087454	0.518475	-0.302179	0.077367	0.947836	-0.302179	0.053821	0.947836	-0.248853	0.043729	0.794944	-0.231078	0.026908	0.603848	-0.213303	0.336371	4.409848	-1.581768	0.000000	0.000000	17.941304	-5.711198	17.469885	18.231475	-13.738712	56.233261	54.591000	71.101023	7.573062	16.319639	19.503738	-14.393936	65.694744	49.743094	44.695689	-3.712402	-6.118859
2.152542	5.384838	-0.528110	99.285136	0.125355	0.798319	0.846561	5.444154	2.531178	-8.283770	7.628713	0.133146	28.872355	12.722662	0.000000	8.311152	-1.632402	-1.459515	12.300859	0.214690	32.463531	11.822466	0.000000	0.048377	0.376658	-0.351614	0.089842	0.500955	-0.373590	0.079479	0.915807	-0.373590	0.055291	0.915807	-0.307662	0.044923	0.768081	-0.285686	0.027643	0.583443	-0.263710	0.345555	4.260832	-1.955571	0.000000	0.000000	18.097252	-5.653854	17.360779	18.436196	-14.070181	57.940381	54.759661	68.691382	9.328066	18.124787	19.528542	-14.830993	66.035048	50.691510	44.891829	-2.338763	-3.438001
2.169492	5.344114	-0.459186	99.377521	0.125400	0.798525	0.846019	5.158226	2.554241	-8.058012	7.290997	0.127252	28.652229	12.263939	0.000000	8.191596	-1.579731	-1.193540	12.256234	0.213912	32.355432	11.494850	0.000000	0.053845	0.364914	-0.423609	0.099995	0.485335	-0.450084	0.088462	0.887252	-0.450084	0.061539	0.887252	-0.370658	0.050000	0.744132	-0.344182	0.030767	0.565252	-0.317707	0.384609	4.127978	-2.355985	0.000000	0.000000	18.403462	-5.511873	17.359931	18.739248	-14.458811	59.707814	54.942661	66.924667	10.630022	19.537233	19.480563	-15.212369	66.076164	51.577393	45.516704	-0.956001	-0.438770
2.186441	5.311363	-0.437646	99.432163	0.125391	0.798632	0.845553	4.963973	2.574230	-7.663242	6.998093	0.122140	28.439266	11.634313	0.000000	8.126112	-1.520772	-0.930154	12.211500	0.213131	32.232741	11.098149	0.000000	0.063404	0.356638	-0.499823	0.117748	0.474329	-0.531062	0.104167	0.867130	-0.531062	0.072465	0.867130	-0.437345	0.058877	0.727257	-0.406106	0.036229	0.552433	-0.374867	0.452890	4.034364	-2.779865	0.000000	0.000000	18.814738	-5.321154	17.501309	19.100553	-14.880157	61.422676	55.166753	65.911741	11.650361	20.499241	19.318990	-15.491187	65.694995	52.360393	46.759036	0.485094	2.655364
2.203390	5.286743	-0.453039	99.441430	0.125360	0.798669	0.845149	4.850578	2.595000	-7.114440	6.752934	0.117861	28.240468	10.852833	0.000000	8.102050	-1.463117	-0.703102	12.167829	0.212369	32.101192	10.675184	0.000000	0.076729	0.351317	-0.567133	0.142494	0.467252	-0.602579	0.126059	0.854193	-0.602579	0.087694	0.854193	-0.496241	0.071251	0.716406	-0.460795	0.043843	0.544190	-0.425350	0.548069	3.974170	-3.154223	0.000000	0.000000	19.244228	-5.118248	17.672960	19.427297	-15.306971	62.893592	55.437611	65.629145	12.509689	21.066787	19.137643	-15.678787	65.228680	52.986082	48.156920	1.955032	5.484904
2.220339	5.283642	-0.476669	99.426942	0.125278	0.798683	0.844832	4.780403	2.632103	-6.449015	6.539990	0.114144	28.051058	9.935139	0.000000	8.097497	-1.425557	-0.493173	12.131691	0.211738	31.970619	10.259585	0.000000	0.089364	0.351014	-0.635480	0.165958	0.466849	-0.675197	0.146816	0.853456	-0.675197	0.102134	0.853456	-0.556045	0.082984	0.715788	-0.516327	0.051063	0.543721	-0.476610	0.638319	3.970743	-3.534346	0.000000	0.000000	19.635999	-4.888242	17.902715	19.772014	-15.716785	64.238694	55.711357	65.990031	13.221325	21.177091	18.885126	-15.775989	64.582576	53.468596	49.391810	3.483397	7.915237
2.237288	5.298673	-0.514041	99.375173	0.125191	0.798683	0.844645	4.765353	2.682638	-5.684931	6.371491	0.111204	27.878482	8.925403	0.000000	8.120083	-1.404281	-0.277252	12.105013	0.211272	31.833166	9.810517	0.000000	0.102244	0.354548	-0.697399	0.189877	0.471549	-0.740987	0.167976	0.862048	-0.740987	0.116854	0.862048	-0.610224	0.094944	0.722994	-0.566637	0.058422	0.549195	-0.523049	0.730317	4.010719	-3.878725	0.000000	0.000000	19.942527	-4.610441	18.140895	20.077155	-16.081568	65.342893	55.968931	66.962715	13.861725	20.977318	18.587899	-15.790055	63.819712	53.808588	50.393027	5.091866	9.824504
2.254237	5.329070	-0.559877	99.268613	0.125132	0.798689	0.844604	4.804483	2.740908	-4.910298	6.258773	0.109236	27.746282	7.977647	0.000000	8.161023	-1.403403	-0.081987	12.083105	0.210890	31.699701	9.364548	0.000000	0.115164	0.361434	-0.745322	0.213871	0.480707	-0.791904	0.189203	0.878790	-0.791904	0.131621	0.878790	-0.652157	0.106941	0.737035	-0.605574	0.065805	0.559861	-0.558991	0.822605	4.088609	-4.145256	0.000000	0.000000	20.125896	-4.269083	18.373232	20.316408	-16.393537	66.156638	56.210941	68.587512	14.469232	20.553676	18.272853	-15.708132	62.956235	53.976700	51.352742	6.679908	11.173658
2.271186	5.373519	-0.616961	99.122955	0.125131	0.798687	0.844737	4.902530	2.804038	-4.194239	6.207938	0.108349	27.658460	7.165968	0.000000	8.235053	-1.425489	0.095736	12.079636	0.210829	31.581626	8.951451	0.000000	0.128263	0.370426	-0.780621	0.238197	0.492667	-0.829410	0.210723	0.900655	-0.829410	0.146592	0.900655	-0.683043	0.119105	0.755373	-0.634255	0.073289	0.573790	-0.585466	0.916169	4.190337	-4.341580	0.000000	0.000000	20.217871	-3.870947	18.549535	20.508784	-16.622614	66.697207	56.399611	70.667477	15.117543	20.031139	17.980519	-15.574354	62.096285	54.048396	52.132447	7.996467	12.095578
2.288136	5.420923	-0.677211	98.898623	0.125253	0.798716	0.845002	5.038710	2.868096	-3.498798	6.201313	0.108233	27.597440	6.510649	0.000000	8.305449	-1.465732	0.217625	12.052771	0.210361	31.482958	8.583656	0.000000	0.140986	0.379832	-0.790463	0.261824	0.505176	-0.839867	0.231625	0.923523	-0.839867	0.161132	0.923523	-0.691655	0.130919	0.774553	-0.642251	0.080559	0.588360	-0.592848	1.007045	4.296735	-4.396320	0.000000	0.000000	20.213837	-3.415162	18.645509	20.643592	-16.787774	67.003573	56.546774	73.359838	15.600934	19.348523	17.790233	-15.366872	61.408313	53.919029	52.864882	9.115062	12.468755
2.305085	5.469000	-0.750059	98.628369	0.125505	0.798731	0.845457	5.247372	2.924931	-2.919497	6.289414	0.109771	27.591883	6.073913	0.000000	8.411654	-1.525063	0.262010	12.048439	0.210285	31.438202	8.329350	0.000000	0.153259	0.388291	-0.778867	0.284617	0.516426	-0.827546	0.251789	0.944090	-0.827546	0.175160	0.944090	-0.681508	0.142316	0.791802	-0.632829	0.087572	0.601462	-0.584150	1.094714	4.392420	-4.331822	0.000000	0.000000	20.170387	-2.899290	18.621553	20.726308	-16.862711	67.012923	56.623608	76.192938	16.150443	18.829345	17.679642	-15.116837	60.769491	53.727611	53.927530	9.787219	12.720490
2.322034	5.517050	-0.818497	98.311055	0.125894	0.798772	0.846064	5.484943	2.986543	-2.346447	6.426387	0.112162	27.595504	5.725788	0.000000	8.516540	-1.597717	0.301817	12.034758	0.210046	31.424151	8.098783	0.000000	0.163183	0.395646	-0.743352	0.303048	0.526209	-0.789811	0.268094	0.961974	-0.789811	0.186502	0.961974	-0.650433	0.151532	0.806802	-0.603973	0.093243	0.612856	-0.557514	1.165603	4.475628	-4.134299	0.000000	0.000000	20.085408	-2.357345	18.476331	20.776239	-16.896535	66.895788	56.635938	78.752487	16.435387	18.380181	17.726449	-14.835993	60.446121	53.432430	54.973409	10.137961	12.784905
2.338983	5.561525	-0.886616	97.964891	0.126402	0.798827	0.846802	5.744660	3.048407	-1.808477	6.598154	0.115160	27.605212	5.486946	0.000000	8.617665	-1.678955	0.342416	12.002643	0.209486	31.431503	7.910944	0.000000	0.171090	0.401379	-0.683111	0.317731	0.533834	-0.725805	0.281084	0.975912	-0.725805	0.195539	0.975912	-0.597722	0.158874	0.818491	-0.555028	0.097761	0.621735	-0.512333	1.222079	4.540475	-3.799258	0.000000	0.000000	19.977240	-1.820617	18.208183	20.725882	-16.909839	66.541863	56.607362	81.013179	16.491172	17.967425	17.946922	-14.548649	60.539084	53.064480	55.857269	10.230641	12.659799
2.355932	5.606739	-0.954452	97.591273	0.127035	0.798903	0.847629	6.022247	3.115093	-1.342211	6.803720	0.118747	27.619425	5.381557	0.000000	8.721027	-1.781682	0.258068	11.974483	0.208994	31.487069	7.908126	0.000000	0.175965	0.405828	-0.601962	0.326784	0.539752	-0.639584	0.289092	0.986731	-0.639584	0.201110	0.986731	-0.526716	0.163401	0.827565	-0.489094	0.100546	0.628628	-0.451471	1.256898	4.590811	-3.347930	0.000000	0.000000	19.883115	-1.321894	17.834264	20.505702	-16.883970	65.804113	56.566325	83.144486	16.228201	17.660389	18.159603	-14.236490	60.567777	52.606302	57.046635	10.311335	12.492309
2.372881	5.653534	-1.021746	97.196528	0.127735	0.798998	0.848507	6.303864	3.183189	-0.948936	7.024050	0.122593	27.636204	5.413319	0.000000	8.804438	-1.887639	0.230702	11.915325	0.207962	31.529719	7.849415	0.000000	0.179266	0.409793	-0.499622	0.332915	0.545025	-0.530848	0.294516	0.996371	-0.530848	0.204883	0.996371	-0.437169	0.166467	0.835650	-0.405943	0.102433	0.634769	-0.374716	1.280481	4.635661	-2.778746	0.000000	0.000000	19.768575	-0.880997	17.377281	20.186461	-16.887029	64.952441	56.532579	84.365381	15.578463	17.231790	18.489777	-13.951159	61.084983	52.123402	57.626069	10.024357	11.799348
2.389831	5.700653	-1.078880	96.815293	0.128446	0.799119	0.849433	6.562505	3.256661	-0.561623	7.230189	0.126191	27.621566	5.438174	0.000000	8.873671	-1.995449	0.198026	11.853158	0.206877	31.572298	7.844494	0.000000	0.178294	0.413580	-0.387112	0.331109	0.550062	-0.411306	0.292919	1.005579	-0.411306	0.203772	1.005579	-0.338723	0.165563	0.843373	-0.314528	0.101877	0.640636	-0.290334	1.273534	4.678504	-2.153000	0.000000	0.000000	19.675292	-0.497430	16.887329	19.821877	-16.900669	64.066591	56.490866	84.352319	14.522789	16.756196	18.818014	-13.682080	61.649859	51.581312	57.832922	9.763270	10.843699
2.406780	5.747319	-1.124037	96.442475	0.129116	0.799267	0.850335	6.790212	3.322666	-0.300431	7.420482	0.129512	27.603357	5.632075	0.000000	8.906077	-2.090003	0.295416	11.762040	0.205286	31.562149	7.682058	0.000000	0.174396	0.417759	-0.260841	0.323871	0.555619	-0.277143	0.286516	1.015739	-0.277143	0.199317	1.015739	-0.228236	0.161944	0.851894	-0.211933	0.099650	0.647108	-0.195630	1.245695	4.725771	-1.450717	0.000000	0.000000	19.603685	-0.197340	16.356812	19.401873	-16.931357	63.111999	56.442218	83.243696	13.189178	16.191974	19.229954	-13.435247	62.591672	50.996996	57.210453	9.358279	9.328207
2.423729	5.796804	-1.156121	96.095391	0.129697	0.799432	0.851141	6.966341	3.383390	-0.138252	7.562259	0.131986	27.567905	5.943625	0.000000	8.896013	-2.172978	0.490778	11.635876	0.203084	31.500662	7.409732	0.000000	0.168530	0.423457	-0.130854	0.312978	0.563197	-0.139032	0.276879	1.029593	-0.139032	0.192613	1.029593	-0.114497	0.156497	0.863513	-0.106319	0.096298	0.655934	-0.098141	1.203796	4.790227	-0.727771	0.000000	0.000000	19.575630	0.040276	15.875625	18.984018	-16.964910	62.204770	56.358262	81.127847	11.620118	15.521781	19.676559	-13.222049	63.780032	50.391088	55.669951	8.844068	7.322969
2.440678	5.804201	-1.178277	95.770857	0.130254	0.799609	0.851831	7.088395	3.408217	0.030944	7.657749	0.133653	27.484708	6.259320	0.000000	8.844012	-2.205662	0.765823	11.476912	0.200310	31.443717	7.115260	0.000000	0.160560	0.424496	-0.007390	0.298175	0.564580	-0.007852	0.263783	1.032120	-0.007852	0.183503	1.032120	-0.006466	0.149096	0.865633	-0.006004	0.091744	0.657545	-0.005542	1.146861	4.801987	-0.041100	0.000000	0.000000	19.596776	0.267293	15.513277	18.604368	-16.974760	61.354052	56.223746	78.991200	9.926448	14.763476	20.044279	-13.029463	64.873263	49.786871	54.308497	8.443549	5.656712
2.457627	5.784564	-1.170137	95.497643	0.130637	0.799790	0.852248	7.113103	3.400701	0.142090	7.682027	0.134077	27.389838	6.597371	0.000000	8.717568	-2.191374	1.157406	11.276479	0.196812	31.347324	6.715948	0.000000	0.151304	0.424544	0.104793	0.280986	0.564644	0.111343	0.248577	1.032236	0.111343	0.172925	1.032236	0.091694	0.140501	0.865730	0.085144	0.086455	0.657619	0.078595	1.080746	4.802527	0.582828	0.000000	0.000000	19.616088	0.420602	15.235500	18.178409	-16.920929	60.400822	56.004507	76.482940	8.181261	13.863478	20.367175	-12.859000	66.036320	49.164890	52.585775	8.013742	3.849713
2.474576	5.732760	-1.125042	95.289131	0.130797	0.799972	0.852323	7.019923	3.354160	0.189647	7.620026	0.132995	27.286258	6.944957	0.000000	8.503039	-2.120628	1.682542	11.029370	0.192499	31.204068	6.193327	0.000000	0.141046	0.423538	0.200395	0.261936	0.563306	0.212919	0.231724	1.029790	0.212919	0.161201	1.029790	0.175345	0.130975	0.863679	0.162821	0.080593	0.656060	0.150296	1.007474	4.791147	1.114535	0.000000	0.000000	19.625427	0.490626	15.061368	17.698268	-16.786428	59.323403	55.684169	73.662379	6.439162	12.807799	20.628789	-12.713002	67.251626	48.529712	50.501578	7.567344	1.917547
2.491525	5.643654	-1.036338	95.158706	0.130688	0.800151	0.851983	6.788313	3.261911	0.168074	7.456682	0.130144	27.176933	7.289254	0.000000	8.186784	-1.983936	2.358249	10.730378	0.187280	31.006530	5.528927	0.000000	0.130068	0.421416	0.274115	0.241550	0.560484	0.291247	0.213689	1.024632	0.291247	0.148655	1.024632	0.239851	0.120781	0.859353	0.222718	0.074321	0.652774	0.205586	0.929065	4.767148	1.524546	0.000000	0.000000	19.616654	0.467788	15.009955	17.156069	-16.554269	58.100117	55.246357	70.588833	4.754756	11.582449	20.812663	-12.593809	68.501603	47.885902	48.055696	7.117050	-0.124210
2.508475	5.512112	-0.897366	95.119751	0.130259	0.800323	0.851158	6.397733	3.117270	0.071831	7.176931	0.125261	27.064827	7.617441	0.000000	7.755161	-1.771813	3.201543	10.374296	0.181066	30.747294	4.704280	0.000000	0.118655	0.418118	0.320654	0.220354	0.556096	0.340695	0.194938	1.016611	0.340695	0.135611	1.016611	0.280572	0.110183	0.852626	0.260532	0.067799	0.647664	0.240491	0.847541	4.729831	1.783382	0.000000	0.000000	19.581632	0.342512	15.100335	16.543937	-16.207462	56.709288	54.674697	67.321616	3.182649	10.173438	20.902340	-12.503762	69.768674	47.238028	45.247923	6.675558	-2.259983
2.525424	5.333001	-0.701470	95.185649	0.129465	0.800484	0.849776	5.827641	2.913553	-0.104622	6.765706	0.118084	26.952905	7.916696	0.000000	7.194531	-1.474771	4.229441	9.955918	0.173764	30.418942	3.700916	0.000000	0.107088	0.413580	0.334712	0.198874	0.550061	0.355632	0.175936	1.005578	0.355632	0.122391	1.005578	0.292873	0.099442	0.843372	0.271954	0.061190	0.640635	0.251034	0.764922	4.678496	1.861569	0.000000	0.000000	19.512222	0.105220	15.351581	15.853998	-15.729017	55.129237	53.952814	63.920041	1.777446	8.566778	20.881363	-12.445204	71.035261	46.590654	42.078049	6.255563	-4.474196
2.542373	5.101186	-0.441993	95.369785	0.128256	0.800631	0.847765	5.057496	2.644079	-0.366826	6.207942	0.108349	26.844130	8.174196	0.000000	6.491250	-1.083324	5.458960	9.470036	0.165283	30.014057	2.500367	0.000000	0.095652	0.407741	0.310989	0.177635	0.542295	0.330426	0.157146	0.991381	0.330426	0.109320	0.991381	0.272115	0.088822	0.831465	0.252679	0.054655	0.631590	0.233242	0.683230	4.612445	1.729628	0.000000	0.000000	19.400285	-0.253663	15.782769	15.078376	-15.101945	53.338287	53.064332	60.443422	0.593751	6.748478	20.733276	-12.420475	72.283786	45.948347	38.545866	5.869764	-6.751274
2.559322	4.811533	-0.112278	95.685542	0.126585	0.800759	0.845054	4.066756	2.302163	-0.720320	5.488575	0.095794	26.741468	8.377119	0.000000	5.631678	-0.587986	6.907116	8.911444	0.155534	29.525221	1.084163	0.000000	0.084627	0.400539	0.244185	0.157162	0.532717	0.259447	0.139035	0.973871	0.259447	0.096721	0.973871	0.213662	0.078585	0.816779	0.198400	0.048356	0.620435	0.183139	0.604486	4.530979	1.358084	0.000000	0.000000	19.237683	-0.743714	16.412970	14.209197	-14.309256	51.314760	51.992878	56.951073	-0.313828	4.704550	20.441620	-12.431916	73.496674	45.315673	34.651167	5.530856	-9.075641
2.576271	4.458908	0.294332	96.146304	0.124404	0.800865	0.841572	2.834880	1.881123	-1.170646	4.592539	0.080155	26.647882	8.512643	0.000000	4.602174	0.020730	8.590927	8.274934	0.144425	28.945018	-0.566164	0.000000	0.074299	0.391913	0.129000	0.137981	0.521244	0.137062	0.122066	0.952897	0.137062	0.084916	0.952897	0.112875	0.068994	0.799189	0.104812	0.042454	0.607073	0.096750	0.530711	4.433398	0.717459	0.000000	0.000000	19.016277	-1.374510	17.261260	13.238587	-13.333963	49.036979	50.722076	53.502310	-0.890689	2.421004	19.989938	-12.481869	74.656344	44.697198	30.393744	5.251536	-11.431721
2.593220	4.038178	0.784494	96.765455	0.121665	0.800946	0.837247	1.341326	1.374275	-1.723343	3.504770	0.061170	26.566338	8.567946	0.000000	3.389097	0.752312	10.527409	7.555300	0.131865	28.266030	-2.469085	0.000000	0.064949	0.381801	-0.039866	0.120617	0.507795	-0.042358	0.106705	0.928310	-0.042358	0.074230	0.928310	-0.034883	0.060312	0.778568	-0.032391	0.037112	0.591409	-0.029900	0.463926	4.319004	-0.221723	0.000000	0.000000	18.727930	-2.155627	18.346712	12.158669	-12.159074	46.483267	49.235550	50.156444	-1.082224	-0.116149	19.361773	-12.572675	75.745222	44.097488	25.773387	5.044500	-13.803940
