Model Marker Errors from IK
version=1
nRows=189
nColumns=4
inDegrees=no
endheader
time	total_squared_error	marker_error_RMS	marker_error_max
      0.00000000	      0.01654088	      0.02475127	      0.04925053
      0.01694915	      0.01670490	      0.02487368	      0.04917600
      0.03389831	      0.01698023	      0.02507783	      0.04861570
      0.05084746	      0.01703445	      0.02511784	      0.04737464
      0.06779661	      0.01679957	      0.02494406	      0.04561246
      0.08474576	      0.01640162	      0.02464685	      0.04381894
      0.10169492	      0.01601258	      0.02435279	      0.04252211
      0.11864407	      0.01570370	      0.02411676	      0.04155878
      0.13559322	      0.01549937	      0.02395935	      0.04102541
      0.15254237	      0.01546501	      0.02393278	      0.04102134
      0.16949153	      0.01551408	      0.02397073	      0.04136418
      0.18644068	      0.01564098	      0.02406856	      0.04205668
      0.20338983	      0.01581168	      0.02419954	      0.04331656
      0.22033898	      0.01599211	      0.02433722	      0.04410629
      0.23728814	      0.01612188	      0.02443577	      0.04505307
      0.25423729	      0.01616849	      0.02447106	      0.04621304
      0.27118644	      0.01615983	      0.02446451	      0.04710774
      0.28813559	      0.01605168	      0.02438251	      0.04661786
      0.30508475	      0.01596310	      0.02431514	      0.04646206
      0.32203390	      0.01586592	      0.02424101	      0.04610206
      0.33898305	      0.01581160	      0.02419948	      0.04566533
      0.35593220	      0.01576012	      0.02416005	      0.04550177
      0.37288136	      0.01581014	      0.02419836	      0.04527879
      0.38983051	      0.01590814	      0.02427325	      0.04498572
      0.40677966	      0.01600821	      0.02434947	      0.04552935
      0.42372881	      0.01605970	      0.02438859	      0.04640149
      0.44067797	      0.01600683	      0.02434842	      0.04685066
      0.45762712	      0.01591546	      0.02427883	      0.04684860
      0.47457627	      0.01586837	      0.02424289	      0.04672188
      0.49152542	      0.01609529	      0.02441561	      0.04659488
      0.50847458	      0.01665787	      0.02483864	      0.04741995
      0.52542373	      0.01740192	      0.02538731	      0.04997515
      0.54237288	      0.01822697	      0.02598217	      0.05206693
      0.55932203	      0.01892832	      0.02647733	      0.05327194
      0.57627119	      0.01942080	      0.02681956	      0.05352808
      0.59322034	      0.01966243	      0.02698589	      0.05304563
      0.61016949	      0.01969764	      0.02701004	      0.05218148
      0.62711864	      0.01939029	      0.02679849	      0.05160103
      0.64406780	      0.01876838	      0.02636522	      0.05119145
      0.66101695	      0.01791208	      0.02575675	      0.05095861
      0.67796610	      0.01735006	      0.02534946	      0.05091526
      0.69491525	      0.01737814	      0.02536996	      0.05071154
      0.71186441	      0.01796376	      0.02579389	      0.05097261
      0.72881356	      0.01859186	      0.02624095	      0.05226250
      0.74576271	      0.01891113	      0.02646530	      0.05229552
      0.76271186	      0.01915681	      0.02663666	      0.05215617
      0.77966102	      0.01954855	      0.02690762	      0.05186673
      0.79661017	      0.01998074	      0.02720344	      0.05235026
      0.81355932	      0.02010266	      0.02728631	      0.05343560
      0.83050847	      0.01990361	      0.02715089	      0.05472895
      0.84745763	      0.01964969	      0.02697714	      0.05597674
      0.86440678	      0.01966751	      0.02698937	      0.05719425
      0.88135593	      0.02011823	      0.02729688	      0.05801460
      0.89830508	      0.02103075	      0.02790908	      0.05933864
      0.91525424	      0.02214641	      0.02863979	      0.05923372
      0.93220339	      0.02320036	      0.02931335	      0.05849240
      0.94915254	      0.02390954	      0.02975800	      0.05739135
      0.96610169	      0.02423985	      0.02996285	      0.05661338
      0.98305085	      0.02440504	      0.03006477	      0.05602588
      1.00000000	      0.02452127	      0.03013628	      0.05508153
      1.01694915	      0.02459447	      0.03018122	      0.05509062
      1.03389831	      0.02460555	      0.03018802	      0.05528818
      1.05084746	      0.02461433	      0.03019341	      0.05526249
      1.06779661	      0.02456072	      0.03016051	      0.05335774
      1.08474576	      0.02453729	      0.03014612	      0.05340927
      1.10169492	      0.02438679	      0.03005353	      0.05330925
      1.11864407	      0.02410278	      0.02987801	      0.05276778
      1.13559322	      0.02375730	      0.02966311	      0.05202031
      1.15254237	      0.02344846	      0.02946967	      0.05089970
      1.16949153	      0.02319684	      0.02931113	      0.04995798
      1.18644068	      0.02301466	      0.02919580	      0.04955364
      1.20338983	      0.02283901	      0.02908418	      0.04955379
      1.22033898	      0.02269440	      0.02899195	      0.04985038
      1.23728814	      0.02080045	      0.02775584	      0.05026621
      1.25423729	      0.02071780	      0.02770065	      0.05074982
      1.27118644	      0.02038809	      0.02747935	      0.04838729
      1.28813559	      0.02013462	      0.02730800	      0.04890260
      1.30508475	      0.02000514	      0.02722005	      0.04895078
      1.32203390	      0.02016236	      0.02732680	      0.04879763
      1.33898305	      0.02061570	      0.02763231	      0.04895360
      1.35593220	      0.02129658	      0.02808491	      0.04933023
      1.37288136	      0.02187772	      0.02846552	      0.04925548
      1.38983051	      0.02226363	      0.02871548	      0.05003049
      1.40677966	      0.02226698	      0.02871764	      0.04981879
      1.42372881	      0.02216055	      0.02864893	      0.04987327
      1.44067797	      0.02193803	      0.02850473	      0.04978668
      1.45762712	      0.02160522	      0.02828769	      0.04961798
      1.47457627	      0.02117739	      0.02800621	      0.04945689
      1.49152542	      0.02070319	      0.02769088	      0.04935103
      1.50847458	      0.02033306	      0.02744224	      0.04893966
      1.52542373	      0.02005926	      0.02725684	      0.04881320
      1.54237288	      0.01994220	      0.02717719	      0.04989739
      1.55932203	      0.01997852	      0.02720193	      0.05152118
      1.57627119	      0.02017115	      0.02733276	      0.05323206
      1.59322034	      0.02049153	      0.02754897	      0.05516164
      1.61016949	      0.02084553	      0.02778590	      0.05665925
      1.62711864	      0.01939259	      0.02680008	      0.04576649
      1.64406780	      0.01982246	      0.02709549	      0.04564227
      1.66101695	      0.02025422	      0.02738898	      0.04595195
      1.67796610	      0.02064563	      0.02765236	      0.04707539
      1.69491525	      0.02089516	      0.02781896	      0.04815550
      1.71186441	      0.02088828	      0.02781439	      0.04931197
      1.72881356	      0.02078094	      0.02774283	      0.04954535
      1.74576271	      0.02070587	      0.02769267	      0.04914443
      1.76271186	      0.02075007	      0.02772221	      0.04863489
      1.77966102	      0.02079558	      0.02775260	      0.04726298
      1.79661017	      0.02088756	      0.02781391	      0.04604120
      1.81355932	      0.02095819	      0.02786089	      0.04494133
      1.83050847	      0.02087661	      0.02780661	      0.04397477
      1.84745763	      0.02056957	      0.02760138	      0.04345737
      1.86440678	      0.02002131	      0.02723105	      0.04357962
      1.88135593	      0.01937427	      0.02678741	      0.04386820
      1.89830508	      0.01872067	      0.02633170	      0.04445289
      1.91525424	      0.01826736	      0.02601093	      0.04473174
      1.93220339	      0.01805786	      0.02586135	      0.04499630
      1.94915254	      0.01801218	      0.02582862	      0.04652651
      1.96610169	      0.01809801	      0.02589009	      0.04768695
      1.98305085	      0.01815359	      0.02592981	      0.04862153
      2.00000000	      0.01811170	      0.02589988	      0.04936953
      2.01694915	      0.01797619	      0.02580281	      0.04957033
      2.03389831	      0.01778409	      0.02566456	      0.04942879
      2.05084746	      0.01758229	      0.02551854	      0.04882156
      2.06779661	      0.01737150	      0.02536511	      0.04837306
      2.08474576	      0.01714881	      0.02520201	      0.04806582
      2.10169492	      0.01820843	      0.02596895	      0.05096752
      2.11864407	      0.01795082	      0.02578459	      0.05059386
      2.13559322	      0.01770246	      0.02560560	      0.04984821
      2.15254237	      0.01748929	      0.02545096	      0.04891837
      2.16949153	      0.01737224	      0.02536565	      0.04867950
      2.18644068	      0.01727677	      0.02529585	      0.04743212
      2.20338983	      0.01734867	      0.02534844	      0.04728557
      2.22033898	      0.01755086	      0.02549572	      0.04740439
      2.23728814	      0.01786547	      0.02572322	      0.04857494
      2.25423729	      0.01817042	      0.02594183	      0.04909631
      2.27118644	      0.01845945	      0.02614734	      0.04996457
      2.28813559	      0.01860616	      0.02625104	      0.04983748
      2.30508475	      0.01869159	      0.02631123	      0.05010930
      2.32203390	      0.01863857	      0.02627389	      0.05003011
      2.33898305	      0.01843108	      0.02612724	      0.04924737
      2.35593220	      0.01818207	      0.02595015	      0.04867617
      2.37288136	      0.01804314	      0.02585081	      0.04894566
      2.38983051	      0.01809583	      0.02588853	      0.04928599
      2.40677966	      0.01845058	      0.02614105	      0.05002511
      2.42372881	      0.01911742	      0.02660926	      0.05233976
      2.44067797	      0.01991338	      0.02715755	      0.05290176
      2.45762712	      0.02067079	      0.02766920	      0.05304591
      2.47457627	      0.02121502	      0.02803108	      0.05478430
      2.49152542	      0.02144373	      0.02818177	      0.05406255
      2.50847458	      0.02131848	      0.02809935	      0.05286076
      2.52542373	      0.02097054	      0.02786910	      0.05164706
      2.54237288	      0.02052605	      0.02757216	      0.05032433
      2.55932203	      0.02024217	      0.02738084	      0.04892095
      2.57627119	      0.02013530	      0.02730846	      0.04781032
      2.59322034	      0.01967717	      0.02699600	      0.04576822
      2.61016949	      0.01943688	      0.02683066	      0.04628305
      2.62711864	      0.01918139	      0.02665374	      0.04729045
      2.64406780	      0.01893144	      0.02647951	      0.04874477
      2.66101695	      0.01877759	      0.02637169	      0.04999573
      2.67796610	      0.01883557	      0.02641238	      0.05133532
      2.69491525	      0.01896496	      0.02650294	      0.05222337
      2.71186441	      0.01929918	      0.02673545	      0.05330295
      2.72881356	      0.01911742	      0.02660926	      0.05561296
      2.74576271	      0.01850839	      0.02618198	      0.05786796
      2.76271186	      0.01813199	      0.02591438	      0.05860176
      2.77966102	      0.01826056	      0.02600610	      0.05891489
      2.79661017	      0.01860723	      0.02625179	      0.05691864
      2.81355932	      0.01913294	      0.02662006	      0.05569875
      2.83050847	      0.01980745	      0.02708522	      0.05443552
      2.84745763	      0.02063408	      0.02764462	      0.05465681
      2.86440678	      0.02114161	      0.02798254	      0.05529058
      2.88135593	      0.02104713	      0.02791994	      0.05577286
      2.89830508	      0.02029111	      0.02741391	      0.05553428
      2.91525424	      0.01917268	      0.02664768	      0.05599629
      2.93220339	      0.01789903	      0.02574737	      0.05525168
      2.94915254	      0.01669035	      0.02486285	      0.05391470
      2.96610169	      0.01566110	      0.02408403	      0.05181028
      2.98305085	      0.01493016	      0.02351529	      0.04963411
      3.00000000	      0.01460536	      0.02325810	      0.04685690
      3.01694915	      0.01473462	      0.02336079	      0.04544790
      3.03389831	      0.01512206	      0.02366593	      0.04405532
      3.05084746	      0.01547893	      0.02394355	      0.04316483
      3.06779661	      0.01561539	      0.02404886	      0.04235757
      3.08474576	      0.01542149	      0.02389909	      0.04238072
      3.10169492	      0.01518601	      0.02371592	      0.04234630
      3.11864407	      0.01484833	      0.02345076	      0.04192915
      3.13559322	      0.01468775	      0.02332361	      0.04179636
      3.15254237	      0.01484020	      0.02344434	      0.04196178
      3.16949153	      0.01553040	      0.02398332	      0.04262750
      3.18644068	      0.01711080	      0.02517406	      0.04394526
