Model Marker Errors from IK
version=1
nRows=143
nColumns=4
inDegrees=no
endheader
time	total_squared_error	marker_error_RMS	marker_error_max
      0.00000000	      0.02554389	      0.03075825	      0.05598904
      0.01666667	      0.02390095	      0.02975265	      0.05430668
      0.03333333	      0.02306926	      0.02923041	      0.05315341
      0.05000000	      0.02262697	      0.02894885	      0.05247887
      0.06666667	      0.02243305	      0.02882453	      0.05209990
      0.08333333	      0.02237616	      0.02878796	      0.05212969
      0.10000000	      0.02234988	      0.02877105	      0.05226678
      0.11666667	      0.02233850	      0.02876372	      0.05241971
      0.13333333	      0.02230673	      0.02874327	      0.05264822
      0.15000000	      0.02227479	      0.02872268	      0.05319506
      0.16666667	      0.02224413	      0.02870291	      0.05393132
      0.18333333	      0.02225342	      0.02870890	      0.05422894
      0.20000000	      0.02231413	      0.02874803	      0.05437383
      0.21666667	      0.02233948	      0.02876436	      0.05397130
      0.23333333	      0.02239791	      0.02880195	      0.05361898
      0.25000000	      0.02247871	      0.02885385	      0.05382558
      0.26666667	      0.02262348	      0.02894662	      0.05440994
      0.28333333	      0.02283198	      0.02907970	      0.05527438
      0.30000000	      0.02310981	      0.02925609	      0.05657216
      0.31666667	      0.02338975	      0.02943276	      0.05776759
      0.33333333	      0.02356263	      0.02954133	      0.05821179
      0.35000000	      0.02357067	      0.02954636	      0.05823500
      0.36666667	      0.02341668	      0.02944969	      0.05801856
      0.38333333	      0.02317756	      0.02929895	      0.05762236
      0.40000000	      0.02291111	      0.02913005	      0.05743606
      0.41666667	      0.02267409	      0.02897897	      0.05750340
      0.43333333	      0.02260752	      0.02893640	      0.05770650
      0.45000000	      0.02286342	      0.02909971	      0.05783313
      0.46666667	      0.02334966	      0.02940752	      0.05782366
      0.48333333	      0.02383550	      0.02971189	      0.05769200
      0.50000000	      0.02407629	      0.02986159	      0.05776573
      0.51666667	      0.02397057	      0.02979596	      0.05797233
      0.53333333	      0.02353886	      0.02952642	      0.05816689
      0.55000000	      0.02285073	      0.02909164	      0.05822794
      0.56666667	      0.02197719	      0.02853016	      0.05809314
      0.58333333	      0.02121336	      0.02802999	      0.05766610
      0.60000000	      0.02099559	      0.02788574	      0.05701819
      0.61666667	      0.02135413	      0.02812283	      0.05618893
      0.63333333	      0.02192523	      0.02849642	      0.05536417
      0.65000000	      0.02247909	      0.02885409	      0.05469821
      0.66666667	      0.02268415	      0.02898541	      0.05421210
      0.68333333	      0.02260573	      0.02893526	      0.05396263
      0.70000000	      0.02224466	      0.02870325	      0.05392168
      0.71666667	      0.02176258	      0.02839052	      0.05395688
      0.73333333	      0.02140526	      0.02815648	      0.05381763
      0.75000000	      0.02132019	      0.02810048	      0.05397784
      0.76666667	      0.02145872	      0.02819162	      0.05380932
      0.78333333	      0.02172870	      0.02836841	      0.05389540
      0.80000000	      0.02213422	      0.02863190	      0.05425247
      0.81666667	      0.02270087	      0.02899609	      0.05487624
      0.83333333	      0.02323510	      0.02933529	      0.05567142
      0.85000000	      0.02377227	      0.02967245	      0.05654728
      0.86666667	      0.02412297	      0.02989052	      0.05730862
      0.88333333	      0.02445672	      0.03009658	      0.05817970
      0.90000000	      0.02475190	      0.03027766	      0.05897587
      0.91666667	      0.02500200	      0.03043025	      0.05921109
      0.93333333	      0.02511353	      0.03049805	      0.05875423
      0.95000000	      0.02519464	      0.03054726	      0.05812161
      0.96666667	      0.02511660	      0.03049991	      0.05739217
      0.98333333	      0.02490849	      0.03037329	      0.05689254
      1.00000000	      0.02462653	      0.03020089	      0.05652717
      1.01666667	      0.02444365	      0.03008854	      0.05656246
      1.03333333	      0.02433095	      0.03001910	      0.05663384
      1.05000000	      0.02419638	      0.02993597	      0.05666903
      1.06666667	      0.02403565	      0.02983637	      0.05651245
      1.08333333	      0.02379007	      0.02968356	      0.05632574
      1.10000000	      0.02352888	      0.02952016	      0.05607910
      1.11666667	      0.02321491	      0.02932255	      0.05589738
      1.13333333	      0.02283079	      0.02907894	      0.05588672
      1.15000000	      0.02239643	      0.02880099	      0.05575811
      1.16666667	      0.02197717	      0.02853015	      0.05538997
      1.18333333	      0.02166246	      0.02832513	      0.05474673
      1.20000000	      0.02153589	      0.02824227	      0.05421864
      1.21666667	      0.02162596	      0.02830126	      0.05340778
      1.23333333	      0.02187019	      0.02846062	      0.05276289
      1.25000000	      0.02219211	      0.02866932	      0.05224050
      1.26666667	      0.02250364	      0.02886985	      0.05155702
      1.28333333	      0.02281212	      0.02906705	      0.05219471
      1.30000000	      0.02315581	      0.02928519	      0.05258880
      1.31666667	      0.02339292	      0.02943475	      0.05267950
      1.33333333	      0.02341984	      0.02945168	      0.05275263
      1.35000000	      0.02317473	      0.02929715	      0.05271985
      1.36666667	      0.02272769	      0.02901321	      0.05266195
      1.38333333	      0.02224210	      0.02870159	      0.05289824
      1.40000000	      0.02186974	      0.02846033	      0.05352737
      1.41666667	      0.02171738	      0.02836102	      0.05450192
      1.43333333	      0.02182890	      0.02843374	      0.05568038
      1.45000000	      0.02216937	      0.02865463	      0.05683947
      1.46666667	      0.02267325	      0.02897844	      0.05778626
      1.48333333	      0.02323278	      0.02933383	      0.05824026
      1.50000000	      0.02370740	      0.02963194	      0.05802411
      1.51666667	      0.02402118	      0.02982739	      0.05738917
      1.53333333	      0.02417871	      0.02992503	      0.05682601
      1.55000000	      0.02425595	      0.02997280	      0.05540173
      1.56666667	      0.02439850	      0.03006074	      0.05428084
      1.58333333	      0.02459340	      0.03018057	      0.05310103
      1.60000000	      0.02477575	      0.03029225	      0.05256332
      1.61666667	      0.02488727	      0.03036035	      0.05192126
      1.63333333	      0.02501426	      0.03043771	      0.05196848
      1.65000000	      0.02518740	      0.03054287	      0.05261568
      1.66666667	      0.02538126	      0.03066018	      0.05344914
      1.68333333	      0.02549854	      0.03073094	      0.05427348
      1.70000000	      0.02546906	      0.03071317	      0.05457269
      1.71666667	      0.02532195	      0.03062433	      0.05431375
      1.73333333	      0.02514919	      0.03051969	      0.05485659
      1.75000000	      0.02495977	      0.03040454	      0.05605048
      1.76666667	      0.02485956	      0.03034344	      0.05653128
      1.78333333	      0.02484147	      0.03033240	      0.05640195
      1.80000000	      0.02490312	      0.03037002	      0.05571246
      1.81666667	      0.02504603	      0.03045703	      0.05508410
      1.83333333	      0.02527630	      0.03059672	      0.05473987
      1.85000000	      0.02569228	      0.03084746	      0.05454224
      1.86666667	      0.02595460	      0.03100454	      0.05526300
      1.88333333	      0.02583854	      0.03093514	      0.05490068
      1.90000000	      0.02514203	      0.03051535	      0.05472615
      1.91666667	      0.02400146	      0.02981514	      0.05449060
      1.93333333	      0.02260167	      0.02893266	      0.05365425
      1.95000000	      0.02131596	      0.02809769	      0.05235354
      1.96666667	      0.02049958	      0.02755438	      0.05051970
      1.98333333	      0.02036904	      0.02746650	      0.04840931
      2.00000000	      0.02092316	      0.02783760	      0.04633996
      2.01666667	      0.02160617	      0.02828831	      0.04615005
      2.03333333	      0.02169994	      0.02834963	      0.04638517
      2.05000000	      0.02141327	      0.02816175	      0.04607878
      2.06666667	      0.02090516	      0.02782562	      0.04572248
      2.08333333	      0.02060091	      0.02762240	      0.04608961
      2.10000000	      0.02069252	      0.02768374	      0.04771007
      2.11666667	      0.02116191	      0.02799597	      0.04891813
      2.13333333	      0.02187884	      0.02846625	      0.04945807
      2.15000000	      0.02258265	      0.02892048	      0.04907446
      2.16666667	      0.02314526	      0.02927852	      0.04716514
      2.18333333	      0.02356417	      0.02954229	      0.04592251
      2.20000000	      0.02389750	      0.02975050	      0.04571257
      2.21666667	      0.02420861	      0.02994354	      0.04643988
      2.23333333	      0.02458708	      0.03017669	      0.04775524
      2.25000000	      0.02498231	      0.03041826	      0.04770928
      2.26666667	      0.02524959	      0.03058055	      0.04719622
      2.28333333	      0.02550072	      0.03073225	      0.04548379
      2.30000000	      0.02574089	      0.03087663	      0.04838322
      2.31666667	      0.02597910	      0.03101917	      0.05291557
      2.33333333	      0.02621637	      0.03116050	      0.05810627
      2.35000000	      0.02648028	      0.03131695	      0.06434810
      2.36666667	      0.02682563	      0.03152050	      0.07080169
