Model Marker Errors from IK
version=1
nRows=187
nColumns=4
inDegrees=no
endheader
time	total_squared_error	marker_error_RMS	marker_error_max
      0.00000000	      0.01383590	      0.02263715	      0.03604869
      0.02380952	      0.01412807	      0.02287492	      0.03655539
      0.04761905	      0.01465704	      0.02329921	      0.03778162
      0.07142857	      0.01510843	      0.02365527	      0.03855856
      0.09523810	      0.01541301	      0.02389251	      0.03816442
      0.11904762	      0.01564524	      0.02407184	      0.03763166
      0.14285714	      0.01586502	      0.02424033	      0.03834152
      0.16666667	      0.01623826	      0.02452381	      0.03984975
      0.19047619	      0.01658211	      0.02478210	      0.04062786
      0.21428571	      0.01657156	      0.02477421	      0.04077212
      0.23809524	      0.01613315	      0.02444431	      0.03991827
      0.26190476	      0.01558787	      0.02402766	      0.03878022
      0.28571429	      0.01513920	      0.02367934	      0.03829320
      0.30952381	      0.01481965	      0.02342810	      0.03786671
      0.33333333	      0.01461977	      0.02326957	      0.03820852
      0.35714286	      0.01454967	      0.02321372	      0.03902290
      0.38095238	      0.01462169	      0.02327110	      0.03983578
      0.40476190	      0.01482743	      0.02343425	      0.04063520
      0.42857143	      0.01496898	      0.02354584	      0.04126466
      0.45238095	      0.01502563	      0.02359035	      0.04197685
      0.47619048	      0.01503313	      0.02359624	      0.04222941
      0.50000000	      0.01511171	      0.02365783	      0.04319802
      0.52380952	      0.01524737	      0.02376379	      0.04441677
      0.54761905	      0.01531225	      0.02381429	      0.04384995
      0.57142857	      0.01541725	      0.02389580	      0.04403954
      0.59523810	      0.01566056	      0.02408362	      0.04506821
      0.61904762	      0.01568051	      0.02409896	      0.04254850
      0.64285714	      0.01488693	      0.02348122	      0.04074022
      0.66666667	      0.01380595	      0.02261264	      0.03953405
      0.69047619	      0.01372242	      0.02254413	      0.03803292
      0.71428571	      0.01457429	      0.02323335	      0.03860778
      0.73809524	      0.01582294	      0.02420815	      0.04131632
      0.76190476	      0.01731915	      0.02532686	      0.04472470
      0.78571429	      0.01855288	      0.02621343	      0.05372879
      0.80952381	      0.01879280	      0.02638237	      0.05728266
      0.83333333	      0.01806497	      0.02586645	      0.05355585
      0.85714286	      0.01708144	      0.02515246	      0.04472406
      0.88095238	      0.01671930	      0.02488440	      0.04607204
      0.90476190	      0.01747163	      0.02543811	      0.04697363
      0.92857143	      0.01924368	      0.02669698	      0.04723436
      0.95238095	      0.02095045	      0.02785574	      0.05271755
      0.97619048	      0.02147558	      0.02820269	      0.05303906
      1.00000000	      0.02090225	      0.02782369	      0.04862052
      1.02380952	      0.02015423	      0.02732129	      0.05064374
      1.04761905	      0.01947991	      0.02686035	      0.05294609
      1.07142857	      0.01877338	      0.02636874	      0.05424354
      1.09523810	      0.01811325	      0.02590098	      0.05355538
      1.11904762	      0.01771962	      0.02561801	      0.05187756
      1.14285714	      0.01779852	      0.02567498	      0.05008197
      1.16666667	      0.01820777	      0.02596848	      0.04871676
      1.19047619	      0.01870411	      0.02632004	      0.05137180
      1.21428571	      0.01937451	      0.02678758	      0.05573990
      1.23809524	      0.02028254	      0.02740812	      0.06020306
      1.26190476	      0.02130258	      0.02808886	      0.06436944
      1.28571429	      0.02247379	      0.02885070	      0.06790376
      1.30952381	      0.02371220	      0.02963494	      0.07003171
      1.33333333	      0.02477165	      0.03028974	      0.07308552
      1.35714286	      0.02521416	      0.03055909	      0.07444143
      1.38095238	      0.02442522	      0.03007720	      0.07074377
      1.40476190	      0.02262024	      0.02894455	      0.06672961
      1.42857143	      0.02083561	      0.02777930	      0.06555490
      1.45238095	      0.01978698	      0.02707123	      0.06452381
      1.47619048	      0.01956959	      0.02692211	      0.06378939
      1.50000000	      0.01966890	      0.02699033	      0.06266839
      1.52380952	      0.01966848	      0.02699004	      0.06158567
      1.54761905	      0.01949508	      0.02687080	      0.06078461
      1.57142857	      0.01961294	      0.02695191	      0.06071560
      1.59523810	      0.01998000	      0.02720294	      0.06121145
      1.61904762	      0.02013894	      0.02731092	      0.06049770
      1.64285714	      0.01974710	      0.02704393	      0.05705585
      1.66666667	      0.01891258	      0.02646631	      0.05141641
      1.69047619	      0.01779454	      0.02567210	      0.04462296
      1.71428571	      0.01668998	      0.02486257	      0.04457340
      1.73809524	      0.01596885	      0.02431951	      0.04581963
      1.76190476	      0.01582885	      0.02421267	      0.04695177
      1.78571429	      0.01635359	      0.02461074	      0.04772675
      1.80952381	      0.01739365	      0.02538127	      0.04749163
      1.83333333	      0.01842863	      0.02612550	      0.04727439
      1.85714286	      0.01909894	      0.02659639	      0.04658629
      1.88095238	      0.01952834	      0.02689371	      0.04680361
      1.90476190	      0.01998968	      0.02720953	      0.04742395
      1.92857143	      0.02044462	      0.02751742	      0.04813579
      1.95238095	      0.02069708	      0.02768679	      0.04810340
      1.97619048	      0.02073797	      0.02771413	      0.05024164
      2.00000000	      0.02077682	      0.02774007	      0.04948350
      2.02380952	      0.02116377	      0.02799720	      0.04702458
      2.04761905	      0.02189985	      0.02847991	      0.04416019
      2.07142857	      0.02267310	      0.02897835	      0.04362160
      2.09523810	      0.02327049	      0.02935762	      0.04609722
      2.11904762	      0.02360930	      0.02957057	      0.04763183
      2.14285714	      0.02342373	      0.02945413	      0.04892244
      2.16666667	      0.02256958	      0.02891211	      0.04944245
      2.19047619	      0.02155963	      0.02825783	      0.04936570
      2.21428571	      0.02064577	      0.02765245	      0.04801689
      2.23809524	      0.01974269	      0.02704091	      0.04695299
      2.26190476	      0.01876141	      0.02636033	      0.04634969
      2.28571429	      0.01786118	      0.02572013	      0.04563044
      2.30952381	      0.01702934	      0.02511407	      0.04461193
      2.33333333	      0.01617686	      0.02447740	      0.04423537
      2.35714286	      0.01545425	      0.02392445	      0.04389848
      2.38095238	      0.01504148	      0.02360279	      0.04378096
      2.40476190	      0.01509201	      0.02364240	      0.04383945
      2.42857143	      0.01569501	      0.02411010	      0.04083774
      2.45238095	      0.01734367	      0.02534478	      0.04276992
      2.47619048	      0.01982440	      0.02709681	      0.04580777
      2.50000000	      0.02238296	      0.02879234	      0.04908368
      2.52380952	      0.02387496	      0.02973647	      0.05737699
      2.54761905	      0.02362370	      0.02957959	      0.06214452
      2.57142857	      0.02188286	      0.02846886	      0.06287271
      2.59523810	      0.02018579	      0.02734267	      0.06215064
      2.61904762	      0.01961015	      0.02694999	      0.06228932
      2.64285714	      0.01967952	      0.02699761	      0.06224165
      2.66666667	      0.01919117	      0.02666053	      0.05919959
      2.69047619	      0.01794349	      0.02577933	      0.05343422
      2.71428571	      0.01662208	      0.02481194	      0.04700195
      2.73809524	      0.01685388	      0.02498435	      0.04514541
      2.76190476	      0.01793608	      0.02577400	      0.04714238
      2.78571429	      0.01900578	      0.02653145	      0.04831785
      2.80952381	      0.01951956	      0.02688767	      0.04830867
      2.83333333	      0.01981621	      0.02709121	      0.04719792
      2.85714286	      0.02056882	      0.02760087	      0.05331571
      2.88095238	      0.02204638	      0.02857504	      0.06202781
      2.90476190	      0.02422114	      0.02995128	      0.07103757
      2.92857143	      0.02696508	      0.03160232	      0.07989544
      2.95238095	      0.02944712	      0.03302475	      0.08720401
      2.97619048	      0.03051106	      0.03361606	      0.09032462
      3.00000000	      0.02970638	      0.03316981	      0.08822332
      3.02380952	      0.02783952	      0.03211064	      0.08269210
      3.04761905	      0.02598119	      0.03102042	      0.07596221
      3.07142857	      0.02452506	      0.03013861	      0.06904636
      3.09523810	      0.02350340	      0.02950418	      0.06266501
      3.11904762	      0.02290763	      0.02912783	      0.05772145
      3.14285714	      0.02297303	      0.02916938	      0.05524295
      3.16666667	      0.02339721	      0.02943745	      0.05849170
      3.19047619	      0.02383769	      0.02971325	      0.06169634
      3.21428571	      0.02401919	      0.02982616	      0.06348119
      3.23809524	      0.02443054	      0.03008047	      0.06714952
      3.26190476	      0.02511450	      0.03049863	      0.07094520
      3.28571429	      0.02592889	      0.03098918	      0.07406500
      3.30952381	      0.02661765	      0.03139807	      0.07619709
      3.33333333	      0.02686426	      0.03154318	      0.07633680
      3.35714286	      0.02665053	      0.03141746	      0.07596736
      3.38095238	      0.02596310	      0.03100962	      0.07433264
      3.40476190	      0.02540958	      0.03067728	      0.07413632
      3.42857143	      0.02516409	      0.03052873	      0.07494346
      3.45238095	      0.02535224	      0.03064265	      0.07681281
      3.47619048	      0.02595097	      0.03100237	      0.07965292
      3.50000000	      0.02669701	      0.03144484	      0.08245712
      3.52380952	      0.02717744	      0.03172652	      0.08571748
      3.54761905	      0.02713060	      0.03169917	      0.08804068
      3.57142857	      0.02669903	      0.03144603	      0.08951757
      3.59523810	      0.02649034	      0.03132290	      0.09060095
      3.61904762	      0.02705140	      0.03165286	      0.09294027
      3.64285714	      0.02841385	      0.03244018	      0.09635949
      3.66666667	      0.03029136	      0.03349481	      0.10149574
      3.69047619	      0.03238030	      0.03463048	      0.10751710
      3.71428571	      0.03488302	      0.03594390	      0.11472732
      3.73809524	      0.03760604	      0.03732045	      0.12214662
      3.76190476	      0.03950111	      0.03824924	      0.12679506
      3.78571429	      0.03951693	      0.03825690	      0.12684242
      3.80952381	      0.01715617	      0.02520741	      0.03697585
      3.83333333	      0.01664352	      0.02482794	      0.03495189
      3.85714286	      0.01648161	      0.02470688	      0.03541568
      3.88095238	      0.01679283	      0.02493906	      0.03674933
      3.90476190	      0.01730719	      0.02531812	      0.03855518
      3.92857143	      0.01787916	      0.02573308	      0.04073189
      3.95238095	      0.01850724	      0.02618116	      0.04267891
      3.97619048	      0.01909765	      0.02659549	      0.04681732
      4.00000000	      0.01970311	      0.02701379	      0.04925804
      4.02380952	      0.01996855	      0.02719515	      0.04900620
      4.04761905	      0.02023587	      0.02737657	      0.04981108
      4.07142857	      0.02039834	      0.02748625	      0.04949984
      4.09523810	      0.02060031	      0.02762199	      0.04914700
      4.11904762	      0.02094636	      0.02785303	      0.04933980
      4.14285714	      0.02121762	      0.02803280	      0.04833652
      4.16666667	      0.02138632	      0.02814402	      0.04832053
      4.19047619	      0.02144719	      0.02818405	      0.04885906
      4.21428571	      0.02132302	      0.02810234	      0.04852642
      4.23809524	      0.02098916	      0.02788147	      0.04878268
      4.26190476	      0.02048860	      0.02754700	      0.04940008
      4.28571429	      0.01980146	      0.02708113	      0.04866961
      4.30952381	      0.01937978	      0.02679123	      0.04867180
      4.33333333	      0.01903625	      0.02655271	      0.04891222
      4.35714286	      0.01882988	      0.02640839	      0.04925259
      4.38095238	      0.01865770	      0.02628737	      0.04971850
      4.40476190	      0.01804099	      0.02584927	      0.05149715
      4.42857143	      0.01824032	      0.02599168	      0.05276919
