Model Marker Errors from IK
version=1
nRows=399
nColumns=4
inDegrees=no
endheader
time	total_squared_error	marker_error_RMS	marker_error_max
      0.00000000	      0.03788509	      0.03745867	      0.05659928
      0.01851852	      0.03743578	      0.03723588	      0.05637948
      0.03703704	      0.03743646	      0.03723622	      0.05752291
      0.05555556	      0.03758793	      0.03731147	      0.05859833
      0.07407407	      0.03776484	      0.03739917	      0.05910390
      0.09259259	      0.03787328	      0.03745282	      0.05925410
      0.11111111	      0.03782481	      0.03742885	      0.05812943
      0.12962963	      0.03765601	      0.03734524	      0.05587982
      0.14814815	      0.03747445	      0.03725510	      0.05596732
      0.16666667	      0.03740398	      0.03722005	      0.05608190
      0.18518519	      0.03748696	      0.03726132	      0.05604193
      0.20370370	      0.03759089	      0.03731294	      0.05594949
      0.22222222	      0.03766032	      0.03734738	      0.05596413
      0.24074074	      0.03777069	      0.03740206	      0.05589067
      0.25925926	      0.03788239	      0.03745733	      0.05595519
      0.27777778	      0.03790666	      0.03746933	      0.05690667
      0.29629630	      0.03769471	      0.03736443	      0.05729695
      0.31481481	      0.03727186	      0.03715426	      0.05785280
      0.33333333	      0.03680317	      0.03691992	      0.05820848
      0.35185185	      0.03646987	      0.03675236	      0.05817518
      0.37037037	      0.03636616	      0.03670007	      0.05809472
      0.38888889	      0.03649636	      0.03676570	      0.05772451
      0.40740741	      0.03676225	      0.03689939	      0.05755866
      0.42592593	      0.03725444	      0.03714558	      0.05737634
      0.44444444	      0.03779062	      0.03741193	      0.05725716
      0.46296296	      0.03822150	      0.03762461	      0.05732915
      0.48148148	      0.03839266	      0.03770875	      0.05729479
      0.50000000	      0.03830132	      0.03766388	      0.05714497
      0.51851852	      0.03804184	      0.03753607	      0.05681494
      0.53703704	      0.03773420	      0.03738399	      0.05660265
      0.55555556	      0.03752129	      0.03727838	      0.05673227
      0.57407407	      0.03740446	      0.03722029	      0.05679439
      0.59259259	      0.03745393	      0.03724490	      0.05722785
      0.61111111	      0.03764283	      0.03733871	      0.05783484
      0.62962963	      0.03787924	      0.03745577	      0.05823678
      0.64814815	      0.03807566	      0.03755276	      0.05844121
      0.66666667	      0.03821245	      0.03762016	      0.05843461
      0.68518519	      0.03833324	      0.03767956	      0.05818938
      0.70370370	      0.03848478	      0.03775397	      0.05780885
      0.72222222	      0.03868082	      0.03785000	      0.05750967
      0.74074074	      0.03890414	      0.03795911	      0.05708296
      0.75925926	      0.03911978	      0.03806417	      0.05650328
      0.77777778	      0.03927227	      0.03813828	      0.05575174
      0.79629630	      0.03925735	      0.03813104	      0.05563310
      0.81481481	      0.03899904	      0.03800538	      0.05513890
      0.83333333	      0.03860558	      0.03781318	      0.05502803
      0.85185185	      0.03828785	      0.03765725	      0.05524995
      0.87037037	      0.03818743	      0.03760784	      0.05570954
      0.88888889	      0.03831264	      0.03766944	      0.05627518
      0.90740741	      0.03858255	      0.03780189	      0.05693844
      0.92592593	      0.03887520	      0.03794499	      0.05766406
      0.94444444	      0.03910361	      0.03805630	      0.05821070
      0.96296296	      0.03923206	      0.03811875	      0.05857861
      0.98148148	      0.03923499	      0.03812017	      0.05882332
      1.00000000	      0.03916906	      0.03808813	      0.05899958
      1.01851852	      0.03911250	      0.03806063	      0.05921642
      1.03703704	      0.03925363	      0.03812923	      0.05946746
      1.05555556	      0.03955204	      0.03827389	      0.05988156
      1.07407407	      0.03992621	      0.03845450	      0.06030302
      1.09259259	      0.04022393	      0.03859761	      0.06074716
      1.11111111	      0.04037157	      0.03866838	      0.06113729
      1.12962963	      0.04048577	      0.03872303	      0.06150303
      1.14814815	      0.04064801	      0.03880054	      0.06146957
      1.16666667	      0.04097859	      0.03895800	      0.06149072
      1.18518519	      0.04142899	      0.03917151	      0.06138019
      1.20370370	      0.04193163	      0.03940842	      0.06119647
      1.22222222	      0.04230452	      0.03958325	      0.06118307
      1.24074074	      0.04247070	      0.03966092	      0.06108307
      1.25925926	      0.04235130	      0.03960513	      0.06085791
      1.27777778	      0.04196236	      0.03942286	      0.06055335
      1.29629630	      0.04137537	      0.03914615	      0.06053445
      1.31481481	      0.04098622	      0.03896162	      0.06035305
      1.33333333	      0.04080392	      0.03887488	      0.06057146
      1.35185185	      0.04105234	      0.03899304	      0.06080410
      1.37037037	      0.04154119	      0.03922452	      0.06139585
      1.38888889	      0.04212054	      0.03949709	      0.06181643
      1.40740741	      0.04247201	      0.03966154	      0.06207196
      1.42592593	      0.04243953	      0.03964637	      0.06211912
      1.44444444	      0.04202855	      0.03945393	      0.06187291
      1.46296296	      0.04142369	      0.03916900	      0.06127548
      1.48148148	      0.04074265	      0.03884568	      0.06079059
      1.50000000	      0.04030283	      0.03863544	      0.06031575
      1.51851852	      0.04013313	      0.03855402	      0.05987467
      1.53703704	      0.04028778	      0.03862823	      0.05959386
      1.55555556	      0.04068709	      0.03881919	      0.05926977
      1.57407407	      0.04120432	      0.03906515	      0.05960139
      1.59259259	      0.04175036	      0.03932314	      0.05996543
      1.61111111	      0.04206246	      0.03946985	      0.06039934
      1.62962963	      0.04183415	      0.03936258	      0.06059809
      1.64814815	      0.04140052	      0.03915805	      0.06103781
      1.66666667	      0.04092333	      0.03893172	      0.06116567
      1.68518519	      0.04052704	      0.03874276	      0.06173023
      1.70370370	      0.04014161	      0.03855809	      0.06228927
      1.72222222	      0.04002144	      0.03850033	      0.06274840
      1.74074074	      0.03999213	      0.03848623	      0.06356240
      1.75925926	      0.04024695	      0.03860865	      0.06426756
      1.77777778	      0.04064155	      0.03879746	      0.06439670
      1.79629630	      0.04096901	      0.03895344	      0.06499762
      1.81481481	      0.04124394	      0.03908393	      0.06514840
      1.83333333	      0.04165945	      0.03928031	      0.06524589
      1.85185185	      0.04248927	      0.03966959	      0.06535182
      1.87037037	      0.04383949	      0.04029497	      0.06554498
      1.88888889	      0.04518223	      0.04090741	      0.06580190
      1.90740741	      0.04569485	      0.04113881	      0.06601576
      1.92592593	      0.04500452	      0.04082688	      0.06629264
      1.94444444	      0.04314705	      0.03997548	      0.06645714
      1.96296296	      0.04068063	      0.03881610	      0.06657957
      1.98148148	      0.03859755	      0.03780924	      0.06642702
      2.00000000	      0.03741852	      0.03722729	      0.06569742
      2.01851852	      0.03683496	      0.03693586	      0.06442401
      2.03703704	      0.03626940	      0.03665121	      0.06283467
      2.05555556	      0.03540829	      0.03621351	      0.06098552
      2.07407407	      0.03447809	      0.03573467	      0.05889303
      2.09259259	      0.03346485	      0.03520567	      0.05677502
      2.11111111	      0.03251951	      0.03470484	      0.05463818
      2.12962963	      0.03189559	      0.03437031	      0.05561118
      2.14814815	      0.03173303	      0.03428261	      0.05900939
      2.16666667	      0.03231006	      0.03459290	      0.06435386
      2.18518519	      0.03346785	      0.03520724	      0.07108841
      2.20370370	      0.03470078	      0.03584988	      0.07746366
      2.22222222	      0.03536930	      0.03619357	      0.08192399
      2.24074074	      0.03523219	      0.03612334	      0.08377062
      2.25925926	      0.03456733	      0.03578088	      0.08396342
      2.27777778	      0.03384317	      0.03540410	      0.08394374
      2.29629630	      0.03325334	      0.03509423	      0.08360775
      2.31481481	      0.03288025	      0.03489680	      0.08352305
      2.33333333	      0.03273822	      0.03482135	      0.08330044
      2.35185185	      0.03289113	      0.03490258	      0.08245852
      2.37037037	      0.03334090	      0.03514040	      0.08147409
      2.38888889	      0.03394261	      0.03545608	      0.08049389
      2.40740741	      0.03460818	      0.03580202	      0.07924366
      2.42592593	      0.03531631	      0.03616644	      0.07871360
      2.44444444	      0.03618423	      0.03660815	      0.07936578
      2.46296296	      0.03720580	      0.03712132	      0.08133609
      2.48148148	      0.03814874	      0.03758878	      0.08398979
      2.50000000	      0.03894313	      0.03797813	      0.08680794
      2.51851852	      0.03946180	      0.03823020	      0.08896302
      2.53703704	      0.03968403	      0.03833769	      0.09022859
      2.55555556	      0.03965765	      0.03832495	      0.08994978
      2.57407407	      0.03936550	      0.03818353	      0.08802685
      2.59259259	      0.03882534	      0.03792065	      0.08484570
      2.61111111	      0.03816593	      0.03759724	      0.08146917
      2.62962963	      0.03764503	      0.03733980	      0.07800164
      2.64814815	      0.03738247	      0.03720935	      0.07601850
      2.66666667	      0.03727974	      0.03715819	      0.07445068
      2.68518519	      0.03699934	      0.03701819	      0.07345997
      2.70370370	      0.03643656	      0.03673557	      0.07350422
      2.72222222	      0.03584195	      0.03643459	      0.07470426
      2.74074074	      0.03538258	      0.03620036	      0.07503351
      2.75925926	      0.03505563	      0.03603271	      0.07395686
      2.77777778	      0.03496644	      0.03598685	      0.07164522
      2.79629630	      0.03518787	      0.03610062	      0.07065911
      2.81481481	      0.03568571	      0.03635510	      0.07005974
      2.83333333	      0.03633624	      0.03668497	      0.06956234
      2.85185185	      0.03711838	      0.03707769	      0.06892725
      2.87037037	      0.03801422	      0.03752245	      0.06853040
      2.88888889	      0.03892167	      0.03796766	      0.06898950
      2.90740741	      0.03986502	      0.03842502	      0.07023309
      2.92592593	      0.04081854	      0.03888184	      0.07221933
      2.94444444	      0.04183811	      0.03936445	      0.07402363
      2.96296296	      0.04262156	      0.03973130	      0.07557999
      2.98148148	      0.04295825	      0.03988792	      0.07630932
      3.00000000	      0.04276791	      0.03979946	      0.07546384
      3.01851852	      0.04219779	      0.03953329	      0.07375733
      3.03703704	      0.04210629	      0.03949041	      0.07239518
      3.05555556	      0.04249167	      0.03967071	      0.07288027
      3.07407407	      0.04302309	      0.03991802	      0.07297897
      3.09259259	      0.04311524	      0.03996074	      0.07343900
      3.11111111	      0.04289827	      0.03986007	      0.07482447
      3.12962963	      0.04285809	      0.03984139	      0.07563692
      3.14814815	      0.04321950	      0.04000902	      0.07551135
      3.16666667	      0.04367121	      0.04021756	      0.07437783
      3.18518519	      0.04369248	      0.04022735	      0.07229463
      3.20370370	      0.04308559	      0.03994700	      0.06957648
      3.22222222	      0.04196087	      0.03942215	      0.06757642
      3.24074074	      0.04064991	      0.03880145	      0.06582154
      3.25925926	      0.03953939	      0.03826776	      0.06472856
      3.27777778	      0.03854447	      0.03778324	      0.06184238
      3.29629630	      0.03787348	      0.03745292	      0.06024619
      3.31481481	      0.03726112	      0.03714891	      0.06069369
      3.33333333	      0.03725620	      0.03714646	      0.06147165
      3.35185185	      0.03805563	      0.03754288	      0.06379486
      3.37037037	      0.03927548	      0.03813984	      0.06867294
      3.38888889	      0.04014069	      0.03855765	      0.07213471
      3.40740741	      0.04007950	      0.03852825	      0.07199005
      3.42592593	      0.03935606	      0.03817894	      0.06786244
      3.44444444	      0.03855453	      0.03778817	      0.06065079
      3.46296296	      0.03784811	      0.03744038	      0.05976810
      3.48148148	      0.03719151	      0.03711420	      0.06353049
      3.50000000	      0.03629142	      0.03666233	      0.06570210
      3.51851852	      0.03512296	      0.03606730	      0.06691724
      3.53703704	      0.03378777	      0.03537512	      0.06814949
      3.55555556	      0.03240506	      0.03464372	      0.06947273
      3.57407407	      0.03104442	      0.03390861	      0.06954857
      3.59259259	      0.02990634	      0.03328126	      0.06963155
      3.61111111	      0.02922684	      0.03290100	      0.06825080
      3.62962963	      0.02934442	      0.03296711	      0.06617981
      3.64814815	      0.03049639	      0.03360798	      0.06291277
      3.66666667	      0.03255448	      0.03472350	      0.05928631
      3.68518519	      0.03531686	      0.03616672	      0.06426996
      3.70370370	      0.03850733	      0.03776503	      0.07307526
      3.72222222	      0.04185407	      0.03937195	      0.08166675
      3.74074074	      0.04493911	      0.04079720	      0.08908817
      3.75925926	      0.04709999	      0.04176654	      0.09367644
      3.77777778	      0.04833251	      0.04230949	      0.09558739
      3.79629630	      0.04903619	      0.04261637	      0.09603199
      3.81481481	      0.04964658	      0.04288079	      0.09672037
      3.83333333	      0.05047638	      0.04323766	      0.09802451
      3.85185185	      0.05181945	      0.04380912	      0.10003497
      3.87037037	      0.05353185	      0.04452708	      0.10143774
      3.88888889	      0.05577839	      0.04545180	      0.10252052
      3.90740741	      0.05819977	      0.04642787	      0.10352905
      3.92592593	      0.06041319	      0.04730249	      0.10453823
      3.94444444	      0.06205485	      0.04794088	      0.10537840
      3.96296296	      0.06322594	      0.04839113	      0.10544182
      3.98148148	      0.06408279	      0.04871793	      0.10468926
      4.00000000	      0.06434446	      0.04881730	      0.10272382
      4.01851852	      0.06317802	      0.04837279	      0.09933908
      4.03703704	      0.06016802	      0.04720641	      0.09527322
      4.05555556	      0.05581346	      0.04546609	      0.09286768
      4.07407407	      0.05088781	      0.04341352	      0.08935868
      4.09259259	      0.04611768	      0.04132871	      0.08912324
      4.11111111	      0.04202219	      0.03945095	      0.09086962
      4.12962963	      0.03884912	      0.03793226	      0.09355792
      4.14814815	      0.03647703	      0.03675597	      0.09538887
      4.16666667	      0.03450188	      0.03574699	      0.09460747
      4.18518519	      0.03263362	      0.03476568	      0.09022480
      4.20370370	      0.03105512	      0.03391445	      0.08299741
      4.22222222	      0.03039847	      0.03355398	      0.07620069
      4.24074074	      0.03096612	      0.03386582	      0.07096895
      4.25925926	      0.03241049	      0.03464662	      0.06832757
      4.27777778	      0.03423111	      0.03560645	      0.07151607
      4.29629630	      0.03634630	      0.03669004	      0.07516812
      4.31481481	      0.03891703	      0.03796540	      0.07850288
      4.33333333	      0.04200434	      0.03944257	      0.08093155
      4.35185185	      0.04531131	      0.04096580	      0.08274857
      4.37037037	      0.04844713	      0.04235963	      0.08340332
      4.38888889	      0.05106532	      0.04348917	      0.08357309
      4.40740741	      0.05300764	      0.04430853	      0.08379739
      4.42592593	      0.05433404	      0.04485947	      0.08409065
      4.44444444	      0.05524051	      0.04523212	      0.08457070
      4.46296296	      0.05575090	      0.04544060	      0.08506243
      4.48148148	      0.05588072	      0.04549348	      0.08522031
      4.50000000	      0.05569049	      0.04541597	      0.08492476
      4.51851852	      0.05523584	      0.04523021	      0.08416526
      4.53703704	      0.05456170	      0.04495335	      0.08298055
      4.55555556	      0.05375612	      0.04462026	      0.08225532
      4.57407407	      0.05301014	      0.04430958	      0.08218943
      4.59259259	      0.05244598	      0.04407316	      0.08267525
      4.61111111	      0.05215945	      0.04395260	      0.08366834
      4.62962963	      0.05197569	      0.04387511	      0.08530791
      4.64814815	      0.05159648	      0.04371477	      0.08754325
      4.66666667	      0.05100767	      0.04346462	      0.09021213
      4.68518519	      0.05039176	      0.04320140	      0.09307924
      4.70370370	      0.04969236	      0.04290056	      0.09486962
      4.72222222	      0.04855603	      0.04240721	      0.09443751
      4.74074074	      0.04694385	      0.04169725	      0.09101567
      4.75925926	      0.04526395	      0.04094438	      0.08603769
      4.77777778	      0.04370429	      0.04023279	      0.08110510
      4.79629630	      0.04256649	      0.03970563	      0.07947050
      4.81481481	      0.04182443	      0.03935801	      0.07880191
      4.83333333	      0.04152075	      0.03921486	      0.07751686
      4.85185185	      0.04161122	      0.03925757	      0.07594428
      4.87037037	      0.04216248	      0.03951675	      0.07380137
      4.88888889	      0.04294499	      0.03988176	      0.07179387
      4.90740741	      0.04389641	      0.04032112	      0.06983203
      4.92592593	      0.04475130	      0.04071186	      0.06836790
      4.94444444	      0.04534185	      0.04097960	      0.06745430
      4.96296296	      0.04561615	      0.04110337	      0.06675009
      4.98148148	      0.04582738	      0.04119843	      0.06589995
      5.00000000	      0.04627799	      0.04140048	      0.06472523
      5.01851852	      0.04648504	      0.04149299	      0.06329525
      5.03703704	      0.04812758	      0.04221970	      0.06223339
      5.05555556	      0.04944054	      0.04279172	      0.06254317
      5.07407407	      0.04977432	      0.04293592	      0.06248217
      5.09259259	      0.04945754	      0.04279908	      0.06365399
      5.11111111	      0.04912713	      0.04265587	      0.06486195
      5.12962963	      0.04877160	      0.04250124	      0.06628917
      5.14814815	      0.04832458	      0.04230602	      0.06721155
      5.16666667	      0.04761279	      0.04199329	      0.06813914
      5.18518519	      0.04685798	      0.04165910	      0.06864335
      5.20370370	      0.04625519	      0.04139028	      0.06892447
      5.22222222	      0.04593322	      0.04124598	      0.06893027
      5.24074074	      0.04577762	      0.04117606	      0.06907246
      5.25925926	      0.04570956	      0.04114543	      0.06889248
      5.27777778	      0.04571682	      0.04114870	      0.06881923
      5.29629630	      0.04584521	      0.04120644	      0.06847971
      5.31481481	      0.04600182	      0.04127676	      0.06775572
      5.33333333	      0.04609910	      0.04132038	      0.06680513
      5.35185185	      0.04616014	      0.04134773	      0.06571384
      5.37037037	      0.04610930	      0.04132495	      0.06430869
      5.38888889	      0.04614136	      0.04133932	      0.06272543
      5.40740741	      0.04609747	      0.04131965	      0.06124556
      5.42592593	      0.04578464	      0.04117921	      0.06008778
      5.44444444	      0.04514949	      0.04089258	      0.05928389
      5.46296296	      0.04436132	      0.04053408	      0.05892930
      5.48148148	      0.04353057	      0.04015275	      0.05844870
      5.50000000	      0.04291115	      0.03986605	      0.05797490
      5.51851852	      0.04234088	      0.03960026	      0.05748952
      5.53703704	      0.04218101	      0.03952543	      0.05706808
      5.55555556	      0.04225061	      0.03955803	      0.05669278
      5.57407407	      0.04258409	      0.03971383	      0.05695064
      5.59259259	      0.04298120	      0.03989857	      0.06071074
      5.61111111	      0.04191462	      0.03940042	      0.05810509
      5.62962963	      0.04128118	      0.03910157	      0.05956194
      5.64814815	      0.04103204	      0.03898339	      0.06128799
      5.66666667	      0.04133417	      0.03912665	      0.06326989
      5.68518519	      0.04187390	      0.03938128	      0.06499149
      5.70370370	      0.04260399	      0.03972311	      0.06659191
      5.72222222	      0.04340917	      0.04009672	      0.06792920
      5.74074074	      0.04422804	      0.04047315	      0.06882712
      5.75925926	      0.04488267	      0.04077157	      0.06943825
      5.77777778	      0.04529226	      0.04095719	      0.06966800
      5.79629630	      0.04547047	      0.04103768	      0.06989450
      5.81481481	      0.04561010	      0.04110064	      0.06993731
      5.83333333	      0.04578985	      0.04118155	      0.07006314
      5.85185185	      0.04599306	      0.04127283	      0.07028307
      5.87037037	      0.04617528	      0.04135451	      0.07051598
      5.88888889	      0.04627229	      0.04139793	      0.07069382
      5.90740741	      0.04625017	      0.04138803	      0.07055413
      5.92592593	      0.04605631	      0.04130120	      0.07026953
      5.94444444	      0.04569063	      0.04113691	      0.06985216
      5.96296296	      0.04529719	      0.04095942	      0.06935228
      5.98148148	      0.04496826	      0.04081043	      0.06884038
      6.00000000	      0.04477326	      0.04072185	      0.06817970
      6.01851852	      0.04469831	      0.04068775	      0.06785375
      6.03703704	      0.04471933	      0.04069732	      0.06736609
      6.05555556	      0.04475731	      0.04071459	      0.06674235
      6.07407407	      0.04478838	      0.04072872	      0.06609067
      6.09259259	      0.04473245	      0.04070329	      0.06542144
      6.11111111	      0.04453524	      0.04061346	      0.06480063
      6.12962963	      0.04421831	      0.04046869	      0.06418277
      6.14814815	      0.04381299	      0.04028279	      0.06376643
      6.16666667	      0.04335445	      0.04007144	      0.06338832
      6.18518519	      0.04294060	      0.03987973	      0.06336004
      6.20370370	      0.04262197	      0.03973149	      0.06319480
      6.22222222	      0.04247304	      0.03966202	      0.06344487
      6.24074074	      0.04249778	      0.03967357	      0.06390736
      6.25925926	      0.04261452	      0.03972802	      0.06412483
      6.27777778	      0.04279503	      0.03981207	      0.06423161
      6.29629630	      0.04294053	      0.03987970	      0.06407680
      6.31481481	      0.04298510	      0.03990038	      0.06354804
      6.33333333	      0.04288766	      0.03985514	      0.06325717
      6.35185185	      0.04253905	      0.03969282	      0.06291436
      6.37037037	      0.04217275	      0.03952156	      0.06287043
      6.38888889	      0.04185368	      0.03937177	      0.06324723
      6.40740741	      0.04157957	      0.03924263	      0.06355900
      6.42592593	      0.04150099	      0.03920553	      0.06418977
      6.44444444	      0.04154184	      0.03922482	      0.06481890
      6.46296296	      0.04154332	      0.03922552	      0.06540531
      6.48148148	      0.04154392	      0.03922581	      0.06571509
      6.50000000	      0.04151241	      0.03921093	      0.06540835
      6.51851852	      0.04151498	      0.03921214	      0.06515850
      6.53703704	      0.04149443	      0.03920243	      0.06494215
      6.55555556	      0.04146166	      0.03918695	      0.06485381
      6.57407407	      0.04139349	      0.03915472	      0.06470509
      6.59259259	      0.04135534	      0.03913667	      0.06478651
      6.61111111	      0.04138539	      0.03915089	      0.06484951
      6.62962963	      0.04145622	      0.03918438	      0.06515499
      6.64814815	      0.04152719	      0.03921791	      0.06513853
      6.66666667	      0.04157729	      0.03924156	      0.06522745
      6.68518519	      0.04150648	      0.03920813	      0.06545680
      6.70370370	      0.04122384	      0.03907440	      0.06532349
      6.72222222	      0.04078659	      0.03886662	      0.06539385
      6.74074074	      0.04027319	      0.03862123	      0.06533119
      6.75925926	      0.03980897	      0.03839800	      0.06535670
      6.77777778	      0.03943113	      0.03821534	      0.06537840
      6.79629630	      0.03917342	      0.03809025	      0.06548958
      6.81481481	      0.03902004	      0.03801561	      0.06541010
      6.83333333	      0.03902418	      0.03801763	      0.06544254
      6.85185185	      0.03913872	      0.03807338	      0.06523590
      6.87037037	      0.03936764	      0.03818456	      0.06504335
      6.88888889	      0.03969119	      0.03834115	      0.06484507
      6.90740741	      0.04013721	      0.03855598	      0.06449913
      6.92592593	      0.04070640	      0.03882840	      0.06423169
      6.94444444	      0.04124596	      0.03908488	      0.06414649
      6.96296296	      0.04165105	      0.03927635	      0.06421993
      6.98148148	      0.04179724	      0.03934522	      0.06427506
      7.00000000	      0.04172515	      0.03931127	      0.06400962
      7.01851852	      0.04152729	      0.03921795	      0.06365104
      7.03703704	      0.04135217	      0.03913518	      0.06345308
      7.05555556	      0.04127684	      0.03909951	      0.06297801
      7.07407407	      0.04132167	      0.03912074	      0.06283892
      7.09259259	      0.04149984	      0.03920499	      0.06270921
      7.11111111	      0.04177434	      0.03933444	      0.06258543
      7.12962963	      0.04196340	      0.03942334	      0.06252807
      7.14814815	      0.04196278	      0.03942305	      0.06242671
      7.16666667	      0.04174514	      0.03932069	      0.06235378
      7.18518519	      0.04135026	      0.03913427	      0.06218186
      7.20370370	      0.04101689	      0.03897620	      0.06218487
      7.22222222	      0.04074898	      0.03884870	      0.06220050
      7.24074074	      0.04064572	      0.03879945	      0.06250952
      7.25925926	      0.04070164	      0.03882613	      0.06300865
      7.27777778	      0.04091510	      0.03892781	      0.06348451
      7.29629630	      0.04128098	      0.03910147	      0.06410082
      7.31481481	      0.04156929	      0.03923778	      0.06478024
      7.33333333	      0.04161615	      0.03925989	      0.06528651
      7.35185185	      0.04132061	      0.03912024	      0.06589421
      7.37037037	      0.04062054	      0.03878743	      0.06631018
