Model Marker Errors from IK
version=1
nRows=415
nColumns=4
inDegrees=no
endheader
time	total_squared_error	marker_error_RMS	marker_error_max
      0.00000000	      0.02080302	      0.02775756	      0.04979204
      0.01694915	      0.01935311	      0.02677278	      0.04887515
      0.03389831	      0.01872914	      0.02633765	      0.04744266
      0.05084746	      0.01856795	      0.02622407	      0.04607560
      0.06779661	      0.01865855	      0.02628797	      0.04498374
      0.08474576	      0.01892815	      0.02647721	      0.04392197
      0.10169492	      0.01914196	      0.02662633	      0.04326949
      0.11864407	      0.01927831	      0.02672099	      0.04267486
      0.13559322	      0.01931901	      0.02674919	      0.04256533
      0.15254237	      0.01934668	      0.02676833	      0.04291902
      0.16949153	      0.01948534	      0.02686409	      0.04336851
      0.18644068	      0.01974377	      0.02704165	      0.04433663
      0.20338983	      0.02008400	      0.02727364	      0.04544149
      0.22033898	      0.02036461	      0.02746352	      0.04648351
      0.23728814	      0.02043906	      0.02751367	      0.04718481
      0.25423729	      0.02024856	      0.02738515	      0.04775813
      0.27118644	      0.01983468	      0.02710383	      0.04781589
      0.28813559	      0.01933110	      0.02675756	      0.04767829
      0.30508475	      0.01887339	      0.02643888	      0.04728195
      0.32203390	      0.01855436	      0.02621447	      0.04705837
      0.33898305	      0.01843896	      0.02613282	      0.04705874
      0.35593220	      0.01856166	      0.02621962	      0.04701161
      0.37288136	      0.01887938	      0.02644308	      0.04728120
      0.38983051	      0.01930208	      0.02673746	      0.04744881
      0.40677966	      0.01973002	      0.02703223	      0.04751260
      0.42372881	      0.01994837	      0.02718140	      0.04705562
      0.44067797	      0.02008730	      0.02727589	      0.04616922
      0.45762712	      0.02002607	      0.02723429	      0.04462950
      0.47457627	      0.02001623	      0.02722759	      0.04415446
      0.49152542	      0.02002419	      0.02723301	      0.04350342
      0.50847458	      0.02008921	      0.02727719	      0.04258668
      0.52542373	      0.02005866	      0.02725644	      0.04146429
      0.54237288	      0.02014538	      0.02731529	      0.04123794
      0.55932203	      0.02051481	      0.02756461	      0.04147309
      0.57627119	      0.02131339	      0.02809599	      0.04180861
      0.59322034	      0.02238993	      0.02879682	      0.04386186
      0.61016949	      0.02341253	      0.02944708	      0.04701691
      0.62711864	      0.02360575	      0.02956835	      0.04865461
      0.64406780	      0.02317070	      0.02929461	      0.04938899
      0.66101695	      0.02230954	      0.02874507	      0.04862358
      0.67796610	      0.02136600	      0.02813064	      0.04634269
      0.69491525	      0.02058390	      0.02761099	      0.04309726
      0.71186441	      0.02013497	      0.02730823	      0.04108506
      0.72881356	      0.02027720	      0.02740452	      0.04149114
      0.74576271	      0.02136181	      0.02812789	      0.04216919
      0.76271186	      0.02326535	      0.02935438	      0.04770975
      0.77966102	      0.02537504	      0.03065642	      0.05526027
      0.79661017	      0.02696264	      0.03160089	      0.06135920
      0.81355932	      0.02771797	      0.03204046	      0.06321508
      0.83050847	      0.02792885	      0.03216212	      0.06372691
      0.84745763	      0.02781510	      0.03209655	      0.06225067
      0.86440678	      0.02785768	      0.03212111	      0.06223300
      0.88135593	      0.02779962	      0.03208762	      0.06083018
      0.89830508	      0.02752800	      0.03193048	      0.06066386
      0.91525424	      0.02694856	      0.03159264	      0.06061043
      0.93220339	      0.02646698	      0.03130908	      0.06059119
      0.94915254	      0.02635060	      0.03124017	      0.06150058
      0.96610169	      0.02659146	      0.03138262	      0.06312017
      0.98305085	      0.02701929	      0.03163407	      0.06506510
      1.00000000	      0.02730085	      0.03179847	      0.06625212
      1.01694915	      0.02748888	      0.03190779	      0.06593325
      1.03389831	      0.02779638	      0.03208575	      0.06519274
      1.05084746	      0.02813304	      0.03227947	      0.06473287
      1.06779661	      0.02845648	      0.03246450	      0.06385290
      1.08474576	      0.02873366	      0.03262223	      0.06272217
      1.10169492	      0.02898691	      0.03276567	      0.06097391
      1.11864407	      0.02776430	      0.03206723	      0.06067194
      1.13559322	      0.02816330	      0.03229683	      0.06070823
      1.15254237	      0.02849447	      0.03248616	      0.06128545
      1.16949153	      0.02869303	      0.03259915	      0.06130213
      1.18644068	      0.02856666	      0.03252729	      0.06172739
      1.20338983	      0.02831033	      0.03238103	      0.06153334
      1.22033898	      0.02797202	      0.03218696	      0.06179889
      1.23728814	      0.02768464	      0.03202120	      0.06160413
      1.25423729	      0.02746880	      0.03189613	      0.06151822
      1.27118644	      0.02737931	      0.03184413	      0.06164172
      1.28813559	      0.02725924	      0.03177423	      0.06130819
      1.30508475	      0.02711857	      0.03169214	      0.06170283
      1.32203390	      0.02676815	      0.03148671	      0.06062448
      1.33898305	      0.02640194	      0.03127059	      0.06079613
      1.35593220	      0.02588499	      0.03096293	      0.05925585
      1.37288136	      0.02549440	      0.03072844	      0.05935809
      1.38983051	      0.02515272	      0.03052183	      0.05870260
      1.40677966	      0.02509600	      0.03048740	      0.05864364
      1.42372881	      0.02520826	      0.03055551	      0.05974088
      1.44067797	      0.02536723	      0.03065170	      0.05962293
      1.45762712	      0.02550941	      0.03073748	      0.06010268
      1.47457627	      0.02540766	      0.03067612	      0.06016837
      1.49152542	      0.02520676	      0.03055460	      0.06000363
      1.50847458	      0.02500536	      0.03043229	      0.06044894
      1.52542373	      0.02489167	      0.03036303	      0.06020652
      1.54237288	      0.02494625	      0.03039630	      0.06040196
      1.55932203	      0.02507862	      0.03047684	      0.06039475
      1.57627119	      0.02521864	      0.03056180	      0.06021124
      1.59322034	      0.02531939	      0.03062279	      0.05961792
      1.61016949	      0.02535943	      0.03064699	      0.05866304
      1.62711864	      0.02535158	      0.03064225	      0.05762434
      1.64406780	      0.02524909	      0.03058025	      0.05607136
      1.66101695	      0.02514242	      0.03051558	      0.05511194
      1.67796610	      0.02508146	      0.03047857	      0.05424637
      1.69491525	      0.02501342	      0.03043720	      0.05324730
      1.71186441	      0.02507728	      0.03047603	      0.05295164
      1.72881356	      0.02521534	      0.03055980	      0.05327125
      1.74576271	      0.02536464	      0.03065014	      0.05398360
      1.76271186	      0.02550104	      0.03073244	      0.05472783
      1.77966102	      0.02567221	      0.03083541	      0.05625208
      1.79661017	      0.02589906	      0.03097135	      0.05746090
      1.81355932	      0.02618187	      0.03113999	      0.05860497
      1.83050847	      0.02642448	      0.03128393	      0.05965412
      1.84745763	      0.02659324	      0.03138367	      0.06028272
      1.86440678	      0.02665240	      0.03141856	      0.06018725
      1.88135593	      0.02664239	      0.03141266	      0.05993434
      1.89830508	      0.02657835	      0.03137488	      0.05959057
      1.91525424	      0.02647348	      0.03131292	      0.05953511
      1.93220339	      0.02634108	      0.03123452	      0.05941263
      1.94915254	      0.02622204	      0.03116387	      0.05953473
      1.96610169	      0.02613129	      0.03110989	      0.05951439
      1.98305085	      0.02606885	      0.03107270	      0.05947968
      2.00000000	      0.02600452	      0.03103434	      0.05922582
      2.01694915	      0.02598964	      0.03102546	      0.05837350
      2.03389831	      0.02599349	      0.03102776	      0.05850026
      2.05084746	      0.02608370	      0.03108156	      0.05825464
      2.06779661	      0.02617795	      0.03113766	      0.05785207
      2.08474576	      0.02623495	      0.03117154	      0.05776010
      2.10169492	      0.02621430	      0.03115927	      0.05788157
      2.11864407	      0.02617706	      0.03113713	      0.05796520
      2.13559322	      0.02617448	      0.03113559	      0.05855917
      2.15254237	      0.02621816	      0.03116156	      0.05904887
      2.16949153	      0.02614418	      0.03111757	      0.05924545
      2.18644068	      0.02597644	      0.03101758	      0.05912102
      2.20338983	      0.02565245	      0.03082354	      0.05829639
      2.22033898	      0.02535977	      0.03064720	      0.05713796
      2.23728814	      0.02496933	      0.03041036	      0.05595276
      2.25423729	      0.02475251	      0.03027804	      0.05475679
      2.27118644	      0.02469364	      0.03024201	      0.05387976
      2.28813559	      0.02477338	      0.03029080	      0.05329285
      2.30508475	      0.02497905	      0.03041628	      0.05322663
      2.32203390	      0.02526707	      0.03059113	      0.05341048
      2.33898305	      0.02555945	      0.03076762	      0.05351274
      2.35593220	      0.02581001	      0.03091806	      0.05391640
      2.37288136	      0.02597398	      0.03101611	      0.05415421
      2.38983051	      0.02615156	      0.03112196	      0.05459108
      2.40677966	      0.02612820	      0.03110806	      0.05458678
      2.42372881	      0.02617927	      0.03113844	      0.05451260
      2.44067797	      0.02618624	      0.03114259	      0.05459689
      2.45762712	      0.02614010	      0.03111514	      0.05469571
      2.47457627	      0.02604593	      0.03105904	      0.05485805
      2.49152542	      0.02599220	      0.03102699	      0.05496103
      2.50847458	      0.02602670	      0.03104757	      0.05549530
      2.52542373	      0.02612007	      0.03110322	      0.05556498
      2.54237288	      0.02624023	      0.03117468	      0.05585139
      2.55932203	      0.02629670	      0.03120820	      0.05593258
      2.57627119	      0.02623533	      0.03117177	      0.05573488
      2.59322034	      0.02609597	      0.03108886	      0.05544361
      2.61016949	      0.02566267	      0.03082968	      0.05565825
      2.62711864	      0.02518865	      0.03054362	      0.05500254
      2.64406780	      0.02476828	      0.03028768	      0.05473435
      2.66101695	      0.02449591	      0.03012069	      0.05439684
      2.67796610	      0.02435836	      0.03003600	      0.05442929
      2.69491525	      0.02441714	      0.03007222	      0.05407907
      2.71186441	      0.02460113	      0.03018531	      0.05412782
      2.72881356	      0.02492784	      0.03038508	      0.05400676
      2.74576271	      0.02531192	      0.03061827	      0.05398882
      2.76271186	      0.02562622	      0.03080778	      0.05411549
      2.77966102	      0.02577982	      0.03089997	      0.05413785
      2.79661017	      0.02573709	      0.03087435	      0.05373766
      2.81355932	      0.02559083	      0.03078650	      0.05361300
      2.83050847	      0.02542861	      0.03068877	      0.05312942
      2.84745763	      0.02536769	      0.03065198	      0.05300151
      2.86440678	      0.02545197	      0.03070286	      0.05297986
      2.88135593	      0.02556788	      0.03077269	      0.05233268
      2.89830508	      0.02564889	      0.03082140	      0.05176670
      2.91525424	      0.02565303	      0.03082389	      0.05097796
      2.93220339	      0.02564325	      0.03081802	      0.05058593
      2.94915254	      0.02531922	      0.03062269	      0.04916982
      2.96610169	      0.02521949	      0.03056232	      0.04888647
      2.98305085	      0.02522010	      0.03056268	      0.04958022
      3.00000000	      0.02536027	      0.03064750	      0.05055088
      3.01694915	      0.02566040	      0.03082832	      0.05216499
      3.03389831	      0.02610485	      0.03109415	      0.05391856
      3.05084746	      0.02658662	      0.03137976	      0.05576843
      3.06779661	      0.02692800	      0.03158059	      0.05650450
      3.08474576	      0.02714540	      0.03170781	      0.05732827
      3.10169492	      0.02697456	      0.03160788	      0.05654647
      3.11864407	      0.02674178	      0.03147120	      0.05584218
      3.13559322	      0.02651270	      0.03133611	      0.05527480
      3.15254237	      0.02644367	      0.03129529	      0.05487812
      3.16949153	      0.02639894	      0.03126881	      0.05455705
      3.18644068	      0.02652845	      0.03134542	      0.05430065
      3.20338983	      0.02675476	      0.03147884	      0.05434966
      3.22033898	      0.02706915	      0.03166324	      0.05458400
      3.23728814	      0.02744864	      0.03188442	      0.05474626
      3.25423729	      0.02790903	      0.03215071	      0.05526971
      3.27118644	      0.02834747	      0.03240226	      0.05543765
      3.28813559	      0.02880220	      0.03266111	      0.05560800
      3.30508475	      0.02917243	      0.03287036	      0.05593240
      3.32203390	      0.02936147	      0.03297669	      0.05613858
      3.33898305	      0.02937772	      0.03298581	      0.05633559
      3.35593220	      0.02926778	      0.03292403	      0.05628172
      3.37288136	      0.02903714	      0.03279405	      0.05641148
      3.38983051	      0.02868227	      0.03259304	      0.05630425
      3.40677966	      0.02828605	      0.03236713	      0.05632784
      3.42372881	      0.02796410	      0.03218241	      0.05640740
      3.44067797	      0.02786529	      0.03212550	      0.05664073
      3.45762712	      0.02804270	      0.03222760	      0.05704886
      3.47457627	      0.02835751	      0.03240799	      0.05697743
      3.49152542	      0.02865204	      0.03257586	      0.05702279
      3.50847458	      0.02882688	      0.03267510	      0.05717259
      3.52542373	      0.02892120	      0.03272851	      0.05691030
      3.54237288	      0.02900545	      0.03277615	      0.05676113
      3.55932203	      0.02926951	      0.03292501	      0.05680054
      3.57627119	      0.02953497	      0.03307397	      0.05716640
      3.59322034	      0.02989628	      0.03327566	      0.05811463
      3.61016949	      0.03018884	      0.03343808	      0.05906986
      3.62711864	      0.03034092	      0.03352220	      0.06025926
      3.64406780	      0.03027787	      0.03348735	      0.06138240
      3.66101695	      0.02995241	      0.03330688	      0.06184964
      3.67796610	      0.02954421	      0.03307915	      0.06222137
      3.69491525	      0.02916904	      0.03286845	      0.06236479
      3.71186441	      0.02891410	      0.03272450	      0.06234323
      3.72881356	      0.02885582	      0.03269150	      0.06192980
      3.74576271	      0.02901074	      0.03277914	      0.06160161
      3.76271186	      0.02932653	      0.03295706	      0.06047170
      3.77966102	      0.02974703	      0.03319250	      0.06008988
      3.79661017	      0.02985215	      0.03325109	      0.06074964
      3.81355932	      0.02990646	      0.03328132	      0.06071846
      3.83050847	      0.02984856	      0.03324909	      0.06094764
      3.84745763	      0.02975640	      0.03319772	      0.06122936
      3.86440678	      0.02969391	      0.03316285	      0.06151651
      3.88135593	      0.02969717	      0.03316467	      0.06193511
      3.89830508	      0.02984035	      0.03324452	      0.06222813
      3.91525424	      0.02977098	      0.03320586	      0.06183830
      3.93220339	      0.02981387	      0.03322976	      0.06163341
      3.94915254	      0.02987328	      0.03326286	      0.06117117
      3.96610169	      0.02990162	      0.03327863	      0.06118176
      3.98305085	      0.02999177	      0.03332876	      0.06082015
      4.00000000	      0.03014134	      0.03341176	      0.06080675
      4.01694915	      0.03027955	      0.03348828	      0.06070930
      4.03389831	      0.03033895	      0.03352111	      0.06074036
      4.05084746	      0.03029845	      0.03349873	      0.06105532
      4.06779661	      0.03011645	      0.03339796	      0.06121195
      4.08474576	      0.02984318	      0.03324609	      0.06122050
      4.10169492	      0.02954555	      0.03307990	      0.06117253
      4.11864407	      0.02926710	      0.03292365	      0.06089231
      4.13559322	      0.02902360	      0.03278640	      0.06078423
      4.15254237	      0.02879459	      0.03265680	      0.06035420
      4.16949153	      0.02860137	      0.03254705	      0.05996744
      4.18644068	      0.02840864	      0.03243720	      0.05904858
      4.20338983	      0.02820420	      0.03232027	      0.05808930
      4.22033898	      0.02805254	      0.03223326	      0.05688747
      4.23728814	      0.02791414	      0.03215365	      0.05570020
      4.25423729	      0.02778797	      0.03208090	      0.05414625
      4.27118644	      0.02773768	      0.03205186	      0.05411294
      4.28813559	      0.02771059	      0.03203620	      0.05389202
      4.30508475	      0.02768313	      0.03202032	      0.05349385
      4.32203390	      0.02770882	      0.03203518	      0.05384474
      4.33898305	      0.02774892	      0.03205835	      0.05381087
      4.35593220	      0.02782036	      0.03209959	      0.05387220
      4.37288136	      0.02790396	      0.03214778	      0.05376016
      4.38983051	      0.02797451	      0.03218840	      0.05361608
      4.40677966	      0.02807144	      0.03224412	      0.05399105
      4.42372881	      0.02806317	      0.03223936	      0.05402482
      4.44067797	      0.02799159	      0.03219822	      0.05418407
      4.45762712	      0.02780403	      0.03209017	      0.05398688
      4.47457627	      0.02757150	      0.03195570	      0.05427209
      4.49152542	      0.02729019	      0.03179226	      0.05399841
      4.50847458	      0.02707391	      0.03166603	      0.05442292
      4.52542373	      0.02693612	      0.03158535	      0.05522495
      4.54237288	      0.02687177	      0.03154759	      0.05604500
      4.55932203	      0.02688606	      0.03155598	      0.05702950
      4.57627119	      0.02700811	      0.03162752	      0.05838459
      4.59322034	      0.02695288	      0.03159517	      0.05856953
      4.61016949	      0.02693666	      0.03158566	      0.05880149
      4.62711864	      0.02697001	      0.03160521	      0.05913670
      4.64406780	      0.02715399	      0.03171283	      0.05921836
      4.66101695	      0.02754161	      0.03193837	      0.05930602
      4.67796610	      0.02817697	      0.03230467	      0.05993013
      4.69491525	      0.02883017	      0.03267697	      0.06021803
      4.71186441	      0.02950698	      0.03305830	      0.06065132
      4.72881356	      0.03005034	      0.03336129	      0.06107337
      4.74576271	      0.03032435	      0.03351304	      0.06070420
      4.76271186	      0.03039015	      0.03354938	      0.06106223
      4.77966102	      0.03036688	      0.03353653	      0.06094017
      4.79661017	      0.03039063	      0.03354965	      0.06047946
      4.81355932	      0.03051924	      0.03362056	      0.06028324
      4.83050847	      0.03074593	      0.03374520	      0.05993172
      4.84745763	      0.03100033	      0.03388452	      0.05969015
      4.86440678	      0.03123754	      0.03401391	      0.05934425
      4.88135593	      0.03142712	      0.03411697	      0.05899407
      4.89830508	      0.03151437	      0.03416429	      0.05860324
      4.91525424	      0.03144030	      0.03412412	      0.05857245
      4.93220339	      0.03120439	      0.03399585	      0.05855634
      4.94915254	      0.03087719	      0.03381715	      0.05836914
      4.96610169	      0.03058045	      0.03365426	      0.05843181
      4.98305085	      0.03039955	      0.03355457	      0.05830224
      5.00000000	      0.03036359	      0.03353472	      0.05852166
      5.01694915	      0.03048386	      0.03360107	      0.05853254
      5.03389831	      0.03069659	      0.03371811	      0.05860356
      5.05084746	      0.03093545	      0.03384904	      0.05864399
      5.06779661	      0.03118130	      0.03398328	      0.05875025
      5.08474576	      0.03137497	      0.03408865	      0.05898355
      5.10169492	      0.03147462	      0.03414274	      0.05915635
      5.11864407	      0.03141918	      0.03411266	      0.05952591
      5.13559322	      0.03124166	      0.03401615	      0.05951489
      5.15254237	      0.03099626	      0.03388229	      0.05954621
      5.16949153	      0.03074367	      0.03374396	      0.05952638
      5.18644068	      0.03054123	      0.03363267	      0.05949761
      5.20338983	      0.03043385	      0.03357350	      0.05942051
      5.22033898	      0.03041763	      0.03356455	      0.05934628
      5.23728814	      0.03046734	      0.03359196	      0.05943750
      5.25423729	      0.03050656	      0.03361358	      0.05911747
      5.27118644	      0.03047030	      0.03359359	      0.05846595
      5.28813559	      0.03028153	      0.03348938	      0.05727603
      5.30508475	      0.02997042	      0.03331689	      0.05632063
      5.32203390	      0.02951876	      0.03306490	      0.05552717
      5.33898305	      0.02909706	      0.03282787	      0.05518480
      5.35593220	      0.02877292	      0.03264451	      0.05561696
      5.37288136	      0.02856826	      0.03252820	      0.05641170
      5.38983051	      0.02844540	      0.03245818	      0.05785666
      5.40677966	      0.02826373	      0.03235436	      0.05835183
      5.42372881	      0.02797957	      0.03219131	      0.05901691
      5.44067797	      0.02759386	      0.03196865	      0.05859473
      5.45762712	      0.02723880	      0.03176231	      0.05834883
      5.47457627	      0.02702623	      0.03163814	      0.05836029
      5.49152542	      0.02701322	      0.03163052	      0.05779579
      5.50847458	      0.02716380	      0.03171855	      0.05801775
      5.52542373	      0.02736371	      0.03183505	      0.05817790
      5.54237288	      0.02744755	      0.03188379	      0.05805554
      5.55932203	      0.02741435	      0.03186450	      0.05800698
      5.57627119	      0.02734644	      0.03182501	      0.05779550
      5.59322034	      0.02741808	      0.03186667	      0.05802255
      5.61016949	      0.02751026	      0.03192019	      0.05805045
      5.62711864	      0.02771999	      0.03204163	      0.05765279
      5.64406780	      0.02793246	      0.03216420	      0.05746109
      5.66101695	      0.02806530	      0.03224059	      0.05768979
      5.67796610	      0.02814340	      0.03228542	      0.05768620
      5.69491525	      0.02821027	      0.03232375	      0.05757258
      5.71186441	      0.02830436	      0.03237761	      0.05774899
      5.72881356	      0.02841330	      0.03243986	      0.05789981
      5.74576271	      0.02846558	      0.03246969	      0.05777583
      5.76271186	      0.02849894	      0.03248871	      0.05779631
      5.77966102	      0.02839620	      0.03243010	      0.05820953
      5.79661017	      0.02841547	      0.03244110	      0.05846930
      5.81355932	      0.02832361	      0.03238862	      0.05843098
      5.83050847	      0.02825499	      0.03234936	      0.05815190
      5.84745763	      0.02817168	      0.03230164	      0.05835156
      5.86440678	      0.02811948	      0.03227169	      0.05818941
      5.88135593	      0.02811093	      0.03226679	      0.05786944
      5.89830508	      0.02816346	      0.03229692	      0.05802769
      5.91525424	      0.02820116	      0.03231853	      0.05783020
      5.93220339	      0.02821376	      0.03232575	      0.05776738
      5.94915254	      0.02824675	      0.03234464	      0.05798368
      5.96610169	      0.02815474	      0.03229192	      0.05755078
      5.98305085	      0.02815391	      0.03229145	      0.05755565
      6.00000000	      0.02809712	      0.03225886	      0.05762178
      6.01694915	      0.02811164	      0.03226719	      0.05751878
      6.03389831	      0.02821693	      0.03232757	      0.05786962
      6.05084746	      0.02842714	      0.03244776	      0.05839111
      6.06779661	      0.02875146	      0.03263233	      0.05923210
      6.08474576	      0.02902623	      0.03278789	      0.05906952
      6.10169492	      0.02926164	      0.03292058	      0.05915095
      6.11864407	      0.02937147	      0.03298230	      0.05968106
      6.13559322	      0.02927923	      0.03293047	      0.05966254
      6.15254237	      0.02909587	      0.03282720	      0.05979989
      6.16949153	      0.02891210	      0.03272336	      0.05999054
      6.18644068	      0.02880271	      0.03266140	      0.06004208
      6.20338983	      0.02876247	      0.03263858	      0.06008727
      6.22033898	      0.02879278	      0.03265577	      0.06038294
      6.23728814	      0.02872892	      0.03261954	      0.05996230
      6.25423729	      0.02875836	      0.03263624	      0.06007469
      6.27118644	      0.02870117	      0.03260378	      0.06003017
      6.28813559	      0.02870651	      0.03260681	      0.06025781
      6.30508475	      0.02868611	      0.03259522	      0.06061245
      6.32203390	      0.02868766	      0.03259610	      0.06086793
      6.33898305	      0.02847664	      0.03247600	      0.06031794
      6.35593220	      0.02828421	      0.03236608	      0.05930273
      6.37288136	      0.02813484	      0.03228050	      0.05821691
      6.38983051	      0.02806764	      0.03224193	      0.05724704
      6.40677966	      0.02802191	      0.03221566	      0.05627728
      6.42372881	      0.02814263	      0.03228497	      0.05547407
      6.44067797	      0.02832472	      0.03238925	      0.05551085
      6.45762712	      0.02849021	      0.03248373	      0.05645620
      6.47457627	      0.02863787	      0.03256780	      0.05817917
      6.49152542	      0.02864386	      0.03257121	      0.06019222
      6.50847458	      0.02848198	      0.03247904	      0.06159042
      6.52542373	      0.02797860	      0.03219075	      0.06202228
      6.54237288	      0.02728548	      0.03178951	      0.06282548
      6.55932203	      0.02644155	      0.03129403	      0.06120277
      6.57627119	      0.02565668	      0.03082608	      0.05948708
      6.59322034	      0.02504626	      0.03045717	      0.05669100
      6.61016949	      0.02448149	      0.03011182	      0.05336119
      6.62711864	      0.02384463	      0.02971758	      0.04925537
      6.64406780	      0.02200717	      0.02854962	      0.04524631
      6.66101695	      0.02052945	      0.02757444	      0.04294902
      6.67796610	      0.01951929	      0.02688748	      0.04308020
      6.69491525	      0.01926260	      0.02671010	      0.04324503
      6.71186441	      0.01966833	      0.02698994	      0.04301706
      6.72881356	      0.02033062	      0.02744059	      0.04260794
      6.74576271	      0.02095617	      0.02785955	      0.04295138
      6.76271186	      0.02132509	      0.02810370	      0.04386169
      6.77966102	      0.02139608	      0.02815044	      0.04279916
      6.79661017	      0.02107798	      0.02794040	      0.04361923
      6.81355932	      0.02045549	      0.02752473	      0.04414947
      6.83050847	      0.01985167	      0.02711544	      0.04477162
      6.84745763	      0.01944110	      0.02683357	      0.04485887
      6.86440678	      0.01937613	      0.02678870	      0.04411678
      6.88135593	      0.01961003	      0.02694990	      0.04254824
      6.89830508	      0.02007297	      0.02726616	      0.04252040
      6.91525424	      0.02043064	      0.02750800	      0.04371828
      6.93220339	      0.02072447	      0.02770510	      0.04469513
      6.94915254	      0.02079549	      0.02775254	      0.04532172
      6.96610169	      0.02063422	      0.02764472	      0.04540130
      6.98305085	      0.02033892	      0.02744619	      0.04515378
      7.00000000	      0.02005409	      0.02725333	      0.04426685
      7.01694915	      0.01998626	      0.02720720	      0.04340884
