Model Marker Errors from IK
version=1
nRows=174
nColumns=4
inDegrees=no
endheader
time	total_squared_error	marker_error_RMS	marker_error_max
      0.00000000	      0.01582747	      0.02421162	      0.04255521
      0.01694915	      0.01571502	      0.02412546	      0.04352738
      0.03389831	      0.01570131	      0.02411493	      0.04540633
      0.05084746	      0.01584304	      0.02422353	      0.04598644
      0.06779661	      0.01620376	      0.02449774	      0.04657197
      0.08474576	      0.01667636	      0.02485242	      0.04708279
      0.10169492	      0.01711731	      0.02517885	      0.04758117
      0.11864407	      0.01748306	      0.02544643	      0.04785872
      0.13559322	      0.01784014	      0.02570498	      0.04839344
      0.15254237	      0.01798649	      0.02581020	      0.04805492
      0.16949153	      0.01809081	      0.02588494	      0.04814323
      0.18644068	      0.01808130	      0.02587813	      0.04801286
      0.20338983	      0.01811822	      0.02590454	      0.04806288
      0.22033898	      0.01809172	      0.02588559	      0.04831309
      0.23728814	      0.01810506	      0.02589513	      0.04878766
      0.25423729	      0.01806300	      0.02586503	      0.04951717
      0.27118644	      0.01799637	      0.02581729	      0.05036916
      0.28813559	      0.01795808	      0.02578981	      0.05115524
      0.30508475	      0.01796911	      0.02579772	      0.05204922
      0.32203390	      0.01798598	      0.02580983	      0.05265561
      0.33898305	      0.01793522	      0.02577339	      0.05266860
      0.35593220	      0.01782557	      0.02569448	      0.05231785
      0.37288136	      0.01761965	      0.02554564	      0.05163055
      0.38983051	      0.01743747	      0.02541323	      0.05082678
      0.40677966	      0.01724212	      0.02527048	      0.05047958
      0.42372881	      0.01709981	      0.02516597	      0.05008565
      0.44067797	      0.01700269	      0.02509441	      0.05000735
      0.45762712	      0.01699460	      0.02508844	      0.04985680
      0.47457627	      0.01702748	      0.02511270	      0.04939642
      0.49152542	      0.01713662	      0.02519305	      0.04913440
      0.50847458	      0.01719699	      0.02523738	      0.04811143
      0.52542373	      0.01730552	      0.02531690	      0.04733617
      0.54237288	      0.01729419	      0.02530860	      0.04582010
      0.55932203	      0.01731590	      0.02532449	      0.04465317
      0.57627119	      0.01736605	      0.02536113	      0.04374984
      0.59322034	      0.01750199	      0.02546020	      0.04309553
      0.61016949	      0.01778803	      0.02566741	      0.04328920
      0.62711864	      0.01812168	      0.02590701	      0.04337022
      0.64406780	      0.01846578	      0.02615182	      0.04421427
      0.66101695	      0.01847744	      0.02616008	      0.04551181
      0.67796610	      0.01847596	      0.02615903	      0.04591829
      0.69491525	      0.01858637	      0.02623707	      0.04619513
      0.71186441	      0.01883631	      0.02641290	      0.04642273
      0.72881356	      0.01910984	      0.02660398	      0.04666516
      0.74576271	      0.01926526	      0.02671195	      0.04686853
      0.76271186	      0.01919633	      0.02666412	      0.04676919
      0.77966102	      0.01900969	      0.02653418	      0.04672694
      0.79661017	      0.01875403	      0.02635514	      0.04674938
      0.81355932	      0.01836462	      0.02608009	      0.04657281
      0.83050847	      0.01811981	      0.02590568	      0.04641017
      0.84745763	      0.01785431	      0.02571518	      0.04643249
      0.86440678	      0.01769331	      0.02559898	      0.04630301
      0.88135593	      0.01755835	      0.02550116	      0.04595148
      0.89830508	      0.01740015	      0.02538602	      0.04542838
      0.91525424	      0.01713114	      0.02518902	      0.04523933
      0.93220339	      0.01686812	      0.02499490	      0.04598957
      0.94915254	      0.01667662	      0.02485262	      0.04655448
      0.96610169	      0.01662849	      0.02481673	      0.04660253
      0.98305085	      0.01668397	      0.02485809	      0.04618320
      1.00000000	      0.01693090	      0.02504137	      0.04532285
      1.01694915	      0.01723962	      0.02526865	      0.04449202
      1.03389831	      0.01756343	      0.02550485	      0.04411459
      1.05084746	      0.01786475	      0.02572270	      0.04477459
      1.06779661	      0.01812975	      0.02591278	      0.04612719
      1.08474576	      0.01844301	      0.02613569	      0.04704042
      1.10169492	      0.01880386	      0.02639014	      0.04711624
      1.11864407	      0.01921597	      0.02667776	      0.04719545
      1.13559322	      0.01972170	      0.02702653	      0.04696710
      1.15254237	      0.02020342	      0.02735461	      0.04655681
      1.16949153	      0.02065855	      0.02766101	      0.04576839
      1.18644068	      0.02103887	      0.02791447	      0.04580052
      1.20338983	      0.02129150	      0.02808156	      0.04697430
      1.22033898	      0.02152960	      0.02823814	      0.04909160
      1.23728814	      0.02169785	      0.02834827	      0.04997943
      1.25423729	      0.02168201	      0.02833791	      0.05225803
      1.27118644	      0.02160983	      0.02829071	      0.05370769
      1.28813559	      0.02159206	      0.02827907	      0.05523549
      1.30508475	      0.02170553	      0.02835328	      0.05776969
      1.32203390	      0.02208708	      0.02860140	      0.06100190
      1.33898305	      0.02268607	      0.02898663	      0.06525081
      1.35593220	      0.02356412	      0.02954226	      0.06966500
      1.37288136	      0.02454340	      0.03014987	      0.07424457
      1.38983051	      0.02559595	      0.03078958	      0.07770888
      1.40677966	      0.02639159	      0.03126446	      0.08035351
      1.42372881	      0.02672577	      0.03146178	      0.08201575
      1.44067797	      0.02221886	      0.02868660	      0.05300925
      1.45762712	      0.02172796	      0.02836793	      0.05133848
      1.47457627	      0.02121222	      0.02802923	      0.04846568
      1.49152542	      0.02090560	      0.02782591	      0.04753869
      1.50847458	      0.02070144	      0.02768971	      0.04624490
      1.52542373	      0.02064628	      0.02765279	      0.04462342
      1.54237288	      0.02079699	      0.02775354	      0.04431400
      1.55932203	      0.02110533	      0.02795852	      0.04542711
      1.57627119	      0.02144452	      0.02818229	      0.04930677
      1.59322034	      0.02148644	      0.02820982	      0.04918336
      1.61016949	      0.02138067	      0.02814030	      0.05085929
      1.62711864	      0.02099243	      0.02788364	      0.04652070
      1.64406780	      0.02043094	      0.02750821	      0.04494360
      1.66101695	      0.01983396	      0.02710334	      0.04497078
      1.67796610	      0.01928297	      0.02672422	      0.04501360
      1.69491525	      0.01881134	      0.02639539	      0.04679389
      1.71186441	      0.01843922	      0.02613300	      0.04749937
      1.72881356	      0.01827202	      0.02601426	      0.04731519
      1.74576271	      0.01820293	      0.02596503	      0.04635026
      1.76271186	      0.01813676	      0.02591779	      0.04482025
      1.77966102	      0.01790051	      0.02574844	      0.04367499
      1.79661017	      0.01754565	      0.02549194	      0.04231992
      1.81355932	      0.01713395	      0.02519109	      0.04114331
      1.83050847	      0.01678621	      0.02493414	      0.04058997
      1.84745763	      0.01686721	      0.02499423	      0.04161478
      1.86440678	      0.01724559	      0.02527302	      0.04279459
      1.88135593	      0.01781121	      0.02568413	      0.04385724
      1.89830508	      0.01833644	      0.02606007	      0.04549941
      1.91525424	      0.01861939	      0.02626037	      0.04782808
      1.93220339	      0.01846941	      0.02615439	      0.04808297
      1.94915254	      0.01784411	      0.02570784	      0.04522410
      1.96610169	      0.01686613	      0.02499343	      0.04304091
      1.98305085	      0.01593346	      0.02429255	      0.04124360
      2.00000000	      0.01544461	      0.02391700	      0.03879582
      2.01694915	      0.01558627	      0.02402643	      0.03760177
      2.03389831	      0.01615341	      0.02445965	      0.03783296
      2.05084746	      0.01685930	      0.02498836	      0.03867272
      2.06779661	      0.01759908	      0.02553072	      0.03998229
      2.08474576	      0.01841093	      0.02611295	      0.04210453
      2.10169492	      0.01924226	      0.02669600	      0.04430076
      2.11864407	      0.02015916	      0.02732463	      0.04741718
      2.13559322	      0.02119261	      0.02801627	      0.05052727
      2.15254237	      0.02227803	      0.02872477	      0.05295465
      2.16949153	      0.02318135	      0.02930134	      0.05422915
      2.18644068	      0.02369887	      0.02962661	      0.05430875
      2.20338983	      0.02376035	      0.02966501	      0.05293353
      2.22033898	      0.02351327	      0.02951037	      0.05194824
      2.23728814	      0.02330917	      0.02938201	      0.05119467
      2.25423729	      0.02332237	      0.02939033	      0.05179918
      2.27118644	      0.02360707	      0.02956917	      0.05376131
      2.28813559	      0.02419299	      0.02993387	      0.05651378
      2.30508475	      0.02495765	      0.03040324	      0.06034939
      2.32203390	      0.02565994	      0.03082804	      0.06463222
      2.33898305	      0.02620845	      0.03115579	      0.06722936
      2.35593220	      0.02661425	      0.03139606	      0.07075234
      2.37288136	      0.02706284	      0.03165955	      0.07334435
      2.38983051	      0.02758883	      0.03196574	      0.07539297
      2.40677966	      0.02815897	      0.03229434	      0.07665441
      2.42372881	      0.02866230	      0.03258169	      0.07668981
      2.44067797	      0.02893544	      0.03273657	      0.07528013
      2.45762712	      0.02891722	      0.03272626	      0.07252007
      2.47457627	      0.02850983	      0.03249492	      0.06812284
      2.49152542	      0.02771488	      0.03203868	      0.06342768
      2.50847458	      0.02681320	      0.03151320	      0.05802387
      2.52542373	      0.02605438	      0.03106408	      0.05515981
      2.54237288	      0.02567972	      0.03083992	      0.05296946
      2.55932203	      0.02565436	      0.03082469	      0.05214939
      2.57627119	      0.02583031	      0.03093022	      0.05230777
      2.59322034	      0.02609201	      0.03108651	      0.05346436
      2.61016949	      0.02635935	      0.03124536	      0.05417801
      2.62711864	      0.02649113	      0.03132336	      0.05487796
      2.64406780	      0.02652176	      0.03134147	      0.05465038
      2.66101695	      0.02646966	      0.03131067	      0.05484669
      2.67796610	      0.02626837	      0.03119139	      0.05541973
      2.69491525	      0.02610165	      0.03109225	      0.05620991
      2.71186441	      0.02604148	      0.03105639	      0.05698793
      2.72881356	      0.02608490	      0.03108227	      0.05732065
      2.74576271	      0.02619871	      0.03115000	      0.05720779
      2.76271186	      0.02633029	      0.03122813	      0.05718742
      2.77966102	      0.02636727	      0.03125005	      0.05711715
      2.79661017	      0.02626841	      0.03119141	      0.05682593
      2.81355932	      0.02602333	      0.03104556	      0.05625046
      2.83050847	      0.02568132	      0.03084088	      0.05568423
      2.84745763	      0.02522894	      0.03056804	      0.05491114
      2.86440678	      0.02470412	      0.03024843	      0.05412954
      2.88135593	      0.02411941	      0.02988832	      0.05347310
      2.89830508	      0.02340705	      0.02944364	      0.05290197
      2.91525424	      0.02259596	      0.02892900	      0.05245093
      2.93220339	      0.02207699	      0.02859486	      0.05271101
