Model Marker Errors from IK
version=1
nRows=569
nColumns=4
inDegrees=no
endheader
time	total_squared_error	marker_error_RMS	marker_error_max
      0.00000000	      0.02209014	      0.02860338	      0.04217932
      0.01666667	      0.02106090	      0.02792908	      0.04149864
      0.03333333	      0.02061795	      0.02763382	      0.04171615
      0.05000000	      0.02047460	      0.02753759	      0.04168560
      0.06666667	      0.02051498	      0.02756473	      0.04163500
      0.08333333	      0.02065959	      0.02766171	      0.04161602
      0.10000000	      0.02090220	      0.02782365	      0.04170701
      0.11666667	      0.02115154	      0.02798911	      0.04166884
      0.13333333	      0.02132308	      0.02810238	      0.04202751
      0.15000000	      0.02134397	      0.02811614	      0.04196084
      0.16666667	      0.02123189	      0.02804222	      0.04196598
      0.18333333	      0.02102582	      0.02790581	      0.04225706
      0.20000000	      0.02078073	      0.02774269	      0.04232382
      0.21666667	      0.02052205	      0.02756947	      0.04250350
      0.23333333	      0.02032251	      0.02743512	      0.04241078
      0.25000000	      0.02023617	      0.02737677	      0.04253846
      0.26666667	      0.02017086	      0.02733256	      0.04226207
      0.28333333	      0.02009978	      0.02728436	      0.04204581
      0.30000000	      0.02001418	      0.02722620	      0.04198928
      0.31666667	      0.01997187	      0.02719741	      0.04246219
      0.33333333	      0.02001353	      0.02722576	      0.04284478
      0.35000000	      0.02018338	      0.02734104	      0.04313411
      0.36666667	      0.02040302	      0.02748940	      0.04368809
      0.38333333	      0.02064858	      0.02765434	      0.04425697
      0.40000000	      0.02083381	      0.02777810	      0.04532744
      0.41666667	      0.02105635	      0.02792606	      0.04564590
      0.43333333	      0.02121165	      0.02802885	      0.04586768
      0.45000000	      0.02127889	      0.02807324	      0.04580313
      0.46666667	      0.02129245	      0.02808219	      0.04568078
      0.48333333	      0.02131162	      0.02809482	      0.04563073
      0.50000000	      0.02134670	      0.02811794	      0.04557940
      0.51666667	      0.02137067	      0.02813372	      0.04562095
      0.53333333	      0.02134431	      0.02811636	      0.04551361
      0.55000000	      0.02127480	      0.02807055	      0.04546932
      0.56666667	      0.02119402	      0.02801721	      0.04536887
      0.58333333	      0.02106524	      0.02793195	      0.04435453
      0.60000000	      0.02101695	      0.02789992	      0.04406596
      0.61666667	      0.02097926	      0.02787489	      0.04325215
      0.63333333	      0.02100240	      0.02789026	      0.04286912
      0.65000000	      0.02109234	      0.02794992	      0.04249529
      0.66666667	      0.02124386	      0.02805013	      0.04231980
      0.68333333	      0.02143793	      0.02817796	      0.04240514
      0.70000000	      0.02163300	      0.02830587	      0.04257515
      0.71666667	      0.02180695	      0.02841944	      0.04284561
      0.73333333	      0.02189231	      0.02847501	      0.04244586
      0.75000000	      0.02188897	      0.02847284	      0.04187749
      0.76666667	      0.02174916	      0.02838176	      0.04113607
      0.78333333	      0.02149244	      0.02821376	      0.04017043
      0.80000000	      0.02114999	      0.02798809	      0.04006317
      0.81666667	      0.02078329	      0.02774439	      0.03864528
      0.83333333	      0.02052082	      0.02756865	      0.03866526
      0.85000000	      0.02028390	      0.02740904	      0.03829927
      0.86666667	      0.02021120	      0.02735988	      0.03826354
      0.88333333	      0.02020878	      0.02735824	      0.03824562
      0.90000000	      0.02024359	      0.02738179	      0.03849621
      0.91666667	      0.02027259	      0.02740140	      0.03933309
      0.93333333	      0.02033319	      0.02744232	      0.04014656
      0.95000000	      0.02037851	      0.02747289	      0.04033478
      0.96666667	      0.02047010	      0.02753456	      0.04083579
      0.98333333	      0.02060703	      0.02762649	      0.04160711
      1.00000000	      0.02078022	      0.02774235	      0.04165508
      1.01666667	      0.02093862	      0.02784788	      0.04196513
      1.03333333	      0.02111167	      0.02796272	      0.04196212
      1.05000000	      0.02123695	      0.02804557	      0.04178349
      1.06666667	      0.02130812	      0.02809252	      0.04154685
      1.08333333	      0.02136260	      0.02812841	      0.04140934
      1.10000000	      0.02141907	      0.02816556	      0.04074411
      1.11666667	      0.02153581	      0.02824221	      0.04056213
      1.13333333	      0.02166193	      0.02832479	      0.04066244
      1.15000000	      0.02175807	      0.02838757	      0.04054478
      1.16666667	      0.02182274	      0.02842973	      0.04098103
      1.18333333	      0.02182698	      0.02843249	      0.04049898
      1.20000000	      0.02182321	      0.02843003	      0.04073722
      1.21666667	      0.02178367	      0.02840427	      0.04126852
      1.23333333	      0.02169619	      0.02834718	      0.04154120
      1.25000000	      0.02154369	      0.02824738	      0.04199163
      1.26666667	      0.02137324	      0.02813542	      0.04242462
      1.28333333	      0.02120415	      0.02802390	      0.04218810
      1.30000000	      0.02098028	      0.02787557	      0.04209822
      1.31666667	      0.02079610	      0.02775294	      0.04213836
      1.33333333	      0.02070451	      0.02769176	      0.04242118
      1.35000000	      0.02070794	      0.02769405	      0.04286998
      1.36666667	      0.02082480	      0.02777209	      0.04352191
      1.38333333	      0.02098700	      0.02788003	      0.04436618
      1.40000000	      0.02114297	      0.02798344	      0.04552945
      1.41666667	      0.02125546	      0.02805778	      0.04672442
      1.43333333	      0.02126369	      0.02806322	      0.04735805
      1.45000000	      0.02106647	      0.02793277	      0.04678867
      1.46666667	      0.02053836	      0.02758043	      0.04596211
      1.48333333	      0.01977818	      0.02706520	      0.04378109
      1.50000000	      0.01904710	      0.02656028	      0.04290956
      1.51666667	      0.01846266	      0.02614961	      0.04190465
      1.53333333	      0.01811448	      0.02590187	      0.04120677
      1.55000000	      0.01794207	      0.02577830	      0.04162351
      1.56666667	      0.01795396	      0.02578685	      0.04184131
      1.58333333	      0.01806766	      0.02586837	      0.04224942
      1.60000000	      0.01820385	      0.02596569	      0.04257364
      1.61666667	      0.01824548	      0.02599536	      0.04262643
      1.63333333	      0.01810653	      0.02589618	      0.04269379
      1.65000000	      0.01797728	      0.02580359	      0.04237290
      1.66666667	      0.01796007	      0.02579124	      0.04250090
      1.68333333	      0.01799743	      0.02581805	      0.04318254
      1.70000000	      0.01810364	      0.02589411	      0.04383442
      1.71666667	      0.01817636	      0.02594607	      0.04436121
      1.73333333	      0.01803361	      0.02584398	      0.04487208
      1.75000000	      0.01759560	      0.02552820	      0.04543361
      1.76666667	      0.01699350	      0.02508762	      0.04610432
      1.78333333	      0.01650945	      0.02472774	      0.04690040
      1.80000000	      0.01619728	      0.02449284	      0.04782739
      1.81666667	      0.01595124	      0.02430611	      0.04885897
      1.83333333	      0.01569458	      0.02410976	      0.04985027
      1.85000000	      0.01549455	      0.02395563	      0.05037935
      1.86666667	      0.01549875	      0.02395888	      0.05033552
      1.88333333	      0.01582202	      0.02420745	      0.04958942
      1.90000000	      0.01628884	      0.02456197	      0.04816683
      1.91666667	      0.01683422	      0.02496977	      0.04676625
      1.93333333	      0.01745805	      0.02542822	      0.04552479
      1.95000000	      0.01784239	      0.02570660	      0.04519571
      1.96666667	      0.01748326	      0.02544657	      0.04563852
      1.98333333	      0.01668106	      0.02485592	      0.04662426
      2.00000000	      0.01635873	      0.02461461	      0.04730534
      2.01666667	      0.01678159	      0.02493071	      0.04730265
      2.03333333	      0.01720513	      0.02524335	      0.04642056
      2.05000000	      0.01748770	      0.02544981	      0.04524297
      2.06666667	      0.01820442	      0.02596609	      0.05143072
      2.08333333	      0.01943260	      0.02682771	      0.06375513
      2.10000000	      0.02069652	      0.02768642	      0.07254171
      2.11666667	      0.02176790	      0.02839399	      0.07698228
      2.13333333	      0.02271346	      0.02900412	      0.07749183
      2.15000000	      0.02323833	      0.02933733	      0.07449626
      2.16666667	      0.02279244	      0.02905451	      0.06799159
      2.18333333	      0.02129615	      0.02808463	      0.05922320
      2.20000000	      0.01928393	      0.02672488	      0.05079188
      2.21666667	      0.01749550	      0.02545548	      0.04314155
      2.23333333	      0.01628096	      0.02455602	      0.04172728
      2.25000000	      0.01593982	      0.02429740	      0.04201078
      2.26666667	      0.01640251	      0.02464752	      0.04262232
      2.28333333	      0.01725964	      0.02528331	      0.04352001
      2.30000000	      0.01822098	      0.02597790	      0.04477803
      2.31666667	      0.01898240	      0.02651513	      0.04621855
      2.33333333	      0.01964912	      0.02697675	      0.04771469
      2.35000000	      0.02065098	      0.02765594	      0.05000275
      2.36666667	      0.02245769	      0.02884036	      0.06494206
      2.38333333	      0.02512625	      0.03050577	      0.07966687
      2.40000000	      0.02842032	      0.03244387	      0.09379780
      2.41666667	      0.03213682	      0.03450004	      0.10756265
      2.43333333	      0.03630280	      0.03666808	      0.12131217
      2.45000000	      0.04108423	      0.03900818	      0.13520275
      2.46666667	      0.04652501	      0.04151082	      0.14911711
      2.48333333	      0.05255925	      0.04412073	      0.16331483
      2.50000000	      0.05915125	      0.04680585	      0.17793886
      2.51666667	      0.06612481	      0.04948805	      0.19272998
      2.53333333	      0.07310332	      0.05203393	      0.20704004
      2.55000000	      0.07969612	      0.05432963	      0.22055150
      2.56666667	      0.08531685	      0.05621284	      0.23120377
      2.58333333	      0.08985505	      0.05768852	      0.23972528
      2.60000000	      0.09287263	      0.05864919	      0.24494163
      2.61666667	      0.09449915	      0.05916053	      0.24774065
      2.63333333	      0.09482172	      0.05926142	      0.24850392
      2.65000000	      0.09436282	      0.05911784	      0.24832424
      2.66666667	      0.09361428	      0.05888290	      0.24748855
      2.68333333	      0.09313311	      0.05873138	      0.24713445
      2.70000000	      0.09301701	      0.05869476	      0.24725081
      2.71666667	      0.09323781	      0.05876438	      0.24749920
      2.73333333	      0.09375757	      0.05892795	      0.24756331
      2.75000000	      0.09464739	      0.05920692	      0.24764798
      2.76666667	      0.09574529	      0.05954932	      0.24756072
      2.78333333	      0.09676239	      0.05986478	      0.24741517
      2.80000000	      0.09749066	      0.06008964	      0.24720308
      2.81666667	      0.09785043	      0.06020042	      0.24695109
      2.83333333	      0.09780277	      0.06018575	      0.24658694
      2.85000000	      0.09755977	      0.06011094	      0.24608355
      2.86666667	      0.09743498	      0.06007248	      0.24563388
      2.88333333	      0.09750424	      0.06009383	      0.24519566
      2.90000000	      0.09770496	      0.06015565	      0.24493702
      2.91666667	      0.09774799	      0.06016890	      0.24438777
      2.93333333	      0.09773788	      0.06016578	      0.24473476
      2.95000000	      0.09755988	      0.06011097	      0.24505452
      2.96666667	      0.09734686	      0.06004531	      0.24515033
      2.98333333	      0.09726513	      0.06002010	      0.24553237
      3.00000000	      0.09723387	      0.06001045	      0.24565158
      3.01666667	      0.09745803	      0.06007958	      0.24576965
      3.03333333	      0.09803691	      0.06025775	      0.24560211
      3.05000000	      0.09896328	      0.06054178	      0.24534185
      3.06666667	      0.09985657	      0.06081440	      0.24510328
      3.08333333	      0.10001575	      0.06086285	      0.24506485
      3.10000000	      0.09941067	      0.06067847	      0.24514664
      3.11666667	      0.09843082	      0.06037869	      0.24535344
      3.13333333	      0.09784592	      0.06019903	      0.24559552
      3.15000000	      0.09781291	      0.06018887	      0.24571767
      3.16666667	      0.09675055	      0.05986112	      0.24565632
      3.18333333	      0.09728149	      0.06002515	      0.24544789
      3.20000000	      0.09769263	      0.06015185	      0.24496752
      3.21666667	      0.09792482	      0.06022329	      0.24485687
      3.23333333	      0.09800981	      0.06024942	      0.24454727
      3.25000000	      0.09786983	      0.06020638	      0.24436361
      3.26666667	      0.09761701	      0.06012857	      0.24350104
      3.28333333	      0.09744996	      0.06007710	      0.24276271
      3.30000000	      0.09815880	      0.06029520	      0.24293639
      3.31666667	      0.10125177	      0.06123778	      0.24637864
      3.33333333	      0.10679784	      0.06289257	      0.25397054
      3.35000000	      0.11286116	      0.06465325	      0.26127227
      3.36666667	      0.11217200	      0.06445556	      0.25892784
      3.38333333	      0.09944418	      0.06068870	      0.23754426
      3.40000000	      0.07728782	      0.05350245	      0.19557585
      3.41666667	      0.05596789	      0.04552895	      0.14810133
      3.43333333	      0.04565089	      0.04111902	      0.13438174
      3.45000000	      0.04571407	      0.04114746	      0.11283142
      3.46666667	      0.05410595	      0.04476521	      0.09547022
      3.48333333	      0.06110174	      0.04757129	      0.10905008
      3.50000000	      0.06700590	      0.04981666	      0.11881752
      3.51666667	      0.06979347	      0.05084234	      0.12088078
      3.53333333	      0.07057751	      0.05112711	      0.12045329
      3.55000000	      0.07050299	      0.05110012	      0.12029078
      3.56666667	      0.06965516	      0.05079193	      0.11950339
      3.58333333	      0.06743037	      0.04997421	      0.11690130
      3.60000000	      0.06254459	      0.04812968	      0.11299717
      3.61666667	      0.05848002	      0.04653952	      0.11009993
      3.63333333	      0.05264693	      0.04415752	      0.10275793
      3.65000000	      0.04787278	      0.04210779	      0.09601987
      3.66666667	      0.04393044	      0.04033675	      0.08854149
      3.68333333	      0.04156195	      0.03923432	      0.08185900
      3.70000000	      0.04134047	      0.03912964	      0.07775413
      3.71666667	      0.04397574	      0.04035754	      0.07865778
      3.73333333	      0.04968755	      0.04289848	      0.08492922
      3.75000000	      0.05827191	      0.04645663	      0.09620578
      3.76666667	      0.06844252	      0.05034787	      0.11049362
      3.78333333	      0.07818837	      0.05381325	      0.12500022
      3.80000000	      0.08572308	      0.05634651	      0.13717208
      3.81666667	      0.07920993	      0.05416365	      0.14646148
      3.83333333	      0.07762442	      0.05361883	      0.14343595
      3.85000000	      0.07494408	      0.05268498	      0.13821260
      3.86666667	      0.07209144	      0.05167256	      0.13229958
      3.88333333	      0.06968037	      0.05080113	      0.12703316
      3.90000000	      0.06783192	      0.05012278	      0.12303638
      3.91666667	      0.06642547	      0.04960043	      0.12460045
      3.93333333	      0.06539624	      0.04921466	      0.12569270
      3.95000000	      0.06470643	      0.04895441	      0.12637792
      3.96666667	      0.06427459	      0.04879078	      0.12661827
      3.98333333	      0.06415424	      0.04874508	      0.12666035
      4.00000000	      0.06428132	      0.04879334	      0.12631524
      4.01666667	      0.06458080	      0.04890687	      0.12550835
      4.03333333	      0.06489627	      0.04902617	      0.12493802
      4.05000000	      0.06520009	      0.04914080	      0.12428204
      4.06666667	      0.06543237	      0.04922826	      0.12293949
      4.08333333	      0.06564722	      0.04930901	      0.12166079
      4.10000000	      0.06602716	      0.04945149	      0.11809070
      4.11666667	      0.06019477	      0.04721690	      0.09868729
      4.13333333	      0.06095494	      0.04751411	      0.09845267
      4.15000000	      0.06187268	      0.04787046	      0.09974740
      4.16666667	      0.06269068	      0.04818586	      0.10255322
      4.18333333	      0.06336775	      0.04844537	      0.10646441
      4.20000000	      0.06377620	      0.04860125	      0.10983165
      4.21666667	      0.06393032	      0.04865994	      0.11123495
      4.23333333	      0.06413251	      0.04873682	      0.11138943
      4.25000000	      0.06496350	      0.04905156	      0.10945803
      4.26666667	      0.06643380	      0.04960354	      0.10554006
      4.28333333	      0.05666760	      0.04581266	      0.12207701
      4.30000000	      0.05729567	      0.04606584	      0.12058807
      4.31666667	      0.05881363	      0.04667207	      0.11974687
      4.33333333	      0.06143540	      0.04770100	      0.11973247
      4.35000000	      0.06440118	      0.04883881	      0.12078628
      4.36666667	      0.06626043	      0.04953877	      0.12233867
      4.38333333	      0.06647542	      0.04961907	      0.12408220
      4.40000000	      0.06587632	      0.04939498	      0.12651971
      4.41666667	      0.06545565	      0.04923701	      0.12928928
      4.43333333	      0.06526772	      0.04916628	      0.13135082
      4.45000000	      0.06471457	      0.04895749	      0.13311955
      4.46666667	      0.06348366	      0.04848965	      0.13374648
      4.48333333	      0.06199542	      0.04791792	      0.13162715
      4.50000000	      0.06125403	      0.04763053	      0.12750337
      4.51666667	      0.06209564	      0.04795663	      0.12248485
      4.53333333	      0.06413851	      0.04873910	      0.12043335
      4.55000000	      0.06605560	      0.04946215	      0.12676910
      4.56666667	      0.06682268	      0.04974851	      0.12808536
      4.58333333	      0.06645582	      0.04961176	      0.12526194
      4.60000000	      0.06570660	      0.04933131	      0.12219203
      4.61666667	      0.06522157	      0.04914889	      0.12439881
      4.63333333	      0.06513269	      0.04911539	      0.12563455
      4.65000000	      0.06526089	      0.04916371	      0.12554379
      4.66666667	      0.06556306	      0.04927739	      0.12358115
      4.68333333	      0.06612526	      0.04948822	      0.12173398
      4.70000000	      0.06709318	      0.04984910	      0.12164686
      4.71666667	      0.06845805	      0.05035358	      0.12756605
      4.73333333	      0.07012852	      0.05096423	      0.13365109
      4.75000000	      0.07205935	      0.05166106	      0.14008206
      4.76666667	      0.07422079	      0.05243012	      0.14579427
      4.78333333	      0.07631630	      0.05316512	      0.15078530
      4.80000000	      0.07767559	      0.05363650	      0.15400712
      4.81666667	      0.07780991	      0.05368285	      0.15524904
      4.83333333	      0.07666754	      0.05328732	      0.15455559
      4.85000000	      0.07456609	      0.05255195	      0.15204070
      4.86666667	      0.07206653	      0.05166363	      0.14840319
      4.88333333	      0.06976350	      0.05083142	      0.14425908
      4.90000000	      0.06816468	      0.05024558	      0.14071832
      4.91666667	      0.06767835	      0.05006601	      0.13912314
      4.93333333	      0.06812550	      0.05023113	      0.13760367
      4.95000000	      0.06927214	      0.05065210	      0.13782831
      4.96666667	      0.07070440	      0.05117305	      0.13899641
      4.98333333	      0.07204463	      0.05165578	      0.13972995
      5.00000000	      0.07316861	      0.05205717	      0.14044415
      5.01666667	      0.07380260	      0.05228221	      0.14050566
      5.03333333	      0.07376974	      0.05227057	      0.13918220
      5.05000000	      0.07293970	      0.05197567	      0.13639599
      5.06666667	      0.07123578	      0.05136499	      0.13138362
      5.08333333	      0.06879860	      0.05047867	      0.12297171
      5.10000000	      0.06595094	      0.04942295	      0.12573565
      5.11666667	      0.06286668	      0.04825345	      0.12773949
      5.13333333	      0.05986201	      0.04708621	      0.12919919
      5.15000000	      0.05778985	      0.04626408	      0.13083051
      5.16666667	      0.05727312	      0.04605678	      0.13240256
      5.18333333	      0.05856186	      0.04657207	      0.13382288
      5.20000000	      0.06111755	      0.04757744	      0.13482133
      5.21666667	      0.06361173	      0.04853854	      0.13537686
      5.23333333	      0.06498279	      0.04905884	      0.13597908
      5.25000000	      0.06529663	      0.04917717	      0.13680265
      5.26666667	      0.06532086	      0.04918629	      0.13790373
      5.28333333	      0.06549017	      0.04924999	      0.13875708
      5.30000000	      0.06592371	      0.04941274	      0.13958453
      5.31666667	      0.06642116	      0.04959882	      0.13996689
      5.33333333	      0.06735422	      0.04994598	      0.14112191
      5.35000000	      0.06834976	      0.05031374	      0.14227890
      5.36666667	      0.06928762	      0.05065775	      0.14421125
      5.38333333	      0.07004517	      0.05093393	      0.14599311
      5.40000000	      0.07080081	      0.05120793	      0.14770466
      5.41666667	      0.07108676	      0.05131124	      0.14860841
      5.43333333	      0.07074104	      0.05118631	      0.14878836
      5.45000000	      0.06964831	      0.05078944	      0.14820428
      5.46666667	      0.06855536	      0.05038936	      0.14721586
      5.48333333	      0.06788401	      0.05014203	      0.14612284
      5.50000000	      0.06791635	      0.05015396	      0.14455132
      5.51666667	      0.06840811	      0.05033521	      0.14276487
      5.53333333	      0.06901839	      0.05055924	      0.14026873
      5.55000000	      0.06906662	      0.05057690	      0.13704825
      5.56666667	      0.06815454	      0.05024184	      0.13315593
      5.58333333	      0.06626042	      0.04953877	      0.12909637
      5.60000000	      0.06388567	      0.04864294	      0.12532236
      5.61666667	      0.06176700	      0.04782956	      0.12183344
      5.63333333	      0.06063780	      0.04739034	      0.11875659
      5.65000000	      0.06055380	      0.04735751	      0.11611121
      5.66666667	      0.06141266	      0.04769217	      0.11388634
      5.68333333	      0.06303473	      0.04831790	      0.11214923
      5.70000000	      0.06520980	      0.04914446	      0.11071518
      5.71666667	      0.06774835	      0.05009190	      0.10946852
      5.73333333	      0.07028356	      0.05102053	      0.11182500
      5.75000000	      0.07263113	      0.05186562	      0.12051389
      5.76666667	      0.07451108	      0.05253256	      0.12626026
      5.78333333	      0.07619562	      0.05312307	      0.13036355
      5.80000000	      0.07758676	      0.05360582	      0.13394207
      5.81666667	      0.07799249	      0.05374580	      0.13652079
      5.83333333	      0.07690130	      0.05336850	      0.13765847
      5.85000000	      0.07432781	      0.05246791	      0.13729055
      5.86666667	      0.07152378	      0.05146872	      0.13603947
      5.88333333	      0.06959726	      0.05077082	      0.13512181
      5.90000000	      0.06920387	      0.05062713	      0.13353330
      5.91666667	      0.07003363	      0.05092974	      0.13007916
      5.93333333	      0.06963749	      0.05078549	      0.12553758
      5.95000000	      0.06872084	      0.05045014	      0.12057034
      5.96666667	      0.06653519	      0.04964138	      0.11281836
      5.98333333	      0.06368089	      0.04856492	      0.11036561
      6.00000000	      0.06066419	      0.04740065	      0.10940047
      6.01666667	      0.05819706	      0.04642679	      0.10897958
      6.03333333	      0.05665506	      0.04580759	      0.10905602
      6.05000000	      0.05589240	      0.04549823	      0.10929814
      6.06666667	      0.05560605	      0.04538153	      0.10886859
      6.08333333	      0.05549545	      0.04533637	      0.10790118
      6.10000000	      0.05511211	      0.04517952	      0.10720666
      6.11666667	      0.05378492	      0.04463221	      0.10650378
      6.13333333	      0.05162021	      0.04372482	      0.10619875
      6.15000000	      0.04897356	      0.04258915	      0.10611442
      6.16666667	      0.04629897	      0.04140986	      0.10647998
      6.18333333	      0.04389087	      0.04031858	      0.10562854
      6.20000000	      0.04186072	      0.03937508	      0.10531981
      6.21666667	      0.04031469	      0.03864112	      0.10460759
      6.23333333	      0.03921928	      0.03811254	      0.10422947
      6.25000000	      0.03850171	      0.03776228	      0.10448354
      6.26666667	      0.03819363	      0.03761089	      0.10356907
      6.28333333	      0.03824608	      0.03763671	      0.10252964
      6.30000000	      0.03861169	      0.03781617	      0.10238409
      6.31666667	      0.03933351	      0.03816801	      0.10349964
      6.33333333	      0.04023753	      0.03860413	      0.10503722
      6.35000000	      0.04129143	      0.03910642	      0.10663219
      6.36666667	      0.04228690	      0.03957501	      0.10704213
      6.38333333	      0.04323651	      0.04001690	      0.10740253
      6.40000000	      0.04402749	      0.04038128	      0.10754840
      6.41666667	      0.04380133	      0.04027743	      0.10984508
      6.43333333	      0.04359023	      0.04018026	      0.10982752
      6.45000000	      0.04283140	      0.03982898	      0.10681676
      6.46666667	      0.04188874	      0.03938826	      0.10444580
      6.48333333	      0.04136461	      0.03914106	      0.10281608
      6.50000000	      0.04181672	      0.03935438	      0.10069871
      6.51666667	      0.04339926	      0.04009214	      0.09939290
      6.53333333	      0.04598724	      0.04127022	      0.09784478
      6.55000000	      0.04910655	      0.04264694	      0.10564154
      6.56666667	      0.05219881	      0.04396919	      0.11270025
      6.58333333	      0.05501571	      0.04513999	      0.11684290
      6.60000000	      0.05729939	      0.04606734	      0.11834426
      6.61666667	      0.05764469	      0.04620594	      0.11296145
      6.63333333	      0.05797650	      0.04633873	      0.11030974
      6.65000000	      0.05759588	      0.04618637	      0.10603280
      6.66666667	      0.05688561	      0.04590070	      0.10456899
      6.68333333	      0.05618774	      0.04561828	      0.10482527
      6.70000000	      0.05563912	      0.04539502	      0.10497963
      6.71666667	      0.05530973	      0.04526045	      0.10484719
      6.73333333	      0.05514086	      0.04519130	      0.10406941
      6.75000000	      0.05532869	      0.04526821	      0.10446720
      6.76666667	      0.05570359	      0.04542132	      0.10709490
      6.78333333	      0.05634794	      0.04568326	      0.10845023
      6.80000000	      0.05676123	      0.04585049	      0.10935222
      6.81666667	      0.05725052	      0.04604769	      0.11021169
      6.83333333	      0.05795135	      0.04632868	      0.11109107
      6.85000000	      0.05929109	      0.04686114	      0.11290851
      6.86666667	      0.06109702	      0.04756945	      0.11506389
      6.88333333	      0.06302188	      0.04831298	      0.11650444
      6.90000000	      0.06480158	      0.04899039	      0.11540324
      6.91666667	      0.06602324	      0.04945003	      0.11587204
      6.93333333	      0.06685792	      0.04976162	      0.11622075
      6.95000000	      0.06723632	      0.04990224	      0.11685727
      6.96666667	      0.06743815	      0.04997709	      0.11743083
      6.98333333	      0.06772574	      0.05008354	      0.11819451
      7.00000000	      0.06840360	      0.05033355	      0.11874874
      7.01666667	      0.06958312	      0.05076566	      0.11922318
      7.03333333	      0.07112586	      0.05132534	      0.11965644
      7.05000000	      0.07256634	      0.05184247	      0.12033470
      7.06666667	      0.07382362	      0.05228965	      0.12056617
      7.08333333	      0.07459234	      0.05256120	      0.12107446
      7.10000000	      0.07469829	      0.05259851	      0.12163989
      7.11666667	      0.07460704	      0.05256637	      0.12218250
      7.13333333	      0.07451089	      0.05253249	      0.12226609
      7.15000000	      0.07418432	      0.05241724	      0.12298528
      7.16666667	      0.07405549	      0.05237171	      0.12336131
      7.18333333	      0.07409143	      0.05238442	      0.12330111
      7.20000000	      0.07418327	      0.05241687	      0.12434716
      7.21666667	      0.07440453	      0.05249498	      0.12424131
      7.23333333	      0.07441909	      0.05250012	      0.12617221
      7.25000000	      0.07471297	      0.05260368	      0.12811916
      7.26666667	      0.07540426	      0.05284648	      0.13025395
      7.28333333	      0.07696237	      0.05338968	      0.13195888
      7.30000000	      0.07940129	      0.05422904	      0.13349571
      7.31666667	      0.08242630	      0.05525238	      0.13415835
      7.33333333	      0.08549294	      0.05627082	      0.13416671
      7.35000000	      0.08824285	      0.05716864	      0.13515474
      7.36666667	      0.09067955	      0.05795258	      0.13563533
      7.38333333	      0.09297047	      0.05868007	      0.13578921
      7.40000000	      0.09522925	      0.05938863	      0.13616872
      7.41666667	      0.09716995	      0.05999072	      0.13709370
      7.43333333	      0.09780065	      0.06018510	      0.13822231
      7.45000000	      0.09549566	      0.05947164	      0.13890551
      7.46666667	      0.08958238	      0.05760092	      0.13960943
      7.48333333	      0.08142574	      0.05491601	      0.13799498
      7.50000000	      0.07341847	      0.05214598	      0.13281247
      7.51666667	      0.06692804	      0.04978771	      0.11912250
      7.53333333	      0.05546718	      0.04532483	      0.11371024
      7.55000000	      0.05152908	      0.04368620	      0.11039354
      7.56666667	      0.04778530	      0.04206930	      0.10351624
      7.58333333	      0.04347709	      0.04012808	      0.10578385
      7.60000000	      0.04305920	      0.03993476	      0.11961795
      7.61666667	      0.04398005	      0.04035952	      0.13467108
      7.63333333	      0.04518535	      0.04090882	      0.14412707
      7.65000000	      0.04457264	      0.04063051	      0.14437124
      7.66666667	      0.04084729	      0.03889553	      0.13400203
      7.68333333	      0.03485653	      0.03593025	      0.11472186
      7.70000000	      0.02879849	      0.03265901	      0.09174083
      7.71666667	      0.02417140	      0.02992051	      0.07058973
      7.73333333	      0.02114014	      0.02798157	      0.05399897
      7.75000000	      0.01947951	      0.02686007	      0.04272426
      7.76666667	      0.01880041	      0.02638772	      0.04449968
      7.78333333	      0.01854213	      0.02620583	      0.04545844
      7.80000000	      0.01838328	      0.02609334	      0.04583930
      7.81666667	      0.01847025	      0.02615498	      0.04664727
      7.83333333	      0.01881895	      0.02640072	      0.04707557
      7.85000000	      0.01916925	      0.02664530	      0.04790669
      7.86666667	      0.01939803	      0.02680384	      0.04840948
      7.88333333	      0.01893012	      0.02647859	      0.04845679
      7.90000000	      0.01926455	      0.02671146	      0.04839171
      7.91666667	      0.01991159	      0.02715633	      0.04790463
      7.93333333	      0.02060185	      0.02762303	      0.04763411
      7.95000000	      0.02090381	      0.02782472	      0.04820587
      7.96666667	      0.02061282	      0.02763038	      0.04815186
      7.98333333	      0.01987568	      0.02713183	      0.04759280
      8.00000000	      0.01937099	      0.02678515	      0.04679181
      8.01666667	      0.01946383	      0.02684926	      0.04575914
      8.03333333	      0.01991531	      0.02715887	      0.04913817
      8.05000000	      0.02022924	      0.02737209	      0.05425467
      8.06666667	      0.02104591	      0.02791913	      0.05952190
      8.08333333	      0.02195241	      0.02851407	      0.06206537
      8.10000000	      0.02251778	      0.02887892	      0.06263883
      8.11666667	      0.02280150	      0.02906028	      0.06110699
      8.13333333	      0.02287106	      0.02910458	      0.05819481
      8.15000000	      0.02274894	      0.02902677	      0.05505353
      8.16666667	      0.02246446	      0.02884471	      0.05227827
      8.18333333	      0.02228178	      0.02872719	      0.04999239
      8.20000000	      0.02235267	      0.02877285	      0.04812421
      8.21666667	      0.02259920	      0.02893108	      0.05009806
      8.23333333	      0.02279774	      0.02905788	      0.05206944
      8.25000000	      0.02284205	      0.02908611	      0.05216736
      8.26666667	      0.02269658	      0.02899335	      0.05043208
      8.28333333	      0.02256809	      0.02891116	      0.04820755
      8.30000000	      0.02242915	      0.02882202	      0.04750927
      8.31666667	      0.02228542	      0.02872953	      0.04738421
      8.33333333	      0.02214264	      0.02863735	      0.04831504
      8.35000000	      0.02091580	      0.02783270	      0.04221213
      8.36666667	      0.02091051	      0.02782918	      0.04253496
      8.38333333	      0.02125769	      0.02805925	      0.04360241
      8.40000000	      0.02188000	      0.02846700	      0.04468490
      8.41666667	      0.02248855	      0.02886017	      0.04533240
      8.43333333	      0.02281181	      0.02906685	      0.04519403
      8.45000000	      0.02280741	      0.02906405	      0.04419785
      8.46666667	      0.02254565	      0.02889678	      0.04246285
      8.48333333	      0.02201290	      0.02855333	      0.04056195
      8.50000000	      0.02122146	      0.02803533	      0.03948868
      8.51666667	      0.02037233	      0.02746873	      0.03984596
      8.53333333	      0.01973907	      0.02703843	      0.04009308
      8.55000000	      0.01945729	      0.02684475	      0.04010542
      8.56666667	      0.01949889	      0.02687343	      0.03998646
      8.58333333	      0.01981375	      0.02708953	      0.03976414
      8.60000000	      0.02016285	      0.02732713	      0.03956483
      8.61666667	      0.02042975	      0.02750741	      0.03940374
      8.63333333	      0.02064879	      0.02765447	      0.03921658
      8.65000000	      0.02064771	      0.02765376	      0.03912453
      8.66666667	      0.02050941	      0.02756098	      0.03921856
      8.68333333	      0.02015567	      0.02732227	      0.03940706
      8.70000000	      0.01968094	      0.02699859	      0.03984284
      8.71666667	      0.01921045	      0.02667392	      0.03978411
      8.73333333	      0.01886080	      0.02643006	      0.04020422
      8.75000000	      0.01869640	      0.02631462	      0.04030494
      8.76666667	      0.01872503	      0.02633476	      0.04054953
      8.78333333	      0.01889603	      0.02645473	      0.04048069
      8.80000000	      0.01915640	      0.02663637	      0.04070976
      8.81666667	      0.01945789	      0.02684516	      0.04169078
      8.83333333	      0.01970377	      0.02701424	      0.04260423
      8.85000000	      0.01979056	      0.02707367	      0.04335201
      8.86666667	      0.01970894	      0.02701779	      0.04352826
      8.88333333	      0.01948488	      0.02686377	      0.04317150
      8.90000000	      0.01918652	      0.02665730	      0.04234709
      8.91666667	      0.01886271	      0.02643140	      0.04142332
      8.93333333	      0.01854869	      0.02621047	      0.04091869
      8.95000000	      0.01828380	      0.02602264	      0.04054919
      8.96666667	      0.01813770	      0.02591846	      0.04070316
      8.98333333	      0.01813395	      0.02591579	      0.04099654
      9.00000000	      0.01826448	      0.02600889	      0.04128089
      9.01666667	      0.01848119	      0.02616273	      0.04168860
      9.03333333	      0.01868936	      0.02630967	      0.04175208
      9.05000000	      0.01886776	      0.02643494	      0.04182148
      9.06666667	      0.01902931	      0.02654787	      0.04185850
      9.08333333	      0.01917356	      0.02664830	      0.04261255
      9.10000000	      0.01928612	      0.02672641	      0.04312985
      9.11666667	      0.01938071	      0.02679187	      0.04377027
      9.13333333	      0.01937391	      0.02678716	      0.04404008
      9.15000000	      0.01922223	      0.02668210	      0.04362366
      9.16666667	      0.01893759	      0.02648381	      0.04263394
      9.18333333	      0.01857620	      0.02622989	      0.04136299
      9.20000000	      0.01819858	      0.02596193	      0.04037689
      9.21666667	      0.01786438	      0.02572244	      0.03993626
      9.23333333	      0.01762995	      0.02555310	      0.03988541
      9.25000000	      0.01751208	      0.02546754	      0.03983943
      9.26666667	      0.01748555	      0.02544824	      0.03988238
      9.28333333	      0.01742003	      0.02540052	      0.04051161
      9.30000000	      0.01732715	      0.02533271	      0.04090459
      9.31666667	      0.01719284	      0.02523434	      0.04109180
      9.33333333	      0.01705415	      0.02513235	      0.04053807
      9.35000000	      0.01693729	      0.02504610	      0.04039498
      9.36666667	      0.01687349	      0.02499888	      0.04047792
      9.38333333	      0.01689750	      0.02501666	      0.04064384
      9.40000000	      0.01701170	      0.02510105	      0.04104709
      9.41666667	      0.01721158	      0.02524809	      0.04131215
      9.43333333	      0.01751544	      0.02546999	      0.04161491
      9.45000000	      0.01795609	      0.02578838	      0.04166016
      9.46666667	      0.01860753	      0.02625201	      0.04095083
