Model Marker Errors from IK
version=1
nRows=248
nColumns=4
inDegrees=no
endheader
time	total_squared_error	marker_error_RMS	marker_error_max
      0.00000000	      0.02311665	      0.02926042	      0.06005619
      0.01666667	      0.02234467	      0.02876770	      0.06172165
      0.03333333	      0.02199493	      0.02854167	      0.06277712
      0.05000000	      0.02188508	      0.02847031	      0.06322728
      0.06666667	      0.02192367	      0.02849540	      0.06312427
      0.08333333	      0.02211549	      0.02861979	      0.06240507
      0.10000000	      0.02237398	      0.02878656	      0.06129870
      0.11666667	      0.02277356	      0.02904247	      0.05991454
      0.13333333	      0.02327341	      0.02935946	      0.05806569
      0.15000000	      0.02401239	      0.02982193	      0.05634033
      0.16666667	      0.02489637	      0.03036590	      0.05458768
      0.18333333	      0.02567810	      0.03083895	      0.05286391
      0.20000000	      0.02600080	      0.03103212	      0.05126791
      0.21666667	      0.02560665	      0.03079601	      0.04991909
      0.23333333	      0.02493844	      0.03039154	      0.04929341
      0.25000000	      0.02447398	      0.03010720	      0.04922279
      0.26666667	      0.02466282	      0.03022313	      0.05297196
      0.28333333	      0.02548981	      0.03072567	      0.05636846
      0.30000000	      0.02665066	      0.03141753	      0.05884213
      0.31666667	      0.02773704	      0.03205148	      0.06058060
      0.33333333	      0.02834827	      0.03240271	      0.06149873
      0.35000000	      0.02834441	      0.03240051	      0.06211494
      0.36666667	      0.02784257	      0.03211240	      0.06223459
      0.38333333	      0.02706652	      0.03166171	      0.06105028
      0.40000000	      0.02608878	      0.03108458	      0.05851681
      0.41666667	      0.02501596	      0.03043874	      0.05725102
      0.43333333	      0.02387439	      0.02973612	      0.05846572
      0.45000000	      0.02295210	      0.02915609	      0.05949262
      0.46666667	      0.02250104	      0.02886818	      0.06044644
      0.48333333	      0.02259913	      0.02893104	      0.06143614
      0.50000000	      0.02309971	      0.02924970	      0.06243798
      0.51666667	      0.02370360	      0.02962956	      0.06320058
      0.53333333	      0.02426387	      0.02997769	      0.06384375
      0.55000000	      0.02472722	      0.03026256	      0.06412915
      0.56666667	      0.02510898	      0.03049528	      0.06421932
      0.58333333	      0.02536232	      0.03064874	      0.06430349
      0.60000000	      0.02551410	      0.03074031	      0.06436381
      0.61666667	      0.02557520	      0.03077710	      0.06448233
      0.63333333	      0.02559203	      0.03078722	      0.06455800
      0.65000000	      0.02551821	      0.03074279	      0.06454412
      0.66666667	      0.02542389	      0.03068592	      0.06452421
      0.68333333	      0.02523977	      0.03057460	      0.06446321
      0.70000000	      0.02501973	      0.03044104	      0.06446113
      0.71666667	      0.02474117	      0.03027110	      0.06447850
      0.73333333	      0.02444447	      0.03008905	      0.06463305
      0.75000000	      0.02413504	      0.02989800	      0.06474350
      0.76666667	      0.02387962	      0.02973937	      0.06483534
      0.78333333	      0.02373065	      0.02964647	      0.06482767
      0.80000000	      0.02372033	      0.02964002	      0.06493086
      0.81666667	      0.02383347	      0.02971062	      0.06516094
      0.83333333	      0.02399551	      0.02981145	      0.06550993
      0.85000000	      0.02411537	      0.02988581	      0.06576202
      0.86666667	      0.02402622	      0.02983052	      0.06556026
      0.88333333	      0.02383033	      0.02970867	      0.06499578
      0.90000000	      0.02354941	      0.02953304	      0.06426910
      0.91666667	      0.02341056	      0.02944584	      0.06368232
      0.93333333	      0.02327820	      0.02936248	      0.06285610
      0.95000000	      0.02341962	      0.02945155	      0.06211903
      0.96666667	      0.02368360	      0.02961706	      0.06120602
      0.98333333	      0.02407651	      0.02986173	      0.06040174
      1.00000000	      0.02448830	      0.03011601	      0.05967985
      1.01666667	      0.02474500	      0.03027344	      0.05924630
      1.03333333	      0.02496000	      0.03040468	      0.05911332
      1.05000000	      0.02518670	      0.03054244	      0.05931371
      1.06666667	      0.02549643	      0.03072966	      0.05968676
      1.08333333	      0.02579977	      0.03091192	      0.06011476
      1.10000000	      0.02575988	      0.03088802	      0.06051980
      1.11666667	      0.02539132	      0.03066626	      0.06088369
      1.13333333	      0.02513053	      0.03050836	      0.06082633
      1.15000000	      0.02535408	      0.03064376	      0.06105571
      1.16666667	      0.02598895	      0.03102505	      0.06147886
      1.18333333	      0.02647615	      0.03131451	      0.06229089
      1.20000000	      0.02647354	      0.03131296	      0.06324289
      1.21666667	      0.02610774	      0.03109587	      0.06419071
      1.23333333	      0.02576244	      0.03088955	      0.06470287
      1.25000000	      0.02561275	      0.03079968	      0.06453880
      1.26666667	      0.02541479	      0.03068043	      0.06352072
      1.28333333	      0.02492807	      0.03038522	      0.06239887
      1.30000000	      0.02427641	      0.02998543	      0.06098443
      1.31666667	      0.02378424	      0.02967992	      0.05959024
      1.33333333	      0.02381329	      0.02969804	      0.05852308
      1.35000000	      0.02438045	      0.03004962	      0.05757490
      1.36666667	      0.02511716	      0.03050025	      0.05672280
      1.38333333	      0.02554421	      0.03075844	      0.05598183
      1.40000000	      0.02533233	      0.03063061	      0.05530106
      1.41666667	      0.02452878	      0.03014089	      0.05457015
      1.43333333	      0.02355874	      0.02953889	      0.05375727
      1.45000000	      0.02281549	      0.02906920	      0.05268793
      1.46666667	      0.02237812	      0.02878922	      0.05145012
      1.48333333	      0.02214230	      0.02863713	      0.05102513
      1.50000000	      0.02198956	      0.02853819	      0.04995184
      1.51666667	      0.02192404	      0.02849564	      0.04859707
      1.53333333	      0.02207532	      0.02859379	      0.04725380
      1.55000000	      0.02238674	      0.02879477	      0.04678597
      1.56666667	      0.02281692	      0.02907011	      0.04672458
      1.58333333	      0.02332455	      0.02939170	      0.04727427
      1.60000000	      0.02380092	      0.02969033	      0.04788804
      1.61666667	      0.02416405	      0.02991597	      0.04805974
      1.63333333	      0.02440583	      0.03006526	      0.04794857
      1.65000000	      0.02453662	      0.03014571	      0.04748539
      1.66666667	      0.02455818	      0.03015895	      0.04627135
      1.68333333	      0.02448318	      0.03011286	      0.04551393
      1.70000000	      0.02437110	      0.03004386	      0.04546930
      1.71666667	      0.02431991	      0.03001229	      0.04609446
      1.73333333	      0.02438972	      0.03005533	      0.04704575
      1.75000000	      0.02462512	      0.03020002	      0.04883564
      1.76666667	      0.02495267	      0.03040021	      0.05107758
      1.78333333	      0.02545533	      0.03070489	      0.05364310
      1.80000000	      0.02605701	      0.03106565	      0.05637812
      1.81666667	      0.02667319	      0.03143081	      0.05901772
      1.83333333	      0.02718559	      0.03173127	      0.06130884
      1.85000000	      0.02750170	      0.03191522	      0.06306681
      1.86666667	      0.02743149	      0.03187446	      0.06444577
      1.88333333	      0.02709390	      0.03167772	      0.06536092
      1.90000000	      0.02634949	      0.03123951	      0.06543267
      1.91666667	      0.02520204	      0.03055174	      0.06481151
      1.93333333	      0.02389521	      0.02974908	      0.06363321
      1.95000000	      0.02262488	      0.02894751	      0.06221592
      1.96666667	      0.02143022	      0.02817289	      0.06086360
      1.98333333	      0.02029888	      0.02741916	      0.05960168
      2.00000000	      0.01932758	      0.02675512	      0.05835683
      2.01666667	      0.01879921	      0.02638688	      0.05709494
      2.03333333	      0.01868344	      0.02630550	      0.05598715
      2.05000000	      0.01897551	      0.02651031	      0.05488854
      2.06666667	      0.01944617	      0.02683707	      0.05369901
      2.08333333	      0.01999557	      0.02721354	      0.05266162
      2.10000000	      0.02076394	      0.02773148	      0.05182563
      2.11666667	      0.02191887	      0.02849228	      0.05132759
      2.13333333	      0.02338340	      0.02942876	      0.05257939
      2.15000000	      0.02475252	      0.03027805	      0.05282831
      2.16666667	      0.02570717	      0.03085640	      0.05322328
      2.18333333	      0.02620561	      0.03115410	      0.05499884
      2.20000000	      0.02636669	      0.03124971	      0.05704242
      2.21666667	      0.02635170	      0.03124082	      0.05887027
      2.23333333	      0.02638829	      0.03126250	      0.06020870
      2.25000000	      0.02647784	      0.03131550	      0.06129663
      2.26666667	      0.02660533	      0.03139081	      0.06246506
      2.28333333	      0.02661327	      0.03139549	      0.06387630
      2.30000000	      0.02660745	      0.03139205	      0.06536266
      2.31666667	      0.02676998	      0.03148779	      0.06704191
      2.33333333	      0.02720787	      0.03174427	      0.06879117
      2.35000000	      0.02773386	      0.03204965	      0.07044929
      2.36666667	      0.02806649	      0.03224127	      0.07164091
      2.38333333	      0.02803676	      0.03222419	      0.07213064
      2.40000000	      0.02775955	      0.03206449	      0.07205028
      2.41666667	      0.02728178	      0.03178736	      0.07175450
      2.43333333	      0.02700270	      0.03162436	      0.07148480
      2.45000000	      0.02679376	      0.03150177	      0.07141101
      2.46666667	      0.02653460	      0.03134905	      0.07144832
      2.48333333	      0.02624933	      0.03118008	      0.07148252
      2.50000000	      0.02599029	      0.03102585	      0.07140488
      2.51666667	      0.02587180	      0.03095504	      0.07103176
      2.53333333	      0.02591273	      0.03097952	      0.07039605
      2.55000000	      0.02611317	      0.03109910	      0.06940553
      2.56666667	      0.02642940	      0.03128684	      0.06832251
      2.58333333	      0.02675880	      0.03148121	      0.06744072
      2.60000000	      0.02691919	      0.03157542	      0.06682024
      2.61666667	      0.02685492	      0.03153770	      0.06690219
      2.63333333	      0.02664502	      0.03141421	      0.06727158
      2.65000000	      0.02649209	      0.03132393	      0.06805545
      2.66666667	      0.02654393	      0.03135456	      0.06910126
      2.68333333	      0.02686290	      0.03154239	      0.07016739
      2.70000000	      0.02742579	      0.03187115	      0.07108941
      2.71666667	      0.02813188	      0.03227881	      0.07169369
      2.73333333	      0.02871820	      0.03261345	      0.07176340
      2.75000000	      0.02886278	      0.03269544	      0.07100384
      2.76666667	      0.02831125	      0.03238155	      0.06921469
      2.78333333	      0.02728560	      0.03178959	      0.06679081
      2.80000000	      0.02604560	      0.03105884	      0.06380966
      2.81666667	      0.02486584	      0.03034728	      0.06096515
      2.83333333	      0.02389446	      0.02974861	      0.05839515
      2.85000000	      0.02316019	      0.02928797	      0.05645909
      2.86666667	      0.02266384	      0.02897242	      0.05529070
      2.88333333	      0.02233815	      0.02876350	      0.05463256
      2.90000000	      0.02216035	      0.02864880	      0.05481361
      2.91666667	      0.02202089	      0.02855851	      0.05516327
      2.93333333	      0.02190800	      0.02848522	      0.05583325
      2.95000000	      0.02176143	      0.02838977	      0.05686652
      2.96666667	      0.02176646	      0.02839305	      0.05820718
      2.98333333	      0.02200897	      0.02855078	      0.05982670
      3.00000000	      0.02232085	      0.02875236	      0.06160504
      3.01666667	      0.02279634	      0.02905700	      0.06348642
      3.03333333	      0.02322362	      0.02932804	      0.06532038
      3.05000000	      0.02364692	      0.02959412	      0.06688576
      3.06666667	      0.02405479	      0.02984825	      0.06819470
      3.08333333	      0.02446496	      0.03010166	      0.06945185
      3.10000000	      0.02486779	      0.03034846	      0.07062089
      3.11666667	      0.02519201	      0.03054566	      0.07156704
      3.13333333	      0.02541517	      0.03068065	      0.07221969
      3.15000000	      0.02551236	      0.03073926	      0.07256864
      3.16666667	      0.02551809	      0.03074271	      0.07256033
      3.18333333	      0.02540684	      0.03067563	      0.07243556
      3.20000000	      0.02522817	      0.03056757	      0.07204624
      3.21666667	      0.02494816	      0.03039747	      0.07140068
      3.23333333	      0.02471143	      0.03025290	      0.07086620
      3.25000000	      0.02456794	      0.03016494	      0.07048129
      3.26666667	      0.02451054	      0.03012968	      0.07029763
      3.28333333	      0.02446007	      0.03009865	      0.07006409
      3.30000000	      0.02448996	      0.03011703	      0.07005898
      3.31666667	      0.02454582	      0.03015136	      0.07022291
      3.33333333	      0.02475042	      0.03027676	      0.07075239
      3.35000000	      0.02515090	      0.03052073	      0.07174327
      3.36666667	      0.02572407	      0.03086654	      0.07305478
      3.38333333	      0.02631178	      0.03121715	      0.07463133
      3.40000000	      0.02676274	      0.03148353	      0.07605871
      3.41666667	      0.02692272	      0.03157749	      0.07691275
      3.43333333	      0.02680194	      0.03150658	      0.07706556
      3.45000000	      0.02652507	      0.03134342	      0.07674753
      3.46666667	      0.02620155	      0.03115169	      0.07638919
      3.48333333	      0.02591877	      0.03098313	      0.07614905
      3.50000000	      0.02602326	      0.03104552	      0.07634326
      3.51666667	      0.02669119	      0.03144142	      0.07743212
      3.53333333	      0.02797608	      0.03218930	      0.07880005
      3.55000000	      0.02931403	      0.03295003	      0.08032846
      3.56666667	      0.02995186	      0.03330658	      0.08177809
      3.58333333	      0.02954217	      0.03307801	      0.08276403
      3.60000000	      0.02829603	      0.03237285	      0.08301776
      3.61666667	      0.02683262	      0.03152460	      0.08299597
      3.63333333	      0.02573499	      0.03087309	      0.08294808
      3.65000000	      0.02515253	      0.03052172	      0.08275759
      3.66666667	      0.02486943	      0.03034946	      0.08309342
      3.68333333	      0.02472563	      0.03026159	      0.08310353
      3.70000000	      0.02463038	      0.03020325	      0.08283855
      3.71666667	      0.02459295	      0.03018029	      0.08231687
      3.73333333	      0.02464825	      0.03021421	      0.08164258
      3.75000000	      0.02479945	      0.03030673	      0.08079615
      3.76666667	      0.02502800	      0.03044607	      0.07997706
      3.78333333	      0.02524621	      0.03057850	      0.07914480
      3.80000000	      0.02542138	      0.03068440	      0.07846795
      3.81666667	      0.02566984	      0.03083399	      0.07804582
      3.83333333	      0.02603610	      0.03105318	      0.07763451
      3.85000000	      0.02657703	      0.03137411	      0.07769351
      3.86666667	      0.02720896	      0.03174491	      0.07775770
      3.88333333	      0.02779838	      0.03208691	      0.07755564
      3.90000000	      0.02809148	      0.03225562	      0.07674823
      3.91666667	      0.02825649	      0.03235022	      0.07514207
      3.93333333	      0.02861731	      0.03255611	      0.07444482
      3.95000000	      0.02898361	      0.03276380	      0.07343487
      3.96666667	      0.02923968	      0.03290822	      0.07235104
      3.98333333	      0.02931193	      0.03294886	      0.07127316
      4.00000000	      0.02919959	      0.03288566	      0.07029077
      4.01666667	      0.02887539	      0.03270258	      0.06966556
      4.03333333	      0.02838823	      0.03242554	      0.06936125
      4.05000000	      0.02775587	      0.03206236	      0.06940067
      4.06666667	      0.02709334	      0.03167739	      0.06950325
      4.08333333	      0.02646386	      0.03130723	      0.06958027
      4.10000000	      0.02601566	      0.03104099	      0.06965997
      4.11666667	      0.02632294	      0.03122377	      0.06957790
