Model Marker Errors from IK
version=1
nRows=176
nColumns=4
inDegrees=no
endheader
time	total_squared_error	marker_error_RMS	marker_error_max
      0.00000000	      0.02873385	      0.03262233	      0.07397224
      0.01724138	      0.02843488	      0.03245217	      0.07375148
      0.03448276	      0.02856967	      0.03252900	      0.07368458
      0.05172414	      0.02887877	      0.03270450	      0.07378422
      0.06896552	      0.02926255	      0.03292109	      0.07375912
      0.08620690	      0.02961568	      0.03311913	      0.07359265
      0.10344828	      0.02972617	      0.03318085	      0.07361378
      0.12068966	      0.02973133	      0.03318374	      0.07364598
      0.13793103	      0.02967921	      0.03315464	      0.07343973
      0.15517241	      0.02951076	      0.03306041	      0.07349345
      0.17241379	      0.02933538	      0.03296203	      0.07304215
      0.18965517	      0.02923290	      0.03290441	      0.07231659
      0.20689655	      0.02930620	      0.03294563	      0.07141913
      0.22413793	      0.02961814	      0.03312051	      0.07085208
      0.24137931	      0.03009416	      0.03338560	      0.07027748
      0.25862069	      0.03046036	      0.03358811	      0.06962271
      0.27586207	      0.03060293	      0.03366663	      0.06886783
      0.29310345	      0.03098030	      0.03387357	      0.06854231
      0.31034483	      0.03185357	      0.03434766	      0.06840081
      0.32758621	      0.03336746	      0.03515440	      0.06890157
      0.34482759	      0.03542590	      0.03622251	      0.06978210
      0.36206897	      0.03789099	      0.03746158	      0.07089970
      0.37931034	      0.04050507	      0.03873226	      0.07336882
      0.39655172	      0.04267397	      0.03975572	      0.07418863
      0.41379310	      0.04355961	      0.04016614	      0.07369945
      0.43103448	      0.04330012	      0.04004632	      0.07386246
      0.44827586	      0.04199779	      0.03943949	      0.07321991
      0.46551724	      0.04090743	      0.03892416	      0.07203573
      0.48275862	      0.04055555	      0.03875638	      0.07062162
      0.50000000	      0.04150933	      0.03920947	      0.06867096
      0.51724138	      0.04314829	      0.03997606	      0.06770193
      0.53448276	      0.04455448	      0.04062224	      0.06959065
      0.55172414	      0.04430504	      0.04050836	      0.06985190
      0.56896552	      0.04157338	      0.03923971	      0.06739327
      0.58620690	      0.03722692	      0.03713186	      0.06324206
      0.60344828	      0.03280899	      0.03485897	      0.06066019
      0.62068966	      0.02840548	      0.03243540	      0.05774311
      0.63793103	      0.02500909	      0.03043456	      0.05510958
      0.65517241	      0.02218442	      0.02866435	      0.05284646
      0.67241379	      0.02024563	      0.02738317	      0.05136061
      0.68965517	      0.01997789	      0.02720151	      0.05084233
      0.70689655	      0.02135247	      0.02812174	      0.06084451
      0.72413793	      0.02345467	      0.02947357	      0.07044759
      0.74137931	      0.02528720	      0.03060332	      0.07575848
      0.75862069	      0.02676385	      0.03148418	      0.07866833
      0.77586207	      0.02837669	      0.03241895	      0.07998176
      0.79310345	      0.03098652	      0.03387697	      0.08037896
      0.81034483	      0.03493109	      0.03596865	      0.08017872
      0.82758621	      0.03974642	      0.03836782	      0.08068462
      0.84482759	      0.04415242	      0.04043853	      0.08246790
      0.86206897	      0.04698284	      0.04171457	      0.08597240
      0.87931034	      0.04792262	      0.04212970	      0.08965508
      0.89655172	      0.04687268	      0.04166563	      0.09270207
      0.91379310	      0.04368481	      0.04022382	      0.09338712
      0.93103448	      0.03847423	      0.03774879	      0.09002241
      0.94827586	      0.03210282	      0.03448178	      0.08316885
      0.96551724	      0.02614154	      0.03111600	      0.07402384
      0.98275862	      0.02212806	      0.02862792	      0.06450388
      1.00000000	      0.02033665	      0.02744466	      0.05713232
      1.01724138	      0.01958103	      0.02692997	      0.05349798
      1.03448276	      0.01946248	      0.02684833	      0.05310811
      1.05172414	      0.02009300	      0.02727976	      0.05400178
      1.06896552	      0.02099924	      0.02788816	      0.05474981
      1.08620690	      0.02131182	      0.02809496	      0.05323740
      1.10344828	      0.02102360	      0.02790433	      0.05251171
      1.12068966	      0.02029295	      0.02741515	      0.05165622
      1.13793103	      0.01941631	      0.02681646	      0.05485336
      1.15517241	      0.01883831	      0.02641430	      0.05682568
      1.17241379	      0.01880568	      0.02639142	      0.05647963
      1.18965517	      0.01916339	      0.02664123	      0.05386644
      1.20689655	      0.01996623	      0.02719357	      0.05139253
      1.22413793	      0.02119180	      0.02801574	      0.05055307
      1.24137931	      0.02225223	      0.02870813	      0.05059742
      1.25862069	      0.02252519	      0.02888367	      0.05095608
      1.27586207	      0.02169341	      0.02834536	      0.05141464
      1.29310345	      0.02030196	      0.02742124	      0.05221416
      1.31034483	      0.01909038	      0.02659044	      0.05348237
      1.32758621	      0.01909908	      0.02659649	      0.05521166
      1.34482759	      0.02057305	      0.02760371	      0.05741662
      1.36206897	      0.02356658	      0.02954380	      0.05964594
      1.37931034	      0.02788871	      0.03213900	      0.06240406
      1.39655172	      0.03359653	      0.03527486	      0.06558156
      1.41379310	      0.04005889	      0.03851834	      0.07110299
      1.43103448	      0.04647112	      0.04148678	      0.07845667
      1.44827586	      0.05185133	      0.04382259	      0.08576560
      1.46551724	      0.05547492	      0.04532799	      0.09106540
      1.48275862	      0.05694419	      0.04592433	      0.09427561
      1.50000000	      0.05581729	      0.04546765	      0.09715549
      1.51724138	      0.05181262	      0.04380623	      0.09966987
      1.53448276	      0.04544435	      0.04102590	      0.09737338
      1.55172414	      0.03781117	      0.03742210	      0.09061296
      1.56896552	      0.03093438	      0.03384845	      0.08159335
      1.58620690	      0.02652373	      0.03134263	      0.07249206
      1.60344828	      0.02472580	      0.03026170	      0.06449372
      1.62068966	      0.02431734	      0.03001070	      0.05959565
      1.63793103	      0.02431372	      0.03000847	      0.06018348
      1.65517241	      0.02475150	      0.03027742	      0.06103600
      1.67241379	      0.02678387	      0.03149596	      0.06208084
      1.68965517	      0.03107973	      0.03392788	      0.06338577
      1.70689655	      0.03607700	      0.03655387	      0.06486807
      1.72413793	      0.03910972	      0.03805927	      0.06605232
      1.74137931	      0.03739476	      0.03721547	      0.06665178
      1.75862069	      0.03540010	      0.03620932	      0.06686593
      1.77586207	      0.03222945	      0.03454972	      0.06659308
      1.79310345	      0.02922619	      0.03290063	      0.06603540
      1.81034483	      0.02713679	      0.03170278	      0.06565310
      1.82758621	      0.02561897	      0.03080342	      0.06515145
      1.84482759	      0.02430514	      0.03000317	      0.06495211
      1.86206897	      0.02341623	      0.02944941	      0.06485404
      1.87931034	      0.02300278	      0.02918826	      0.06483306
      1.89655172	      0.02276185	      0.02903500	      0.06477364
      1.91379310	      0.02246817	      0.02884709	      0.06444905
      1.93103448	      0.02207441	      0.02859320	      0.06390953
      1.94827586	      0.02160714	      0.02828895	      0.06347144
      1.96551724	      0.02143563	      0.02817645	      0.06320764
      1.98275862	      0.02214217	      0.02863705	      0.06344772
      2.00000000	      0.02420536	      0.02994152	      0.06414014
      2.01724138	      0.02799048	      0.03219758	      0.06510078
      2.03448276	      0.03444728	      0.03571869	      0.06897371
      2.05172414	      0.04392353	      0.04033357	      0.07989684
      2.06896552	      0.05581815	      0.04546800	      0.09195486
      2.08620690	      0.06838863	      0.05032805	      0.10251857
      2.10344828	      0.08018246	      0.05449514	      0.10988388
      2.12068966	      0.09038299	      0.05785774	      0.11514212
      2.13793103	      0.09865620	      0.06044777	      0.12482963
      2.15517241	      0.10481943	      0.06230731	      0.13246371
      2.17241379	      0.10848188	      0.06338649	      0.13655017
      2.18965517	      0.10917465	      0.06358856	      0.13704620
      2.20689655	      0.10623065	      0.06272534	      0.13373927
      2.22413793	      0.09892660	      0.06053056	      0.12686881
      2.24137931	      0.08714710	      0.05681259	      0.11738945
      2.25862069	      0.07206318	      0.05166243	      0.10773422
      2.27586207	      0.05548772	      0.04533322	      0.09723977
      2.29310345	      0.04004415	      0.03851125	      0.08582115
      2.31034483	      0.02941124	      0.03300462	      0.07398913
      2.32758621	      0.02406917	      0.02985717	      0.06719143
      2.34482759	      0.02227865	      0.02872517	      0.06381318
      2.36206897	      0.02253949	      0.02889283	      0.06225299
      2.37931034	      0.02406794	      0.02985641	      0.06068944
      2.39655172	      0.02616466	      0.03112975	      0.05905031
      2.41379310	      0.02900302	      0.03277477	      0.06090950
      2.43103448	      0.03299717	      0.03495880	      0.06299764
      2.44827586	      0.03758716	      0.03731109	      0.06526554
      2.46551724	      0.04175586	      0.03932574	      0.06753819
      2.48275862	      0.04456139	      0.04062538	      0.06963109
      2.50000000	      0.04568806	      0.04113575	      0.07135430
      2.51724138	      0.04568686	      0.04113521	      0.07261886
      2.53448276	      0.04569388	      0.04113837	      0.07338919
      2.55172414	      0.04661663	      0.04155168	      0.07967165
      2.56896552	      0.04864233	      0.04244488	      0.08922559
      2.58620690	      0.05125097	      0.04356815	      0.09796473
      2.60344828	      0.05350752	      0.04451696	      0.10396418
      2.62068966	      0.05205428	      0.04390827	      0.09757987
      2.63793103	      0.05028416	      0.04315526	      0.10269167
      2.65517241	      0.04781138	      0.04208078	      0.10659182
      2.67241379	      0.04541671	      0.04101342	      0.10871403
      2.68965517	      0.03771525	      0.03737460	      0.08427050
      2.70689655	      0.03643452	      0.03673454	      0.08656878
      2.72413793	      0.03682305	      0.03692989	      0.08867118
      2.74137931	      0.03857375	      0.03779759	      0.09019741
      2.75862069	      0.04121410	      0.03906979	      0.09090271
      2.77586207	      0.04400363	      0.04037034	      0.09105727
      2.79310345	      0.04592493	      0.04124225	      0.09117124
      2.81034483	      0.04370436	      0.04023282	      0.09145730
      2.82758621	      0.04223596	      0.03955117	      0.09139209
      2.84482759	      0.04089257	      0.03891709	      0.09149747
      2.86206897	      0.04054521	      0.03875144	      0.09154947
      2.87931034	      0.03966138	      0.03832676	      0.09160698
      2.89655172	      0.03932675	      0.03816473	      0.09140718
      2.91379310	      0.03942818	      0.03821391	      0.09110899
      2.93103448	      0.03968892	      0.03834006	      0.09080505
      2.94827586	      0.03972960	      0.03835970	      0.09087360
      2.96551724	      0.03952019	      0.03825847	      0.09116465
      2.98275862	      0.03920868	      0.03810739	      0.09211845
      3.00000000	      0.03914816	      0.03807797	      0.09380272
      3.01724138	      0.04003933	      0.03850894	      0.09636258
