Model Marker Errors from IK
version=1
nRows=294
nColumns=4
inDegrees=no
endheader
time	total_squared_error	marker_error_RMS	marker_error_max
      0.00000000	      0.02435296	      0.03003267	      0.05656879
      0.01694915	      0.02472088	      0.03025869	      0.05817799
      0.03389831	      0.02486759	      0.03034834	      0.05910572
      0.05084746	      0.02471979	      0.03025802	      0.05950939
      0.06779661	      0.02441375	      0.03007013	      0.05945869
      0.08474576	      0.02414989	      0.02990720	      0.05905151
      0.10169492	      0.02398842	      0.02980705	      0.05864800
      0.11864407	      0.02392804	      0.02976951	      0.05826986
      0.13559322	      0.02385909	      0.02972659	      0.05811140
      0.15254237	      0.02389537	      0.02974918	      0.05805669
      0.16949153	      0.02400499	      0.02981734	      0.05818530
      0.18644068	      0.02419848	      0.02993727	      0.05829523
      0.20338983	      0.02439429	      0.03005815	      0.05810603
      0.22033898	      0.02453261	      0.03014324	      0.05769231
      0.23728814	      0.02457935	      0.03017195	      0.05698638
      0.25423729	      0.02447783	      0.03010957	      0.05687157
      0.27118644	      0.02435949	      0.03003670	      0.05630733
      0.28813559	      0.02422132	      0.02995139	      0.05611679
      0.30508475	      0.02417055	      0.02991999	      0.05597505
      0.32203390	      0.02424239	      0.02996442	      0.05602364
      0.33898305	      0.02440400	      0.03006413	      0.05605558
      0.35593220	      0.02447114	      0.03010546	      0.05574564
      0.37288136	      0.02435129	      0.03003165	      0.05517305
      0.38983051	      0.02407163	      0.02985870	      0.05445860
      0.40677966	      0.02375698	      0.02966291	      0.05420793
      0.42372881	      0.02353516	      0.02952410	      0.05527683
      0.44067797	      0.02342167	      0.02945283	      0.05613149
      0.45762712	      0.02328155	      0.02936460	      0.05863434
      0.47457627	      0.02342906	      0.02945748	      0.06100006
      0.49152542	      0.02381656	      0.02970008	      0.06333555
      0.50847458	      0.02447550	      0.03010814	      0.06568390
      0.52542373	      0.02528401	      0.03060139	      0.06798074
      0.54237288	      0.02632506	      0.03122502	      0.07056156
      0.55932203	      0.02750680	      0.03191818	      0.07384535
      0.57627119	      0.02862888	      0.03256269	      0.07734731
      0.59322034	      0.02936163	      0.03297677	      0.08073151
      0.61016949	      0.02921364	      0.03289357	      0.08271025
      0.62711864	      0.02839695	      0.03243053	      0.08284594
      0.64406780	      0.02710986	      0.03168705	      0.08088061
      0.66101695	      0.02567929	      0.03083966	      0.07698490
      0.67796610	      0.02437807	      0.03004815	      0.07201286
      0.69491525	      0.02334876	      0.02940696	      0.06686385
      0.71186441	      0.02242094	      0.02881675	      0.06164104
      0.72881356	      0.02169792	      0.02834831	      0.05647312
      0.74576271	      0.02107570	      0.02793889	      0.05091353
      0.76271186	      0.02062879	      0.02764108	      0.04748455
      0.77966102	      0.02081731	      0.02776709	      0.04382767
      0.79661017	      0.02166744	      0.02832839	      0.04384718
      0.81355932	      0.02255205	      0.02890088	      0.05052591
      0.83050847	      0.02272140	      0.02900919	      0.05288596
      0.84745763	      0.02176415	      0.02839154	      0.05431448
      0.86440678	      0.01979782	      0.02707863	      0.05558701
      0.88135593	      0.01737546	      0.02536800	      0.05537984
      0.89830508	      0.01519914	      0.02372617	      0.05456378
      0.91525424	      0.01370976	      0.02253373	      0.05380214
      0.93220339	      0.01286359	      0.02182726	      0.05230340
      0.94915254	      0.01228714	      0.02133259	      0.04882466
      0.96610169	      0.01176277	      0.02087243	      0.04293959
      0.98305085	      0.01138568	      0.02053514	      0.03658450
      1.00000000	      0.01133160	      0.02048631	      0.03627532
      1.01694915	      0.01156769	      0.02069863	      0.04094100
      1.03389831	      0.01200682	      0.02108784	      0.04801469
      1.05084746	      0.01290605	      0.02186326	      0.05462087
      1.06779661	      0.01465115	      0.02329453	      0.05784822
      1.08474576	      0.01792110	      0.02576324	      0.05976283
      1.10169492	      0.02252048	      0.02888065	      0.06261153
      1.11864407	      0.02668431	      0.03143736	      0.07833343
      1.13559322	      0.02853801	      0.03251097	      0.08661026
      1.15254237	      0.02732404	      0.03181197	      0.08633732
      1.16949153	      0.02396678	      0.02979360	      0.08040470
      1.18644068	      0.02018834	      0.02734440	      0.07210941
      1.20338983	      0.01743659	      0.02541259	      0.06469244
      1.22033898	      0.01641457	      0.02465658	      0.06038312
      1.23728814	      0.01722993	      0.02526154	      0.06185184
      1.25423729	      0.01968833	      0.02700365	      0.06985954
      1.27118644	      0.02409805	      0.02987508	      0.08321445
      1.28813559	      0.02944765	      0.03302505	      0.09845535
      1.30508475	      0.03387724	      0.03542192	      0.11079068
      1.32203390	      0.03549191	      0.03625624	      0.11622424
      1.33898305	      0.03399203	      0.03548189	      0.11327213
      1.35593220	      0.03030415	      0.03350188	      0.10236787
      1.37288136	      0.02558025	      0.03078013	      0.08536611
      1.38983051	      0.02099042	      0.02788230	      0.06570451
      1.40677966	      0.01746376	      0.02543238	      0.05295838
      1.42372881	      0.01537832	      0.02386561	      0.04852188
      1.44067797	      0.01452281	      0.02319228	      0.04901614
      1.45762712	      0.01442225	      0.02311184	      0.04914668
      1.47457627	      0.01462491	      0.02327366	      0.04870582
      1.49152542	      0.01476218	      0.02338263	      0.04795987
      1.50847458	      0.01466247	      0.02330353	      0.04720364
      1.52542373	      0.01434969	      0.02305363	      0.04754143
      1.54237288	      0.01375107	      0.02256765	      0.04641934
      1.55932203	      0.01287178	      0.02183421	      0.04515682
      1.57627119	      0.01183558	      0.02093693	      0.04405475
      1.59322034	      0.01074851	      0.01995227	      0.04268051
      1.61016949	      0.00958392	      0.01884038	      0.04118683
      1.62711864	      0.00852449	      0.01776856	      0.03958616
      1.64406780	      0.00801667	      0.01723119	      0.03803373
      1.66101695	      0.00843926	      0.01767951	      0.03660369
      1.67796610	      0.00974907	      0.01900202	      0.03528897
      1.69491525	      0.01188499	      0.02098058	      0.04187988
      1.71186441	      0.01489804	      0.02348998	      0.05053202
      1.72881356	      0.01851562	      0.02618709	      0.05670765
      1.74576271	      0.02259906	      0.02893099	      0.06827614
      1.76271186	      0.02198552	      0.02853557	      0.08329726
      1.77966102	      0.02331634	      0.02938653	      0.09294031
      1.79661017	      0.02243465	      0.02882556	      0.09195253
      1.81355932	      0.01965167	      0.02697850	      0.07985094
      1.83050847	      0.01634302	      0.02460279	      0.05958169
      1.84745763	      0.01392985	      0.02271388	      0.04271560
      1.86440678	      0.01271611	      0.02170178	      0.04717359
      1.88135593	      0.01238980	      0.02142152	      0.05358356
      1.89830508	      0.01284500	      0.02181148	      0.06056923
      1.91525424	      0.01376976	      0.02258298	      0.06535782
      1.93220339	      0.01429310	      0.02300813	      0.06466006
      1.94915254	      0.01378690	      0.02259703	      0.05717468
      1.96610169	      0.01301931	      0.02195898	      0.04541980
      1.98305085	      0.01386262	      0.02265900	      0.03951338
      2.00000000	      0.01733528	      0.02533866	      0.04960114
      2.01694915	      0.02298566	      0.02917740	      0.07014271
      2.03389831	      0.02884337	      0.03268445	      0.08788460
      2.05084746	      0.03222071	      0.03454504	      0.09566422
      2.06779661	      0.03119119	      0.03398866	      0.08833804
      2.08474576	      0.02632261	      0.03122357	      0.07391413
      2.10169492	      0.02076506	      0.02773222	      0.07499387
      2.11864407	      0.01764612	      0.02556482	      0.07320951
      2.13559322	      0.01617669	      0.02447726	      0.06902342
      2.15254237	      0.01489403	      0.02348682	      0.06484074
      2.16949153	      0.01482044	      0.02342873	      0.05928779
      2.18644068	      0.01505586	      0.02361407	      0.05319946
      2.20338983	      0.01526609	      0.02377837	      0.04878987
      2.22033898	      0.01572814	      0.02413553	      0.04940514
      2.23728814	      0.01684142	      0.02497511	      0.05706574
      2.25423729	      0.01899690	      0.02652525	      0.06897791
      2.27118644	      0.02181518	      0.02842480	      0.08036007
      2.28813559	      0.02437467	      0.03004606	      0.08853316
      2.30508475	      0.02618046	      0.03113915	      0.09293109
      2.32203390	      0.02784738	      0.03211517	      0.09448877
      2.33898305	      0.03028627	      0.03349200	      0.09519952
      2.35593220	      0.03369409	      0.03532604	      0.09709139
      2.37288136	      0.03793122	      0.03748146	      0.10121001
      2.38983051	      0.04265568	      0.03974720	      0.10663582
      2.40677966	      0.04681899	      0.04164177	      0.11152800
      2.42372881	      0.04806165	      0.04219077	      0.11047588
      2.44067797	      0.04543303	      0.04102079	      0.10645240
      2.45762712	      0.03967670	      0.03833415	      0.09650916
      2.47457627	      0.03319179	      0.03506174	      0.08349306
      2.49152542	      0.02762119	      0.03198448	      0.06899155
      2.50847458	      0.02372408	      0.02964236	      0.05959224
      2.52542373	      0.02159868	      0.02828341	      0.05829868
      2.54237288	      0.02090713	      0.02782693	      0.05720445
      2.55932203	      0.02115458	      0.02799112	      0.05632542
      2.57627119	      0.02152612	      0.02823586	      0.05430915
      2.59322034	      0.02172052	      0.02836307	      0.05208139
      2.61016949	      0.02156836	      0.02826355	      0.05138530
      2.62711864	      0.02140545	      0.02815661	      0.05110000
      2.64406780	      0.02147304	      0.02820102	      0.05142659
      2.66101695	      0.02155498	      0.02825478	      0.05414294
      2.67796610	      0.02112278	      0.02797008	      0.05483245
      2.69491525	      0.01987999	      0.02713477	      0.05342667
      2.71186441	      0.01788516	      0.02573739	      0.04926824
      2.72881356	      0.01557884	      0.02402070	      0.04276222
      2.74576271	      0.01364974	      0.02248434	      0.03855690
      2.76271186	      0.01269192	      0.02168112	      0.03805140
      2.77966102	      0.01256753	      0.02157462	      0.03758229
      2.79661017	      0.01289002	      0.02184967	      0.03733815
      2.81355932	      0.01330989	      0.02220268	      0.04128513
      2.83050847	      0.01375202	      0.02256843	      0.04531325
      2.84745763	      0.01434807	      0.02305233	      0.04853685
      2.86440678	      0.01537001	      0.02385916	      0.05166913
      2.88135593	      0.01677582	      0.02492642	      0.05603300
      2.89830508	      0.01868525	      0.02630677	      0.06257062
      2.91525424	      0.02082429	      0.02777175	      0.06820709
      2.93220339	      0.02240738	      0.02880804	      0.06812145
      2.94915254	      0.02321253	      0.02932104	      0.06360699
      2.96610169	      0.02334334	      0.02940354	      0.05556916
      2.98305085	      0.02303040	      0.02920579	      0.05763505
      3.00000000	      0.02289597	      0.02912042	      0.06198194
      3.01694915	      0.02233834	      0.02876362	      0.06302763
      3.03389831	      0.02124093	      0.02804819	      0.05975481
      3.05084746	      0.01977445	      0.02706265	      0.05028994
      3.06779661	      0.01800884	      0.02582623	      0.04716739
      3.08474576	      0.01638043	      0.02463093	      0.04678824
      3.10169492	      0.01550745	      0.02396560	      0.04287813
      3.11864407	      0.01527357	      0.02378419	      0.04345544
      3.13559322	      0.01555691	      0.02400379	      0.04622000
      3.15254237	      0.01637564	      0.02462733	      0.05394088
      3.16949153	      0.01753161	      0.02548174	      0.06080138
      3.18644068	      0.01851088	      0.02618374	      0.06241461
      3.20338983	      0.01873570	      0.02634227	      0.06043773
      3.22033898	      0.01815228	      0.02592888	      0.05488722
      3.23728814	      0.01727466	      0.02529431	      0.04898282
      3.25423729	      0.01648007	      0.02470572	      0.04439732
      3.27118644	      0.01560549	      0.02404124	      0.04302941
      3.28813559	      0.01472817	      0.02335568	      0.04176145
      3.30508475	      0.01395268	      0.02273249	      0.04178780
      3.32203390	      0.01337086	      0.02225347	      0.04144047
      3.33898305	      0.01317829	      0.02209264	      0.04111477
      3.35593220	      0.01315109	      0.02206983	      0.04037094
      3.37288136	      0.01342134	      0.02229544	      0.04103019
      3.38983051	      0.01429859	      0.02301255	      0.04203924
      3.40677966	      0.01600272	      0.02434530	      0.04394143
      3.42372881	      0.01861978	      0.02626064	      0.06115906
      3.44067797	      0.02160254	      0.02828593	      0.07417470
      3.45762712	      0.02421072	      0.02994484	      0.08024699
      3.47457627	      0.02572217	      0.03086540	      0.08143803
      3.49152542	      0.02691702	      0.03157414	      0.08285775
      3.50847458	      0.02877814	      0.03264746	      0.08810676
      3.52542373	      0.03261965	      0.03475824	      0.09735812
      3.54237288	      0.03904581	      0.03802816	      0.10827651
      3.55932203	      0.04630996	      0.04141478	      0.11798102
      3.57627119	      0.05270853	      0.04418334	      0.12332465
      3.59322034	      0.05532387	      0.04526624	      0.12207390
      3.61016949	      0.05289012	      0.04425939	      0.11319785
      3.62711864	      0.04640024	      0.04145513	      0.10544752
      3.64406780	      0.03859602	      0.03780849	      0.09038001
      3.66101695	      0.03211062	      0.03448597	      0.07012177
      3.67796610	      0.02627521	      0.03119545	      0.05768731
      3.69491525	      0.02382486	      0.02970526	      0.05715863
      3.71186441	      0.02367117	      0.02960929	      0.05781790
      3.72881356	      0.02458299	      0.03017418	      0.05954498
      3.74576271	      0.02577141	      0.03089493	      0.06063194
      3.76271186	      0.02675884	      0.03148123	      0.06080266
      3.77966102	      0.02748444	      0.03190521	      0.06060069
      3.79661017	      0.02511396	      0.03049830	      0.05127222
      3.81355932	      0.02316934	      0.02929375	      0.04973840
      3.83050847	      0.02160476	      0.02828739	      0.04992086
      3.84745763	      0.02079660	      0.02775328	      0.05138149
      3.86440678	      0.02070412	      0.02769150	      0.05033690
      3.88135593	      0.02065718	      0.02766009	      0.05194609
      3.89830508	      0.02096137	      0.02786300	      0.05541165
      3.91525424	      0.02161397	      0.02829342	      0.05782014
      3.93220339	      0.02236909	      0.02878341	      0.05875515
      3.94915254	      0.02278475	      0.02904960	      0.05796282
      3.96610169	      0.02249901	      0.02886688	      0.05576009
      3.98305085	      0.02142703	      0.02817079	      0.05290467
      4.00000000	      0.01983264	      0.02710244	      0.04998950
      4.01694915	      0.01836947	      0.02608354	      0.05358548
      4.03389831	      0.01767236	      0.02558382	      0.06175310
      4.05084746	      0.01799841	      0.02581875	      0.07016523
      4.06779661	      0.01937784	      0.02678989	      0.07840189
      4.08474576	      0.02163132	      0.02830477	      0.08580657
      4.10169492	      0.02460557	      0.03018803	      0.09383805
      4.11864407	      0.02851333	      0.03249691	      0.10227533
      4.13559322	      0.03319623	      0.03506409	      0.10954647
      4.15254237	      0.03798404	      0.03750755	      0.11413782
      4.16949153	      0.04211922	      0.03949647	      0.11582425
      4.18644068	      0.04509564	      0.04086819	      0.11509061
      4.20338983	      0.04674598	      0.04160929	      0.11301387
      4.22033898	      0.04692492	      0.04168885	      0.10972029
      4.23728814	      0.04549495	      0.04104873	      0.10457224
      4.25423729	      0.04249905	      0.03967416	      0.09722628
      4.27118644	      0.03825672	      0.03764194	      0.08878897
      4.28813559	      0.03348582	      0.03521670	      0.08107350
      4.30508475	      0.02938047	      0.03298735	      0.07577761
      4.32203390	      0.02699941	      0.03162243	      0.07250723
      4.33898305	      0.02596470	      0.03101057	      0.07236502
      4.35593220	      0.02556396	      0.03077033	      0.07185063
      4.37288136	      0.02614376	      0.03111732	      0.06996849
      4.38983051	      0.02772545	      0.03204479	      0.06754408
      4.40677966	      0.03004211	      0.03335672	      0.06496607
      4.42372881	      0.03254880	      0.03472047	      0.06280044
      4.44067797	      0.03489620	      0.03595069	      0.06569188
      4.45762712	      0.03706395	      0.03705049	      0.06822241
      4.47457627	      0.03929851	      0.03815102	      0.07056141
      4.49152542	      0.04188371	      0.03938589	      0.07256775
      4.50847458	      0.04449616	      0.04059564	      0.07573116
      4.52542373	      0.04639993	      0.04145499	      0.08111491
      4.54237288	      0.04690555	      0.04168024	      0.08657369
      4.55932203	      0.04612765	      0.04133318	      0.09256018
      4.57627119	      0.04479926	      0.04073367	      0.09791361
      4.59322034	      0.04363804	      0.04020229	      0.10250526
      4.61016949	      0.04273166	      0.03978258	      0.10480223
      4.62711864	      0.04183701	      0.03936393	      0.10503704
      4.64406780	      0.03783004	      0.03743144	      0.08004349
      4.66101695	      0.03680325	      0.03691996	      0.07938235
      4.67796610	      0.03600390	      0.03651681	      0.07869625
      4.69491525	      0.03505548	      0.03603264	      0.07803105
      4.71186441	      0.03350683	      0.03522774	      0.07598561
      4.72881356	      0.03105784	      0.03391593	      0.07168491
      4.74576271	      0.02880709	      0.03266388	      0.06618213
      4.76271186	      0.02788329	      0.03213587	      0.06487616
      4.77966102	      0.02932093	      0.03295391	      0.06536105
      4.79661017	      0.03234947	      0.03461399	      0.06588420
      4.81355932	      0.03557784	      0.03630011	      0.06771122
      4.83050847	      0.03733521	      0.03718582	      0.06842665
      4.84745763	      0.03736235	      0.03719934	      0.06913918
      4.86440678	      0.03630267	      0.03666802	      0.06884612
      4.88135593	      0.03486653	      0.03593540	      0.06809300
      4.89830508	      0.03357386	      0.03526296	      0.06714011
      4.91525424	      0.03252276	      0.03470658	      0.06629813
      4.93220339	      0.03182294	      0.03433114	      0.06500257
      4.94915254	      0.03201617	      0.03443522	      0.06498006
      4.96610169	      0.03386288	      0.03541441	      0.06546319
