Model Marker Errors from IK
version=1
nRows=341
nColumns=4
inDegrees=no
endheader
time	total_squared_error	marker_error_RMS	marker_error_max
      0.00000000	      0.02140806	      0.02815832	      0.05543968
      0.01666667	      0.02051749	      0.02756641	      0.05365873
      0.03333333	      0.02035069	      0.02745413	      0.05310551
      0.05000000	      0.02048906	      0.02754731	      0.05287849
      0.06666667	      0.02088003	      0.02780889	      0.05274381
      0.08333333	      0.02138119	      0.02814065	      0.05362348
      0.10000000	      0.02196901	      0.02852485	      0.05467761
      0.11666667	      0.02258384	      0.02892125	      0.05572239
      0.13333333	      0.02318583	      0.02930417	      0.05644423
      0.15000000	      0.02361928	      0.02957682	      0.05718869
      0.16666667	      0.02384776	      0.02971953	      0.05752164
      0.18333333	      0.02397048	      0.02979590	      0.05768957
      0.20000000	      0.02346705	      0.02948135	      0.05771485
      0.21666667	      0.02334618	      0.02940533	      0.05730558
      0.23333333	      0.02278329	      0.02904867	      0.05690897
      0.25000000	      0.02248933	      0.02886066	      0.05649504
      0.26666667	      0.02213647	      0.02863336	      0.05615240
      0.28333333	      0.02164044	      0.02831074	      0.05577799
      0.30000000	      0.02096701	      0.02786675	      0.05495407
      0.31666667	      0.02014214	      0.02731310	      0.05337793
      0.33333333	      0.01949357	      0.02686976	      0.05187254
      0.35000000	      0.01913720	      0.02662302	      0.05097101
      0.36666667	      0.01910684	      0.02660190	      0.05146366
      0.38333333	      0.01936632	      0.02678192	      0.05220950
      0.40000000	      0.01984881	      0.02711349	      0.05303458
      0.41666667	      0.02048925	      0.02754743	      0.05388153
      0.43333333	      0.02099767	      0.02788712	      0.05458081
      0.45000000	      0.02120883	      0.02802699	      0.05556126
      0.46666667	      0.02101182	      0.02789651	      0.05802941
      0.48333333	      0.02072831	      0.02770767	      0.06028369
      0.50000000	      0.02062348	      0.02763752	      0.06235574
      0.51666667	      0.02069327	      0.02768425	      0.06400067
      0.53333333	      0.02086441	      0.02779849	      0.06475408
      0.55000000	      0.02093777	      0.02784732	      0.06412148
      0.56666667	      0.02089770	      0.02782066	      0.06215971
      0.58333333	      0.02077175	      0.02773670	      0.05938220
      0.60000000	      0.02071073	      0.02769592	      0.05652183
      0.61666667	      0.02085718	      0.02779367	      0.05432431
      0.63333333	      0.02115336	      0.02799031	      0.05356743
      0.65000000	      0.02148489	      0.02820880	      0.05483503
      0.66666667	      0.02169710	      0.02834777	      0.05550227
      0.68333333	      0.02168451	      0.02833955	      0.05549830
      0.70000000	      0.02141918	      0.02816563	      0.05513063
      0.71666667	      0.02118650	      0.02801223	      0.05493678
      0.73333333	      0.02105900	      0.02792782	      0.05528675
      0.75000000	      0.02085958	      0.02779527	      0.05607055
      0.76666667	      0.02045992	      0.02752771	      0.05713388
      0.78333333	      0.01991477	      0.02715850	      0.05866388
      0.80000000	      0.01952755	      0.02689317	      0.06049678
      0.81666667	      0.01950454	      0.02687732	      0.06299407
      0.83333333	      0.01998072	      0.02720343	      0.06619965
      0.85000000	      0.02093802	      0.02784748	      0.06978487
      0.86666667	      0.02223578	      0.02869752	      0.07319575
      0.88333333	      0.02346687	      0.02948124	      0.07612996
      0.90000000	      0.02448725	      0.03011537	      0.07803304
      0.91666667	      0.02490355	      0.03037028	      0.07876406
      0.93333333	      0.02461642	      0.03019469	      0.07824095
      0.95000000	      0.02395187	      0.02978433	      0.07666300
      0.96666667	      0.02327391	      0.02935978	      0.07422998
      0.98333333	      0.02270413	      0.02899817	      0.07150582
      1.00000000	      0.02211642	      0.02862039	      0.06849201
      1.01666667	      0.02140780	      0.02815815	      0.06555759
      1.03333333	      0.02066800	      0.02766734	      0.06388748
      1.05000000	      0.02024926	      0.02738563	      0.06425206
      1.06666667	      0.02044623	      0.02751850	      0.06506032
      1.08333333	      0.02124943	      0.02805380	      0.06644513
      1.10000000	      0.02239667	      0.02880115	      0.06685882
      1.11666667	      0.02350867	      0.02950748	      0.06747119
      1.13333333	      0.02445410	      0.03009497	      0.07116791
      1.15000000	      0.02530211	      0.03061234	      0.07407840
      1.16666667	      0.02599188	      0.03102680	      0.07619910
      1.18333333	      0.02631785	      0.03122075	      0.07797605
      1.20000000	      0.02620482	      0.03115363	      0.07920585
      1.21666667	      0.02570065	      0.03085249	      0.08019177
      1.23333333	      0.02472001	      0.03025815	      0.08003057
      1.25000000	      0.02312180	      0.02926368	      0.07727967
      1.26666667	      0.02109313	      0.02795044	      0.07113163
      1.28333333	      0.01911482	      0.02660745	      0.06179172
      1.30000000	      0.01765149	      0.02556871	      0.06038783
      1.31666667	      0.01703743	      0.02512003	      0.06134632
      1.33333333	      0.01748778	      0.02544987	      0.06300867
      1.35000000	      0.01894273	      0.02648741	      0.06545010
      1.36666667	      0.02095358	      0.02785782	      0.06865821
      1.38333333	      0.02287631	      0.02910791	      0.07136239
      1.40000000	      0.02414478	      0.02990403	      0.07288324
      1.41666667	      0.02437140	      0.03004404	      0.07290373
      1.43333333	      0.02369078	      0.02962155	      0.07180716
      1.45000000	      0.02272922	      0.02901418	      0.06994012
      1.46666667	      0.02213928	      0.02863518	      0.06870454
      1.48333333	      0.02212709	      0.02862729	      0.06849176
      1.50000000	      0.02253018	      0.02888687	      0.06886611
      1.51666667	      0.02305992	      0.02922450	      0.06840231
      1.53333333	      0.02364044	      0.02959006	      0.06614590
      1.55000000	      0.02426089	      0.02997585	      0.06258183
      1.56666667	      0.02461957	      0.03019662	      0.06945661
      1.58333333	      0.02443439	      0.03008284	      0.07472209
      1.60000000	      0.02360049	      0.02956505	      0.07536946
      1.61666667	      0.02228353	      0.02872831	      0.07177922
      1.63333333	      0.02060948	      0.02762814	      0.06480445
      1.65000000	      0.01890112	      0.02645830	      0.05707810
      1.66666667	      0.01756244	      0.02550413	      0.05636906
      1.68333333	      0.01676498	      0.02491837	      0.05602289
      1.70000000	      0.01645634	      0.02468793	      0.05536137
      1.71666667	      0.01645417	      0.02468631	      0.05436123
      1.73333333	      0.01664980	      0.02483263	      0.05304425
      1.75000000	      0.01707877	      0.02515049	      0.05136641
      1.76666667	      0.01775985	      0.02564707	      0.04947290
      1.78333333	      0.01855099	      0.02621209	      0.04715590
      1.80000000	      0.01925412	      0.02670423	      0.05006722
      1.81666667	      0.01979138	      0.02707423	      0.05219768
      1.83333333	      0.02022297	      0.02736785	      0.05307882
      1.85000000	      0.02074079	      0.02771601	      0.05458765
      1.86666667	      0.02117513	      0.02800472	      0.05586281
      1.88333333	      0.02104942	      0.02792146	      0.05652029
      1.90000000	      0.01997041	      0.02719641	      0.05911026
      1.91666667	      0.01804986	      0.02585563	      0.05887185
      1.93333333	      0.01582284	      0.02420808	      0.05532948
      1.95000000	      0.01403517	      0.02279958	      0.05046759
      1.96666667	      0.01326425	      0.02216458	      0.04590061
      1.98333333	      0.01361618	      0.02245669	      0.04741823
      2.00000000	      0.01480650	      0.02341771	      0.04784142
      2.01666667	      0.01657892	      0.02477971	      0.04813216
      2.03333333	      0.01860212	      0.02624819	      0.05341457
      2.05000000	      0.02009114	      0.02727849	      0.05699441
      2.06666667	      0.02067058	      0.02766906	      0.06034163
      2.08333333	      0.02049281	      0.02754983	      0.06210340
      2.10000000	      0.02006599	      0.02726141	      0.06321863
      2.11666667	      0.01972829	      0.02703104	      0.06461307
      2.13333333	      0.01948433	      0.02686339	      0.06651995
      2.15000000	      0.01910085	      0.02659772	      0.06849555
      2.16666667	      0.01848035	      0.02616213	      0.06783030
      2.18333333	      0.01787487	      0.02572999	      0.06496838
      2.20000000	      0.01762502	      0.02554953	      0.05955701
      2.21666667	      0.01809709	      0.02588943	      0.05962142
      2.23333333	      0.01944982	      0.02683959	      0.06406760
      2.25000000	      0.02111626	      0.02796576	      0.06756380
      2.26666667	      0.02234488	      0.02876783	      0.06926094
      2.28333333	      0.02318764	      0.02930532	      0.06907085
      2.30000000	      0.02363078	      0.02958401	      0.06806700
      2.31666667	      0.02372964	      0.02964584	      0.06754734
      2.33333333	      0.02344548	      0.02946780	      0.06833073
      2.35000000	      0.02274842	      0.02902644	      0.06863020
      2.36666667	      0.02165482	      0.02832014	      0.06766527
      2.38333333	      0.02033848	      0.02744590	      0.06515497
      2.40000000	      0.01914474	      0.02662826	      0.06140187
      2.41666667	      0.01825574	      0.02600266	      0.05826651
      2.43333333	      0.01782848	      0.02569658	      0.05619011
      2.45000000	      0.01794862	      0.02578301	      0.05646773
      2.46666667	      0.01854531	      0.02620808	      0.05966420
      2.48333333	      0.01928611	      0.02672640	      0.06529365
      2.50000000	      0.01988480	      0.02713805	      0.07210738
      2.51666667	      0.02023102	      0.02737329	      0.07828785
      2.53333333	      0.02037516	      0.02747063	      0.08217402
      2.55000000	      0.02022922	      0.02737207	      0.08327089
      2.56666667	      0.01954081	      0.02690230	      0.07979073
      2.58333333	      0.01838422	      0.02609400	      0.07316215
      2.60000000	      0.01715612	      0.02520738	      0.06477525
      2.61666667	      0.01632295	      0.02458767	      0.05554720
      2.63333333	      0.01619583	      0.02449174	      0.04774285
      2.65000000	      0.01690741	      0.02502400	      0.04484221
      2.66666667	      0.01849761	      0.02617435	      0.04841923
      2.68333333	      0.02065800	      0.02766064	      0.05224544
      2.70000000	      0.02289452	      0.02911950	      0.05718056
      2.71666667	      0.02473631	      0.03026813	      0.06177213
      2.73333333	      0.02624828	      0.03117945	      0.06674961
      2.75000000	      0.02778929	      0.03208166	      0.07137395
      2.76666667	      0.02955742	      0.03308654	      0.07476859
      2.78333333	      0.03132649	      0.03406230	      0.07625636
      2.80000000	      0.03281680	      0.03486312	      0.07581499
      2.81666667	      0.03373085	      0.03534531	      0.07526652
      2.83333333	      0.03358361	      0.03526808	      0.07735228
      2.85000000	      0.03243651	      0.03466053	      0.07543032
      2.86666667	      0.03057540	      0.03365148	      0.07023082
      2.88333333	      0.02850242	      0.03249070	      0.06329380
      2.90000000	      0.02637373	      0.03125388	      0.06199494
      2.91666667	      0.02406645	      0.02985549	      0.06144819
      2.93333333	      0.02170987	      0.02835612	      0.06103755
      2.95000000	      0.01961229	      0.02695146	      0.06074041
      2.96666667	      0.01805994	      0.02586284	      0.06101601
      2.98333333	      0.01708449	      0.02515470	      0.06206927
      3.00000000	      0.01659260	      0.02478993	      0.06356690
      3.01666667	      0.01638245	      0.02463244	      0.06460772
      3.03333333	      0.01624451	      0.02452853	      0.06488319
      3.05000000	      0.01572954	      0.02413660	      0.06320497
      3.06666667	      0.01484195	      0.02344572	      0.05921597
      3.08333333	      0.01394730	      0.02272810	      0.05352696
      3.10000000	      0.01351964	      0.02237694	      0.04729210
      3.11666667	      0.01370721	      0.02253163	      0.04167256
      3.13333333	      0.01419133	      0.02292607	      0.03963995
      3.15000000	      0.01490429	      0.02349491	      0.04183750
      3.16666667	      0.01554145	      0.02399186	      0.04351922
      3.18333333	      0.01610649	      0.02442410	      0.04452894
      3.20000000	      0.01655927	      0.02476502	      0.04492081
      3.21666667	      0.01684133	      0.02497505	      0.04468575
      3.23333333	      0.01682476	      0.02496275	      0.04520397
      3.25000000	      0.01638114	      0.02463146	      0.04465107
      3.26666667	      0.01549842	      0.02395862	      0.04331447
      3.28333333	      0.01461804	      0.02326819	      0.04214091
      3.30000000	      0.01414553	      0.02288905	      0.04125731
      3.31666667	      0.01422281	      0.02295148	      0.04029611
      3.33333333	      0.01455838	      0.02322066	      0.04088645
      3.35000000	      0.01483304	      0.02343868	      0.04215867
      3.36666667	      0.01500139	      0.02357132	      0.04323679
      3.38333333	      0.01533392	      0.02383113	      0.04385641
      3.40000000	      0.01633494	      0.02459670	      0.04593098
      3.41666667	      0.01779101	      0.02566956	      0.04943596
      3.43333333	      0.01904245	      0.02655703	      0.05307231
      3.45000000	      0.01970490	      0.02701502	      0.05626433
      3.46666667	      0.01972691	      0.02703010	      0.05648084
      3.48333333	      0.01933075	      0.02675731	      0.05580161
      3.50000000	      0.01898239	      0.02651512	      0.05551355
      3.51666667	      0.01902593	      0.02654551	      0.05499221
      3.53333333	      0.01965529	      0.02698099	      0.05666330
      3.55000000	      0.02066383	      0.02766455	      0.05971057
      3.56666667	      0.02168300	      0.02833856	      0.06157783
      3.58333333	      0.02248822	      0.02885996	      0.06278848
      3.60000000	      0.02321813	      0.02932458	      0.06344827
      3.61666667	      0.02398954	      0.02980774	      0.06356496
      3.63333333	      0.02472942	      0.03026392	      0.06446370
      3.65000000	      0.02544838	      0.03070070	      0.06636965
      3.66666667	      0.02625109	      0.03118113	      0.06890956
      3.68333333	      0.02724257	      0.03176451	      0.07178130
      3.70000000	      0.02845821	      0.03246549	      0.07391597
      3.71666667	      0.02973635	      0.03318654	      0.07430417
      3.73333333	      0.03072099	      0.03373151	      0.07212617
      3.75000000	      0.03123674	      0.03401347	      0.06713927
      3.76666667	      0.03159016	      0.03420535	      0.06404984
      3.78333333	      0.03214318	      0.03450345	      0.06532258
      3.80000000	      0.03299156	      0.03495582	      0.06647373
      3.81666667	      0.03390569	      0.03543679	      0.06774512
      3.83333333	      0.03472869	      0.03586430	      0.06884639
      3.85000000	      0.03547617	      0.03624820	      0.06965914
      3.86666667	      0.03638634	      0.03671025	      0.07077232
      3.88333333	      0.03773817	      0.03738596	      0.07144248
      3.90000000	      0.03949127	      0.03824447	      0.07122753
      3.91666667	      0.04115202	      0.03904035	      0.07219346
      3.93333333	      0.04229487	      0.03957874	      0.07560838
      3.95000000	      0.04278899	      0.03980926	      0.07873886
      3.96666667	      0.04289461	      0.03985836	      0.08176407
      3.98333333	      0.04299811	      0.03990642	      0.08369697
      4.00000000	      0.04334204	      0.04006571	      0.08535338
      4.01666667	      0.04397315	      0.04035635	      0.08649228
      4.03333333	      0.04479624	      0.04073230	      0.08732184
      4.05000000	      0.04561516	      0.04110292	      0.08791949
      4.06666667	      0.04636899	      0.04144116	      0.08824470
      4.08333333	      0.04694597	      0.04169820	      0.08805481
      4.10000000	      0.04745959	      0.04192568	      0.08798775
      4.11666667	      0.04782603	      0.04208722	      0.08728660
      4.13333333	      0.04809310	      0.04220457	      0.08623947
      4.15000000	      0.04816690	      0.04223694	      0.08521323
      4.16666667	      0.04800461	      0.04216573	      0.08422171
      4.18333333	      0.04785935	      0.04210188	      0.08338387
      4.20000000	      0.04745656	      0.04192434	      0.08335232
      4.21666667	      0.04693765	      0.04169450	      0.08509645
      4.23333333	      0.04630947	      0.04141456	      0.08683430
      4.25000000	      0.04574685	      0.04116221	      0.08825135
      4.26666667	      0.04544832	      0.04102769	      0.08907230
      4.28333333	      0.04533071	      0.04097457	      0.08985113
      4.30000000	      0.04535617	      0.04098607	      0.08999460
      4.31666667	      0.04521091	      0.04092039	      0.08915042
      4.33333333	      0.04528963	      0.04095600	      0.08786981
      4.35000000	      0.04544922	      0.04102809	      0.08629372
      4.36666667	      0.04555802	      0.04107717	      0.08588077
      4.38333333	      0.04543624	      0.04102223	      0.08719021
      4.40000000	      0.04500176	      0.04082563	      0.08803484
      4.41666667	      0.04428432	      0.04049889	      0.08791454
      4.43333333	      0.04340797	      0.04009617	      0.08687655
      4.45000000	      0.04254892	      0.03969743	      0.08505902
      4.46666667	      0.04185664	      0.03937316	      0.08263117
      4.48333333	      0.04140865	      0.03916189	      0.08409060
      4.50000000	      0.04114319	      0.03903616	      0.08464459
      4.51666667	      0.04093967	      0.03893949	      0.08574199
      4.53333333	      0.04077909	      0.03886305	      0.08676710
      4.55000000	      0.04077573	      0.03886145	      0.08806284
      4.56666667	      0.04093673	      0.03893809	      0.08961613
      4.58333333	      0.04130318	      0.03911199	      0.09104038
      4.60000000	      0.04198684	      0.03943435	      0.09548204
      4.61666667	      0.04291163	      0.03986627	      0.09981256
      4.63333333	      0.04389693	      0.04032136	      0.10448627
      4.65000000	      0.04473745	      0.04070556	      0.10849002
      4.66666667	      0.04528497	      0.04095389	      0.11063276
      4.68333333	      0.04553758	      0.04106796	      0.11249894
      4.70000000	      0.04564332	      0.04111561	      0.11137091
      4.71666667	      0.04596763	      0.04126142	      0.11145751
      4.73333333	      0.04648370	      0.04149239	      0.11189222
      4.75000000	      0.04720291	      0.04181215	      0.11264098
      4.76666667	      0.04790744	      0.04212303	      0.11385956
      4.78333333	      0.04833008	      0.04230843	      0.11491221
      4.80000000	      0.04827781	      0.04228554	      0.11521327
      4.81666667	      0.04768888	      0.04202683	      0.11380320
      4.83333333	      0.04672689	      0.04160079	      0.11182972
      4.85000000	      0.04548035	      0.04104214	      0.10974769
      4.86666667	      0.04406346	      0.04039777	      0.10585658
      4.88333333	      0.04273998	      0.03978646	      0.10347890
      4.90000000	      0.04151818	      0.03921365	      0.09894142
      4.91666667	      0.04073777	      0.03884336	      0.09731148
      4.93333333	      0.04010571	      0.03854084	      0.09264473
      4.95000000	      0.03978026	      0.03838415	      0.08991752
      4.96666667	      0.03967696	      0.03833428	      0.08823237
      4.98333333	      0.03989468	      0.03843931	      0.08626085
      5.00000000	      0.04057312	      0.03876478	      0.08631167
      5.01666667	      0.04176517	      0.03933012	      0.08570254
      5.03333333	      0.04349531	      0.04013648	      0.08591969
      5.05000000	      0.04558634	      0.04108994	      0.08602811
      5.06666667	      0.04767914	      0.04202254	      0.08619076
      5.08333333	      0.04934104	      0.04274863	      0.08663085
      5.10000000	      0.05002392	      0.04304344	      0.08792200
      5.11666667	      0.04929527	      0.04272881	      0.08811061
      5.13333333	      0.04696217	      0.04170539	      0.08652148
      5.15000000	      0.04336809	      0.04007774	      0.08285130
      5.16666667	      0.03951753	      0.03825719	      0.07944832
      5.18333333	      0.03657055	      0.03680305	      0.08017396
      5.20000000	      0.03489793	      0.03595158	      0.08155108
      5.21666667	      0.03396971	      0.03547024	      0.08227224
      5.23333333	      0.03300033	      0.03496047	      0.08179344
      5.25000000	      0.03151039	      0.03416214	      0.08045496
      5.26666667	      0.02969012	      0.03316073	      0.07665113
      5.28333333	      0.02780715	      0.03209197	      0.07205252
      5.30000000	      0.02581334	      0.03092005	      0.06670322
      5.31666667	      0.02378618	      0.02968113	      0.06215588
      5.33333333	      0.02228747	      0.02873085	      0.05947069
      5.35000000	      0.02172646	      0.02836695	      0.05870854
      5.36666667	      0.02166953	      0.02832976	      0.05868949
      5.38333333	      0.02175860	      0.02838792	      0.05857007
      5.40000000	      0.02162011	      0.02829743	      0.05911393
      5.41666667	      0.02135912	      0.02812612	      0.05986205
      5.43333333	      0.02123242	      0.02804257	      0.06117018
      5.45000000	      0.02114607	      0.02798549	      0.06036686
      5.46666667	      0.02062943	      0.02764151	      0.05903571
      5.48333333	      0.01942833	      0.02682476	      0.05699917
      5.50000000	      0.01780372	      0.02567873	      0.05470915
      5.51666667	      0.01631566	      0.02458219	      0.05237578
      5.53333333	      0.01528797	      0.02379540	      0.05089909
      5.55000000	      0.01467237	      0.02331139	      0.04930422
      5.56666667	      0.01427534	      0.02299383	      0.04867322
      5.58333333	      0.01405052	      0.02281205	      0.04866236
      5.60000000	      0.01396858	      0.02274543	      0.04911900
      5.61666667	      0.01418480	      0.02292080	      0.05075004
      5.63333333	      0.01478172	      0.02339810	      0.05366232
      5.65000000	      0.01608117	      0.02440489	      0.05868799
      5.66666667	      0.01859448	      0.02624280	      0.06600541
