Model Marker Errors from IK
version=1
nRows=153
nColumns=4
inDegrees=no
endheader
time	total_squared_error	marker_error_RMS	marker_error_max
      0.00000000	      0.01448779	      0.02316430	      0.04348864
      0.01666667	      0.01439796	      0.02309237	      0.04014789
      0.03333333	      0.01463786	      0.02328396	      0.03793987
      0.05000000	      0.01495958	      0.02353844	      0.03749011
      0.06666667	      0.01530531	      0.02380889	      0.03954778
      0.08333333	      0.01561824	      0.02405105	      0.04107346
      0.10000000	      0.01589792	      0.02426544	      0.04215442
      0.11666667	      0.01616770	      0.02447047	      0.04289384
      0.13333333	      0.01646742	      0.02469625	      0.04330464
      0.15000000	      0.01659132	      0.02478898	      0.04340520
      0.16666667	      0.01669518	      0.02486644	      0.04330340
      0.18333333	      0.01672327	      0.02488735	      0.04313327
      0.20000000	      0.01676822	      0.02492078	      0.04282459
      0.21666667	      0.01697578	      0.02507454	      0.04314141
      0.23333333	      0.01722185	      0.02525562	      0.04345289
      0.25000000	      0.01742556	      0.02540455	      0.04378024
      0.26666667	      0.01752241	      0.02547505	      0.04425246
      0.28333333	      0.01750449	      0.02546202	      0.04493548
      0.30000000	      0.01748716	      0.02544941	      0.04596833
      0.31666667	      0.01748810	      0.02545009	      0.04709518
      0.33333333	      0.01756988	      0.02550953	      0.04834941
      0.35000000	      0.01777475	      0.02565783	      0.04979101
      0.36666667	      0.01803364	      0.02584401	      0.05111481
      0.38333333	      0.01841283	      0.02611430	      0.05257643
      0.40000000	      0.01894896	      0.02649176	      0.05396082
      0.41666667	      0.01970674	      0.02701628	      0.05510546
      0.43333333	      0.02057901	      0.02760771	      0.05592478
      0.45000000	      0.02141596	      0.02816352	      0.05632752
      0.46666667	      0.02209732	      0.02860803	      0.05646430
      0.48333333	      0.02260032	      0.02893179	      0.05632878
      0.50000000	      0.02279820	      0.02905818	      0.05621265
      0.51666667	      0.02262299	      0.02894630	      0.05609660
      0.53333333	      0.02211443	      0.02861910	      0.05596672
      0.55000000	      0.02141714	      0.02816429	      0.05585003
      0.56666667	      0.02074003	      0.02771551	      0.05581551
      0.58333333	      0.02032578	      0.02743732	      0.05588844
      0.60000000	      0.02018118	      0.02733955	      0.05615794
      0.61666667	      0.02037467	      0.02747030	      0.05653571
      0.63333333	      0.02078834	      0.02774777	      0.05679190
      0.65000000	      0.02131171	      0.02809488	      0.05699340
      0.66666667	      0.02186250	      0.02845562	      0.05688461
      0.68333333	      0.02242417	      0.02881883	      0.05631463
      0.70000000	      0.02294948	      0.02915443	      0.05553082
      0.71666667	      0.02347321	      0.02948522	      0.05427775
      0.73333333	      0.02400559	      0.02981771	      0.05288185
      0.75000000	      0.02436760	      0.03004170	      0.05127932
      0.76666667	      0.02411500	      0.02988558	      0.05042142
      0.78333333	      0.02393728	      0.02977526	      0.04854400
      0.80000000	      0.02361976	      0.02957712	      0.04672197
      0.81666667	      0.02296762	      0.02916595	      0.04505335
      0.83333333	      0.02300739	      0.02919119	      0.04360916
      0.85000000	      0.02343709	      0.02946253	      0.04438394
      0.86666667	      0.02397337	      0.02979769	      0.04705335
      0.88333333	      0.02452832	      0.03014061	      0.04918963
      0.90000000	      0.02503538	      0.03045055	      0.05012553
      0.91666667	      0.02549043	      0.03072605	      0.05040716
      0.93333333	      0.02591536	      0.03098109	      0.05085662
      0.95000000	      0.02620451	      0.03115345	      0.05097036
      0.96666667	      0.02619539	      0.03114803	      0.05177398
      0.98333333	      0.02625742	      0.03118488	      0.05127679
      1.00000000	      0.02624909	      0.03117994	      0.05065602
      1.01666667	      0.02618472	      0.03114168	      0.04990370
      1.03333333	      0.02603187	      0.03105066	      0.04941978
      1.05000000	      0.02573239	      0.03087153	      0.04966396
      1.06666667	      0.02514731	      0.03051855	      0.04996682
      1.08333333	      0.02469879	      0.03024516	      0.04992115
      1.10000000	      0.02439401	      0.03005798	      0.05060434
      1.11666667	      0.02424328	      0.02996497	      0.05144902
      1.13333333	      0.02429380	      0.02999618	      0.05236759
      1.15000000	      0.02454342	      0.03014989	      0.05329084
      1.16666667	      0.02463047	      0.03020330	      0.05700685
      1.18333333	      0.02494516	      0.03039564	      0.06220492
      1.20000000	      0.02539605	      0.03066911	      0.06637371
      1.21666667	      0.02570440	      0.03085474	      0.06970259
      1.23333333	      0.02599803	      0.03103047	      0.07150761
      1.25000000	      0.02600787	      0.03103634	      0.07177572
      1.26666667	      0.02570231	      0.03085348	      0.07098987
      1.28333333	      0.02512969	      0.03050785	      0.06915440
      1.30000000	      0.02429423	      0.02999644	      0.06689384
      1.31666667	      0.02328740	      0.02936829	      0.06311495
      1.33333333	      0.02223029	      0.02869397	      0.05916451
      1.35000000	      0.02116696	      0.02799931	      0.05565868
      1.36666667	      0.02016061	      0.02732561	      0.05602363
      1.38333333	      0.01928608	      0.02672638	      0.05668780
      1.40000000	      0.01855689	      0.02621626	      0.05698152
      1.41666667	      0.01800355	      0.02582244	      0.05712032
      1.43333333	      0.01765881	      0.02557401	      0.05693035
      1.45000000	      0.01756272	      0.02550434	      0.05648377
      1.46666667	      0.01775351	      0.02564249	      0.05588309
      1.48333333	      0.01828777	      0.02602547	      0.05512437
      1.50000000	      0.01912270	      0.02661293	      0.05467887
      1.51666667	      0.02019744	      0.02735056	      0.05431800
      1.53333333	      0.02133251	      0.02810860	      0.05391003
      1.55000000	      0.02220830	      0.02867978	      0.05689592
      1.56666667	      0.02276196	      0.02903507	      0.06109712
      1.58333333	      0.02281088	      0.02906626	      0.06326870
      1.60000000	      0.02227222	      0.02872102	      0.06249306
      1.61666667	      0.02125373	      0.02805665	      0.05854872
      1.63333333	      0.02002723	      0.02723508	      0.05342691
      1.65000000	      0.01887143	      0.02643751	      0.05305924
      1.66666667	      0.01801033	      0.02582730	      0.05249939
      1.68333333	      0.01752536	      0.02547719	      0.05180449
      1.70000000	      0.01740062	      0.02538636	      0.05129441
      1.71666667	      0.01754346	      0.02549034	      0.05009722
      1.73333333	      0.01792096	      0.02576314	      0.04904385
      1.75000000	      0.01850703	      0.02618102	      0.04805283
      1.76666667	      0.01931921	      0.02674932	      0.04683783
      1.78333333	      0.02023957	      0.02737907	      0.04558413
      1.80000000	      0.02115007	      0.02798814	      0.04456767
      1.81666667	      0.02193102	      0.02850017	      0.04474944
      1.83333333	      0.02260590	      0.02893537	      0.04625071
      1.85000000	      0.02329072	      0.02937038	      0.04711275
      1.86666667	      0.02414705	      0.02990544	      0.04778653
      1.88333333	      0.02525628	      0.03058460	      0.04809023
      1.90000000	      0.02652780	      0.03134503	      0.04946134
      1.91666667	      0.02757285	      0.03195648	      0.05135176
      1.93333333	      0.02819659	      0.03231591	      0.05320900
      1.95000000	      0.02818716	      0.03231051	      0.05429459
      1.96666667	      0.02650581	      0.03133204	      0.05399921
      1.98333333	      0.02523116	      0.03056939	      0.05191011
      2.00000000	      0.02375750	      0.02966323	      0.05103656
      2.01666667	      0.02221598	      0.02868474	      0.04890439
      2.03333333	      0.02086264	      0.02779731	      0.04589885
      2.05000000	      0.01982872	      0.02709976	      0.04497154
      2.06666667	      0.01915224	      0.02663348	      0.04456690
      2.08333333	      0.01885058	      0.02642290	      0.04374497
      2.10000000	      0.01907015	      0.02657634	      0.04617764
      2.11666667	      0.01991677	      0.02715986	      0.04993537
      2.13333333	      0.02100175	      0.02788983	      0.05397910
      2.15000000	      0.02215368	      0.02864449	      0.05811314
      2.16666667	      0.02318376	      0.02930286	      0.06006325
      2.18333333	      0.02333122	      0.02939591	      0.05885853
      2.20000000	      0.02269184	      0.02899032	      0.05451897
      2.21666667	      0.02203455	      0.02856737	      0.05232205
      2.23333333	      0.02188850	      0.02847253	      0.05088268
      2.25000000	      0.02223960	      0.02869998	      0.04945090
      2.26666667	      0.02257176	      0.02891351	      0.04805088
      2.28333333	      0.02245177	      0.02883656	      0.04660192
      2.30000000	      0.02187113	      0.02846124	      0.04533828
      2.31666667	      0.02111511	      0.02796500	      0.04405993
      2.33333333	      0.02052591	      0.02757206	      0.04338838
      2.35000000	      0.02020898	      0.02735838	      0.04272787
      2.36666667	      0.02017761	      0.02733713	      0.04274535
      2.38333333	      0.02036898	      0.02746646	      0.04290703
      2.40000000	      0.02071462	      0.02769853	      0.04345428
      2.41666667	      0.02107597	      0.02793907	      0.04357545
      2.43333333	      0.02133638	      0.02811114	      0.04375239
      2.45000000	      0.02142385	      0.02816871	      0.04337839
      2.46666667	      0.02127097	      0.02806802	      0.04336960
      2.48333333	      0.02103989	      0.02791514	      0.04337788
      2.50000000	      0.02072816	      0.02770757	      0.04324159
      2.51666667	      0.02044249	      0.02751598	      0.04293437
      2.53333333	      0.02041950	      0.02750050	      0.04231877
