Model Marker Errors from IK
version=1
nRows=191
nColumns=4
inDegrees=no
endheader
time	total_squared_error	marker_error_RMS	marker_error_max
      0.00000000	      0.01718580	      0.02522917	      0.03805185
      0.02380952	      0.01645864	      0.02468966	      0.03745193
      0.04761905	      0.01634313	      0.02460287	      0.03787815
      0.07142857	      0.01647312	      0.02470051	      0.04022051
      0.09523810	      0.01666908	      0.02484700	      0.04107197
      0.11904762	      0.01684635	      0.02497877	      0.04203955
      0.14285714	      0.01682389	      0.02496211	      0.04209933
      0.16666667	      0.01696184	      0.02506424	      0.04255696
      0.19047619	      0.01711200	      0.02517495	      0.04338452
      0.21428571	      0.01712738	      0.02518625	      0.04356193
      0.23809524	      0.01705601	      0.02513372	      0.04350288
      0.26190476	      0.01695369	      0.02505822	      0.04346035
      0.28571429	      0.01689243	      0.02501291	      0.04315695
      0.30952381	      0.01684010	      0.02497414	      0.04295986
      0.33333333	      0.01678311	      0.02493184	      0.04214543
      0.35714286	      0.01668947	      0.02486219	      0.04222726
      0.38095238	      0.01666307	      0.02484252	      0.04259090
      0.40476190	      0.01683656	      0.02497151	      0.04304098
      0.42857143	      0.01720120	      0.02524048	      0.04388157
      0.45238095	      0.01760580	      0.02553560	      0.04435841
      0.47619048	      0.01793697	      0.02577464	      0.04482839
      0.50000000	      0.01814861	      0.02592625	      0.04493114
      0.52380952	      0.01808488	      0.02588069	      0.04462689
      0.54761905	      0.01777923	      0.02566106	      0.04336583
      0.57142857	      0.01742804	      0.02540635	      0.04316722
      0.59523810	      0.01698922	      0.02508446	      0.04273079
      0.61904762	      0.01635978	      0.02461540	      0.04126364
      0.64285714	      0.01563880	      0.02406688	      0.03993079
      0.66666667	      0.01489819	      0.02349010	      0.03882402
      0.69047619	      0.01428862	      0.02300452	      0.03779311
      0.71428571	      0.01394411	      0.02272550	      0.03674183
      0.73809524	      0.01383466	      0.02263614	      0.03585405
      0.76190476	      0.01384933	      0.02264814	      0.03525352
      0.78571429	      0.01386163	      0.02265819	      0.03511756
      0.80952381	      0.01387438	      0.02266861	      0.03497751
      0.83333333	      0.01390281	      0.02269182	      0.03488452
      0.85714286	      0.01387209	      0.02266674	      0.03513702
      0.88095238	      0.01373450	      0.02255405	      0.03577129
      0.90476190	      0.01352323	      0.02237991	      0.03610800
      0.92857143	      0.01332153	      0.02221239	      0.03677042
      0.95238095	      0.01320459	      0.02211468	      0.03695798
      0.97619048	      0.01314804	      0.02206727	      0.03677189
      1.00000000	      0.01309132	      0.02201962	      0.03596288
      1.02380952	      0.01306572	      0.02199808	      0.03531553
      1.04761905	      0.01312757	      0.02205009	      0.03480355
      1.07142857	      0.01324808	      0.02215106	      0.03470307
      1.09523810	      0.01342958	      0.02230229	      0.03521286
      1.11904762	      0.01371009	      0.02253400	      0.03518421
      1.14285714	      0.01407062	      0.02282836	      0.03581641
      1.16666667	      0.01446371	      0.02314504	      0.03605694
      1.19047619	      0.01482179	      0.02342979	      0.03662404
      1.21428571	      0.01483447	      0.02343981	      0.03697753
      1.23809524	      0.01480090	      0.02341327	      0.03723473
      1.26190476	      0.01474299	      0.02336743	      0.03723837
      1.28571429	      0.01476284	      0.02338315	      0.03808286
      1.30952381	      0.01476041	      0.02338123	      0.03754542
      1.33333333	      0.01467429	      0.02331292	      0.03763790
      1.35714286	      0.01452820	      0.02319658	      0.03730057
      1.38095238	      0.01437370	      0.02307291	      0.03690372
      1.40476190	      0.01431296	      0.02302411	      0.03630898
      1.42857143	      0.01433215	      0.02303954	      0.03581783
      1.45238095	      0.01453273	      0.02320020	      0.03518613
      1.47619048	      0.01482793	      0.02343464	      0.03523190
      1.50000000	      0.01518696	      0.02371666	      0.03621348
      1.52380952	      0.01552608	      0.02397999	      0.03589517
      1.54761905	      0.01596667	      0.02431786	      0.03748437
      1.57142857	      0.01635315	      0.02461041	      0.03907975
      1.59523810	      0.01645869	      0.02468970	      0.04051365
      1.61904762	      0.01643625	      0.02467286	      0.04104594
      1.64285714	      0.01637263	      0.02462507	      0.04135048
      1.66666667	      0.01636505	      0.02461936	      0.04261008
      1.69047619	      0.01650505	      0.02472444	      0.04166933
      1.71428571	      0.01676206	      0.02491620	      0.04193762
      1.73809524	      0.01701092	      0.02510048	      0.04298196
      1.76190476	      0.01721121	      0.02524782	      0.04138436
      1.78571429	      0.01748358	      0.02544680	      0.04186500
      1.80952381	      0.01774478	      0.02563619	      0.04318917
      1.83333333	      0.01786269	      0.02572122	      0.04340456
      1.85714286	      0.01789229	      0.02574252	      0.04272268
      1.88095238	      0.01784292	      0.02570698	      0.04228831
      1.90476190	      0.01786868	      0.02572553	      0.04041462
      1.92857143	      0.01806280	      0.02586489	      0.04021505
      1.95238095	      0.01863071	      0.02626835	      0.04060293
      1.97619048	      0.01916934	      0.02664537	      0.04365924
      2.00000000	      0.01900615	      0.02653171	      0.04378859
      2.02380952	      0.01825124	      0.02599946	      0.04340748
      2.04761905	      0.01734786	      0.02534785	      0.04179433
      2.07142857	      0.01681413	      0.02495487	      0.03972049
      2.09523810	      0.01709004	      0.02515878	      0.03974484
      2.11904762	      0.01845917	      0.02614714	      0.04776401
      2.14285714	      0.02053458	      0.02757789	      0.05579095
      2.16666667	      0.02233547	      0.02876178	      0.06037949
      2.19047619	      0.02336762	      0.02941883	      0.06257171
      2.21428571	      0.02375698	      0.02966291	      0.06454854
      2.23809524	      0.02362866	      0.02958269	      0.06601162
      2.26190476	      0.02338553	      0.02943010	      0.06636087
      2.28571429	      0.02334100	      0.02940207	      0.06627199
      2.30952381	      0.02343951	      0.02946405	      0.06604884
      2.33333333	      0.02336276	      0.02941577	      0.06576592
      2.35714286	      0.02274480	      0.02902413	      0.06397085
      2.38095238	      0.02165227	      0.02831847	      0.06147958
      2.40476190	      0.02037548	      0.02747084	      0.05869000
      2.42857143	      0.01928709	      0.02672708	      0.05739443
      2.45238095	      0.01857918	      0.02623200	      0.05616289
      2.47619048	      0.01820840	      0.02596893	      0.05433398
      2.50000000	      0.01797970	      0.02580532	      0.05295997
      2.52380952	      0.01767137	      0.02558310	      0.04964707
      2.54761905	      0.01715443	      0.02520613	      0.04459475
      2.57142857	      0.01658457	      0.02478393	      0.04288141
      2.59523810	      0.01613870	      0.02444851	      0.04475658
      2.61904762	      0.01602737	      0.02436403	      0.04706093
      2.64285714	      0.01599035	      0.02433588	      0.04825221
      2.66666667	      0.01582937	      0.02421307	      0.04783653
      2.69047619	      0.01540964	      0.02388990	      0.04587834
      2.71428571	      0.01478375	      0.02339971	      0.04372923
      2.73809524	      0.01421865	      0.02294813	      0.04223163
      2.76190476	      0.01390461	      0.02269329	      0.04185446
      2.78571429	      0.01395253	      0.02273236	      0.04334482
      2.80952381	      0.01447339	      0.02315279	      0.04686186
      2.83333333	      0.01548276	      0.02394651	      0.05200493
      2.85714286	      0.01677246	      0.02492393	      0.05742001
      2.88095238	      0.01797651	      0.02580304	      0.06053922
      2.90476190	      0.01881190	      0.02639578	      0.06064667
      2.92857143	      0.01931796	      0.02674846	      0.05904062
      2.95238095	      0.01955145	      0.02690962	      0.05791755
      2.97619048	      0.01949049	      0.02686764	      0.05783495
      3.00000000	      0.01909070	      0.02659066	      0.05873601
      3.02380952	      0.01857072	      0.02622603	      0.05915867
      3.04761905	      0.01822964	      0.02598407	      0.05906424
      3.07142857	      0.01829909	      0.02603352	      0.05802617
      3.09523810	      0.01886408	      0.02643236	      0.05563094
      3.11904762	      0.01992009	      0.02716213	      0.05450352
      3.14285714	      0.02146225	      0.02819394	      0.06262561
      3.16666667	      0.02354310	      0.02952908	      0.07056353
      3.19047619	      0.02569282	      0.03084778	      0.07556173
      3.21428571	      0.02706993	      0.03166370	      0.07672310
      3.23809524	      0.02732091	      0.03181015	      0.07309297
      3.26190476	      0.02718571	      0.03173134	      0.06752793
      3.28571429	      0.02742886	      0.03187293	      0.06297726
      3.30952381	      0.02806961	      0.03224306	      0.05962221
      3.33333333	      0.02871492	      0.03261158	      0.06086341
      3.35714286	      0.02906835	      0.03281167	      0.06337007
      3.38095238	      0.02899796	      0.03277192	      0.06550405
      3.40476190	      0.02845360	      0.03246286	      0.06609305
      3.42857143	      0.02684544	      0.03153214	      0.06453449
      3.45238095	      0.02420919	      0.02994389	      0.06018750
      3.47619048	      0.02165845	      0.02832252	      0.05487827
      3.50000000	      0.01988443	      0.02713781	      0.05013414
      3.52380952	      0.01865708	      0.02628694	      0.04630495
      3.54761905	      0.01758886	      0.02552331	      0.04220556
      3.57142857	      0.01673295	      0.02489456	      0.03937313
      3.59523810	      0.01597014	      0.02432050	      0.03902153
      3.61904762	      0.01544036	      0.02391371	      0.03912399
      3.64285714	      0.01501333	      0.02358069	      0.03892699
      3.66666667	      0.01445714	      0.02313979	      0.03867305
      3.69047619	      0.01386341	      0.02265965	      0.03860178
      3.71428571	      0.01346665	      0.02233304	      0.03877626
      3.73809524	      0.01333312	      0.02222204	      0.03881078
      3.76190476	      0.01331626	      0.02220799	      0.03871789
      3.78571429	      0.01328200	      0.02217940	      0.03859829
      3.80952381	      0.01327030	      0.02216963	      0.04028234
      3.83333333	      0.01341555	      0.02229063	      0.04158932
      3.85714286	      0.01375413	      0.02257016	      0.04159975
      3.88095238	      0.01394236	      0.02272408	      0.04024945
      3.90476190	      0.01369528	      0.02252183	      0.03767524
      3.92857143	      0.01320402	      0.02211420	      0.03620302
      3.95238095	      0.01285135	      0.02181687	      0.03659853
      3.97619048	      0.01284472	      0.02181124	      0.03630967
      4.00000000	      0.01306114	      0.02199423	      0.03584459
      4.02380952	      0.01346321	      0.02233019	      0.03480750
      4.04761905	      0.01387286	      0.02266737	      0.03502203
      4.07142857	      0.01415030	      0.02289290	      0.03393947
      4.09523810	      0.01425125	      0.02297442	      0.03403188
      4.11904762	      0.01409216	      0.02284583	      0.03428529
      4.14285714	      0.01367197	      0.02250265	      0.03488789
      4.16666667	      0.01324354	      0.02214727	      0.03553914
      4.19047619	      0.01303017	      0.02196813	      0.03619064
      4.21428571	      0.01307831	      0.02200868	      0.03658787
      4.23809524	      0.01323376	      0.02213909	      0.03658512
      4.26190476	      0.01336431	      0.02224803	      0.03625066
      4.28571429	      0.01354803	      0.02240042	      0.03758707
      4.30952381	      0.01387210	      0.02266674	      0.03944914
      4.33333333	      0.01421021	      0.02294131	      0.04146704
      4.35714286	      0.01458603	      0.02324271	      0.04249290
      4.38095238	      0.01478007	      0.02339680	      0.04289257
      4.40476190	      0.01489815	      0.02349007	      0.04225056
      4.42857143	      0.01492132	      0.02350833	      0.04154128
      4.45238095	      0.01486092	      0.02346070	      0.04053019
      4.47619048	      0.01475680	      0.02337837	      0.03924525
      4.50000000	      0.01480010	      0.02341265	      0.03797819
      4.52380952	      0.01569419	      0.02410946	      0.03673940
