Model Marker Errors from IK
version=1
nRows=424
nColumns=4
inDegrees=no
endheader
time	total_squared_error	marker_error_RMS	marker_error_max
      0.00000000	      0.01838408	      0.02609390	      0.04762928
      0.01694915	      0.01798697	      0.02581054	      0.04340346
      0.03389831	      0.01786107	      0.02572005	      0.04402957
      0.05084746	      0.01755138	      0.02549610	      0.04370866
      0.06779661	      0.01728332	      0.02530065	      0.04362628
      0.08474576	      0.01702538	      0.02511114	      0.04347773
      0.10169492	      0.01685354	      0.02498410	      0.04325263
      0.11864407	      0.01667868	      0.02485415	      0.04297818
      0.13559322	      0.01648557	      0.02470985	      0.04286709
      0.15254237	      0.01628772	      0.02456113	      0.04266527
      0.16949153	      0.01607053	      0.02439682	      0.04267544
      0.18644068	      0.01595619	      0.02430988	      0.04263639
      0.20338983	      0.01597462	      0.02432391	      0.04240150
      0.22033898	      0.01600811	      0.02434939	      0.04246426
      0.23728814	      0.01616640	      0.02446948	      0.04230367
      0.25423729	      0.01633547	      0.02459710	      0.04304943
      0.27118644	      0.01647927	      0.02470513	      0.04459046
      0.28813559	      0.01658601	      0.02478501	      0.04494349
      0.30508475	      0.01671193	      0.02487891	      0.04438381
      0.32203390	      0.01694178	      0.02504942	      0.04315635
      0.33898305	      0.01725279	      0.02527830	      0.04232063
      0.35593220	      0.01754248	      0.02548964	      0.04194692
      0.37288136	      0.01785349	      0.02571459	      0.04265049
      0.38983051	      0.01804207	      0.02585005	      0.04365178
      0.40677966	      0.01813333	      0.02591534	      0.04430403
      0.42372881	      0.01817356	      0.02594407	      0.04454191
      0.44067797	      0.01814815	      0.02592593	      0.04481133
      0.45762712	      0.01786511	      0.02572296	      0.04457545
      0.47457627	      0.01754630	      0.02549241	      0.04453896
      0.49152542	      0.01742200	      0.02540195	      0.04443993
      0.50847458	      0.01776207	      0.02564867	      0.04438545
      0.52542373	      0.01865785	      0.02628748	      0.04434240
      0.54237288	      0.01987185	      0.02712922	      0.04639409
      0.55932203	      0.02077990	      0.02774213	      0.04949824
      0.57627119	      0.02129759	      0.02808558	      0.05155353
      0.59322034	      0.02173700	      0.02837383	      0.05171176
      0.61016949	      0.02267354	      0.02897862	      0.05277542
      0.62711864	      0.02386895	      0.02973273	      0.05356409
      0.64406780	      0.02471581	      0.03025558	      0.05591025
      0.66101695	      0.02477905	      0.03029427	      0.05585984
      0.67796610	      0.02398803	      0.02980681	      0.05327026
      0.69491525	      0.02288734	      0.02911493	      0.05060576
      0.71186441	      0.02208089	      0.02859739	      0.04935927
      0.72881356	      0.02168865	      0.02834226	      0.04841893
      0.74576271	      0.02161454	      0.02829379	      0.04909972
      0.76271186	      0.02156385	      0.02826059	      0.04869739
      0.77966102	      0.02151572	      0.02822904	      0.04868331
      0.79661017	      0.02148463	      0.02820863	      0.04935657
      0.81355932	      0.02180006	      0.02841496	      0.05025216
      0.83050847	      0.02266274	      0.02897173	      0.05125988
      0.84745763	      0.02391095	      0.02975888	      0.05197740
      0.86440678	      0.02389701	      0.02975020	      0.05307498
      0.88135593	      0.02503049	      0.03044758	      0.05410089
      0.89830508	      0.02618345	      0.03114093	      0.05488024
      0.91525424	      0.02733411	      0.03181783	      0.05539629
      0.93220339	      0.02832056	      0.03238687	      0.05580756
      0.94915254	      0.02902538	      0.03278741	      0.05598192
      0.96610169	      0.02935033	      0.03297043	      0.05597938
      0.98305085	      0.02931481	      0.03295047	      0.05566160
      1.00000000	      0.02907035	      0.03281280	      0.05520192
      1.01694915	      0.02887200	      0.03270066	      0.05449121
      1.03389831	      0.02897200	      0.03275725	      0.05505402
      1.05084746	      0.02914320	      0.03285389	      0.05653961
      1.06779661	      0.02931728	      0.03295186	      0.05848357
      1.08474576	      0.02932507	      0.03295624	      0.05960308
      1.10169492	      0.02922005	      0.03289718	      0.05952966
      1.11864407	      0.02931883	      0.03295273	      0.06039326
      1.13559322	      0.02952409	      0.03306788	      0.06088339
      1.15254237	      0.02973899	      0.03318801	      0.06185831
      1.16949153	      0.02971764	      0.03317609	      0.06244323
      1.18644068	      0.02939173	      0.03299367	      0.06266550
      1.20338983	      0.02891316	      0.03272396	      0.06248972
      1.22033898	      0.02859675	      0.03254441	      0.06214083
      1.23728814	      0.02857890	      0.03253426	      0.06180252
      1.25423729	      0.02884266	      0.03268404	      0.06148732
      1.27118644	      0.02929616	      0.03293999	      0.06092140
      1.28813559	      0.02976807	      0.03320423	      0.06040279
      1.30508475	      0.03001879	      0.03334377	      0.05916451
      1.32203390	      0.03001743	      0.03334301	      0.05993698
      1.33898305	      0.02992439	      0.03329130	      0.06208551
      1.35593220	      0.02983758	      0.03324298	      0.06410398
      1.37288136	      0.03001337	      0.03334076	      0.06590379
      1.38983051	      0.03049493	      0.03360717	      0.06737828
      1.40677966	      0.03104162	      0.03390707	      0.06849385
      1.42372881	      0.03147200	      0.03414132	      0.06913998
      1.44067797	      0.03153552	      0.03417575	      0.06964213
      1.45762712	      0.03134069	      0.03407002	      0.06996367
      1.47457627	      0.03102524	      0.03389813	      0.07032368
      1.49152542	      0.03069047	      0.03371475	      0.07075528
      1.50847458	      0.03037243	      0.03353960	      0.07139915
      1.52542373	      0.03014522	      0.03341391	      0.07192717
      1.54237288	      0.02995826	      0.03331014	      0.07212774
      1.55932203	      0.02978620	      0.03321434	      0.07176634
      1.57627119	      0.02954352	      0.03307876	      0.07085102
      1.59322034	      0.02930397	      0.03294438	      0.06972039
      1.61016949	      0.02907274	      0.03281415	      0.06866748
      1.62711864	      0.02899925	      0.03277265	      0.06798474
      1.64406780	      0.02835144	      0.03240452	      0.06728956
      1.66101695	      0.02778352	      0.03207833	      0.06636571
      1.67796610	      0.02718243	      0.03172943	      0.06548451
      1.69491525	      0.02666127	      0.03142379	      0.06430226
      1.71186441	      0.02629188	      0.03120534	      0.06294728
      1.72881356	      0.02612866	      0.03110833	      0.06170912
      1.74576271	      0.02612077	      0.03110363	      0.06068607
      1.76271186	      0.02623509	      0.03117162	      0.06011307
      1.77966102	      0.02647279	      0.03131252	      0.05984530
      1.79661017	      0.02674346	      0.03147219	      0.05997119
      1.81355932	      0.02701535	      0.03163177	      0.06048141
      1.83050847	      0.02726930	      0.03178009	      0.06124880
      1.84745763	      0.02744253	      0.03188087	      0.06192363
      1.86440678	      0.02772828	      0.03204642	      0.06249315
      1.88135593	      0.02759669	      0.03197029	      0.06297180
      1.89830508	      0.02746478	      0.03189379	      0.06326138
      1.91525424	      0.02733808	      0.03182014	      0.06398193
      1.93220339	      0.02718639	      0.03173174	      0.06486402
      1.94915254	      0.02713062	      0.03169918	      0.06569513
      1.96610169	      0.02708895	      0.03167482	      0.06627836
      1.98305085	      0.02699267	      0.03161848	      0.06635589
      2.00000000	      0.02698962	      0.03161670	      0.06588156
      2.01694915	      0.02692049	      0.03157618	      0.06523852
      2.03389831	      0.02679935	      0.03150505	      0.06430711
      2.05084746	      0.02660621	      0.03139132	      0.06333537
      2.06779661	      0.02641199	      0.03127654	      0.06238646
      2.08474576	      0.02623897	      0.03117393	      0.06131975
      2.10169492	      0.02614882	      0.03112033	      0.06059468
      2.11864407	      0.02629394	      0.03120656	      0.05962494
      2.13559322	      0.02637116	      0.03125236	      0.05917142
      2.15254237	      0.02701097	      0.03162920	      0.05903880
      2.16949153	      0.02727126	      0.03178123	      0.05876441
      2.18644068	      0.02816678	      0.03229882	      0.05891668
      2.20338983	      0.02840775	      0.03243669	      0.05896915
      2.22033898	      0.02889401	      0.03271312	      0.05928570
      2.23728814	      0.02886359	      0.03269590	      0.05943189
      2.25423729	      0.02889699	      0.03271481	      0.05979747
      2.27118644	      0.02891851	      0.03272699	      0.05969199
      2.28813559	      0.02896565	      0.03275366	      0.06006433
      2.30508475	      0.02901374	      0.03278083	      0.06092843
      2.32203390	      0.02908946	      0.03282358	      0.06219374
      2.33898305	      0.02916019	      0.03286346	      0.06343643
      2.35593220	      0.02917906	      0.03287409	      0.06441255
      2.37288136	      0.02908469	      0.03282089	      0.06491801
      2.38983051	      0.02892443	      0.03273034	      0.06548235
      2.40677966	      0.02873236	      0.03262149	      0.06611185
      2.42372881	      0.02858889	      0.03253994	      0.06709548
      2.44067797	      0.02850822	      0.03249400	      0.06809436
      2.45762712	      0.02839721	      0.03243067	      0.06874557
      2.47457627	      0.02837428	      0.03241757	      0.06879567
      2.49152542	      0.02833875	      0.03239727	      0.06861643
      2.50847458	      0.02825871	      0.03235149	      0.06817906
      2.52542373	      0.02824765	      0.03234516	      0.06687880
      2.54237288	      0.02802457	      0.03221719	      0.06510405
      2.55932203	      0.02771038	      0.03203608	      0.06292603
      2.57627119	      0.02724311	      0.03176483	      0.06044229
      2.59322034	      0.02671184	      0.03145357	      0.05782875
      2.61016949	      0.02622913	      0.03116808	      0.05502394
      2.62711864	      0.02572990	      0.03087004	      0.05234057
      2.64406780	      0.02519574	      0.03054792	      0.04938562
      2.66101695	      0.02439612	      0.03005928	      0.04713444
      2.67796610	      0.02350477	      0.02950504	      0.04560777
      2.69491525	      0.02284514	      0.02908808	      0.04488909
      2.71186441	      0.02250913	      0.02887337	      0.04515385
      2.72881356	      0.02249244	      0.02886266	      0.04605071
      2.74576271	      0.02263233	      0.02895228	      0.04698480
      2.76271186	      0.02298832	      0.02917909	      0.04812190
      2.77966102	      0.02343938	      0.02946397	      0.04943709
      2.79661017	      0.02395248	      0.02978471	      0.05108275
      2.81355932	      0.02443293	      0.03008194	      0.05278831
      2.83050847	      0.02480547	      0.03031041	      0.05449934
      2.84745763	      0.02507973	      0.03047751	      0.05618443
      2.86440678	      0.02529220	      0.03060634	      0.05778595
      2.88135593	      0.02541383	      0.03067985	      0.05943049
      2.89830508	      0.02545947	      0.03070738	      0.06106292
      2.91525424	      0.02545970	      0.03070752	      0.06227190
      2.93220339	      0.02565005	      0.03082210	      0.06367379
      2.94915254	      0.02601386	      0.03103991	      0.06487591
      2.96610169	      0.02654700	      0.03135638	      0.06627729
      2.98305085	      0.02717851	      0.03172714	      0.06740149
      3.00000000	      0.02790722	      0.03214966	      0.06791809
      3.01694915	      0.02875629	      0.03263507	      0.06777024
      3.03389831	      0.02969507	      0.03316349	      0.06707651
      3.05084746	      0.03065234	      0.03369379	      0.06631464
      3.06779661	      0.03151008	      0.03416197	      0.06603973
      3.08474576	      0.03215413	      0.03450933	      0.06639813
      3.10169492	      0.03256683	      0.03473009	      0.06758916
      3.11864407	      0.03274919	      0.03482719	      0.06922221
      3.13559322	      0.03275341	      0.03482943	      0.07076034
      3.15254237	      0.03258060	      0.03473743	      0.07194507
      3.16949153	      0.03239053	      0.03463595	      0.07268464
      3.18644068	      0.03223133	      0.03455073	      0.07285936
      3.20338983	      0.03210277	      0.03448176	      0.07312301
      3.22033898	      0.03199808	      0.03442549	      0.07302535
      3.23728814	      0.03180968	      0.03432399	      0.07267360
      3.25423729	      0.03147179	      0.03414120	      0.07191350
      3.27118644	      0.03107065	      0.03392292	      0.07100746
      3.28813559	      0.03054220	      0.03363321	      0.07004063
      3.30508475	      0.02996594	      0.03331441	      0.06925885
      3.32203390	      0.02946087	      0.03303246	      0.06881611
      3.33898305	      0.02916558	      0.03286649	      0.06882246
      3.35593220	      0.02925922	      0.03291921	      0.06949694
      3.37288136	      0.02967916	      0.03315461	      0.07112134
      3.38983051	      0.03031150	      0.03350594	      0.07298124
      3.40677966	      0.03090760	      0.03383380	      0.07520083
      3.42372881	      0.03134027	      0.03406979	      0.07718222
      3.44067797	      0.03149296	      0.03415269	      0.07918966
      3.45762712	      0.03148894	      0.03415051	      0.08113307
      3.47457627	      0.03134240	      0.03407095	      0.08301365
      3.49152542	      0.03108834	      0.03393258	      0.08441901
      3.50847458	      0.03087932	      0.03381831	      0.08552207
      3.52542373	      0.03072965	      0.03373626	      0.08615939
      3.54237288	      0.03060207	      0.03366616	      0.08621593
      3.55932203	      0.03044299	      0.03357854	      0.08564302
      3.57627119	      0.03025755	      0.03347611	      0.08431236
      3.59322034	      0.03002221	      0.03334567	      0.08247936
      3.61016949	      0.02977535	      0.03320830	      0.08036344
      3.62711864	      0.02959079	      0.03310521	      0.07801310
      3.64406780	      0.02951989	      0.03306553	      0.07587051
      3.66101695	      0.02950351	      0.03305636	      0.07426247
      3.67796610	      0.02961326	      0.03311778	      0.07299486
      3.69491525	      0.02969994	      0.03316622	      0.07185617
      3.71186441	      0.02981890	      0.03323257	      0.07099207
      3.72881356	      0.02996733	      0.03331518	      0.07025468
      3.74576271	      0.03019140	      0.03343950	      0.07003780
      3.76271186	      0.03051669	      0.03361916	      0.07059046
      3.77966102	      0.03092298	      0.03384222	      0.07164167
      3.79661017	      0.03149201	      0.03415217	      0.07333590
      3.81355932	      0.03218921	      0.03452815	      0.07519670
      3.83050847	      0.03293935	      0.03492815	      0.07688228
      3.84745763	      0.03353826	      0.03524426	      0.07799765
      3.86440678	      0.03385409	      0.03540982	      0.07815016
      3.88135593	      0.03390167	      0.03543469	      0.07715664
      3.89830508	      0.03374259	      0.03535146	      0.07519134
      3.91525424	      0.03357804	      0.03526515	      0.07270881
      3.93220339	      0.03343147	      0.03518810	      0.07016310
      3.94915254	      0.03328196	      0.03510933	      0.06777984
      3.96610169	      0.03303737	      0.03498008	      0.06572162
      3.98305085	      0.03302451	      0.03497328	      0.06380714
      4.00000000	      0.03269780	      0.03479985	      0.06260363
      4.01694915	      0.03246343	      0.03467491	      0.06138767
      4.03389831	      0.03215078	      0.03450753	      0.06046502
      4.05084746	      0.03173799	      0.03428529	      0.05988832
      4.06779661	      0.03118676	      0.03398625	      0.05969398
      4.08474576	      0.03071620	      0.03372888	      0.05972464
      4.10169492	      0.03043377	      0.03357345	      0.05993081
      4.11864407	      0.03031824	      0.03350967	      0.06001056
      4.13559322	      0.03050365	      0.03361197	      0.06027443
      4.15254237	      0.03085493	      0.03380496	      0.06059493
      4.16949153	      0.03121119	      0.03399956	      0.06100830
      4.18644068	      0.03154923	      0.03418318	      0.06148601
      4.20338983	      0.03153660	      0.03417634	      0.06208391
      4.22033898	      0.03150274	      0.03415799	      0.06291961
      4.23728814	      0.03142542	      0.03411604	      0.06376772
      4.25423729	      0.03134763	      0.03407379	      0.06449069
      4.27118644	      0.03129820	      0.03404692	      0.06467374
      4.28813559	      0.03131140	      0.03405409	      0.06445088
      4.30508475	      0.03139960	      0.03410203	      0.06394696
      4.32203390	      0.03146004	      0.03413483	      0.06339964
      4.33898305	      0.03150972	      0.03416177	      0.06285496
      4.35593220	      0.03139444	      0.03409922	      0.06223060
      4.37288136	      0.03124660	      0.03401884	      0.06167417
      4.38983051	      0.03108933	      0.03393312	      0.06094378
      4.40677966	      0.03096408	      0.03386470	      0.06014802
      4.42372881	      0.03084004	      0.03379680	      0.05919278
      4.44067797	      0.03069000	      0.03371449	      0.05825757
      4.45762712	      0.03044280	      0.03357843	      0.05725571
      4.47457627	      0.03010527	      0.03339176	      0.05637577
      4.49152542	      0.02968483	      0.03315778	      0.05600126
      4.50847458	      0.02928737	      0.03293505	      0.05549964
      4.52542373	      0.02901518	      0.03278164	      0.05545881
      4.54237288	      0.02889966	      0.03271632	      0.05574881
      4.55932203	      0.02887888	      0.03270456	      0.05614579
      4.57627119	      0.02901203	      0.03277986	      0.05645775
      4.59322034	      0.02919704	      0.03288422	      0.05670304
      4.61016949	      0.02931376	      0.03294989	      0.05686546
      4.62711864	      0.02913967	      0.03285190	      0.05743357
      4.64406780	      0.02873658	      0.03262389	      0.05820727
      4.66101695	      0.02823520	      0.03233803	      0.05938899
      4.67796610	      0.02786597	      0.03212589	      0.06093064
      4.69491525	      0.02779662	      0.03208589	      0.06277940
      4.71186441	      0.02792728	      0.03216122	      0.06443379
      4.72881356	      0.02815094	      0.03228974	      0.06592121
      4.74576271	      0.02831034	      0.03238103	      0.06698722
      4.76271186	      0.02833845	      0.03239710	      0.06777120
      4.77966102	      0.02824473	      0.03234349	      0.06850968
      4.79661017	      0.02801281	      0.03221043	      0.06877644
      4.81355932	      0.02767340	      0.03201470	      0.06891608
      4.83050847	      0.02729013	      0.03179222	      0.06890707
      4.84745763	      0.02685769	      0.03153933	      0.06852040
      4.86440678	      0.02655525	      0.03136124	      0.06811180
      4.88135593	      0.02638578	      0.03126101	      0.06734155
      4.89830508	      0.02629317	      0.03120611	      0.06619620
      4.91525424	      0.02636692	      0.03124984	      0.06487727
      4.93220339	      0.02651193	      0.03133565	      0.06362266
      4.94915254	      0.02675242	      0.03147746	      0.06266951
      4.96610169	      0.02692366	      0.03157804	      0.06196839
      4.98305085	      0.02709286	      0.03167711	      0.06164505
      5.00000000	      0.02717135	      0.03172296	      0.06163951
      5.01694915	      0.02720352	      0.03174174	      0.06192660
      5.03389831	      0.02726033	      0.03177486	      0.06253029
      5.05084746	      0.02741103	      0.03186257	      0.06343808
      5.06779661	      0.02768864	      0.03202351	      0.06485239
      5.08474576	      0.02807032	      0.03224347	      0.06651910
      5.10169492	      0.02845925	      0.03246608	      0.06787663
      5.11864407	      0.02877443	      0.03264536	      0.06903706
      5.13559322	      0.02901657	      0.03278243	      0.06976325
      5.15254237	      0.02907133	      0.03281335	      0.07043910
      5.16949153	      0.02903848	      0.03279480	      0.07112889
      5.18644068	      0.02880177	      0.03266087	      0.07157319
      5.20338983	      0.02838721	      0.03242496	      0.07152675
      5.22033898	      0.02786227	      0.03212376	      0.07081150
      5.23728814	      0.02735364	      0.03182919	      0.06927915
      5.25423729	      0.02678037	      0.03149390	      0.06740347
      5.27118644	      0.02633709	      0.03123216	      0.06510390
      5.28813559	      0.02597695	      0.03101789	      0.06271964
      5.30508475	      0.02569540	      0.03084933	      0.06042957
      5.32203390	      0.02548878	      0.03072505	      0.05836845
      5.33898305	      0.02542391	      0.03068593	      0.05682737
      5.35593220	      0.02527091	      0.03059346	      0.05583384
      5.37288136	      0.02530819	      0.03061601	      0.05504511
      5.38983051	      0.02549032	      0.03072598	      0.05417223
      5.40677966	      0.02571497	      0.03086108	      0.05324668
      5.42372881	      0.02614457	      0.03111780	      0.05267805
      5.44067797	      0.02664247	      0.03141271	      0.05259391
      5.45762712	      0.02702365	      0.03163662	      0.05298004
      5.47457627	      0.02759221	      0.03196770	      0.05491807
      5.49152542	      0.02822130	      0.03233007	      0.05597330
      5.50847458	      0.02892098	      0.03272839	      0.05696694
      5.52542373	      0.02944568	      0.03302394	      0.05676200
      5.54237288	      0.02962147	      0.03312237	      0.05564155
      5.55932203	      0.02943319	      0.03301694	      0.05571062
      5.57627119	      0.02895176	      0.03274580	      0.05666566
      5.59322034	      0.02844265	      0.03245661	      0.05788380
      5.61016949	      0.02801742	      0.03221308	      0.05916417
      5.62711864	      0.02780026	      0.03208799	      0.06031846
      5.64406780	      0.02773500	      0.03205031	      0.06141146
      5.66101695	      0.02781510	      0.03209656	      0.06220442
      5.67796610	      0.02799625	      0.03220090	      0.06274494
      5.69491525	      0.02813529	      0.03228077	      0.06280503
      5.71186441	      0.02829689	      0.03237334	      0.06264824
      5.72881356	      0.02835502	      0.03240657	      0.06220148
      5.74576271	      0.02831692	      0.03238479	      0.06142680
      5.76271186	      0.02829906	      0.03237458	      0.06044796
      5.77966102	      0.02844733	      0.03245928	      0.05913721
      5.79661017	      0.02883203	      0.03267802	      0.05755255
      5.81355932	      0.02927175	      0.03292626	      0.05594992
      5.83050847	      0.02956399	      0.03309022	      0.05399147
      5.84745763	      0.02948262	      0.03304465	      0.05156179
      5.86440678	      0.02904286	      0.03279728	      0.05126487
      5.88135593	      0.02826740	      0.03235647	      0.05164254
      5.89830508	      0.02763322	      0.03199144	      0.05376019
      5.91525424	      0.02736914	      0.03183821	      0.05747002
      5.93220339	      0.02782632	      0.03210303	      0.06157924
      5.94915254	      0.02885628	      0.03269176	      0.06750512
      5.96610169	      0.03022049	      0.03345560	      0.07259944
      5.98305085	      0.03175052	      0.03429206	      0.07740718
      6.00000000	      0.03359604	      0.03527460	      0.08196269
      6.01694915	      0.03568456	      0.03635451	      0.08632224
      6.03389831	      0.03740809	      0.03722210	      0.09060195
      6.05084746	      0.03825263	      0.03763993	      0.09567157
      6.06779661	      0.03821326	      0.03762055	      0.10181855
      6.08474576	      0.03786303	      0.03744776	      0.10953824
      6.10169492	      0.03787804	      0.03745518	      0.11608280
      6.11864407	      0.03899638	      0.03800408	      0.12210800
      6.13559322	      0.01934043	      0.02676401	      0.06525285
      6.15254237	      0.01892237	      0.02647317	      0.06381925
      6.16949153	      0.01872084	      0.02633181	      0.06203692
      6.18644068	      0.01849089	      0.02616960	      0.06007075
      6.20338983	      0.01804600	      0.02585286	      0.05767379
      6.22033898	      0.01737491	      0.02536760	      0.05466195
      6.23728814	      0.01657153	      0.02477419	      0.05081961
      6.25423729	      0.01584959	      0.02422853	      0.04669782
      6.27118644	      0.01534174	      0.02383721	      0.04573209
      6.28813559	      0.01514010	      0.02368004	      0.04584485
      6.30508475	      0.01515121	      0.02368873	      0.04613751
      6.32203390	      0.01528226	      0.02379096	      0.04750961
      6.33898305	      0.01538839	      0.02387342	      0.04870470
      6.35593220	      0.01542425	      0.02390123	      0.04935431
      6.37288136	      0.01537686	      0.02386448	      0.04960658
      6.38983051	      0.01524997	      0.02376581	      0.04953302
      6.40677966	      0.01515279	      0.02368997	      0.04940694
      6.42372881	      0.01507336	      0.02362779	      0.04917383
      6.44067797	      0.01511643	      0.02366153	      0.04896600
      6.45762712	      0.01528935	      0.02379648	      0.04869907
      6.47457627	      0.01554014	      0.02399085	      0.04981156
      6.49152542	      0.01580069	      0.02419113	      0.05225488
      6.50847458	      0.01606370	      0.02439164	      0.05390808
      6.52542373	      0.01642245	      0.02466250	      0.05570809
      6.54237288	      0.01688317	      0.02500605	      0.05771609
      6.55932203	      0.01736729	      0.02536204	      0.05977320
      6.57627119	      0.01774862	      0.02563896	      0.06166887
      6.59322034	      0.01795341	      0.02578645	      0.06304022
      6.61016949	      0.01809941	      0.02589109	      0.06366052
      6.62711864	      0.01795381	      0.02578674	      0.06438454
      6.64406780	      0.01799750	      0.02581810	      0.06413164
      6.66101695	      0.01768724	      0.02559459	      0.06336938
      6.67796610	      0.01743184	      0.02540912	      0.06139596
      6.69491525	      0.01702792	      0.02511302	      0.05844614
      6.71186441	      0.01640751	      0.02465128	      0.05442630
      6.72881356	      0.01560250	      0.02403893	      0.05000406
      6.74576271	      0.01472262	      0.02335128	      0.04566816
      6.76271186	      0.01385375	      0.02265175	      0.04178243
      6.77966102	      0.01310571	      0.02203172	      0.04059445
      6.79661017	      0.01259352	      0.02159692	      0.04168992
      6.81355932	      0.01231285	      0.02135489	      0.04293817
      6.83050847	      0.01218763	      0.02124603	      0.04433237
      6.84745763	      0.01216258	      0.02122418	      0.04559680
      6.86440678	      0.01219101	      0.02124897	      0.04690189
      6.88135593	      0.01220348	      0.02125984	      0.04787891
      6.89830508	      0.01212200	      0.02118874	      0.04856889
      6.91525424	      0.01199533	      0.02107775	      0.04864671
      6.93220339	      0.01196174	      0.02104821	      0.04818591
      6.94915254	      0.01213432	      0.02119951	      0.04723512
      6.96610169	      0.01256545	      0.02157283	      0.04590524
      6.98305085	      0.01334049	      0.02222818	      0.04456862
      7.00000000	      0.01438005	      0.02307801	      0.04330512
      7.01694915	      0.01575315	      0.02415471	      0.04539982
      7.03389831	      0.01761606	      0.02554303	      0.05072550
      7.05084746	      0.01981234	      0.02708856	      0.05523479
      7.06779661	      0.02170722	      0.02835438	      0.05864600
      7.08474576	      0.02278200	      0.02904785	      0.06045844
      7.10169492	      0.02336795	      0.02941904	      0.06035308
      7.11864407	      0.02337461	      0.02942323	      0.05894032
      7.13559322	      0.02383990	      0.02971463	      0.05674090
      7.15254237	      0.02513675	      0.03051214	      0.05341588
      7.16949153	      0.02818566	      0.03230965	      0.06226195
