Model Marker Errors from IK
version=1
nRows=221
nColumns=4
inDegrees=no
endheader
time	total_squared_error	marker_error_RMS	marker_error_max
      0.00000000	      0.03515400	      0.03608324	      0.05655406
      0.02439024	      0.03395732	      0.03546376	      0.05510957
      0.04878049	      0.03351200	      0.03523046	      0.05433261
      0.07317073	      0.03352593	      0.03523778	      0.05502227
      0.09756098	      0.03379800	      0.03538047	      0.05585641
      0.12195122	      0.03419663	      0.03558851	      0.05676588
      0.14634146	      0.03458700	      0.03579106	      0.05787923
      0.17073171	      0.03489211	      0.03594858	      0.05853666
      0.19512195	      0.03489022	      0.03594760	      0.05869861
      0.21951220	      0.03468493	      0.03584169	      0.05821512
      0.24390244	      0.03443836	      0.03571407	      0.05746512
      0.26829268	      0.03420614	      0.03559346	      0.05641224
      0.29268293	      0.03396391	      0.03546720	      0.05491848
      0.31707317	      0.03363548	      0.03529531	      0.05400510
      0.34146341	      0.03349076	      0.03521929	      0.05496860
      0.36585366	      0.03353227	      0.03524111	      0.05565527
      0.39024390	      0.03370025	      0.03532927	      0.05673234
      0.41463415	      0.03369142	      0.03532464	      0.05682376
      0.43902439	      0.03335124	      0.03514585	      0.05668641
      0.46341463	      0.03290951	      0.03491233	      0.05633567
      0.48780488	      0.03249947	      0.03469415	      0.05643308
      0.51219512	      0.03229544	      0.03458507	      0.05731556
      0.53658537	      0.03218376	      0.03452523	      0.05834692
      0.56097561	      0.03211576	      0.03448873	      0.06075685
      0.58536585	      0.03194996	      0.03439959	      0.06058931
      0.60975610	      0.03236159	      0.03462048	      0.06087164
      0.63414634	      0.03270963	      0.03480614	      0.06133301
      0.65853659	      0.03122238	      0.03400565	      0.05972886
      0.68292683	      0.02659442	      0.03138437	      0.05354933
      0.70731707	      0.02106948	      0.02793476	      0.05371894
      0.73170732	      0.01695200	      0.02505697	      0.05060613
      0.75609756	      0.01503548	      0.02359808	      0.04557444
      0.78048780	      0.01501061	      0.02357856	      0.04251822
      0.80487805	      0.01617658	      0.02447719	      0.04281006
      0.82926829	      0.01767365	      0.02558475	      0.04771720
      0.85365854	      0.01881741	      0.02639965	      0.04959745
      0.87804878	      0.01940911	      0.02681149	      0.04785875
      0.90243902	      0.01980302	      0.02708219	      0.04526198
      0.92682927	      0.02029672	      0.02741770	      0.04374628
      0.95121951	      0.02091809	      0.02783422	      0.04386227
      0.97560976	      0.02207824	      0.02859567	      0.04487411
      1.00000000	      0.02362238	      0.02957876	      0.04666640
      1.02439024	      0.02507821	      0.03047659	      0.05140012
      1.04878049	      0.02622253	      0.03116416	      0.05787051
      1.07317073	      0.02710085	      0.03168178	      0.06266963
      1.09756098	      0.02758361	      0.03196271	      0.06572267
      1.12195122	      0.02764183	      0.03199643	      0.06671009
      1.14634146	      0.02747465	      0.03189952	      0.06577701
      1.17073171	      0.02745442	      0.03188778	      0.06483929
      1.19512195	      0.02751548	      0.03192322	      0.06455823
      1.21951220	      0.02726002	      0.03177468	      0.06485604
      1.24390244	      0.02658579	      0.03137928	      0.06551166
      1.26829268	      0.02599551	      0.03102897	      0.06642941
      1.29268293	      0.02578290	      0.03090182	      0.06720642
      1.31707317	      0.02578708	      0.03090432	      0.06719570
      1.34146341	      0.02574200	      0.03087730	      0.06646398
      1.36585366	      0.02576309	      0.03088994	      0.06560150
      1.39024390	      0.02602852	      0.03104866	      0.06491592
      1.41463415	      0.02652680	      0.03134444	      0.06446787
      1.43902439	      0.02736127	      0.03183364	      0.06471896
      1.46341463	      0.02856724	      0.03252762	      0.06550264
      1.48780488	      0.02994719	      0.03330398	      0.06714367
      1.51219512	      0.03140840	      0.03410680	      0.06859065
      1.53658537	      0.03269254	      0.03479705	      0.07007353
      1.56097561	      0.03342102	      0.03518261	      0.07137128
      1.58536585	      0.03365692	      0.03530655	      0.07262574
      1.60975610	      0.03375012	      0.03535540	      0.07400276
      1.63414634	      0.03391163	      0.03543990	      0.07520641
      1.65853659	      0.03396257	      0.03546650	      0.07678136
      1.68292683	      0.03425238	      0.03561751	      0.07862772
      1.70731707	      0.03455483	      0.03577441	      0.08034113
      1.73170732	      0.03477090	      0.03588609	      0.08212094
      1.75609756	      0.03489084	      0.03594792	      0.08419858
      1.78048780	      0.03506088	      0.03603542	      0.08616344
      1.80487805	      0.03514059	      0.03607635	      0.08748420
      1.82926829	      0.03504257	      0.03602601	      0.08758383
      1.85365854	      0.03489006	      0.03594752	      0.08698512
      1.87804878	      0.03474001	      0.03587014	      0.08560399
      1.90243902	      0.03453421	      0.03576373	      0.08389209
      1.92682927	      0.03422370	      0.03560259	      0.08200314
      1.95121951	      0.03383137	      0.03539794	      0.08043786
      1.97560976	      0.03353695	      0.03524357	      0.08000431
      2.00000000	      0.03359527	      0.03527420	      0.08116781
      2.02439024	      0.03398020	      0.03547571	      0.08297192
      2.04878049	      0.03447569	      0.03573342	      0.08446673
      2.07317073	      0.03484362	      0.03592359	      0.08545070
      2.09756098	      0.03492657	      0.03596633	      0.08659657
      2.12195122	      0.03476098	      0.03588097	      0.08580639
      2.14634146	      0.03434731	      0.03566683	      0.08479749
      2.17073171	      0.03382471	      0.03539445	      0.08348319
      2.19512195	      0.03348193	      0.03521465	      0.08251035
      2.21951220	      0.03340135	      0.03517225	      0.08246096
      2.24390244	      0.03341208	      0.03517790	      0.08336127
      2.26829268	      0.03334981	      0.03514510	      0.08411034
      2.29268293	      0.03322735	      0.03508052	      0.08482971
      2.31707317	      0.03322434	      0.03507893	      0.08540660
      2.34146341	      0.03361084	      0.03528237	      0.08631039
      2.36585366	      0.03442630	      0.03570782	      0.08697643
      2.39024390	      0.03522028	      0.03611723	      0.08764590
      2.41463415	      0.03565473	      0.03633931	      0.08787812
      2.43902439	      0.03602871	      0.03652939	      0.08812007
      2.46341463	      0.03663554	      0.03683574	      0.08846058
      2.48780488	      0.03725297	      0.03714484	      0.08901723
      2.51219512	      0.03773103	      0.03738242	      0.08919149
      2.53658537	      0.03835585	      0.03769068	      0.09000667
      2.56097561	      0.03913915	      0.03807359	      0.09008963
      2.58536585	      0.03959972	      0.03829695	      0.09027414
      2.60975610	      0.03976173	      0.03837521	      0.09211964
      2.63414634	      0.03998963	      0.03848503	      0.09330659
      2.65853659	      0.04014859	      0.03856144	      0.09318185
      2.68292683	      0.04046412	      0.03871268	      0.09251220
      2.70731707	      0.04095602	      0.03894727	      0.09243275
      2.73170732	      0.04126378	      0.03909333	      0.09374184
      2.75609756	      0.04144978	      0.03918134	      0.09644598
      2.78048780	      0.04180652	      0.03934958	      0.10007100
      2.80487805	      0.04178548	      0.03933968	      0.10156684
      2.82926829	      0.04012371	      0.03854949	      0.09647121
      2.85365854	      0.03687028	      0.03695356	      0.09201087
      2.87804878	      0.03319508	      0.03506348	      0.09101516
      2.90243902	      0.03015056	      0.03341687	      0.08955211
      2.92682927	      0.02827564	      0.03236118	      0.08781340
      2.95121951	      0.02732703	      0.03181371	      0.08607267
      2.97560976	      0.02675352	      0.03147810	      0.08399308
      3.00000000	      0.02585917	      0.03094749	      0.08007805
      3.02439024	      0.02466199	      0.03022262	      0.07432078
      3.04878049	      0.02392086	      0.02976504	      0.06731223
      3.07317073	      0.02431217	      0.03000751	      0.06154070
      3.09756098	      0.02525074	      0.03058125	      0.05972122
      3.12195122	      0.02673347	      0.03146631	      0.05621322
      3.14634146	      0.02722657	      0.03175518	      0.05530697
      3.17073171	      0.02520965	      0.03055635	      0.05956943
      3.19512195	      0.02196148	      0.02851996	      0.05708165
      3.21951220	      0.01944009	      0.02683288	      0.05012614
      3.24390244	      0.01670811	      0.02487607	      0.04341368
      3.26829268	      0.01481076	      0.02342107	      0.04412494
      3.29268293	      0.01414909	      0.02289192	      0.04689107
      3.31707317	      0.01472182	      0.02335065	      0.05035286
      3.34146341	      0.01638037	      0.02463088	      0.05307750
      3.36585366	      0.01884898	      0.02642178	      0.05464595
      3.39024390	      0.02168647	      0.02834083	      0.05954795
      3.41463415	      0.02454916	      0.03015341	      0.06684217
      3.43902439	      0.02668417	      0.03143728	      0.07132060
      3.46341463	      0.02737037	      0.03183893	      0.07087491
      3.48780488	      0.02703219	      0.03164162	      0.06809713
      3.51219512	      0.02668996	      0.03144069	      0.06494247
      3.53658537	      0.02658038	      0.03137608	      0.06428682
      3.56097561	      0.02649095	      0.03132326	      0.06513008
      3.58536585	      0.02626533	      0.03118958	      0.06352825
      3.60975610	      0.02618011	      0.03113894	      0.06215891
      3.63414634	      0.02636091	      0.03124628	      0.06169911
      3.65853659	      0.02660818	      0.03139248	      0.06198508
      3.68292683	      0.02668449	      0.03143747	      0.06230498
      3.70731707	      0.02660158	      0.03138859	      0.06233250
      3.73170732	      0.02641401	      0.03127773	      0.06202941
      3.75609756	      0.02630832	      0.03121509	      0.06180585
      3.78048780	      0.02632754	      0.03122650	      0.06170736
      3.80487805	      0.02641851	      0.03128040	      0.06168825
      3.82926829	      0.02639127	      0.03126427	      0.06095944
      3.85365854	      0.02628033	      0.03119848	      0.06066934
      3.87804878	      0.02609718	      0.03108958	      0.05987252
      3.90243902	      0.02574287	      0.03087782	      0.05892279
      3.92682927	      0.02513729	      0.03051247	      0.05839730
      3.95121951	      0.02461375	      0.03019305	      0.05790576
      3.97560976	      0.02432355	      0.03001454	      0.05736450
      4.00000000	      0.02423362	      0.02995900	      0.05704692
      4.02439024	      0.02429432	      0.02999649	      0.05748829
      4.04878049	      0.02448643	      0.03011486	      0.05804005
      4.07317073	      0.02457867	      0.03017153	      0.05905054
      4.09756098	      0.02462316	      0.03019882	      0.05887711
      4.12195122	      0.02456777	      0.03016483	      0.05887375
      4.14634146	      0.02437310	      0.03004509	      0.05900631
      4.17073171	      0.02412423	      0.02989130	      0.06005598
      4.19512195	      0.02411435	      0.02988518	      0.06180189
      4.21951220	      0.02468068	      0.03023407	      0.06433334
      4.24390244	      0.02547458	      0.03071650	      0.06669288
      4.26829268	      0.02640801	      0.03127418	      0.06985701
      4.29268293	      0.02687082	      0.03154704	      0.07146155
      4.31707317	      0.02679550	      0.03150279	      0.07248595
      4.34146341	      0.02658585	      0.03137931	      0.07274761
      4.36585366	      0.02690529	      0.03156726	      0.07278968
      4.39024390	      0.02798776	      0.03219602	      0.07276896
      4.41463415	      0.02951329	      0.03306183	      0.07281962
      4.43902439	      0.03115604	      0.03396951	      0.07264308
      4.46341463	      0.03278747	      0.03484754	      0.07422597
      4.48780488	      0.03414429	      0.03556126	      0.07637975
      4.51219512	      0.03509767	      0.03605432	      0.07687672
      4.53658537	      0.03578818	      0.03640725	      0.07727365
      4.56097561	      0.03679293	      0.03691478	      0.07848614
      4.58536585	      0.03841498	      0.03771971	      0.08069849
      4.60975610	      0.04069535	      0.03882313	      0.08211711
      4.63414634	      0.04343771	      0.04010990	      0.08941119
      4.65853659	      0.04627185	      0.04139773	      0.09495220
      4.68292683	      0.04936484	      0.04275894	      0.10051085
      4.70731707	      0.05190963	      0.04384722	      0.10221455
      4.73170732	      0.05176999	      0.04378821	      0.10107619
      4.75609756	      0.05140737	      0.04363458	      0.09386473
      4.78048780	      0.05380041	      0.04463863	      0.09002822
      4.80487805	      0.05812156	      0.04639666	      0.09129997
      4.82926829	      0.06340402	      0.04845923	      0.09330474
      4.85365854	      0.06708104	      0.04984459	      0.09343335
      4.87804878	      0.06801910	      0.05019189	      0.09159544
      4.90243902	      0.06719318	      0.04988623	      0.08782768
      4.92682927	      0.06570508	      0.04933074	      0.08338558
      4.95121951	      0.06412726	      0.04873483	      0.07990602
      4.97560976	      0.06256422	      0.04813723	      0.07882388
      5.00000000	      0.06022482	      0.04722869	      0.07512246
      5.02439024	      0.05632376	      0.04567346	      0.07417264
      5.04878049	      0.05251658	      0.04410282	      0.07356703
      5.07317073	      0.04960044	      0.04286086	      0.07234241
      5.09756098	      0.04814491	      0.04222730	      0.07140475
      5.12195122	      0.04756409	      0.04197181	      0.07025186
      5.14634146	      0.04761193	      0.04199291	      0.06920590
      5.17073171	      0.04827401	      0.04228388	      0.06902551
      5.19512195	      0.04899894	      0.04260018	      0.06918205
      5.21951220	      0.04962797	      0.04287275	      0.07005530
      5.24390244	      0.05005568	      0.04305710	      0.07155960
      5.26829268	      0.05037016	      0.04319215	      0.07480725
      5.29268293	      0.05011580	      0.04308295	      0.07197237
      5.31707317	      0.04985635	      0.04297129	      0.07180668
      5.34146341	      0.04994663	      0.04301017	      0.07266847
      5.36585366	      0.04939813	      0.04277336	      0.07094236
