Model Marker Errors from IK
version=1
nRows=356
nColumns=4
inDegrees=no
endheader
time	total_squared_error	marker_error_RMS	marker_error_max
      0.00000000	      0.02548618	      0.03072348	      0.06259000
      0.01666667	      0.02458388	      0.03017472	      0.06249840
      0.03333333	      0.02444022	      0.03008643	      0.06153389
      0.05000000	      0.02467484	      0.03023050	      0.06101661
      0.06666667	      0.02500727	      0.03043346	      0.05994602
      0.08333333	      0.02540389	      0.03067385	      0.05906982
      0.10000000	      0.02568271	      0.03084172	      0.05780223
      0.11666667	      0.02584856	      0.03094114	      0.05663899
      0.13333333	      0.02590185	      0.03097302	      0.05598913
      0.15000000	      0.02585102	      0.03094261	      0.05604292
      0.16666667	      0.02572306	      0.03086593	      0.05724844
      0.18333333	      0.02557322	      0.03077590	      0.05928001
      0.20000000	      0.02547240	      0.03071518	      0.06152864
      0.21666667	      0.02536724	      0.03065171	      0.06410780
      0.23333333	      0.02527827	      0.03059791	      0.06595846
      0.25000000	      0.02509143	      0.03048462	      0.06597582
      0.26666667	      0.02480880	      0.03031245	      0.06529582
      0.28333333	      0.02451723	      0.03013379	      0.06432526
      0.30000000	      0.02436500	      0.03004009	      0.06303026
      0.31666667	      0.02432816	      0.03001738	      0.06217185
      0.33333333	      0.02437673	      0.03004733	      0.06131727
      0.35000000	      0.02441778	      0.03007262	      0.06040783
      0.36666667	      0.02447575	      0.03010829	      0.05932853
      0.38333333	      0.02456067	      0.03016048	      0.05806683
      0.40000000	      0.02451228	      0.03013075	      0.05607720
      0.41666667	      0.02440737	      0.03006621	      0.05451733
      0.43333333	      0.02416941	      0.02991928	      0.05322663
      0.45000000	      0.02393240	      0.02977222	      0.05232844
      0.46666667	      0.02372685	      0.02964409	      0.05172289
      0.48333333	      0.02368092	      0.02961538	      0.05175787
      0.50000000	      0.02376884	      0.02967031	      0.05207277
      0.51666667	      0.02391008	      0.02975834	      0.05205632
      0.53333333	      0.02405144	      0.02984618	      0.05184681
      0.55000000	      0.02408904	      0.02986949	      0.05114519
      0.56666667	      0.02403107	      0.02983353	      0.05038639
      0.58333333	      0.02386809	      0.02973220	      0.04959828
      0.60000000	      0.02358229	      0.02955365	      0.04888975
      0.61666667	      0.02326919	      0.02935680	      0.04843255
      0.63333333	      0.02290586	      0.02912671	      0.04844448
      0.65000000	      0.02260205	      0.02893291	      0.04863128
      0.66666667	      0.02232077	      0.02875231	      0.04872883
      0.68333333	      0.02199568	      0.02854216	      0.04836694
      0.70000000	      0.02174381	      0.02837827	      0.04765402
      0.71666667	      0.02152525	      0.02823529	      0.04669191
      0.73333333	      0.02131285	      0.02809564	      0.04673609
      0.75000000	      0.02116336	      0.02799693	      0.04650897
      0.76666667	      0.02108690	      0.02794631	      0.04600072
      0.78333333	      0.02100536	      0.02789223	      0.04516044
      0.80000000	      0.02098546	      0.02787901	      0.04429523
      0.81666667	      0.02094415	      0.02785156	      0.04333814
      0.83333333	      0.02083354	      0.02777792	      0.04252866
      0.85000000	      0.02061458	      0.02763155	      0.04192223
      0.86666667	      0.02037860	      0.02747295	      0.04175157
      0.88333333	      0.02019043	      0.02734582	      0.04176488
      0.90000000	      0.02008885	      0.02727694	      0.04183030
      0.91666667	      0.01998036	      0.02720319	      0.04164082
      0.93333333	      0.01994984	      0.02718240	      0.04158792
      0.95000000	      0.01995349	      0.02718489	      0.04168221
      0.96666667	      0.02003425	      0.02723985	      0.04208317
      0.98333333	      0.02018935	      0.02734509	      0.04279333
      1.00000000	      0.02039632	      0.02748489	      0.04367338
      1.01666667	      0.02060897	      0.02762779	      0.04466748
      1.03333333	      0.02072830	      0.02770767	      0.04552978
      1.05000000	      0.02068571	      0.02767919	      0.04634013
      1.06666667	      0.02054067	      0.02758198	      0.04701728
      1.08333333	      0.02017601	      0.02733605	      0.04749411
      1.10000000	      0.01979947	      0.02707977	      0.04767565
      1.11666667	      0.01941164	      0.02681324	      0.04733960
      1.13333333	      0.01903705	      0.02655327	      0.04660166
      1.15000000	      0.01879329	      0.02638272	      0.04562095
      1.16666667	      0.01870108	      0.02631791	      0.04458494
      1.18333333	      0.01870787	      0.02632269	      0.04404755
      1.20000000	      0.01879742	      0.02638562	      0.04348121
      1.21666667	      0.01886260	      0.02643132	      0.04361213
      1.23333333	      0.01884332	      0.02641781	      0.04549576
      1.25000000	      0.01873549	      0.02634212	      0.04653337
      1.26666667	      0.01854432	      0.02620738	      0.04649913
      1.28333333	      0.01836089	      0.02607744	      0.04575825
      1.30000000	      0.01827115	      0.02601363	      0.04482767
      1.31666667	      0.01821074	      0.02597059	      0.04658975
      1.33333333	      0.01815231	      0.02592890	      0.04802911
      1.35000000	      0.01798471	      0.02580892	      0.04857167
      1.36666667	      0.01773081	      0.02562609	      0.04847552
      1.38333333	      0.01753970	      0.02548761	      0.04795305
      1.40000000	      0.01753155	      0.02548169	      0.04764048
      1.41666667	      0.01776084	      0.02564778	      0.04782973
      1.43333333	      0.01816754	      0.02593978	      0.04822303
      1.45000000	      0.01871012	      0.02632427	      0.04872168
      1.46666667	      0.01933015	      0.02675690	      0.04926223
      1.48333333	      0.01998045	      0.02720325	      0.04964337
      1.50000000	      0.02053194	      0.02757612	      0.04995993
      1.51666667	      0.02080153	      0.02775657	      0.04987039
      1.53333333	      0.02085428	      0.02779174	      0.04964679
      1.55000000	      0.02069398	      0.02768472	      0.04916112
      1.56666667	      0.02045538	      0.02752465	      0.04881302
      1.58333333	      0.02016931	      0.02733151	      0.04869899
      1.60000000	      0.01986775	      0.02712642	      0.04857637
      1.61666667	      0.01960145	      0.02694401	      0.04819878
      1.63333333	      0.01934730	      0.02676876	      0.04715205
      1.65000000	      0.01915612	      0.02663618	      0.04583071
      1.66666667	      0.01903809	      0.02655399	      0.04445414
      1.68333333	      0.01899042	      0.02652072	      0.04341003
      1.70000000	      0.01909484	      0.02659354	      0.04397436
      1.71666667	      0.01920027	      0.02666685	      0.04500607
      1.73333333	      0.01932123	      0.02675072	      0.04631086
      1.75000000	      0.01932157	      0.02675096	      0.04755082
      1.76666667	      0.01914034	      0.02662520	      0.04864030
      1.78333333	      0.01880285	      0.02638943	      0.04935019
      1.80000000	      0.01841870	      0.02611846	      0.04966079
      1.81666667	      0.01807588	      0.02587425	      0.04949039
      1.83333333	      0.01780192	      0.02567743	      0.04907094
      1.85000000	      0.01762177	      0.02554718	      0.04842485
      1.86666667	      0.01753372	      0.02548327	      0.04761012
      1.88333333	      0.01752995	      0.02548053	      0.04723872
      1.90000000	      0.01757401	      0.02551253	      0.04691060
      1.91666667	      0.01765357	      0.02557021	      0.04658663
      1.93333333	      0.01778718	      0.02566680	      0.04649587
      1.95000000	      0.01793562	      0.02577367	      0.04640539
      1.96666667	      0.01816687	      0.02593929	      0.04666232
      1.98333333	      0.01845624	      0.02614507	      0.04724810
      2.00000000	      0.01876782	      0.02636484	      0.04768397
      2.01666667	      0.01903848	      0.02655426	      0.04790098
      2.03333333	      0.01923803	      0.02669306	      0.04747124
      2.05000000	      0.01938798	      0.02679689	      0.04714313
      2.06666667	      0.01946171	      0.02684780	      0.04643880
      2.08333333	      0.01946799	      0.02685213	      0.04532611
      2.10000000	      0.01946455	      0.02684975	      0.04496190
      2.11666667	      0.01945660	      0.02684427	      0.04528956
      2.13333333	      0.01937130	      0.02678536	      0.04502620
      2.15000000	      0.01924458	      0.02669761	      0.04453544
      2.16666667	      0.01910414	      0.02660001	      0.04433328
      2.18333333	      0.01907857	      0.02658221	      0.04436655
      2.20000000	      0.01920846	      0.02667254	      0.04424319
      2.21666667	      0.01942255	      0.02682077	      0.04426206
      2.23333333	      0.01966911	      0.02699047	      0.04534871
      2.25000000	      0.01986698	      0.02712589	      0.04640462
      2.26666667	      0.01992581	      0.02716603	      0.04702397
      2.28333333	      0.01994097	      0.02717636	      0.04738145
      2.30000000	      0.01998464	      0.02720610	      0.04716478
      2.31666667	      0.02011261	      0.02729306	      0.04725930
      2.33333333	      0.02030548	      0.02742362	      0.04685552
      2.35000000	      0.02044376	      0.02751684	      0.04679715
      2.36666667	      0.02058206	      0.02760975	      0.04661570
      2.38333333	      0.02062317	      0.02763732	      0.04657183
      2.40000000	      0.02068462	      0.02767846	      0.04710543
      2.41666667	      0.02068830	      0.02768092	      0.04760296
      2.43333333	      0.02068084	      0.02767593	      0.04860718
      2.45000000	      0.02049835	      0.02755355	      0.04835333
      2.46666667	      0.02026299	      0.02739491	      0.04811670
      2.48333333	      0.02000188	      0.02721783	      0.04722050
      2.50000000	      0.01972729	      0.02703036	      0.04714733
      2.51666667	      0.01946342	      0.02684898	      0.04781069
      2.53333333	      0.01926930	      0.02671475	      0.04833450
      2.55000000	      0.01919715	      0.02666469	      0.04861251
      2.56666667	      0.01915020	      0.02663206	      0.04873151
      2.58333333	      0.01922437	      0.02668359	      0.04872171
      2.60000000	      0.01936372	      0.02678012	      0.04880165
      2.61666667	      0.01953847	      0.02690069	      0.04907425
      2.63333333	      0.01973039	      0.02703248	      0.04973058
      2.65000000	      0.01988269	      0.02713661	      0.05070381
      2.66666667	      0.01998747	      0.02720802	      0.05192569
      2.68333333	      0.02008442	      0.02727393	      0.05313654
      2.70000000	      0.02023560	      0.02737639	      0.05421433
      2.71666667	      0.02047309	      0.02753657	      0.05497769
      2.73333333	      0.02074326	      0.02771766	      0.05531673
      2.75000000	      0.02098889	      0.02788129	      0.05505519
      2.76666667	      0.02112203	      0.02796958	      0.05448168
      2.78333333	      0.02122214	      0.02803578	      0.05329993
      2.80000000	      0.02128196	      0.02807527	      0.05214596
      2.81666667	      0.02142701	      0.02817078	      0.05133116
      2.83333333	      0.02169415	      0.02834585	      0.05074455
      2.85000000	      0.02198705	      0.02853656	      0.05056034
      2.86666667	      0.02229318	      0.02873453	      0.05082494
      2.88333333	      0.02250317	      0.02886954	      0.05104895
      2.90000000	      0.02272416	      0.02901096	      0.05156975
      2.91666667	      0.02295066	      0.02915518	      0.05242555
      2.93333333	      0.02322115	      0.02932648	      0.05338170
      2.95000000	      0.02341215	      0.02944684	      0.05435848
      2.96666667	      0.02344139	      0.02946522	      0.05510343
      2.98333333	      0.02333379	      0.02939753	      0.05542433
      3.00000000	      0.02318108	      0.02930117	      0.05523394
      3.01666667	      0.02300122	      0.02918727	      0.05516823
      3.03333333	      0.02275354	      0.02902971	      0.05479058
      3.05000000	      0.02236890	      0.02878329	      0.05443784
      3.06666667	      0.02195939	      0.02851860	      0.05409386
      3.08333333	      0.02162395	      0.02829994	      0.05382055
      3.10000000	      0.02143535	      0.02817626	      0.05368754
      3.11666667	      0.02134223	      0.02811500	      0.05374393
      3.13333333	      0.02130244	      0.02808878	      0.05396014
      3.15000000	      0.02130375	      0.02808964	      0.05412074
      3.16666667	      0.02131728	      0.02809856	      0.05422038
      3.18333333	      0.02134340	      0.02811577	      0.05423695
      3.20000000	      0.02136641	      0.02813092	      0.05407920
      3.21666667	      0.02129934	      0.02808673	      0.05391613
      3.23333333	      0.02119094	      0.02801517	      0.05372025
      3.25000000	      0.02107860	      0.02794081	      0.05346469
      3.26666667	      0.02104146	      0.02791618	      0.05318091
      3.28333333	      0.02107876	      0.02794092	      0.05269695
      3.30000000	      0.02116980	      0.02800119	      0.05190277
      3.31666667	      0.02122855	      0.02804002	      0.05073632
      3.33333333	      0.02118184	      0.02800915	      0.04922497
      3.35000000	      0.02100306	      0.02789070	      0.04844007
      3.36666667	      0.02068613	      0.02767946	      0.04847310
      3.38333333	      0.02031282	      0.02742857	      0.04844713
      3.40000000	      0.01998901	      0.02720907	      0.04855128
      3.41666667	      0.01975415	      0.02704876	      0.04813763
      3.43333333	      0.01963844	      0.02696942	      0.04754902
      3.45000000	      0.01955416	      0.02691148	      0.04697437
      3.46666667	      0.01941686	      0.02681684	      0.04588649
      3.48333333	      0.01917708	      0.02665075	      0.04482095
      3.50000000	      0.01883453	      0.02641165	      0.04381603
      3.51666667	      0.01842371	      0.02612202	      0.04311378
      3.53333333	      0.01793716	      0.02577478	      0.04265690
      3.55000000	      0.01748245	      0.02544599	      0.04219543
      3.56666667	      0.01710728	      0.02517147	      0.04198520
      3.58333333	      0.01683136	      0.02496765	      0.04152860
      3.60000000	      0.01663188	      0.02481926	      0.04102384
      3.61666667	      0.01658903	      0.02478727	      0.04108024
      3.63333333	      0.01671072	      0.02487802	      0.04133654
      3.65000000	      0.01694214	      0.02504969	      0.04170195
      3.66666667	      0.01728202	      0.02529970	      0.04236524
      3.68333333	      0.01769470	      0.02559998	      0.04307754
      3.70000000	      0.01818553	      0.02595261	      0.04392890
      3.71666667	      0.01874523	      0.02634896	      0.04494123
      3.73333333	      0.01930327	      0.02673828	      0.04608015
      3.75000000	      0.01976160	      0.02705385	      0.04739860
      3.76666667	      0.02004553	      0.02724751	      0.04891302
      3.78333333	      0.02017646	      0.02733636	      0.05053242
      3.80000000	      0.02019268	      0.02734734	      0.05218809
      3.81666667	      0.02014433	      0.02731458	      0.05370048
      3.83333333	      0.02011964	      0.02729783	      0.05467503
      3.85000000	      0.02009047	      0.02727804	      0.05496172
      3.86666667	      0.02007723	      0.02726905	      0.05481376
      3.88333333	      0.01996188	      0.02719060	      0.05431989
      3.90000000	      0.01981873	      0.02709293	      0.05372215
      3.91666667	      0.01959188	      0.02693743	      0.05312341
      3.93333333	      0.01934404	      0.02676651	      0.05264820
      3.95000000	      0.01914424	      0.02662791	      0.05236978
      3.96666667	      0.01895755	      0.02649776	      0.05199008
      3.98333333	      0.01895319	      0.02649472	      0.05175566
      4.00000000	      0.01903079	      0.02654890	      0.05127507
      4.01666667	      0.01922742	      0.02668570	      0.05073104
      4.03333333	      0.01948567	      0.02686432	      0.05012436
      4.05000000	      0.01975317	      0.02704808	      0.04951141
      4.06666667	      0.02005101	      0.02725124	      0.04939830
      4.08333333	      0.02031000	      0.02742667	      0.04965176
      4.10000000	      0.02044522	      0.02751782	      0.04990273
      4.11666667	      0.02047437	      0.02753743	      0.05033938
      4.13333333	      0.02042718	      0.02750568	      0.05068446
      4.15000000	      0.02040284	      0.02748928	      0.05086850
      4.16666667	      0.02041455	      0.02749717	      0.05041112
      4.18333333	      0.02054402	      0.02758423	      0.04969420
      4.20000000	      0.02068957	      0.02768177	      0.04845939
      4.21666667	      0.02082803	      0.02777424	      0.04730598
      4.23333333	      0.02088010	      0.02780894	      0.04610340
      4.25000000	      0.02095279	      0.02785730	      0.04612481
      4.26666667	      0.02095983	      0.02786198	      0.04651441
      4.28333333	      0.02096331	      0.02786429	      0.04677521
      4.30000000	      0.02114783	      0.02798666	      0.04685357
      4.31666667	      0.02138340	      0.02814210	      0.04663712
      4.33333333	      0.02172895	      0.02836857	      0.04615455
      4.35000000	      0.02215028	      0.02864229	      0.04551455
      4.36666667	      0.02256372	      0.02890836	      0.04481045
      4.38333333	      0.02290919	      0.02912882	      0.04419567
      4.40000000	      0.02302375	      0.02920156	      0.04370217
      4.41666667	      0.02297298	      0.02916935	      0.04334077
      4.43333333	      0.02275651	      0.02903160	      0.04314919
      4.45000000	      0.02250308	      0.02886949	      0.04307146
      4.46666667	      0.02218879	      0.02866718	      0.04315182
      4.48333333	      0.02191919	      0.02849249	      0.04359575
      4.50000000	      0.02169403	      0.02834577	      0.04419840
      4.51666667	      0.02146777	      0.02819756	      0.04466120
      4.53333333	      0.02123714	      0.02804569	      0.04479513
      4.55000000	      0.02097272	      0.02787055	      0.04470165
      4.56666667	      0.02076916	      0.02773496	      0.04461055
      4.58333333	      0.02062395	      0.02763784	      0.04445309
      4.60000000	      0.02045497	      0.02752438	      0.04404474
      4.61666667	      0.02059194	      0.02761638	      0.04393631
      4.63333333	      0.02076111	      0.02772958	      0.04379426
      4.65000000	      0.02118360	      0.02801032	      0.04400674
      4.66666667	      0.02169007	      0.02834318	      0.04437207
      4.68333333	      0.02242461	      0.02881911	      0.04534349
      4.70000000	      0.02301681	      0.02919717	      0.04635038
      4.71666667	      0.02339290	      0.02943474	      0.04747306
      4.73333333	      0.02330757	      0.02938100	      0.04811633
      4.75000000	      0.02276304	      0.02903576	      0.04863047
      4.76666667	      0.02188026	      0.02846718	      0.04866465
      4.78333333	      0.02094336	      0.02785103	      0.04817962
      4.80000000	      0.02008696	      0.02727566	      0.04748435
      4.81666667	      0.01933139	      0.02675775	      0.04642546
      4.83333333	      0.01884378	      0.02641813	      0.04472850
      4.85000000	      0.01883994	      0.02641544	      0.04651695
      4.86666667	      0.01940827	      0.02681091	      0.05415895
      4.88333333	      0.02040709	      0.02749215	      0.05909787
      4.90000000	      0.02160075	      0.02828476	      0.06117293
      4.91666667	      0.02279940	      0.02905894	      0.06055553
      4.93333333	      0.02389017	      0.02974595	      0.05832688
      4.95000000	      0.02475032	      0.03027670	      0.05600036
      4.96666667	      0.02536364	      0.03064954	      0.05439598
      4.98333333	      0.02585339	      0.03094403	      0.05345747
      5.00000000	      0.02634573	      0.03123728	      0.05493120
      5.01666667	      0.02662090	      0.03139999	      0.05589996
      5.03333333	      0.02647126	      0.03131161	      0.05541453
      5.05000000	      0.02630894	      0.03121546	      0.05497710
      5.06666667	      0.02608158	      0.03108029	      0.05316830
      5.08333333	      0.02648361	      0.03131892	      0.05331206
      5.10000000	      0.02741881	      0.03186709	      0.05405902
      5.11666667	      0.02879446	      0.03265672	      0.05590299
      5.13333333	      0.02965649	      0.03314194	      0.05750096
      5.15000000	      0.03117272	      0.03397860	      0.05958991
      5.16666667	      0.03300998	      0.03496558	      0.06160842
      5.18333333	      0.03490498	      0.03595521	      0.06374940
      5.20000000	      0.03671128	      0.03687380	      0.06534879
      5.21666667	      0.03805769	      0.03754390	      0.06602743
      5.23333333	      0.03775398	      0.03739379	      0.06589336
      5.25000000	      0.03803626	      0.03753332	      0.06734121
      5.26666667	      0.03810173	      0.03756561	      0.06936216
      5.28333333	      0.03813622	      0.03758261	      0.07181912
      5.30000000	      0.03816709	      0.03759782	      0.07393564
      5.31666667	      0.03805122	      0.03754070	      0.07577725
      5.33333333	      0.03769937	      0.03736673	      0.07641716
      5.35000000	      0.03734488	      0.03719064	      0.07644280
      5.36666667	      0.03748128	      0.03725850	      0.07642683
      5.38333333	      0.03838201	      0.03770353	      0.07668958
      5.40000000	      0.03981104	      0.03839900	      0.07704293
      5.41666667	      0.04119925	      0.03906275	      0.07916054
      5.43333333	      0.04187581	      0.03938218	      0.08295867
      5.45000000	      0.04138148	      0.03914904	      0.08326712
      5.46666667	      0.03966973	      0.03833079	      0.07910594
      5.48333333	      0.03686194	      0.03694938	      0.07260756
      5.50000000	      0.03386519	      0.03541562	      0.06908629
      5.51666667	      0.03097167	      0.03386885	      0.06458306
      5.53333333	      0.02880771	      0.03266423	      0.06166638
      5.55000000	      0.02741072	      0.03186239	      0.06347073
      5.56666667	      0.02688867	      0.03155751	      0.06579623
      5.58333333	      0.02693661	      0.03158563	      0.06914786
      5.60000000	      0.02739639	      0.03185406	      0.07374103
      5.61666667	      0.02848530	      0.03248093	      0.07987717
      5.63333333	      0.03032597	      0.03351394	      0.08700473
      5.65000000	      0.03288720	      0.03490049	      0.09510185
      5.66666667	      0.03602242	      0.03652621	      0.10394401
      5.68333333	      0.03968750	      0.03833937	      0.11291519
      5.70000000	      0.04412621	      0.04042653	      0.12103676
      5.71666667	      0.04977273	      0.04293524	      0.12665886
      5.73333333	      0.05748798	      0.04614308	      0.12984611
      5.75000000	      0.06731754	      0.04993238	      0.13247019
      5.76666667	      0.07919432	      0.05415831	      0.13406600
      5.78333333	      0.09250747	      0.05853377	      0.13351912
      5.80000000	      0.10599822	      0.06265669	      0.13145687
      5.81666667	      0.11825100	      0.06617905	      0.12907651
      5.83333333	      0.12812120	      0.06888563	      0.13591955
      5.85000000	      0.13497495	      0.07070412	      0.14164429
      5.86666667	      0.13884464	      0.07171049	      0.14423125
      5.88333333	      0.13968996	      0.07192845	      0.14501860
      5.90000000	      0.13764183	      0.07139920	      0.14302284
      5.91666667	      0.13326081	      0.07025372	      0.13879642
