Model Marker Errors from IK
version=1
nRows=325
nColumns=4
inDegrees=no
endheader
time	total_squared_error	marker_error_RMS	marker_error_max
      0.00000000	      0.02302898	      0.02920488	      0.06658366
      0.01785714	      0.02197955	      0.02853169	      0.06403331
      0.03571429	      0.02181372	      0.02842386	      0.06155311
      0.05357143	      0.02161156	      0.02829184	      0.06082647
      0.07142857	      0.02151871	      0.02823100	      0.05974593
      0.08928571	      0.02146381	      0.02819496	      0.05950958
      0.10714286	      0.02169683	      0.02834760	      0.05923750
      0.12500000	      0.02222760	      0.02869224	      0.05923394
      0.14285714	      0.02303053	      0.02920587	      0.05948329
      0.16071429	      0.02375684	      0.02966282	      0.06002943
      0.17857143	      0.02443230	      0.03008156	      0.06085764
      0.19642857	      0.02475080	      0.03027699	      0.06188227
      0.21428571	      0.02474506	      0.03027348	      0.06308794
      0.23214286	      0.02458750	      0.03017695	      0.06443045
      0.25000000	      0.02440739	      0.03006621	      0.06580058
      0.26785714	      0.02426792	      0.02998019	      0.06638930
      0.28571429	      0.02414394	      0.02990351	      0.06668874
      0.30357143	      0.02397047	      0.02979589	      0.06668016
      0.32142857	      0.02369859	      0.02962643	      0.06650671
      0.33928571	      0.02327560	      0.02936085	      0.06617246
      0.35714286	      0.02260504	      0.02893482	      0.06549272
      0.37500000	      0.02171459	      0.02835920	      0.06442668
      0.39285714	      0.02085937	      0.02779513	      0.06276823
      0.41071429	      0.02036098	      0.02746107	      0.06066618
      0.42857143	      0.02024998	      0.02738611	      0.05845668
      0.44642857	      0.02024424	      0.02738223	      0.05681042
      0.46428571	      0.02015261	      0.02732020	      0.05567212
      0.48214286	      0.02011832	      0.02729694	      0.05505825
      0.50000000	      0.02011936	      0.02729764	      0.05458095
      0.51785714	      0.02008675	      0.02727552	      0.05409709
      0.53571429	      0.02012855	      0.02730388	      0.05354064
      0.55357143	      0.02027089	      0.02740025	      0.05300934
      0.57142857	      0.02025683	      0.02739075	      0.05262114
      0.58928571	      0.01989302	      0.02714367	      0.05248175
      0.60714286	      0.01930728	      0.02674106	      0.05269950
      0.62500000	      0.01858115	      0.02623339	      0.05315417
      0.64285714	      0.01788447	      0.02573690	      0.05352994
      0.66071429	      0.01729472	      0.02530899	      0.05345023
      0.67857143	      0.01695455	      0.02505885	      0.05257922
      0.69642857	      0.01696136	      0.02506389	      0.05118993
      0.71428571	      0.01816062	      0.02593483	      0.04837503
      0.73214286	      0.02036251	      0.02746210	      0.04615183
      0.75000000	      0.02272732	      0.02901297	      0.04974496
      0.76785714	      0.02413455	      0.02989770	      0.05114484
      0.78571429	      0.02459318	      0.03018043	      0.04879080
      0.80357143	      0.02402115	      0.02982738	      0.04866754
      0.82142857	      0.02328759	      0.02936841	      0.04927207
      0.83928571	      0.02246221	      0.02884326	      0.05019439
      0.85714286	      0.02184968	      0.02844727	      0.05143246
      0.87500000	      0.02164385	      0.02831297	      0.05305934
      0.89285714	      0.02204576	      0.02857463	      0.05477039
      0.91071429	      0.02297202	      0.02916874	      0.05656675
      0.92857143	      0.02403925	      0.02983861	      0.05811648
      0.94642857	      0.02482881	      0.03032467	      0.05913123
      0.96428571	      0.02534781	      0.03063997	      0.05959182
      0.98214286	      0.02534374	      0.03063751	      0.05981511
      1.00000000	      0.02503792	      0.03045210	      0.05967526
      1.01785714	      0.02448796	      0.03011580	      0.05937958
      1.03571429	      0.02376584	      0.02966844	      0.06033882
      1.05357143	      0.02313077	      0.02926936	      0.06101883
      1.07142857	      0.02270002	      0.02899554	      0.06143799
      1.08928571	      0.02252360	      0.02888265	      0.06104124
      1.10714286	      0.02257760	      0.02891725	      0.05995728
      1.12500000	      0.02289774	      0.02912155	      0.05919846
      1.14285714	      0.02352286	      0.02951639	      0.06044089
      1.16071429	      0.02422152	      0.02995152	      0.06179683
      1.17857143	      0.02475937	      0.03028223	      0.06285171
      1.19642857	      0.02498094	      0.03041743	      0.06355224
      1.21428571	      0.02462000	      0.03019688	      0.06378037
      1.23214286	      0.02415077	      0.02990774	      0.06411831
      1.25000000	      0.02372155	      0.02964078	      0.06442963
      1.26785714	      0.02380846	      0.02969503	      0.06482691
      1.28571429	      0.02446601	      0.03010230	      0.06463067
      1.30357143	      0.02524996	      0.03058078	      0.06436508
      1.32142857	      0.02600387	      0.03103395	      0.06352992
      1.33928571	      0.02645350	      0.03130111	      0.06288852
      1.35714286	      0.02655551	      0.03136140	      0.06243101
      1.37500000	      0.02655606	      0.03136172	      0.06195173
      1.39285714	      0.02654294	      0.03135398	      0.06162967
      1.41071429	      0.02651422	      0.03133701	      0.06177647
      1.42857143	      0.02641608	      0.03127896	      0.06227094
      1.44642857	      0.02605241	      0.03106290	      0.06218168
      1.46428571	      0.02551694	      0.03074202	      0.06173218
      1.48214286	      0.02490711	      0.03037245	      0.06119875
      1.50000000	      0.02455060	      0.03015430	      0.06107081
      1.51785714	      0.02460938	      0.03019037	      0.06160980
      1.53571429	      0.02517200	      0.03053353	      0.06295708
      1.55357143	      0.02607512	      0.03107644	      0.06481805
      1.57142857	      0.02678015	      0.03149377	      0.06671528
      1.58928571	      0.02724263	      0.03176454	      0.06846096
      1.60714286	      0.02714601	      0.03170817	      0.06945226
      1.62500000	      0.02659273	      0.03138337	      0.06955201
      1.64285714	      0.02566527	      0.03083124	      0.06917159
      1.66071429	      0.02469408	      0.03024228	      0.06840810
      1.67857143	      0.02375355	      0.02966077	      0.06754271
      1.69642857	      0.02292564	      0.02913928	      0.06660635
      1.71428571	      0.02241746	      0.02881452	      0.06553030
      1.73214286	      0.02231816	      0.02875062	      0.06471164
      1.75000000	      0.02266787	      0.02897500	      0.06426745
      1.76785714	      0.02338246	      0.02942817	      0.06394965
      1.78571429	      0.02421985	      0.02995048	      0.06369593
      1.80357143	      0.02504124	      0.03045412	      0.06346849
      1.82142857	      0.02569528	      0.03084926	      0.06350076
      1.83928571	      0.02605717	      0.03106574	      0.06375521
      1.85714286	      0.02614137	      0.03111589	      0.06407701
      1.87500000	      0.02596321	      0.03100968	      0.06419573
      1.89285714	      0.02564373	      0.03081830	      0.06378457
      1.91071429	      0.02532794	      0.03062796	      0.06298511
      1.92857143	      0.02506342	      0.03046760	      0.06193344
      1.94642857	      0.02519628	      0.03054825	      0.06112540
      1.96428571	      0.02561085	      0.03079854	      0.06078852
      1.98214286	      0.02609367	      0.03108749	      0.06100274
      2.00000000	      0.02642817	      0.03128612	      0.06154105
      2.01785714	      0.02651845	      0.03133951	      0.06221408
      2.03571429	      0.02652101	      0.03134102	      0.06258479
      2.05357143	      0.02638558	      0.03126090	      0.06232154
      2.07142857	      0.02610808	      0.03109608	      0.06111229
      2.08928571	      0.02559249	      0.03078750	      0.05919165
      2.10714286	      0.02497620	      0.03041454	      0.05666771
      2.12500000	      0.02444769	      0.03009103	      0.05489115
      2.14285714	      0.02409920	      0.02987579	      0.05455954
      2.16071429	      0.02393184	      0.02977187	      0.05457867
      2.17857143	      0.02383313	      0.02971041	      0.05481540
      2.19642857	      0.02377536	      0.02967438	      0.05526495
      2.21428571	      0.02374562	      0.02965582	      0.05590233
      2.23214286	      0.02373203	      0.02964733	      0.05620227
      2.25000000	      0.02366238	      0.02960379	      0.05587747
      2.26785714	      0.02358992	      0.02955843	      0.05495427
      2.28571429	      0.02349654	      0.02949987	      0.05321091
      2.30357143	      0.02359084	      0.02955901	      0.05126146
      2.32142857	      0.02377486	      0.02967407	      0.05206630
      2.33928571	      0.02402423	      0.02982928	      0.05329389
      2.35714286	      0.02423043	      0.02995703	      0.05500787
      2.37500000	      0.02434907	      0.03003028	      0.05702114
      2.39285714	      0.02445328	      0.03009447	      0.05928632
      2.41071429	      0.02456912	      0.03016567	      0.06140891
      2.42857143	      0.02466190	      0.03022257	      0.06314440
      2.44642857	      0.02475602	      0.03028019	      0.06430645
      2.46428571	      0.02483995	      0.03033147	      0.06482286
      2.48214286	      0.02502963	      0.03044706	      0.06485309
      2.50000000	      0.02533472	      0.03063206	      0.06469014
      2.51785714	      0.02570373	      0.03085434	      0.06480442
      2.53571429	      0.02613881	      0.03111437	      0.06548710
      2.55357143	      0.02663889	      0.03141060	      0.06683319
      2.57142857	      0.02713891	      0.03170402	      0.06859643
      2.58928571	      0.02751214	      0.03192128	      0.07050223
      2.60714286	      0.02773745	      0.03205172	      0.07187471
      2.62500000	      0.02771343	      0.03203784	      0.07215521
      2.64285714	      0.02750629	      0.03191789	      0.07162110
      2.66071429	      0.02716619	      0.03171995	      0.07055106
      2.67857143	      0.02680117	      0.03150613	      0.06947856
      2.69642857	      0.02653624	      0.03135002	      0.06872092
      2.71428571	      0.02641275	      0.03127699	      0.06813280
      2.73214286	      0.02637877	      0.03125686	      0.06764443
      2.75000000	      0.02631018	      0.03121620	      0.06706699
      2.76785714	      0.02610213	      0.03109253	      0.06648228
      2.78571429	      0.02585013	      0.03094208	      0.06568249
      2.80357143	      0.02553127	      0.03075065	      0.06453334
      2.82142857	      0.02532286	      0.03062488	      0.06319691
      2.83928571	      0.02522224	      0.03056398	      0.06189251
      2.85714286	      0.02517715	      0.03053665	      0.06074205
      2.87500000	      0.02514368	      0.03051635	      0.05967370
      2.89285714	      0.02512032	      0.03050217	      0.05882008
      2.91071429	      0.02508944	      0.03048342	      0.05798861
      2.92857143	      0.02489060	      0.03036238	      0.05741580
      2.94642857	      0.02446100	      0.03009922	      0.05709917
      2.96428571	      0.02389649	      0.02974987	      0.05701843
      2.98214286	      0.02339996	      0.02943918	      0.05731954
      3.00000000	      0.02309597	      0.02924733	      0.05772530
      3.01785714	      0.02297631	      0.02917147	      0.05817948
      3.03571429	      0.02289206	      0.02911793	      0.05840373
      3.05357143	      0.02278694	      0.02905100	      0.05869877
      3.07142857	      0.02261679	      0.02894233	      0.05909922
      3.08928571	      0.02241061	      0.02881011	      0.05954743
      3.10714286	      0.02213166	      0.02863025	      0.06013880
      3.12500000	      0.02174198	      0.02837708	      0.06088292
      3.14285714	      0.02146986	      0.02819893	      0.06199945
      3.16071429	      0.02113512	      0.02797825	      0.06311570
      3.17857143	      0.02135070	      0.02812057	      0.06491401
      3.19642857	      0.02151383	      0.02822780	      0.06623336
      3.21428571	      0.02204422	      0.02857363	      0.06782032
      3.23214286	      0.02242899	      0.02882193	      0.06878392
      3.25000000	      0.02295285	      0.02915657	      0.06974840
      3.26785714	      0.02311946	      0.02926220	      0.06988988
      3.28571429	      0.02322452	      0.02932861	      0.06981594
      3.30357143	      0.02293025	      0.02914221	      0.06933557
      3.32142857	      0.02259300	      0.02892711	      0.06894846
      3.33928571	      0.02227540	      0.02872307	      0.06872955
      3.35714286	      0.02203866	      0.02857003	      0.06879805
      3.37500000	      0.02189216	      0.02847491	      0.06876710
      3.39285714	      0.02182582	      0.02843174	      0.06861624
      3.41071429	      0.02185406	      0.02845013	      0.06817741
      3.42857143	      0.02198737	      0.02853677	      0.06748559
      3.44642857	      0.02222518	      0.02869068	      0.06673633
      3.46428571	      0.02242339	      0.02881832	      0.06567647
      3.48214286	      0.02253820	      0.02889201	      0.06460424
      3.50000000	      0.02252066	      0.02888076	      0.06350974
      3.51785714	      0.02238990	      0.02879680	      0.06241664
      3.53571429	      0.02215447	      0.02864500	      0.06152372
      3.55357143	      0.02182281	      0.02842977	      0.06083201
      3.57142857	      0.02145195	      0.02818717	      0.06038456
      3.58928571	      0.02105552	      0.02792551	      0.06017753
      3.60714286	      0.02059299	      0.02761708	      0.06008633
      3.62500000	      0.02025368	      0.02738862	      0.06006999
      3.64285714	      0.01987167	      0.02712909	      0.05943726
      3.66071429	      0.01950936	      0.02688064	      0.05823719
      3.67857143	      0.01921684	      0.02667836	      0.05683278
      3.69642857	      0.01907584	      0.02658030	      0.05563432
      3.71428571	      0.01894485	      0.02648889	      0.05478295
      3.73214286	      0.01902822	      0.02654711	      0.05476149
      3.75000000	      0.01942824	      0.02682470	      0.05552849
      3.76785714	      0.01945086	      0.02684031	      0.05574886
      3.78571429	      0.01967487	      0.02699442	      0.05556337
      3.80357143	      0.01964364	      0.02697299	      0.05470365
      3.82142857	      0.01951892	      0.02688723	      0.05376540
      3.83928571	      0.01953581	      0.02689886	      0.05357693
      3.85714286	      0.01933338	      0.02675913	      0.05383319
      3.87500000	      0.01929499	      0.02673255	      0.05484005
      3.89285714	      0.01923191	      0.02668882	      0.05613200
      3.91071429	      0.01913701	      0.02662289	      0.05737350
      3.92857143	      0.01942687	      0.02682375	      0.05889046
      3.94642857	      0.01916831	      0.02664465	      0.05934681
      3.96428571	      0.01935501	      0.02677410	      0.05997650
      3.98214286	      0.01961925	      0.02695624	      0.06048417
      4.00000000	      0.01982940	      0.02710023	      0.06090881
      4.01785714	      0.01989765	      0.02714682	      0.06132992
      4.03571429	      0.01978373	      0.02706900	      0.06146612
      4.05357143	      0.01952503	      0.02689143	      0.06099780
      4.07142857	      0.01914565	      0.02662889	      0.05982321
      4.08928571	      0.01869767	      0.02631552	      0.05824251
      4.10714286	      0.01827526	      0.02601656	      0.05638625
      4.12500000	      0.01797442	      0.02580154	      0.05458502
      4.14285714	      0.01791551	      0.02575922	      0.05295275
      4.16071429	      0.01782614	      0.02569489	      0.05100282
      4.17857143	      0.01814918	      0.02592666	      0.04965456
      4.19642857	      0.01802988	      0.02584131	      0.04792051
      4.21428571	      0.01819959	      0.02596265	      0.04722774
      4.23214286	      0.01843369	      0.02612909	      0.04780524
      4.25000000	      0.01834444	      0.02606576	      0.04893547
      4.26785714	      0.01814722	      0.02592526	      0.05116656
      4.28571429	      0.01804628	      0.02585306	      0.05352529
      4.30357143	      0.01799638	      0.02581729	      0.05554689
      4.32142857	      0.01801710	      0.02583215	      0.05717683
      4.33928571	      0.01805741	      0.02586103	      0.05871255
      4.35714286	      0.01824092	      0.02599211	      0.06006269
      4.37500000	      0.01851619	      0.02618749	      0.06125671
      4.39285714	      0.01878593	      0.02637755	      0.06206627
      4.41071429	      0.01912746	      0.02661624	      0.06252886
      4.42857143	      0.01946059	      0.02684702	      0.06284706
      4.44642857	      0.01979237	      0.02707491	      0.06312683
      4.46428571	      0.02011133	      0.02729220	      0.06327703
      4.48214286	      0.02042802	      0.02750624	      0.06300205
      4.50000000	      0.02082842	      0.02777450	      0.06274247
      4.51785714	      0.02088819	      0.02781433	      0.06190055
      4.53571429	      0.02105611	      0.02792590	      0.06117386
      4.55357143	      0.02091494	      0.02783213	      0.05992984
      4.57142857	      0.02073748	      0.02771380	      0.05851643
      4.58928571	      0.02046722	      0.02753262	      0.05712587
      4.60714286	      0.02013030	      0.02730507	      0.05619634
      4.62500000	      0.01978592	      0.02707050	      0.05585426
      4.64285714	      0.01952744	      0.02689310	      0.05600227
      4.66071429	      0.01937366	      0.02678699	      0.05657828
      4.67857143	      0.01922503	      0.02668404	      0.05706098
      4.69642857	      0.01913727	      0.02662307	      0.05774083
      4.71428571	      0.01910472	      0.02660042	      0.05846058
      4.73214286	      0.01917052	      0.02664619	      0.05926796
      4.75000000	      0.01930192	      0.02673735	      0.05964040
      4.76785714	      0.01940883	      0.02681130	      0.05958301
      4.78571429	      0.01950538	      0.02687790	      0.05918302
      4.80357143	      0.01979523	      0.02707686	      0.05862965
      4.82142857	      0.01998959	      0.02720947	      0.05749000
      4.83928571	      0.02024447	      0.02738239	      0.05651669
      4.85714286	      0.02057515	      0.02760512	      0.05552454
      4.87500000	      0.02086599	      0.02779954	      0.05453373
      4.89285714	      0.02121737	      0.02803263	      0.05351832
      4.91071429	      0.02147571	      0.02820278	      0.05202851
      4.92857143	      0.02192598	      0.02849690	      0.05079432
      4.94642857	      0.02240331	      0.02880542	      0.05083912
      4.96428571	      0.02274826	      0.02902633	      0.05065777
      4.98214286	      0.02288245	      0.02911182	      0.05001305
      5.00000000	      0.02167063	      0.02833048	      0.05074951
      5.01785714	      0.02146726	      0.02819723	      0.05209387
      5.03571429	      0.02127370	      0.02806982	      0.05394143
      5.05357143	      0.02116931	      0.02800087	      0.05581375
      5.07142857	      0.02106899	      0.02793444	      0.05728312
      5.08928571	      0.02088584	      0.02781276	      0.05795466
      5.10714286	      0.02066583	      0.02766588	      0.05776165
      5.12500000	      0.02027332	      0.02740189	      0.05663678
      5.14285714	      0.01964251	      0.02697221	      0.05467053
      5.16071429	      0.01899602	      0.02652464	      0.05205066
      5.17857143	      0.01857179	      0.02622678	      0.04920113
      5.19642857	      0.01854708	      0.02620933	      0.04660143
      5.21428571	      0.01903483	      0.02655171	      0.04477272
      5.23214286	      0.02004161	      0.02724485	      0.04374878
      5.25000000	      0.02138248	      0.02814149	      0.04545213
      5.26785714	      0.02291724	      0.02913394	      0.04762694
      5.28571429	      0.02451713	      0.03013373	      0.04987472
      5.30357143	      0.02598726	      0.03102404	      0.05143873
      5.32142857	      0.02709710	      0.03167959	      0.05256501
      5.33928571	      0.02623911	      0.03117401	      0.05373175
      5.35714286	      0.02631437	      0.03121868	      0.05466616
      5.37500000	      0.02616615	      0.03113064	      0.05560836
      5.39285714	      0.02603139	      0.03105037	      0.05679514
      5.41071429	      0.02615217	      0.03112232	      0.05804547
      5.42857143	      0.02670800	      0.03145131	      0.05939033
      5.44642857	      0.02776809	      0.03206942	      0.06081042
      5.46428571	      0.02920592	      0.03288922	      0.06214613
      5.48214286	      0.03070185	      0.03372100	      0.06503438
      5.50000000	      0.03202283	      0.03443880	      0.07105203
      5.51785714	      0.03309138	      0.03500866	      0.07530038
      5.53571429	      0.03393900	      0.03545420	      0.07768153
      5.55357143	      0.03462288	      0.03580962	      0.07832029
      5.57142857	      0.03528421	      0.03615000	      0.07762940
      5.58928571	      0.03590754	      0.03646792	      0.07606391
      5.60714286	      0.03643370	      0.03673413	      0.07399379
      5.62500000	      0.03663736	      0.03683665	      0.07128303
      5.64285714	      0.03674606	      0.03689126	      0.06829300
      5.66071429	      0.02931108	      0.03294838	      0.06600503
      5.67857143	      0.02966775	      0.03314823	      0.06784777
      5.69642857	      0.03030051	      0.03349987	      0.06940244
      5.71428571	      0.03096646	      0.03386600	      0.06855055
      5.73214286	      0.03157982	      0.03419975	      0.06825615
      5.75000000	      0.03205893	      0.03445821	      0.06633636
      5.76785714	      0.03234869	      0.03461358	      0.06422677
      5.78571429	      0.03242859	      0.03465630	      0.06405440
