Coordinates
version=1
nRows=142
nColumns=63
inDegrees=yes

Units are S.I. units (second, meters, Newtons, ...)
If the header above contains a line with 'inDegrees', this indicates whether rotational values are in degrees (yes) or radians (no).

endheader
time	pelvis_tilt	pelvis_list	pelvis_rotation	pelvis_tx	pelvis_ty	pelvis_tz	hip_flexion_r	hip_adduction_r	hip_rotation_r	knee_angle_r	knee_angle_r_beta	ankle_angle_r	subtalar_angle_r	mtp_angle_r	hip_flexion_l	hip_adduction_l	hip_rotation_l	knee_angle_l	knee_angle_l_beta	ankle_angle_l	subtalar_angle_l	mtp_angle_l	L5_S1_Flex_Ext	L5_S1_Lat_Bending	L5_S1_axial_rotation	L4_L5_Flex_Ext	L4_L5_Lat_Bending	L4_L5_axial_rotation	L3_L4_Flex_Ext	L3_L4_Lat_Bending	L3_L4_axial_rotation	L2_L3_Flex_Ext	L2_L3_Lat_Bending	L2_L3_axial_rotation	L1_L2_Flex_Ext	L1_L2_Lat_Bending	L1_L2_axial_rotation	L1_T12_Flex_Ext	L1_T12_Lat_Bending	L1_T12_axial_rotation	Abs_r3	Abs_r2	Abs_r1	Abs_t1	Abs_t2	neck_flexion	neck_bending	neck_rotation	arm_flex_r	arm_add_r	arm_rot_r	elbow_flex_r	pro_sup_r	wrist_flex_r	wrist_dev_r	arm_flex_l	arm_add_l	arm_rot_l	elbow_flex_l	pro_sup_l	wrist_flex_l	wrist_dev_l
0.000000	8.120374	-3.926512	93.402510	0.440586	0.661187	0.790398	14.148533	5.822634	-2.923615	11.156171	0.194712	31.964161	-8.538689	0.000000	9.365121	-3.072017	21.413819	0.870184	0.015188	24.966373	-16.265371	0.000000	0.668287	0.525800	-0.451912	1.241076	0.699314	-0.480157	1.097929	1.278430	-0.480157	0.763786	1.278430	-0.395423	0.620572	1.072211	-0.367179	0.381859	0.814464	-0.338934	4.773510	5.947955	-2.513399	0.000000	0.000000	28.331842	0.063860	-7.166124	10.614432	-10.752165	72.418980	36.807825	47.540612	7.190259	2.358052	11.135209	-6.471869	76.317486	38.514695	67.966329	-17.353479	-9.644174
0.020408	7.968702	-3.785005	92.932548	0.440294	0.660412	0.788930	15.076307	5.971587	-1.070352	13.036868	0.227536	33.758325	-10.108721	0.000000	8.980979	-2.938437	20.384866	0.907332	0.015836	25.945530	-15.338860	0.000000	0.652282	0.506122	-0.328055	1.211352	0.673142	-0.348558	1.071634	1.230584	-0.348558	0.745493	1.230584	-0.287048	0.605709	1.032083	-0.266545	0.372714	0.783982	-0.246041	4.659183	5.725350	-1.824543	0.000000	0.000000	28.321096	-0.096326	-8.388414	11.474129	-10.674873	76.958036	36.175762	40.770352	7.073549	1.772364	10.569591	-6.016962	74.383625	38.136212	69.742779	-15.202350	-8.920916
0.040816	7.868145	-3.635075	92.633366	0.439847	0.659835	0.787638	15.707389	6.095419	0.427993	14.395125	0.251242	35.155222	-11.426750	0.000000	8.645944	-2.841087	19.672686	0.944570	0.016486	26.755683	-14.594694	0.000000	0.634721	0.491721	-0.235448	1.178740	0.653989	-0.250163	1.042783	1.195570	-0.250163	0.725423	1.195570	-0.206017	0.589402	1.002717	-0.191301	0.362680	0.761675	-0.176586	4.533748	5.562443	-1.309489	0.000000	0.000000	28.310236	-0.223797	-9.418788	12.191823	-10.636328	80.670033	35.711522	35.337897	6.977268	1.251793	10.183002	-5.623118	73.078222	37.794482	71.142765	-13.733533	-8.344220
0.061224	7.813771	-3.479547	92.488725	0.439265	0.659437	0.786522	16.074518	6.195818	1.598814	15.284713	0.266769	36.191257	-12.512160	0.000000	8.358572	-2.776101	19.244554	0.982724	0.017152	27.411283	-14.015350	0.000000	0.615960	0.482028	-0.171081	1.143899	0.641097	-0.181774	1.011960	1.172002	-0.181774	0.703980	1.172002	-0.149696	0.571980	0.982951	-0.139004	0.351959	0.746661	-0.128311	4.399739	5.452795	-0.951504	0.000000	0.000000	28.299404	-0.322251	-10.279472	12.781654	-10.632010	83.624636	35.398749	31.124190	6.898401	0.794464	9.956016	-5.289205	72.321208	37.490586	72.214184	-12.865892	-7.905121
0.081633	7.800643	-3.321246	92.482388	0.438567	0.659198	0.785578	16.210432	6.274470	2.469504	15.759401	0.275053	36.902832	-13.384336	0.000000	8.117417	-2.739613	19.067749	1.022619	0.017848	27.926780	-13.583306	0.000000	0.596353	0.476473	-0.131948	1.107487	0.633710	-0.140194	0.979748	1.158498	-0.140194	0.681572	1.158498	-0.115454	0.553773	0.971625	-0.107207	0.340756	0.738057	-0.098961	4.259689	5.389963	-0.733852	0.000000	0.000000	28.288744	-0.395389	-10.992689	13.257758	-10.657402	85.891510	35.221086	28.010176	6.833933	0.398505	9.869209	-5.014090	72.032511	37.225609	73.004935	-12.518296	-7.594654
0.102041	7.823827	-3.162998	92.598117	0.437774	0.659100	0.784806	16.147868	6.333065	3.067457	15.872960	0.277035	37.326352	-14.062661	0.000000	7.921035	-2.727757	19.109548	1.065081	0.018589	28.316622	-13.281038	0.000000	0.576255	0.474488	-0.115037	1.070163	0.631070	-0.122227	0.946729	1.153671	-0.122227	0.658602	1.153671	-0.100657	0.535110	0.967577	-0.093468	0.329272	0.734982	-0.086278	4.116132	5.367507	-0.639801	0.000000	0.000000	28.278397	-0.446909	-11.580665	13.634273	-10.707988	87.540321	35.162177	25.876799	6.780849	0.062040	9.903155	-4.796639	72.132061	37.000634	73.562914	-12.609609	-7.403854
0.122449	7.878388	-3.007629	92.819673	0.436906	0.659121	0.784204	15.919565	6.373290	3.420066	15.679159	0.273653	37.498221	-14.566518	0.000000	7.767980	-2.736668	19.337227	1.110936	0.019389	28.595260	-13.091024	0.000000	0.556021	0.475503	-0.117341	1.032586	0.632419	-0.124675	0.913487	1.156138	-0.124675	0.635476	1.156138	-0.102673	0.516321	0.969646	-0.095340	0.317710	0.736554	-0.088006	3.971601	5.378986	-0.652616	0.000000	0.000000	28.268507	-0.480513	-12.065624	13.925338	-10.779248	88.640734	35.205664	24.605005	6.736133	-0.216803	10.038429	-4.635720	72.539788	36.816743	73.936020	-13.058699	-7.323757
0.142857	7.959390	-2.857965	93.130817	0.435983	0.659243	0.783769	15.558259	6.396831	3.554723	15.231768	0.265844	37.454843	-14.915293	0.000000	7.656808	-2.762479	19.718064	1.161009	0.020263	28.777142	-12.995741	0.000000	0.536005	0.478948	-0.135851	0.995415	0.637001	-0.144342	0.880602	1.164515	-0.144342	0.612600	1.164515	-0.118870	0.497734	0.976671	-0.110379	0.306273	0.741891	-0.101888	3.828630	5.417958	-0.755563	0.000000	0.000000	28.259216	-0.499898	-12.469792	14.145090	-10.866667	89.262414	35.335191	24.075736	6.696770	-0.439899	10.255605	-4.530200	73.175622	36.675021	74.172151	-13.784432	-7.345397
0.163265	8.061900	-2.716831	93.515312	0.435026	0.659446	0.783500	15.096690	6.405377	3.498823	14.584557	0.254549	37.232622	-15.128368	0.000000	7.586074	-2.801324	20.219335	1.216127	0.021225	28.876718	-12.977666	0.000000	0.516562	0.484254	-0.167558	0.959307	0.644058	-0.178030	0.848660	1.177416	-0.178030	0.590379	1.177416	-0.146613	0.479680	0.987492	-0.136141	0.295164	0.750110	-0.125669	3.689751	5.477983	-0.931907	0.000000	0.000000	28.250667	-0.508765	-12.815394	14.307667	-10.965725	89.475026	35.534402	24.169939	6.659746	-0.609121	10.535258	-4.478946	73.959491	36.576550	74.319203	-14.705673	-7.459810
0.183673	8.180981	-2.587053	93.956920	0.434054	0.659710	0.783395	14.567595	6.400615	3.279760	13.791295	0.240704	36.867961	-15.225127	0.000000	7.554333	-2.849337	20.808318	1.277114	0.022290	28.908438	-13.019276	0.000000	0.498047	0.490852	-0.209453	0.924923	0.652833	-0.222544	0.818241	1.193458	-0.222544	0.569218	1.193458	-0.183272	0.462486	1.000946	-0.170181	0.284584	0.760330	-0.157090	3.557499	5.552618	-1.164916	0.000000	0.000000	28.243001	-0.510813	-13.124653	14.427207	-11.071907	89.348236	35.786940	24.768558	6.622044	-0.726344	10.857962	-4.480825	74.811326	36.522413	74.425075	-15.741291	-7.658030
0.204082	8.311700	-2.471457	94.439401	0.433088	0.660017	0.783453	14.003711	6.384233	2.924925	12.905753	0.225248	36.397264	-15.224955	0.000000	7.560139	-2.902653	21.452290	1.344796	0.023471	28.886752	-13.103047	0.000000	0.480814	0.498172	-0.258528	0.892920	0.662569	-0.274686	0.789929	1.211256	-0.274686	0.549522	1.211256	-0.226212	0.446484	1.015873	-0.210054	0.274737	0.771669	-0.193896	3.434407	5.635424	-1.437854	0.000000	0.000000	28.236363	-0.509742	-13.419796	14.517847	-11.180693	88.951708	36.076448	25.752536	6.580650	-0.793440	11.204292	-4.534704	75.651057	36.513695	74.537664	-16.810149	-7.931093
0.224490	8.431188	-2.365605	94.968538	0.432196	0.660364	0.783821	13.477658	6.349990	2.477427	12.060503	0.210495	35.861310	-15.151377	0.000000	7.608553	-2.933965	22.080926	1.429423	0.024948	28.854029	-13.174996	0.000000	0.458942	0.502433	-0.305743	0.852302	0.668236	-0.324851	0.753997	1.221615	-0.324851	0.524525	1.221615	-0.267525	0.426174	1.024561	-0.248416	0.262240	0.778269	-0.229307	3.278180	5.683622	-1.700448	0.000000	0.000000	28.227240	-0.435981	-13.740409	14.602619	-11.330532	88.211760	36.481073	27.126405	6.572058	-0.798668	11.572323	-4.710539	76.314276	36.651390	75.155816	-17.981231	-8.381529
0.244898	8.531875	-2.309511	95.463310	0.431465	0.660666	0.784340	13.032750	6.287011	1.924277	11.272024	0.196734	35.350687	-14.986069	0.000000	7.711248	-2.948099	22.672680	1.526555	0.026643	28.796578	-13.261433	0.000000	0.444287	0.501981	-0.346507	0.825086	0.667634	-0.368164	0.729919	1.220516	-0.368164	0.507776	1.220516	-0.303194	0.412565	1.023639	-0.281537	0.253866	0.777568	-0.259880	3.173499	5.678506	-1.927170	0.000000	0.000000	28.222031	-0.363792	-14.274151	14.661545	-11.433852	87.247698	36.850098	28.563197	6.629787	-0.604041	11.888583	-4.961888	76.745386	36.840381	75.802421	-18.807177	-9.019483
0.265306	8.621085	-2.289151	95.912407	0.430866	0.660926	0.785017	12.680539	6.221648	1.416265	10.580898	0.184672	34.848694	-14.908795	0.000000	7.853029	-2.951056	23.161083	1.636680	0.028565	28.744952	-13.297835	0.000000	0.434928	0.499358	-0.382531	0.807704	0.664147	-0.406439	0.714542	1.214140	-0.406439	0.497079	1.214140	-0.334715	0.403874	1.018292	-0.310806	0.248518	0.773506	-0.286898	3.106644	5.648842	-2.127523	0.000000	0.000000	28.220899	-0.342049	-14.949986	14.815089	-11.508711	86.563942	37.184820	29.472223	6.629349	-0.398096	12.144199	-5.255836	76.833294	37.057354	76.677691	-19.150896	-9.742197
0.285714	8.709153	-2.310783	96.306686	0.430371	0.661120	0.785832	12.449013	6.164382	0.934260	10.020222	0.174886	34.399642	-14.852281	0.000000	8.038884	-2.952546	23.530190	1.755409	0.030638	28.694704	-13.290739	0.000000	0.432544	0.497206	-0.413113	0.803278	0.661284	-0.438932	0.710627	1.208907	-0.438932	0.494355	1.208907	-0.361473	0.401660	1.013903	-0.335654	0.247156	0.770172	-0.309834	3.089619	5.624497	-2.297608	0.000000	0.000000	28.224154	-0.375740	-15.650605	15.035743	-11.546913	86.115652	37.447604	29.992391	6.580102	-0.201720	12.302817	-5.554965	76.438036	37.303406	77.736151	-18.938090	-10.403380
0.306122	8.813462	-2.372820	96.664505	0.429888	0.661239	0.786737	12.331722	6.122631	0.421250	9.571499	0.167054	34.036903	-14.727127	0.000000	8.265240	-2.964631	23.811551	1.873242	0.032694	28.627773	-13.283572	0.000000	0.438439	0.498837	-0.439874	0.814225	0.663453	-0.467367	0.720312	1.212873	-0.467367	0.501092	1.212873	-0.384890	0.407135	1.017229	-0.357398	0.250524	0.772699	-0.329906	3.131727	5.642946	-2.446449	0.000000	0.000000	28.230852	-0.481457	-16.290246	15.256311	-11.556131	85.748471	37.602953	30.290514	6.472958	0.009205	12.376970	-5.827131	75.602487	37.573129	78.690557	-18.152220	-10.897102
0.326531	8.942861	-2.451512	96.957348	0.429383	0.661289	0.787714	12.344158	6.116402	-0.058768	9.313415	0.162550	33.792912	-14.566944	0.000000	8.506480	-2.999148	23.971965	1.994954	0.034819	28.581156	-13.242750	0.000000	0.449193	0.506669	-0.458831	0.834197	0.673870	-0.487507	0.737980	1.231915	-0.487507	0.513383	1.231915	-0.401477	0.417121	1.033200	-0.372800	0.256669	0.784830	-0.344123	3.208544	5.731542	-2.551878	0.000000	0.000000	28.241103	-0.684712	-16.830079	15.504719	-11.543977	85.612399	37.625395	30.352006	6.288116	0.093581	12.405899	-6.034342	74.399778	37.824121	79.524016	-16.870725	-11.091412
0.346939	9.104133	-2.542559	97.196392	0.428805	0.661257	0.788718	12.491249	6.146021	-0.537119	9.265624	0.161716	33.691067	-14.325837	0.000000	8.755277	-3.063284	24.043372	2.115241	0.036918	28.551450	-13.186266	0.000000	0.464709	0.521750	-0.476706	0.863011	0.693927	-0.506500	0.763470	1.268582	-0.506500	0.531116	1.268582	-0.417118	0.431529	1.063952	-0.387323	0.265535	0.808190	-0.357529	3.319369	5.902137	-2.651295	0.000000	0.000000	28.253682	-0.998256	-17.232697	15.765717	-11.508848	85.664938	37.497155	30.222120	6.039365	0.104235	12.352902	-6.163772	72.759285	38.034910	80.086181	-15.156622	-10.961016
0.367347	9.292921	-2.594233	97.396300	0.428093	0.661209	0.789720	12.710147	6.208580	-1.008704	9.420699	0.164422	33.722831	-14.038732	0.000000	8.954202	-3.154596	24.071639	2.227665	0.038880	28.558714	-13.137882	0.000000	0.476078	0.543387	-0.500668	0.884125	0.722705	-0.531959	0.782149	1.321192	-0.531959	0.544110	1.321192	-0.438084	0.442086	1.108076	-0.406792	0.272031	0.841707	-0.375501	3.400581	6.146908	-2.784563	0.000000	0.000000	28.267190	-1.369875	-17.481846	16.145464	-11.428404	86.374042	37.200941	29.414374	5.714361	-0.132098	12.213993	-6.198191	70.602093	38.155588	80.572517	-13.136006	-10.491730
0.387755	9.511808	-2.616769	97.569170	0.427242	0.661134	0.790659	13.006731	6.300418	-1.482894	9.777886	0.170656	33.891721	-13.700700	0.000000	9.112850	-3.277233	24.029715	2.324931	0.040578	28.634805	-13.006786	0.000000	0.485708	0.570770	-0.525826	0.902008	0.759124	-0.558690	0.797970	1.387770	-0.558690	0.555116	1.387770	-0.460098	0.451028	1.163914	-0.427234	0.277534	0.884122	-0.394370	3.469363	6.456662	-2.924488	0.000000	0.000000	28.281787	-1.830332	-17.641340	16.495139	-11.349696	87.081796	36.763916	28.736950	5.255256	-0.371445	12.066170	-6.143532	68.395420	38.092989	80.597427	-11.040597	-9.824310
0.408163	9.739814	-2.612846	97.718011	0.426265	0.661037	0.791521	13.377663	6.391751	-2.020263	10.330522	0.180302	34.227492	-13.227156	0.000000	9.239288	-3.411055	23.814145	2.419782	0.042233	28.818898	-12.630953	0.000000	0.493657	0.600452	-0.555048	0.916771	0.798601	-0.589738	0.811029	1.459938	-0.589738	0.564201	1.459938	-0.485667	0.458410	1.224441	-0.450976	0.282076	0.930100	-0.416286	3.526144	6.792429	-3.087008	0.000000	0.000000	28.298976	-2.376102	-17.754336	16.914441	-11.238042	88.265293	36.146133	27.820305	4.548718	-0.735553	11.955599	-6.013148	66.481705	37.738004	79.929052	-9.057694	-9.212510
0.428571	9.968909	-2.557806	97.859315	0.425168	0.660964	0.792190	13.752381	6.493109	-2.460095	11.005707	0.192086	34.648400	-12.861924	0.000000	9.287609	-3.553014	23.675556	2.483702	0.043349	29.023753	-12.326178	0.000000	0.496358	0.630450	-0.591680	0.921787	0.838498	-0.628660	0.815467	1.532875	-0.628660	0.567288	1.532875	-0.517720	0.460918	1.285613	-0.480740	0.283619	0.976567	-0.443760	3.545437	7.131773	-3.290744	0.000000	0.000000	28.329474	-2.943296	-17.837096	17.307909	-11.130744	89.423593	35.431204	27.456384	3.545003	-1.054386	11.854341	-5.823139	64.696823	37.133031	78.724400	-7.248133	-8.525013
0.448980	10.189320	-2.422934	98.041615	0.423905	0.660990	0.792607	14.057318	6.588488	-2.913806	11.728112	0.204694	35.137205	-12.517570	0.000000	9.232688	-3.701721	23.532241	2.522709	0.044030	29.273423	-11.901511	0.000000	0.490512	0.659809	-0.645869	0.910931	0.877546	-0.686236	0.805863	1.604260	-0.686236	0.560607	1.604260	-0.565135	0.455490	1.345483	-0.524769	0.280279	1.022045	-0.484402	3.503682	7.463896	-3.592130	0.000000	0.000000	28.383138	-3.495088	-17.847963	17.732769	-11.021656	90.838853	34.577636	27.355510	2.108436	-1.454254	11.841009	-5.612916	63.526648	36.165791	76.658580	-5.764316	-8.019376
0.469388	10.392663	-2.198583	98.283173	0.422475	0.661147	0.792682	14.237281	6.677012	-3.349628	12.423792	0.216836	35.638499	-12.259493	0.000000	9.059158	-3.853312	23.482403	2.532180	0.044195	29.529346	-11.454026	0.000000	0.474841	0.686688	-0.717456	0.881827	0.913295	-0.762297	0.780116	1.669614	-0.762297	0.542695	1.669614	-0.627774	0.440937	1.400294	-0.582933	0.271324	1.063680	-0.538092	3.391739	7.767954	-3.990275	0.000000	0.000000	28.465365	-4.005193	-17.864045	18.073080	-10.945364	91.968204	33.674892	27.994728	0.383923	-1.823563	11.829808	-5.405524	62.449766	34.940984	74.521232	-4.666889	-7.541017
0.489796	10.571528	-1.882904	98.556530	0.420937	0.661470	0.792418	14.289636	6.762849	-3.755332	13.094937	0.228550	36.120082	-12.102393	0.000000	8.759088	-4.012155	23.524317	2.505415	0.043728	29.761480	-11.005052	0.000000	0.449145	0.711059	-0.798000	0.834108	0.945708	-0.847875	0.737901	1.728869	-0.847875	0.513328	1.728869	-0.698250	0.417076	1.449991	-0.648375	0.256642	1.101430	-0.598500	3.208200	8.043640	-4.438238	0.000000	0.000000	28.546031	-4.441220	-17.810321	18.308007	-10.932425	92.729941	32.791019	29.110692	-1.589592	-2.158554	11.817633	-5.241657	61.385669	33.545287	72.515881	-3.921147	-7.022399
0.510204	10.734502	-1.469543	98.917029	0.419221	0.661963	0.791794	14.159681	6.846194	-4.173211	13.643967	0.238132	36.539946	-12.038172	0.000000	8.338308	-4.176763	23.739904	2.455850	0.042863	29.955897	-10.618989	0.000000	0.412378	0.733304	-0.901134	0.765828	0.975295	-0.957455	0.677497	1.782956	-0.957455	0.471307	1.782956	-0.788492	0.382935	1.495354	-0.732171	0.235633	1.135888	-0.675850	2.945578	8.295284	-5.011837	0.000000	0.000000	28.578831	-4.795601	-17.737760	18.398475	-11.002418	92.880811	31.970975	31.232894	-3.699034	-2.504214	11.755487	-5.188753	60.194641	32.123678	71.277785	-3.793341	-6.350595
0.530612	10.876111	-0.976518	99.312708	0.417425	0.662612	0.790925	13.888285	6.929509	-4.549677	14.107996	0.246231	36.865114	-12.099823	0.000000	7.813651	-4.347402	24.074080	2.385786	0.041640	30.099515	-10.289419	0.000000	0.365022	0.753657	-1.015709	0.677883	1.002364	-1.079191	0.599695	1.832442	-1.079191	0.417184	1.832442	-0.888746	0.338960	1.536857	-0.825264	0.208574	1.167415	-0.761782	2.607317	8.525518	-5.649070	0.000000	0.000000	28.537352	-5.029816	-17.545004	18.328606	-11.165347	92.260117	31.313596	34.124152	-5.750241	-2.698355	11.631457	-5.267996	58.812547	30.799762	70.462650	-4.008129	-5.474963
0.551020	11.018060	-0.404095	99.790962	0.415495	0.663393	0.789833	13.452546	7.024654	-4.961151	14.433129	0.251906	37.073544	-12.235789	0.000000	7.199965	-4.535405	24.569521	2.306964	0.040264	30.198581	-10.054430	0.000000	0.307056	0.772603	-1.152775	0.570234	1.027561	-1.224823	0.504462	1.878506	-1.224823	0.350934	1.878506	-1.008678	0.285132	1.575491	-0.936630	0.175452	1.196761	-0.864581	2.193271	8.739835	-6.411388	0.000000	0.000000	28.336946	-5.186220	-17.429824	18.130348	-11.463517	90.940832	30.879374	37.880333	-7.709738	-2.730637	11.389172	-5.513930	57.164837	29.642470	70.416635	-4.754719	-4.450572
0.571429	11.150375	0.229691	100.332645	0.413511	0.664271	0.788615	12.882335	7.128380	-5.363693	14.633403	0.255401	37.148324	-12.492335	0.000000	6.522307	-4.731774	25.164025	2.229750	0.038916	30.262925	-9.878945	0.000000	0.239002	0.789156	-1.308412	0.443850	1.049578	-1.390188	0.392656	1.918755	-1.390188	0.273155	1.918755	-1.144860	0.221937	1.609248	-1.063085	0.136566	1.222403	-0.981309	1.707165	8.927096	-7.276994	0.000000	0.000000	27.979670	-5.215377	-17.319075	17.771688	-11.881891	88.759108	30.701450	42.476197	-9.345791	-2.449332	11.004071	-5.931439	55.179826	28.745976	70.904327	-5.850760	-3.301673
0.591837	11.280644	0.895257	100.905889	0.411521	0.665201	0.787354	12.212732	7.247255	-5.742209	14.704569	0.256643	37.089398	-12.838605	0.000000	5.815439	-4.940444	25.808795	2.157421	0.037654	30.291150	-9.772886	0.000000	0.163877	0.804536	-1.472791	0.304335	1.070034	-1.564841	0.269233	1.956150	-1.564841	0.187294	1.956150	-1.288692	0.152176	1.640611	-1.196643	0.093639	1.246227	-1.104594	1.170554	9.101078	-8.191224	0.000000	0.000000	27.465301	-5.166722	-17.263234	17.246838	-12.439182	85.782308	30.785896	47.585358	-10.585180	-1.811422	10.480051	-6.493711	52.873173	28.105555	71.884596	-7.174573	-2.163504
0.612245	11.412173	1.577533	101.507335	0.409502	0.666156	0.786105	11.453060	7.381681	-6.066806	14.623473	0.255228	36.898642	-13.290497	0.000000	5.095594	-5.157581	26.504459	2.083055	0.036356	30.283564	-9.753757	0.000000	0.083376	0.820292	-1.645529	0.154838	1.090989	-1.748375	0.136979	1.994459	-1.748375	0.095291	1.994459	-1.439838	0.077423	1.672740	-1.336993	0.047641	1.270633	-1.234147	0.595549	9.279310	-9.151941	0.000000	0.000000	26.815932	-5.035763	-17.206410	16.577411	-13.132851	82.152416	31.078384	53.268461	-11.386187	-0.930909	9.873513	-7.175200	50.477672	27.723642	73.351234	-8.986493	-1.108824
0.632653	11.547805	2.223257	102.082344	0.407578	0.667071	0.784971	10.700358	7.528791	-6.337568	14.466862	0.252494	36.623611	-13.771149	0.000000	4.427505	-5.376941	27.215316	2.030857	0.035445	30.225647	-9.858164	0.000000	0.004286	0.836976	-1.819008	0.007959	1.113178	-1.932696	0.007041	2.035023	-1.932696	0.004898	2.035023	-1.591632	0.003980	1.706761	-1.477944	0.002449	1.296475	-1.364256	0.030613	9.468036	-10.116776	0.000000	0.000000	26.070865	-4.894583	-17.149904	15.791975	-13.914464	78.086690	31.538242	58.877281	-11.778042	0.175356	9.153518	-7.940385	47.741497	27.546498	75.255740	-10.569315	-0.286235
0.653061	11.675783	2.813979	102.583522	0.405806	0.667926	0.784043	9.980288	7.680598	-6.487254	14.247938	0.248673	36.273437	-14.299243	0.000000	3.828989	-5.583927	27.760890	2.004067	0.034978	30.158191	-9.887200	0.000000	-0.071177	0.853534	-1.982729	-0.132183	1.135200	-2.106649	-0.116937	2.075283	-2.106649	-0.081348	2.075283	-1.734887	-0.066095	1.740527	-1.610967	-0.040671	1.322124	-1.487046	-0.508411	9.655349	-11.027341	0.000000	0.000000	25.271638	-4.761251	-17.064266	14.941205	-14.773475	73.914239	32.064129	64.130012	-11.821126	1.276473	8.390792	-8.758743	44.894542	27.524972	77.486383	-12.049387	0.276506
0.673469	11.798562	3.319643	102.997786	0.404188	0.668655	0.783410	9.350524	7.826532	-6.534458	14.016053	0.244626	35.891134	-14.832388	0.000000	3.336826	-5.763194	28.253464	2.007711	0.035041	30.043226	-10.016536	0.000000	-0.138052	0.870783	-2.133176	-0.256377	1.158142	-2.266500	-0.226806	2.117223	-2.266500	-0.157780	2.117223	-1.866529	-0.128195	1.775701	-1.733206	-0.078883	1.348843	-1.599882	-0.986094	9.850475	-11.864087	0.000000	0.000000	24.458324	-4.713750	-16.943350	14.009545	-15.688142	69.661359	32.616823	68.836267	-11.500320	2.363986	7.598466	-9.608783	42.010451	27.632694	79.876541	-13.415256	0.625156
0.693878	11.911375	3.723557	103.281898	0.402811	0.669229	0.783152	8.839924	7.964553	-6.458613	13.784508	0.240585	35.502821	-15.341414	0.000000	2.970311	-5.911538	28.505919	2.046405	0.035716	29.928500	-10.036419	0.000000	-0.194219	0.887513	-2.266647	-0.360683	1.180393	-2.408312	-0.319082	2.157900	-2.408312	-0.221972	2.157900	-1.983316	-0.180351	1.809817	-1.841651	-0.110977	1.374758	-1.699985	-1.387284	10.039728	-12.606410	0.000000	0.000000	23.662464	-4.729266	-16.766779	13.050505	-16.611437	65.576301	33.133185	72.630172	-10.855339	3.365305	6.760288	-10.472936	39.018974	27.864678	82.234236	-14.551301	0.883637
0.714286	12.003135	4.020835	103.397929	0.401722	0.669623	0.783327	8.481932	8.080521	-6.270057	13.604991	0.237452	35.155068	-15.765290	0.000000	2.727343	-6.015082	28.524086	2.112797	0.036875	29.807674	-10.003787	0.000000	-0.238744	0.902743	-2.377427	-0.443371	1.200649	-2.526016	-0.392232	2.194930	-2.526016	-0.272860	2.194930	-2.080248	-0.221697	1.840874	-1.931659	-0.136418	1.398350	-1.783070	-1.705323	10.212014	-13.222534	0.000000	0.000000	22.888889	-4.814901	-16.509198	12.121463	-17.509142	61.836098	33.571987	75.508040	-9.881727	4.263156	5.927356	-11.352763	36.142748	28.169693	84.424010	-15.540225	1.106905
0.734694	12.066308	4.203846	103.328445	0.400974	0.669817	0.783962	8.300780	8.167959	-5.969838	13.507881	0.235757	34.860403	-16.100028	0.000000	2.615170	-6.066518	28.275302	2.210038	0.038572	29.693213	-9.904573	0.000000	-0.270824	0.914457	-2.464369	-0.502947	1.216227	-2.618393	-0.444936	2.223410	-2.618393	-0.309524	2.223410	-2.156323	-0.251487	1.864760	-2.002300	-0.154749	1.416493	-1.848277	-1.934467	10.344516	-13.706084	0.000000	0.000000	22.125736	-4.949045	-16.215583	11.300817	-18.345298	58.635956	33.899288	77.701754	-8.585776	5.047192	5.075809	-12.226624	33.346101	28.534620	86.317296	-16.365646	1.310672
0.755102	12.066617	4.286166	103.055888	0.400656	0.669827	0.785109	8.304707	8.198437	-5.541784	13.547827	0.236454	34.630388	-16.359261	0.000000	2.616195	-6.038578	27.718421	2.337828	0.040803	29.605580	-9.697825	0.000000	-0.294420	0.916813	-2.527213	-0.546767	1.219361	-2.685164	-0.483702	2.229139	-2.685164	-0.336492	2.229139	-2.211312	-0.273398	1.869565	-2.053361	-0.168232	1.420143	-1.895410	-2.103012	10.371170	-14.055602	0.000000	0.000000	21.354951	-5.089085	-15.932336	10.762990	-19.060229	56.532020	34.064292	79.195285	-7.073160	5.649180	4.167268	-13.064672	30.470586	28.938393	87.861952	-16.983431	1.499040
0.775510	11.981333	4.270787	102.580827	0.400809	0.669669	0.786726	8.486858	8.152366	-4.989578	13.733085	0.239688	34.470259	-16.549716	0.000000	2.722101	-5.911290	26.857895	2.491636	0.043487	29.548489	-9.386764	0.000000	-0.310248	0.905617	-2.561528	-0.576161	1.204471	-2.721624	-0.509706	2.201918	-2.721624	-0.354582	2.201918	-2.241337	-0.288096	1.846735	-2.081242	-0.177275	1.402801	-1.921146	-2.216068	10.244525	-14.246451	0.000000	0.000000	20.575500	-5.187208	-15.739561	10.580785	-19.613088	55.829347	34.050571	80.105326	-5.442946	6.072938	3.238833	-13.875620	27.720685	29.299414	88.945165	-17.495229	1.597774
0.795918	11.810344	4.151662	101.913332	0.401422	0.669352	0.788745	8.838098	8.023957	-4.353190	14.044024	0.245114	34.381201	-16.625578	0.000000	2.939805	-5.686221	25.666934	2.672515	0.046644	29.538497	-8.900990	0.000000	-0.317087	0.880180	-2.558728	-0.588863	1.170640	-2.718649	-0.520943	2.140071	-2.718649	-0.362399	2.140071	-2.238887	-0.294447	1.794864	-2.078967	-0.181184	1.363400	-1.919046	-2.264922	9.956777	-14.230880	0.000000	0.000000	19.819715	-5.238104	-15.683245	10.661143	-20.046879	56.084007	33.898110	81.354265	-3.872539	6.496010	2.382632	-14.629793	25.474920	29.533866	89.267619	-17.931713	1.542513
0.816327	11.536643	3.940598	101.070919	0.402500	0.668918	0.791073	9.330561	7.808483	-3.593333	14.463909	0.252443	34.345687	-16.658302	0.000000	3.244170	-5.356487	24.220811	2.861063	0.049935	29.552678	-8.287302	0.000000	-0.317004	0.837862	-2.521973	-0.588709	1.114356	-2.679596	-0.520806	2.037177	-2.679596	-0.362304	2.037177	-2.206726	-0.294370	1.708567	-2.049103	-0.181136	1.297848	-1.891480	-2.264329	9.478058	-14.026456	0.000000	0.000000	19.146121	-5.192008	-15.789812	11.045960	-20.316307	57.610234	33.572531	82.587239	-2.463386	6.734586	1.596372	-15.316308	23.634300	29.613826	89.077508	-18.327809	1.329834
0.836735	11.171316	3.657102	100.072566	0.403955	0.668410	0.793572	9.912401	7.518242	-2.737951	14.943413	0.260812	34.352144	-16.622648	0.000000	3.606764	-4.939592	22.640992	3.051998	0.053267	29.564527	-7.653592	0.000000	-0.312426	0.780635	-2.446685	-0.580206	1.038245	-2.599603	-0.513284	1.898036	-2.599603	-0.357071	1.898036	-2.140849	-0.290118	1.591871	-1.987931	-0.178520	1.209204	-1.835014	-2.231625	8.830701	-13.607727	0.000000	0.000000	18.609868	-5.047190	-16.083764	11.517409	-20.499035	59.556347	33.163570	84.188664	-1.249481	7.068279	0.878023	-15.924730	22.029640	29.549921	88.767046	-18.611694	1.032992
0.857143	10.722969	3.332086	98.955312	0.405708	0.667904	0.796182	10.525955	7.158632	-1.896234	15.433991	0.269374	34.393549	-16.415672	0.000000	4.000450	-4.454178	20.975115	3.248061	0.056689	29.566415	-6.994400	0.000000	-0.306350	0.710527	-2.341195	-0.568923	0.945001	-2.487520	-0.503302	1.727576	-2.487520	-0.350127	1.727576	-2.048546	-0.284477	1.448908	-1.902221	-0.175048	1.100607	-1.755897	-2.188227	8.037628	-13.021027	0.000000	0.000000	18.245205	-4.779294	-16.500452	12.132823	-20.602650	62.354824	32.657333	84.852390	-0.382567	7.292399	0.289297	-16.481520	20.921045	29.323508	88.060435	-18.811428	0.600960
0.877551	10.205228	2.956197	97.729880	0.407709	0.667377	0.798808	11.173220	6.743515	-1.082458	15.919420	0.277846	34.459912	-16.035084	0.000000	4.432108	-3.917334	19.370723	3.444165	0.060112	29.523667	-6.475281	0.000000	-0.296188	0.628956	-2.202922	-0.550050	0.836512	-2.340605	-0.486607	1.529245	-2.340605	-0.338513	1.529245	-1.927557	-0.275040	1.282568	-1.789874	-0.169242	0.974253	-1.652192	-2.115640	7.114881	-12.251993	0.000000	0.000000	18.070442	-4.395466	-17.126747	12.631261	-20.666002	65.007540	32.169841	84.954875	0.318103	7.582258	-0.283510	-16.971347	19.581374	29.083721	87.798768	-18.812608	0.304376
0.897959	9.639622	2.565534	96.428885	0.409853	0.666895	0.801440	11.786900	6.301527	-0.232937	16.323014	0.284890	34.496645	-15.615281	0.000000	4.885978	-3.348687	17.815569	3.672466	0.064097	29.439540	-6.081263	0.000000	-0.285597	0.540639	-2.055532	-0.530382	0.719050	-2.184003	-0.469207	1.314510	-2.184003	-0.326409	1.314510	-1.798590	-0.265205	1.102471	-1.670120	-0.163190	0.837450	-1.541649	-2.039990	6.115819	-11.432252	0.000000	0.000000	18.037932	-3.890168	-17.761885	13.200439	-20.716451	68.185572	31.680252	83.645128	0.739224	7.703802	-0.852075	-17.428146	18.191932	28.874261	87.674904	-18.546849	0.166611
0.918367	9.050328	2.158123	95.080353	0.412068	0.666444	0.803996	12.369628	5.834355	0.476012	16.639515	0.290414	34.545982	-14.941345	0.000000	5.360841	-2.771645	16.359109	3.924307	0.068492	29.320763	-5.851375	0.000000	-0.273151	0.448936	-1.899180	-0.507268	0.597085	-2.017878	-0.448759	1.091542	-2.017878	-0.312184	1.091542	-1.661782	-0.253648	0.915470	-1.543083	-0.156078	0.695401	-1.424385	-1.951089	5.078451	-10.562667	0.000000	0.000000	18.123780	-3.279271	-18.459821	13.615526	-20.742261	70.988391	31.282863	81.602739	1.013240	7.849114	-1.425926	-17.836391	16.706602	28.751672	87.596632	-18.029007	0.255434
0.938776	8.457302	1.742860	93.704422	0.414331	0.666032	0.806394	12.895857	5.367632	1.075908	16.825487	0.293660	34.584113	-14.063450	0.000000	5.849666	-2.213607	14.982998	4.198841	0.073284	29.187393	-5.755899	0.000000	-0.257971	0.356345	-1.736115	-0.479079	0.473939	-1.844622	-0.423821	0.866417	-1.844622	-0.294836	0.866417	-1.519101	-0.239552	0.726659	-1.410594	-0.147405	0.551978	-1.302086	-1.842664	4.031045	-9.655752	0.000000	0.000000	18.275654	-2.569618	-19.231590	13.745639	-20.701770	72.833930	31.032619	79.586796	1.266688	8.153778	-2.038062	-18.181386	15.068404	28.751302	87.518296	-17.347604	0.567178
0.959184	7.898441	1.355094	92.367158	0.416488	0.665699	0.808640	13.320411	4.928808	1.512603	16.850814	0.294102	34.580523	-13.000947	0.000000	6.335115	-1.706311	13.745093	4.508297	0.078685	29.040810	-5.808211	0.000000	-0.244305	0.267971	-1.580417	-0.453699	0.356402	-1.679193	-0.401368	0.651545	-1.679193	-0.279216	0.651545	-1.382865	-0.226861	0.546447	-1.284089	-0.139596	0.415087	-1.185313	-1.745045	3.031344	-8.789806	0.000000	0.000000	18.422726	-1.828638	-20.045464	13.685973	-20.656792	74.015273	30.938433	77.380383	1.509041	8.588225	-2.679948	-18.454092	13.353122	28.872040	87.376757	-16.540759	1.116852
0.979592	7.365701	0.991726	91.074597	0.418587	0.665440	0.810699	13.652668	4.514410	1.761733	16.710718	0.291657	34.561264	-11.694711	0.000000	6.824572	-1.252461	12.625233	4.841338	0.084497	28.892876	-5.975790	0.000000	-0.229536	0.182195	-1.434622	-0.426272	0.242320	-1.524286	-0.377105	0.442989	-1.524286	-0.262337	0.442989	-1.255295	-0.213147	0.371532	-1.165631	-0.131157	0.282220	-1.075967	-1.639554	2.061029	-7.978940	0.000000	0.000000	18.554414	-1.012724	-20.869210	13.404450	-20.570340	74.413131	30.965632	75.298086	1.723083	9.083055	-3.396981	-18.625761	11.351530	29.139670	87.282142	-15.680081	1.762446
1.000000	6.880421	0.656775	89.857066	0.420582	0.665261	0.812573	13.878369	4.149018	1.948665	16.380489	0.285893	34.479567	-10.342638	0.000000	7.328549	-0.867941	11.684283	5.213831	0.090999	28.750142	-6.282985	0.000000	-0.214127	0.102287	-1.292929	-0.397656	0.136041	-1.373737	-0.351790	0.248700	-1.373737	-0.244726	0.248700	-1.131313	-0.198839	0.208583	-1.050505	-0.122352	0.158442	-0.969697	-1.529491	1.157087	-7.190885	0.000000	0.000000	18.665132	-0.240705	-21.734002	12.837539	-20.438068	73.832249	31.124193	73.582424	1.915942	9.588341	-4.047304	-18.744133	9.540907	29.431015	87.184437	-15.079972	2.317630
1.020408	6.430768	0.351955	88.710069	0.422484	0.665149	0.814297	14.022021	3.814013	2.001739	15.905882	0.277610	34.377459	-8.851588	0.000000	7.853536	-0.541787	10.884171	5.633965	0.098331	28.618506	-6.684376	0.000000	-0.198810	0.026994	-1.154980	-0.369209	0.035902	-1.227166	-0.326624	0.065632	-1.227166	-0.227220	0.065632	-1.010607	-0.184615	0.055045	-0.938421	-0.113600	0.041813	-0.866235	-1.420078	0.305357	-6.423651	0.000000	0.000000	18.772499	0.466481	-22.606514	12.001996	-20.257819	72.324787	31.388054	72.073754	2.082694	10.030804	-4.643409	-18.812930	7.754184	29.841098	87.124209	-14.616798	2.821047
1.040816	6.029329	0.079144	87.667569	0.424249	0.665105	0.815863	14.083605	3.508167	1.848152	15.314482	0.267288	34.288519	-7.157978	0.000000	8.394908	-0.273496	10.261112	6.109539	0.106632	28.492694	-7.156260	0.000000	-0.184106	-0.041791	-1.033550	-0.341904	-0.055582	-1.098147	-0.302468	-0.101610	-1.098147	-0.210415	-0.101610	-0.904356	-0.170961	-0.085219	-0.839759	-0.105198	-0.064734	-0.775162	-1.315052	-0.472744	-5.748294	0.000000	0.000000	18.878044	1.087752	-23.366301	10.958507	-20.052004	70.059208	31.734259	70.828755	2.176643	10.323335	-5.146849	-18.855471	6.128295	30.246848	87.103921	-14.475157	2.977051
1.061224	5.667734	-0.154894	86.726475	0.425927	0.665134	0.817283	14.035988	3.241197	1.843300	14.579148	0.254454	34.076736	-5.774955	0.000000	8.946234	-0.046259	9.717384	6.655537	0.116161	28.397434	-7.555008	0.000000	-0.170986	-0.105114	-0.923975	-0.317538	-0.139801	-0.981723	-0.280913	-0.255574	-0.981723	-0.195420	-0.255574	-0.808478	-0.158778	-0.214348	-0.750730	-0.097701	-0.162821	-0.692981	-1.221336	-1.189068	-5.138871	0.000000	0.000000	18.959614	1.581824	-24.007283	9.750943	-19.813677	67.176184	32.138410	69.647223	2.208931	10.460691	-5.449700	-18.958445	5.101833	30.529229	87.106479	-14.793265	2.750566
1.081633	5.351910	-0.351377	85.896499	0.427511	0.665210	0.818559	13.886672	3.012628	1.960215	13.726646	0.239575	33.741843	-4.703972	0.000000	9.503866	0.149929	9.410839	7.278110	0.127027	28.268349	-8.100232	0.000000	-0.159381	-0.162087	-0.828062	-0.295987	-0.215576	-0.879816	-0.261847	-0.394098	-0.879816	-0.182157	-0.394098	-0.724555	-0.148001	-0.330528	-0.672801	-0.091070	-0.251073	-0.621047	-1.138443	-1.833560	-4.605434	0.000000	0.000000	18.998516	1.933931	-24.533364	8.411717	-19.542364	63.661230	32.603487	68.826178	2.195853	10.524172	-5.524173	-19.141731	4.792329	30.639597	87.143491	-15.574561	2.182732
1.102041	5.062327	-0.511455	85.151206	0.429077	0.665332	0.819731	13.663397	2.816035	2.212300	12.809156	0.223562	33.267731	-3.998032	0.000000	10.060752	0.318239	9.079988	7.966008	0.139033	28.153875	-8.457218	0.000000	-0.149496	-0.215456	-0.742553	-0.277629	-0.286557	-0.788962	-0.245607	-0.523860	-0.788962	-0.170859	-0.523860	-0.649734	-0.138822	-0.439358	-0.603324	-0.085422	-0.333741	-0.556915	-1.067834	-2.437282	-4.129857	0.000000	0.000000	18.982487	2.185793	-24.937308	7.071616	-19.231985	59.845916	33.079018	68.334304	2.150875	10.492365	-5.384102	-19.400357	5.080116	30.553654	87.206443	-16.695986	1.212739
1.122449	4.814580	-0.625817	84.480712	0.430594	0.665508	0.820754	13.359232	2.664627	2.573255	11.850894	0.206837	32.649788	-3.626940	0.000000	10.589465	0.459937	8.883285	8.713957	0.152087	27.980002	-8.894194	0.000000	-0.141657	-0.262546	-0.663667	-0.263070	-0.349186	-0.705146	-0.232728	-0.638354	-0.705146	-0.161899	-0.638354	-0.580709	-0.131542	-0.535383	-0.539229	-0.080943	-0.406683	-0.497750	-1.011838	-2.969970	-3.691117	0.000000	0.000000	18.839239	2.307806	-25.242608	5.790627	-18.890783	55.847460	33.575094	68.578137	2.083107	10.470601	-5.052754	-19.723224	5.937608	30.364106	87.278799	-18.112802	0.156878
1.142857	4.601597	-0.700784	83.900579	0.432042	0.665739	0.821678	13.011709	2.554352	2.986471	10.913952	0.190484	31.878564	-3.608078	0.000000	11.103217	0.578689	8.740778	9.535413	0.166424	27.745556	-9.275857	0.000000	-0.135202	-0.305402	-0.593089	-0.251083	-0.406185	-0.630157	-0.222123	-0.742555	-0.630157	-0.154522	-0.742555	-0.518953	-0.125548	-0.622776	-0.481884	-0.077254	-0.473068	-0.444816	-0.965733	-3.454770	-3.298581	0.000000	0.000000	18.538258	2.380535	-25.500164	4.710786	-18.519123	52.125393	34.046815	69.680828	1.967837	10.462529	-4.566403	-20.074214	7.100563	30.097824	87.358106	-19.656476	-1.050296
1.163265	4.429077	-0.718359	83.368630	0.433419	0.666056	0.822444	12.599942	2.486755	3.426866	10.008522	0.174682	30.991486	-3.829918	0.000000	11.550145	0.669201	8.612882	10.390356	0.181346	27.466163	-9.596706	0.000000	-0.131401	-0.342178	-0.524375	-0.244024	-0.455097	-0.557148	-0.215878	-0.831973	-0.557148	-0.150178	-0.831973	-0.458828	-0.122019	-0.697770	-0.426054	-0.075082	-0.530034	-0.393281	-0.938583	-3.870791	-2.916414	0.000000	0.000000	18.025665	2.352438	-25.660294	3.922875	-18.121436	49.065289	34.458484	71.475486	1.783039	10.452595	-3.961294	-20.412961	8.469567	29.832462	87.432828	-21.378733	-2.254343
1.183673	4.296906	-0.682808	82.893556	0.434663	0.666435	0.823010	12.130316	2.458528	3.942732	9.142531	0.159567	30.003808	-4.359854	0.000000	11.917741	0.746202	8.599055	11.248355	0.196321	27.120015	-9.974167	0.000000	-0.129808	-0.372514	-0.451854	-0.241067	-0.495443	-0.480095	-0.213262	-0.905730	-0.480095	-0.148358	-0.905730	-0.395372	-0.120540	-0.759630	-0.367131	-0.074172	-0.577024	-0.338891	-0.927207	-4.213950	-2.513077	0.000000	0.000000	17.328378	2.221832	-25.778889	3.356503	-17.706635	46.468291	34.848828	73.970126	1.676050	10.582037	-3.227058	-20.761557	10.106634	29.668675	87.499623	-23.162108	-3.264632
1.204082	4.207492	-0.600521	82.457093	0.435739	0.666867	0.823357	11.618175	2.464690	4.485625	8.335079	0.145475	28.972672	-5.078598	0.000000	12.191304	0.806236	8.691343	12.069280	0.210649	26.727558	-10.394376	0.000000	-0.130702	-0.395174	-0.370558	-0.242727	-0.525581	-0.393718	-0.214731	-0.960825	-0.393718	-0.149379	-0.960825	-0.324238	-0.121370	-0.805838	-0.301078	-0.074683	-0.612124	-0.277918	-0.933592	-4.470283	-2.060931	0.000000	0.000000	16.505821	1.985963	-25.830061	2.951168	-17.295027	44.243509	35.228261	76.941992	1.624673	10.791115	-2.374354	-21.080932	11.904643	29.657570	87.586496	-25.013829	-4.015482
1.224490	4.157616	-0.490726	82.061481	0.436611	0.667318	0.823468	11.088086	2.502295	5.111921	7.596463	0.132583	27.901777	-6.043236	0.000000	12.375957	0.854892	8.918942	12.823762	0.223817	26.293315	-10.881710	0.000000	-0.132607	-0.410020	-0.286243	-0.246264	-0.545326	-0.304133	-0.217860	-0.996922	-0.304133	-0.151556	-0.996922	-0.250463	-0.123139	-0.836113	-0.232573	-0.075771	-0.635121	-0.214682	-0.947197	-4.638227	-1.591999	0.000000	0.000000	15.633313	1.667082	-25.778769	2.649029	-16.919440	42.231226	35.606909	80.101699	1.700622	11.067497	-1.477866	-21.353082	13.698570	29.885172	87.679188	-26.802047	-4.479953
1.244898	4.156712	-0.358359	81.702237	0.437232	0.667789	0.823361	10.548121	2.570642	5.767697	6.930088	0.120953	26.816928	-7.162340	0.000000	12.466667	0.883249	9.301210	13.492113	0.235482	25.829506	-11.474981	0.000000	-0.136365	-0.415048	-0.204852	-0.253243	-0.552013	-0.217655	-0.224034	-1.009147	-0.217655	-0.155851	-1.009147	-0.179245	-0.126628	-0.846365	-0.166442	-0.077919	-0.642909	-0.153639	-0.974041	-4.695103	-1.139323	0.000000	0.000000	14.773669	1.259809	-25.581778	2.463667	-16.619136	40.556180	36.000825	82.810287	1.812576	11.377015	-0.596994	-21.554745	15.376891	30.376513	87.787508	-28.418640	-4.719753
1.265306	4.199463	-0.213275	81.383275	0.437623	0.668294	0.823040	10.015675	2.663135	6.423663	6.348180	0.110797	25.734705	-8.379187	0.000000	12.461383	0.890493	9.811740	14.046675	0.245161	25.349597	-12.151789	0.000000	-0.140904	-0.411330	-0.134401	-0.261672	-0.547069	-0.142801	-0.231490	-1.000108	-0.142801	-0.161039	-1.000108	-0.117601	-0.130843	-0.838785	-0.109201	-0.080512	-0.637151	-0.100801	-1.006460	-4.653050	-0.747498	0.000000	0.000000	13.975255	0.795736	-25.207452	2.423502	-16.388743	39.374005	36.381337	84.729667	1.896763	11.552081	0.196275	-21.664690	16.785068	31.135084	87.894363	-29.748159	-4.799073
1.285714	4.290922	-0.060431	81.111883	0.437792	0.668861	0.822517	9.498928	2.789541	7.073459	5.847541	0.102059	24.661227	-9.675660	0.000000	12.359850	0.865649	10.420031	14.469879	0.252547	24.864525	-12.890945	0.000000	-0.146049	-0.398481	-0.082021	-0.271228	-0.529980	-0.087147	-0.239944	-0.968866	-0.087147	-0.166920	-0.968866	-0.071768	-0.135621	-0.812582	-0.066642	-0.083453	-0.617247	-0.061516	-1.043215	-4.507695	-0.456176	0.000000	0.000000	13.269922	0.289971	-24.655454	2.495430	-16.225661	38.564827	36.744257	85.889815	1.921972	11.540207	0.836487	-21.656184	17.778709	32.175652	87.983602	-30.635060	-4.674325
1.306122	4.428907	0.099219	80.907030	0.437746	0.669522	0.821792	8.997198	2.951185	7.718273	5.414786	0.094506	23.611944	-11.039014	0.000000	12.161801	0.805903	11.080793	14.746075	0.257368	24.372630	-13.665810	0.000000	-0.150497	-0.377331	-0.060057	-0.279488	-0.501850	-0.063811	-0.247251	-0.917443	-0.063811	-0.172003	-0.917443	-0.052550	-0.139751	-0.769453	-0.048797	-0.085994	-0.584486	-0.045043	-1.074983	-4.268443	-0.334021	0.000000	0.000000	12.633566	-0.260737	-23.931900	2.710577	-16.098552	38.224715	37.074694	86.304310	1.881074	11.278727	1.248113	-21.507199	18.230537	33.502020	88.032732	-30.948439	-4.291870
1.326531	4.612955	0.242307	80.781125	0.437487	0.670250	0.820899	8.553395	3.131354	8.179400	5.074529	0.088567	22.648066	-12.187969	0.000000	11.894529	0.705263	11.756807	14.865858	0.259458	23.888486	-14.433556	0.000000	-0.150526	-0.348353	-0.059023	-0.279542	-0.463309	-0.062712	-0.247299	-0.846985	-0.062712	-0.172036	-0.846985	-0.051645	-0.139779	-0.710361	-0.047956	-0.086011	-0.539599	-0.044267	-1.075194	-3.940637	-0.328268	0.000000	0.000000	12.056288	-0.830358	-23.106624	2.810339	-15.965465	37.455423	37.453952	86.667805	1.825003	10.960061	1.447134	-21.206461	18.092550	35.098874	88.073321	-30.612494	-3.605312
1.346939	4.835218	0.371905	80.732867	0.437064	0.671056	0.819918	8.167192	3.339799	8.545428	4.812449	0.083993	21.763623	-13.211128	0.000000	11.568110	0.563700	12.355818	14.838444	0.258980	23.416804	-15.132419	0.000000	-0.145306	-0.313630	-0.079834	-0.269847	-0.417128	-0.084824	-0.238722	-0.762560	-0.084824	-0.166070	-0.762560	-0.069855	-0.134931	-0.639554	-0.064865	-0.083028	-0.485813	-0.059876	-1.037903	-3.547846	-0.444014	0.000000	0.000000	11.493271	-1.403333	-22.171199	2.858153	-15.821019	36.521900	37.872643	86.828932	1.742286	10.545946	1.481562	-20.809466	17.612910	36.871698	88.106559	-29.982704	-2.815611
1.367347	5.081029	0.495023	80.781221	0.436455	0.671942	0.818985	7.848903	3.554478	8.756727	4.641100	0.081002	20.991298	-14.026784	0.000000	11.200124	0.398036	12.885888	14.684873	0.256299	22.938971	-15.759675	0.000000	-0.136221	-0.275217	-0.124723	-0.252977	-0.366038	-0.132518	-0.223798	-0.669162	-0.132518	-0.155687	-0.669162	-0.109133	-0.126495	-0.561222	-0.101337	-0.077837	-0.426311	-0.093542	-0.973015	-3.113307	-0.693672	0.000000	0.000000	10.924037	-1.949992	-21.047203	2.936104	-15.706778	35.782191	38.323815	86.442999	1.591697	9.993482	1.446803	-20.359788	17.046389	38.713548	88.149754	-29.260247	-2.011570
1.387755	5.316794	0.588194	80.875767	0.435832	0.672873	0.818110	7.625156	3.759893	8.870626	4.548242	0.079382	20.369746	-14.608149	0.000000	10.814619	0.222967	13.283789	14.394780	0.251236	22.459303	-16.287033	0.000000	-0.117942	-0.238536	-0.177777	-0.219031	-0.317253	-0.188888	-0.193768	-0.579978	-0.188888	-0.134796	-0.579978	-0.155554	-0.109521	-0.486424	-0.144443	-0.067392	-0.369493	-0.133332	-0.842451	-2.698372	-0.988740	0.000000	0.000000	10.330349	-2.444332	-19.798878	2.992390	-15.582211	35.145943	38.771270	85.715276	1.370952	9.291880	1.393734	-19.881113	16.534607	40.536593	88.230318	-28.625424	-1.338717
1.408163	5.542948	0.661727	81.043722	0.435152	0.673824	0.817345	7.478519	3.959382	8.997264	4.523840	0.078956	19.869193	-15.152326	0.000000	10.428667	0.044093	13.586343	14.009724	0.244516	21.991264	-16.693813	0.000000	-0.094724	-0.202622	-0.232695	-0.175911	-0.269488	-0.247239	-0.155622	-0.492656	-0.247239	-0.108260	-0.492656	-0.203608	-0.087960	-0.413188	-0.189065	-0.054125	-0.313862	-0.174521	-0.676602	-2.292105	-1.294180	0.000000	0.000000	9.762366	-2.917357	-18.390330	2.968169	-15.460388	34.369687	39.259803	85.147000	1.218268	8.532402	1.467979	-19.420483	16.490641	42.220343	88.309233	-28.244227	-0.750705
1.428571	5.739117	0.706531	81.278995	0.434434	0.674748	0.816691	7.430571	4.119280	8.932778	4.598402	0.080257	19.574887	-15.374390	0.000000	10.055636	-0.120461	13.798870	13.530803	0.236157	21.528091	-16.974493	0.000000	-0.066757	-0.169988	-0.299015	-0.123975	-0.226083	-0.317703	-0.109675	-0.413308	-0.317703	-0.076297	-0.413308	-0.261638	-0.061991	-0.346639	-0.242950	-0.038145	-0.263311	-0.224261	-0.476839	-1.922933	-1.663032	0.000000	0.000000	9.259974	-3.309918	-16.756864	3.013691	-15.380799	33.941370	39.733974	84.516197	0.993657	7.638701	1.557929	-18.954780	16.547368	43.861945	88.452302	-27.953050	-0.107321
1.448980	5.921289	0.728514	81.619656	0.433629	0.675630	0.816120	7.445638	4.260744	8.824260	4.738694	0.082706	19.401013	-15.560343	0.000000	9.708679	-0.272592	14.012555	13.002562	0.226938	21.087077	-17.160787	0.000000	-0.036308	-0.138305	-0.375647	-0.067428	-0.183946	-0.399125	-0.059651	-0.336275	-0.399125	-0.041497	-0.336275	-0.328691	-0.033716	-0.282031	-0.305213	-0.020747	-0.214234	-0.281735	-0.259347	-1.564533	-2.089234	0.000000	0.000000	8.857223	-3.652845	-14.891468	3.128303	-15.356593	33.825572	40.185532	84.331949	0.647619	6.622176	1.812312	-18.533380	17.254709	45.238357	88.610097	-28.137251	0.345762
1.469388	6.081480	0.717461	82.034889	0.432777	0.676414	0.815621	7.513367	4.387588	8.841791	4.908860	0.085676	19.261168	-15.954918	0.000000	9.405400	-0.404074	14.251150	12.443843	0.217186	20.674120	-17.305740	0.000000	-0.003085	-0.107886	-0.453498	-0.005729	-0.143488	-0.481841	-0.005068	-0.262314	-0.481841	-0.003526	-0.262314	-0.396811	-0.002865	-0.220001	-0.368467	-0.001763	-0.167115	-0.340123	-0.022035	-1.220427	-2.522219	0.000000	0.000000	8.572634	-3.960685	-12.847911	3.318526	-15.374564	33.996050	40.607592	84.611665	0.150681	5.563461	2.184555	-18.144622	18.508474	46.354213	88.798467	-28.413936	0.740254
1.489796	6.218751	0.666233	82.515460	0.431849	0.677052	0.815246	7.661391	4.480845	8.672060	5.153914	0.089953	19.253133	-16.153724	0.000000	9.173274	-0.511919	14.518651	11.891799	0.207551	20.310366	-17.382879	0.000000	0.031984	-0.078001	-0.537636	0.059398	-0.103741	-0.571238	0.052547	-0.189651	-0.571238	0.036555	-0.189651	-0.470432	0.029700	-0.159059	-0.436829	0.018276	-0.120823	-0.403227	0.228459	-0.882361	-2.990170	0.000000	0.000000	8.418882	-4.227088	-10.619271	3.691492	-15.452648	34.750832	40.980077	84.939879	-0.623998	4.410213	2.609440	-17.733119	20.030294	47.194233	88.961352	-28.458234	1.042492
1.510204	6.327912	0.569653	83.035508	0.430878	0.677515	0.815011	7.892852	4.543335	8.323367	5.466407	0.095407	19.353175	-16.184642	0.000000	9.022809	-0.600068	14.775017	11.356509	0.198208	20.017921	-17.323620	0.000000	0.069305	-0.048711	-0.616262	0.128707	-0.064786	-0.654778	0.113862	-0.118436	-0.654778	0.079209	-0.118436	-0.539229	0.064357	-0.099332	-0.500713	0.039601	-0.075454	-0.462197	0.495041	-0.551030	-3.427465	0.000000	0.000000	8.364050	-4.407624	-8.203798	4.160446	-15.564540	35.795601	41.353261	85.295562	-1.558819	3.334982	3.105039	-17.266258	21.795192	47.708525	89.028390	-28.061105	1.176927
1.530612	6.419565	0.440835	83.586438	0.429824	0.677798	0.814909	8.185255	4.572745	7.715909	5.837495	0.101884	19.583567	-15.919160	0.000000	8.950524	-0.662380	15.113274	10.874377	0.189794	19.770579	-17.254368	0.000000	0.107176	-0.018275	-0.689872	0.199037	-0.024306	-0.732989	0.176080	-0.044434	-0.732989	0.122492	-0.044434	-0.603638	0.099524	-0.037267	-0.560521	0.061241	-0.028308	-0.517404	0.765551	-0.206733	-3.836862	0.000000	0.000000	8.375506	-4.552402	-5.649191	4.755689	-15.709974	37.179174	41.752065	85.286528	-2.631799	2.341127	3.670743	-16.750882	23.856929	47.953783	89.003988	-27.247560	1.227237
1.551020	6.477273	0.294243	84.153956	0.428708	0.677909	0.814991	8.536706	4.549453	6.820168	6.280962	0.109623	19.964575	-15.321614	0.000000	8.952815	-0.687405	15.474754	10.465865	0.182664	19.583170	-17.091115	0.000000	0.143056	0.010832	-0.757609	0.265670	0.014406	-0.804960	0.235027	0.026336	-0.804960	0.163499	0.026336	-0.662908	0.132842	0.022088	-0.615557	0.081742	0.016778	-0.568207	1.021835	0.122529	-4.213594	0.000000	0.000000	8.491957	-4.647741	-2.972727	5.517561	-15.878471	38.996909	42.169352	84.480922	-3.713504	1.412671	4.338515	-16.203867	26.242752	47.912505	88.939247	-26.007420	0.955734
1.571429	6.503148	0.140682	84.696397	0.427580	0.677845	0.815173	8.905509	4.474394	5.707730	6.737276	0.117588	20.504823	-14.393060	0.000000	8.996329	-0.673283	15.891545	10.104906	0.176364	19.458900	-16.921357	0.000000	0.176107	0.039703	-0.814702	0.327048	0.052805	-0.865621	0.289326	0.096533	-0.865621	0.201272	0.096533	-0.712864	0.163533	0.080962	-0.661945	0.100627	0.061499	-0.611026	1.257913	0.449124	-4.531127	0.000000	0.000000	8.748046	-4.767619	-0.116888	6.358929	-16.043134	40.997845	42.635401	82.715167	-4.624467	0.689657	5.062792	-15.635456	28.883435	47.738454	88.811326	-24.347177	0.630320
1.591837	6.484885	-0.012873	85.220694	0.426431	0.677594	0.815487	9.291097	4.335853	4.468061	7.211405	0.125863	21.182025	-13.273553	0.000000	9.088027	-0.596339	16.435169	9.810578	0.171227	19.383698	-16.844172	0.000000	0.202514	0.066226	-0.862696	0.376089	0.088081	-0.916614	0.332710	0.161023	-0.916614	0.231453	0.161023	-0.754859	0.188055	0.135049	-0.700940	0.115717	0.102584	-0.647022	1.446538	0.749165	-4.798054	0.000000	0.000000	9.290732	-4.930887	2.823139	7.240917	-16.185737	43.049456	43.196117	80.008758	-5.268907	0.320939	5.804683	-15.054285	31.562155	47.552731	88.661565	-22.056736	0.449935
1.612245	6.420734	-0.164894	85.716356	0.425280	0.677180	0.815863	9.683386	4.131453	3.111175	7.698915	0.134371	21.984371	-11.957231	0.000000	9.213456	-0.462536	17.056164	9.564437	0.166931	19.394200	-16.798954	0.000000	0.222128	0.090367	-0.906456	0.412513	0.120188	-0.963109	0.364933	0.219719	-0.963109	0.253870	0.219719	-0.793149	0.206268	0.184277	-0.736495	0.126924	0.139979	-0.679842	1.586635	1.022251	-5.041434	0.000000	0.000000	10.177859	-5.142326	5.903417	8.147723	-16.313165	45.198640	43.859252	76.309215	-5.692391	0.270817	6.509810	-14.460075	34.130600	47.447181	88.288937	-19.355495	0.488751
1.632653	6.320510	-0.308230	86.197790	0.424123	0.676635	0.816183	10.052295	3.877686	1.761894	8.173620	0.142657	22.843734	-10.628890	0.000000	9.351166	-0.281096	17.753623	9.353483	0.163249	19.508929	-16.796121	0.000000	0.236453	0.112155	-0.957215	0.439117	0.149166	-1.017041	0.388468	0.272693	-1.017041	0.270242	0.272693	-0.837563	0.219570	0.228706	-0.777737	0.135109	0.173728	-0.717911	1.688959	1.268716	-5.323743	0.000000	0.000000	11.399337	-5.397007	9.087243	9.067498	-16.431999	47.437149	44.615155	71.973393	-5.841060	0.567361	7.081493	-13.858124	36.344060	47.554144	87.588500	-16.241432	0.819510
1.653061	6.195104	-0.434326	86.661776	0.422997	0.676014	0.816350	10.377427	3.593020	0.463102	8.625695	0.150547	23.728324	-9.344816	0.000000	9.475488	-0.076956	18.360078	9.161931	0.159906	19.795592	-16.637163	0.000000	0.247413	0.131649	-1.013249	0.459471	0.175093	-1.076577	0.406475	0.320091	-1.076577	0.282769	0.320091	-0.886592	0.229748	0.268458	-0.823264	0.141372	0.203924	-0.759936	1.767248	1.489237	-5.635384	0.000000	0.000000	12.903884	-5.704196	12.328006	9.942125	-16.538031	49.662694	45.433399	67.486101	-5.688594	1.137339	7.520652	-13.259238	38.242612	47.884185	86.348043	-12.938255	1.353178
1.673469	6.070953	-0.539236	87.116643	0.421909	0.675345	0.816302	10.652184	3.308415	-0.762299	9.054914	0.158038	24.623521	-8.128803	0.000000	9.570123	0.122590	18.890005	8.980129	0.156733	20.250277	-16.375813	0.000000	0.257329	0.150985	-1.076307	0.477886	0.200810	-1.143576	0.422766	0.367104	-1.143576	0.294102	0.367104	-0.941768	0.238956	0.307888	-0.874499	0.147038	0.233875	-0.807230	1.838078	1.707968	-5.986095	0.000000	0.000000	14.616691	-6.074410	15.554934	10.769629	-16.638597	51.885743	46.294981	63.004013	-5.239823	2.000628	7.796059	-12.644017	39.735475	48.427802	84.652223	-9.431489	2.116454
1.693878	5.962618	-0.626101	87.577396	0.420846	0.674658	0.816000	10.880953	3.039189	-1.923890	9.461095	0.165127	25.523683	-6.977956	0.000000	9.624078	0.310333	19.451922	8.789523	0.153406	20.819494	-16.195482	0.000000	0.268168	0.171672	-1.149443	0.498015	0.228323	-1.221284	0.440574	0.417402	-1.221284	0.306489	0.417402	-1.005763	0.249021	0.350073	-0.933923	0.153231	0.265919	-0.862082	1.915499	1.941983	-6.392859	0.000000	0.000000	16.455807	-6.469180	18.792091	11.515919	-16.731543	54.035290	47.169404	58.805926	-4.472259	3.121654	7.888634	-11.981838	40.785317	49.115209	82.641570	-5.813542	3.014362
1.714286	5.880056	-0.692434	88.058929	0.419855	0.673983	0.815451	11.070384	2.806017	-2.950549	9.851263	0.171937	26.417820	-5.974844	0.000000	9.638432	0.458510	19.804922	8.595409	0.150018	21.528975	-15.775891	0.000000	0.281157	0.193641	-1.229561	0.522137	0.257543	-1.306408	0.461913	0.470820	-1.306408	0.321335	0.470820	-1.075866	0.261083	0.394874	-0.999018	0.160653	0.299951	-0.922171	2.008279	2.190511	-6.838448	0.000000	0.000000	18.330121	-6.862652	21.992712	12.135741	-16.793070	55.998404	48.011275	54.915947	-3.410451	4.477324	7.869013	-11.295698	41.655286	49.868586	80.080706	-2.427069	3.830637
1.734694	5.839923	-0.741662	88.573152	0.418932	0.673324	0.814676	11.230879	2.628852	-3.807492	10.224744	0.178455	27.293512	-5.162073	0.000000	9.629689	0.549231	19.855578	8.428846	0.147111	22.370427	-15.020243	0.000000	0.298307	0.218571	-1.316274	0.553985	0.290700	-1.398541	0.490088	0.531435	-1.398541	0.340935	0.531435	-1.151740	0.277008	0.445711	-1.069472	0.170452	0.338567	-0.987205	2.130774	2.472523	-7.320720	0.000000	0.000000	20.169335	-7.206130	25.174078	12.638204	-16.838757	57.851513	48.777582	51.192959	-2.167568	6.051717	7.778499	-10.615664	42.490977	50.573931	77.200955	0.510104	4.476797
1.755102	5.853650	-0.759309	89.110464	0.418104	0.672714	0.813633	11.358199	2.524003	-4.479271	10.595706	0.184930	28.177825	-4.543083	0.000000	9.560459	0.569459	19.642604	8.254862	0.144075	23.287822	-14.005018	0.000000	0.319517	0.246328	-1.399159	0.593376	0.327616	-1.486606	0.524935	0.598922	-1.486606	0.365176	0.598922	-1.224264	0.296704	0.502312	-1.136817	0.182572	0.381562	-1.049369	2.282280	2.786511	-7.781701	0.000000	0.000000	21.912515	-7.507695	28.166343	12.994162	-16.881662	59.574833	49.415665	47.783695	-0.779711	7.772923	7.711787	-9.968678	43.647080	51.069447	74.128346	2.457803	4.674197
1.775510	5.914138	-0.750230	89.666603	0.417405	0.672137	0.812357	11.475420	2.494109	-4.884001	10.985378	0.191731	29.068395	-4.224579	0.000000	9.449191	0.519049	19.064692	8.095358	0.141291	24.269453	-12.592212	0.000000	0.345629	0.274899	-1.473170	0.641868	0.365615	-1.565244	0.567834	0.668389	-1.565244	0.395020	0.668389	-1.289024	0.320951	0.560574	-1.196951	0.197493	0.425818	-1.104878	2.468795	3.109711	-8.193332	0.000000	0.000000	23.507883	-7.759932	30.857109	13.235859	-16.918443	61.272113	49.893581	44.527365	0.662480	9.597908	7.672468	-9.368597	45.056965	51.325971	71.311526	3.483540	4.577220
1.795918	6.011421	-0.728544	90.235684	0.416840	0.671559	0.810888	11.616508	2.527638	-5.013023	11.428498	0.199465	29.977493	-4.229259	0.000000	9.314622	0.411630	18.177764	7.951357	0.138777	25.285067	-10.853575	0.000000	0.376868	0.302565	-1.531758	0.699882	0.402411	-1.627493	0.619157	0.735656	-1.627493	0.430723	0.735656	-1.340288	0.349960	0.616990	-1.244553	0.215342	0.468673	-1.148818	2.691932	3.422675	-8.519178	0.000000	0.000000	24.925753	-7.950646	33.181866	13.365754	-16.961749	62.919848	50.197105	41.684373	2.119648	11.406192	7.667276	-8.831953	46.690585	51.375930	68.877406	3.693780	4.263732
1.816327	6.131783	-0.702723	90.810379	0.416402	0.670955	0.809247	11.797210	2.609637	-4.877649	11.943496	0.208453	30.903164	-4.551377	0.000000	9.164582	0.263981	17.050142	7.817670	0.136444	26.307559	-8.853822	0.000000	0.412485	0.327397	-1.567076	0.766026	0.435438	-1.665018	0.677672	0.796033	-1.665018	0.471429	0.796033	-1.371191	0.383034	0.667628	-1.273249	0.235694	0.507138	-1.175307	2.946339	3.703580	-8.715604	0.000000	0.000000	26.156417	-8.075051	35.079244	13.363993	-17.026232	64.445609	50.345274	39.463098	3.461303	13.012959	7.694572	-8.374664	48.509610	51.268997	67.001465	3.046215	3.838183
1.836735	6.274093	-0.676790	91.358683	0.416083	0.670307	0.807458	12.026881	2.743016	-4.534400	12.543038	0.218917	31.840156	-5.122451	0.000000	8.995666	0.077555	15.729727	7.680868	0.134056	27.332555	-6.670553	0.000000	0.451942	0.349299	-1.577735	0.839302	0.464567	-1.676344	0.742496	0.849285	-1.676344	0.516525	0.849285	-1.380519	0.419673	0.712290	-1.281910	0.258240	0.541064	-1.183302	3.228177	3.951336	-8.774891	0.000000	0.000000	27.196254	-8.197912	36.379747	13.285379	-17.119678	65.915697	50.333795	37.876072	4.571388	14.281944	7.670608	-7.996110	50.263263	51.091870	65.864704	1.737620	3.365693
1.857143	6.429250	-0.658128	91.879299	0.415872	0.669589	0.805590	12.311878	2.917441	-3.968249	13.223812	0.230799	32.744011	-6.016487	0.000000	8.826389	-0.134227	14.277261	7.554557	0.131852	28.356552	-4.358826	0.000000	0.494111	0.367482	-1.557321	0.917614	0.488752	-1.654654	0.811776	0.893497	-1.654654	0.564720	0.893497	-1.362656	0.458832	0.749370	-1.265323	0.282335	0.569230	-1.167991	3.529388	4.157034	-8.661353	0.000000	0.000000	28.025402	-8.331219	37.051162	13.082993	-17.221853	67.097768	50.207490	36.957156	5.384439	15.191002	7.633212	-7.712653	52.008005	50.829135	65.507224	-0.055786	2.794361
1.877551	6.591978	-0.655450	92.345887	0.415775	0.668786	0.803669	12.653326	3.120802	-3.297815	13.970956	0.243839	33.631317	-7.050575	0.000000	8.657000	-0.367040	12.756189	7.417608	0.129462	29.358536	-2.008015	0.000000	0.539263	0.382675	-1.510845	1.001466	0.508958	-1.605273	0.885956	0.930437	-1.605273	0.616324	0.930437	-1.321989	0.500760	0.780352	-1.227561	0.308135	0.592764	-1.133134	3.851904	4.328900	-8.402865	0.000000	0.000000	28.611727	-8.493869	37.121439	12.824329	-17.317806	68.119335	49.950790	36.376150	5.893735	15.648965	7.489015	-7.470769	53.458270	50.463678	65.947162	-1.858355	2.043045
1.897959	6.747576	-0.669645	92.759558	0.415793	0.667897	0.801782	13.048558	3.332523	-2.583064	14.775035	0.257873	34.485162	-8.164655	0.000000	8.499954	-0.600667	11.256245	7.278790	0.127039	30.312940	0.290963	0.000000	0.585544	0.394245	-1.438362	1.087414	0.524346	-1.528259	0.961991	0.958567	-1.528259	0.669219	0.958567	-1.258567	0.543736	0.803944	-1.168669	0.334580	0.610685	-1.078771	4.182485	4.459776	-7.999737	0.000000	0.000000	28.934690	-8.672710	36.671223	12.523783	-17.374075	68.958363	49.564481	35.804927	6.153962	15.648183	7.320604	-7.271593	54.796393	49.896415	67.088753	-3.564992	1.040015
1.918367	6.893667	-0.705197	93.120694	0.415909	0.666927	0.799966	13.484530	3.548184	-1.829229	15.602810	0.272320	35.261893	-9.369889	0.000000	8.367924	-0.828112	9.836088	7.145142	0.124706	31.191950	2.464618	0.000000	0.631606	0.403909	-1.342064	1.172955	0.537199	-1.425942	1.037665	0.982064	-1.425942	0.721862	0.982064	-1.174306	0.586509	0.823651	-1.090427	0.360899	0.625655	-1.006548	4.511495	4.569100	-7.464155	0.000000	0.000000	29.002534	-8.779330	35.935165	12.151067	-17.353445	69.467453	49.058127	35.275847	6.311861	15.278300	7.175742	-7.098482	56.124751	49.084765	68.726788	-5.054392	-0.240728
1.938776	7.015012	-0.757873	93.428383	0.416104	0.665885	0.798311	13.954857	3.738324	-1.159974	16.450912	0.287123	35.974859	-10.500296	0.000000	8.271954	-1.027833	8.523486	7.034354	0.122773	31.969127	4.458237	0.000000	0.674728	0.410912	-1.233922	1.253037	0.546513	-1.311042	1.108510	0.999092	-1.311042	0.771146	0.999092	-1.079682	0.626552	0.837933	-1.002562	0.385539	0.636503	-0.925441	4.819512	4.648323	-6.862703	0.000000	0.000000	28.895322	-8.813772	35.032963	11.848565	-17.239812	70.036917	48.375516	34.348613	6.403517	14.400052	7.065105	-6.955540	57.454524	48.055016	70.642137	-6.233890	-1.782012
1.959184	7.107895	-0.830642	93.672590	0.416386	0.664776	0.796881	14.448395	3.899638	-0.570222	17.289951	0.301767	36.606205	-11.536514	0.000000	8.226544	-1.192512	7.347342	6.958017	0.121440	32.623838	6.197214	0.000000	0.713033	0.416068	-1.116514	1.324174	0.553370	-1.186296	1.171443	1.011627	-1.186296	0.814926	1.011627	-0.976950	0.662123	0.848445	-0.907168	0.407427	0.644489	-0.837385	5.093126	4.706642	-6.209716	0.000000	0.000000	28.709256	-8.754282	34.132805	11.590517	-17.024719	70.566495	47.560502	33.055888	6.513784	13.279078	7.014158	-6.835845	58.776586	46.870674	72.759812	-6.995919	-3.420106
1.979592	7.159082	-0.929539	93.844006	0.416772	0.663624	0.795691	14.952948	4.019695	-0.060417	18.087006	0.315678	37.138168	-12.455980	0.000000	8.237156	-1.310100	6.314751	6.904456	0.120505	33.144692	7.651137	0.000000	0.747579	0.417834	-0.990769	1.388329	0.555719	-1.052692	1.228197	1.015921	-1.052692	0.854408	1.015921	-0.866923	0.694202	0.852047	-0.805000	0.427167	0.647224	-0.743077	5.339881	4.726619	-5.510362	0.000000	0.000000	28.538347	-8.642102	33.236358	11.373285	-16.700377	71.105971	46.644986	31.572907	6.661071	12.045257	7.024778	-6.739039	60.053794	45.611185	74.881836	-7.243677	-4.968451
2.000000	7.163631	-1.038725	93.953593	0.417227	0.662479	0.794724	15.439104	4.090638	0.374016	18.827572	0.328603	37.558872	-13.261682	0.000000	8.288634	-1.368429	5.468712	6.871133	0.119924	33.536650	8.753841	0.000000	0.777888	0.414634	-0.861851	1.444616	0.551464	-0.915717	1.277993	1.008142	-0.915717	0.889048	1.008142	-0.754120	0.722347	0.845522	-0.700254	0.444485	0.642268	-0.646388	5.556378	4.690425	-4.793357	0.000000	0.000000	28.455539	-8.571370	32.195922	11.246828	-16.280809	71.862254	45.685710	29.932865	6.775967	10.732298	7.065528	-6.674996	61.140216	44.393538	76.955466	-6.987643	-6.224524
2.020408	7.127668	-1.162179	94.016425	0.417746	0.661398	0.793885	15.885607	4.116980	0.726424	19.475939	0.339919	37.864935	-13.943303	0.000000	8.376096	-1.379050	4.728428	6.842528	0.119425	33.842570	9.633746	0.000000	0.808209	0.407438	-0.732050	1.500924	0.541893	-0.777803	1.327806	0.990645	-0.777803	0.923702	0.990645	-0.640544	0.750503	0.830848	-0.594791	0.461810	0.631121	-0.549038	5.772953	4.609020	-4.071444	0.000000	0.000000	28.431911	-8.444419	31.190331	11.155546	-15.799932	72.718298	44.716941	28.341958	6.959072	9.459948	7.171072	-6.682918	62.209587	43.325433	78.583139	-6.517931	-7.170145
2.040816	7.068131	-1.284381	94.051213	0.418286	0.660441	0.793112	16.256842	4.117187	1.026152	19.999305	0.349054	38.040033	-14.549508	0.000000	8.475094	-1.352557	4.191242	6.806753	0.118800	34.078155	10.188901	0.000000	0.840802	0.397154	-0.607292	1.561453	0.528215	-0.645247	1.381353	0.965640	-0.645247	0.960953	0.965640	-0.531380	0.780769	0.809876	-0.493424	0.480434	0.615191	-0.455469	6.005764	4.492683	-3.377573	0.000000	0.000000	28.429344	-8.309844	30.058607	11.130062	-15.280902	73.775987	43.791414	27.158127	7.152943	8.193366	7.294937	-6.753572	63.085377	42.454739	79.867845	-5.839551	-7.762134
2.061224	6.987537	-1.404123	94.053055	0.418883	0.659647	0.792408	16.549249	4.096011	1.272220	20.386508	0.355812	38.102558	-15.052173	0.000000	8.597536	-1.309425	3.527983	6.795549	0.118605	34.338499	10.839807	0.000000	0.877453	0.383553	-0.484443	1.629518	0.510125	-0.514721	1.441567	0.932570	-0.514721	1.002841	0.932570	-0.423888	0.814803	0.782141	-0.393610	0.501377	0.594123	-0.363332	6.267558	4.338825	-2.694327	0.000000	0.000000	28.433112	-8.203733	28.702114	11.177961	-14.750219	75.061086	42.940697	25.982075	7.488793	7.017316	7.473799	-6.891781	63.907052	41.788978	80.693443	-5.085941	-8.110499
2.081633	6.916620	-1.514057	94.034150	0.419477	0.659049	0.791748	16.751538	4.078578	1.443948	20.622764	0.359935	38.077553	-15.416793	0.000000	8.708262	-1.253713	3.240185	6.764513	0.118063	34.500515	10.930052	0.000000	0.916129	0.373043	-0.374864	1.701343	0.496147	-0.398294	1.505108	0.907016	-0.398294	1.047044	0.907016	-0.328006	0.850717	0.760709	-0.304577	0.523476	0.577843	-0.281148	6.543817	4.219935	-2.084884	0.000000	0.000000	28.438657	-8.013414	27.404239	11.343493	-14.257699	76.528736	42.183892	25.570477	7.851141	5.938918	7.637315	-7.037159	64.486705	41.296046	81.269406	-4.215148	-8.260063
2.102041	6.867595	-1.593851	94.053217	0.419990	0.658708	0.791125	16.827921	4.067342	1.502493	20.671897	0.360793	37.978114	-15.644060	0.000000	8.793609	-1.195836	3.334781	6.725988	0.117391	34.568857	10.535175	0.000000	0.952234	0.368779	-0.290648	1.768394	0.490476	-0.308813	1.564425	0.896649	-0.308813	1.088308	0.896649	-0.254317	0.884244	0.752014	-0.236151	0.544106	0.571238	-0.217986	6.801712	4.171699	-1.616495	0.000000	0.000000	28.444174	-7.672740	26.418646	11.622929	-13.820421	78.109069	41.524108	26.025284	8.177211	4.977557	7.795254	-7.155601	64.900575	40.903441	81.412232	-3.306910	-8.372051
2.122449	6.855240	-1.641330	94.111842	0.420499	0.658618	0.790561	16.794583	4.087361	1.502050	20.558953	0.358821	37.818484	-15.804386	0.000000	8.862144	-1.178835	3.363768	6.697955	0.116901	34.654202	10.288800	0.000000	0.984879	0.370850	-0.230764	1.829019	0.493231	-0.245187	1.618058	0.901685	-0.245187	1.125618	0.901685	-0.201919	0.914559	0.756238	-0.187496	0.562760	0.574447	-0.173073	7.034892	4.195131	-1.283442	0.000000	0.000000	28.449603	-7.172311	25.638995	12.043686	-13.437168	79.905798	40.956458	26.841826	8.380656	4.143002	7.953291	-7.255809	65.205261	40.598495	81.028983	-2.448028	-8.458732
2.142857	6.886130	-1.656862	94.214213	0.420972	0.658756	0.790050	16.666245	4.143066	1.442476	20.308466	0.354450	37.627400	-15.896183	0.000000	8.899342	-1.195144	3.620783	6.660845	0.116254	34.676878	9.797435	0.000000	1.011342	0.382202	-0.199457	1.878163	0.508329	-0.211923	1.661534	0.929286	-0.211923	1.155863	0.929286	-0.174525	0.939132	0.779387	-0.162059	0.577881	0.592031	-0.149593	7.223914	4.323547	-1.109320	0.000000	0.000000	28.454407	-6.421545	25.347370	12.588186	-13.129140	81.792015	40.477857	28.446401	8.394528	3.431228	8.074601	-7.308567	65.332551	40.341284	80.256623	-1.572597	-8.479832
2.163265	6.960472	-1.637010	94.359742	0.421391	0.659099	0.789565	16.456541	4.234105	1.335615	19.953873	0.348261	37.435964	-15.933192	0.000000	8.890267	-1.245122	4.107060	6.594976	0.115104	34.628787	9.072561	0.000000	1.031149	0.402320	-0.190845	1.914947	0.535085	-0.202773	1.694075	0.978200	-0.202773	1.178500	0.978200	-0.166989	0.957525	0.820410	-0.155062	0.589199	0.623193	-0.143134	7.365395	4.551119	-1.061423	0.000000	0.000000	28.458706	-5.490322	25.424467	13.170788	-12.919220	83.555511	40.108803	30.737607	8.276044	2.895413	8.166304	-7.313022	65.341145	40.107712	79.278132	-0.738947	-8.501059
2.183673	7.066550	-1.595990	94.552694	0.421769	0.659588	0.789103	16.205182	4.352230	1.219668	19.545311	0.341130	37.260765	-15.984423	0.000000	8.853538	-1.323635	4.768685	6.506444	0.113559	34.513868	8.195472	0.000000	1.047145	0.427937	-0.204555	1.944652	0.569156	-0.217339	1.720354	1.040485	-0.217339	1.196782	1.040485	-0.178985	0.972379	0.872648	-0.166201	0.598338	0.662874	-0.153416	7.479650	4.840904	-1.137672	0.000000	0.000000	28.462201	-4.473929	25.678918	13.790076	-12.807277	85.310315	39.899658	32.635676	7.993564	2.525670	8.193488	-7.297606	65.121683	39.934453	78.444336	0.149035	-8.431442
2.204082	7.181960	-1.540791	94.803865	0.422077	0.660179	0.788627	15.933395	4.464898	1.050732	19.122822	0.333756	37.134466	-16.011658	0.000000	8.784439	-1.402951	5.671765	6.377599	0.111310	34.321299	7.108707	0.000000	1.060900	0.455105	-0.231666	1.970198	0.605290	-0.246145	1.742953	1.106543	-0.246145	1.212503	1.106543	-0.202708	0.985152	0.928050	-0.188229	0.606198	0.704958	-0.173749	7.577904	5.148241	-1.288456	0.000000	0.000000	28.465125	-3.447943	25.991779	14.307178	-12.796775	86.735931	39.866803	34.133307	7.632336	2.253043	8.213757	-7.302646	64.857915	39.858680	77.848741	0.946892	-8.333922
2.224490	7.298902	-1.464419	95.088375	0.422341	0.660839	0.788097	15.648339	4.573377	0.865978	18.721844	0.326758	37.050590	-16.054253	0.000000	8.658818	-1.481214	6.781599	6.187326	0.107989	34.052455	5.820808	0.000000	1.072601	0.479557	-0.260264	1.991927	0.637810	-0.276530	1.762176	1.165994	-0.276530	1.225875	1.165994	-0.227731	0.996017	0.977912	-0.211464	0.612884	0.742833	-0.195198	7.661480	5.424841	-1.447508	0.000000	0.000000	28.467589	-2.624986	25.870259	14.666726	-12.871001	87.702826	40.013166	35.215516	7.190383	2.039311	8.229300	-7.351492	64.549261	39.915127	77.674975	1.635847	-8.205838
2.244898	7.422862	-1.366936	95.402544	0.422532	0.661525	0.787487	15.356938	4.686805	0.692866	18.355226	0.320359	37.014449	-16.146106	0.000000	8.475948	-1.568690	7.995030	5.938019	0.103638	33.765734	4.510431	0.000000	1.082173	0.503502	-0.295775	2.009703	0.669658	-0.314261	1.777902	1.224215	-0.314261	1.236815	1.224215	-0.258804	1.004906	1.026742	-0.240318	0.618354	0.779925	-0.221832	7.729852	5.695718	-1.645014	0.000000	0.000000	28.469604	-1.926695	25.523034	14.902643	-13.024377	88.424413	40.339063	34.456441	6.716038	1.973221	8.210321	-7.426887	64.127638	40.077186	77.921409	2.208533	-8.063109
2.265306	7.540716	-1.253506	95.754779	0.422651	0.662163	0.786837	15.089257	4.786109	0.501752	18.069165	0.315366	37.040141	-16.258699	0.000000	8.244028	-1.648591	9.380524	5.633621	0.098325	33.437081	3.070983	0.000000	1.088430	0.523791	-0.331561	2.021323	0.696642	-0.352284	1.788182	1.273545	-0.352284	1.243967	1.273545	-0.290116	1.010716	1.068115	-0.269393	0.621929	0.811352	-0.248671	7.774546	5.925229	-1.844043	0.000000	0.000000	28.470697	-1.434374	24.781829	14.960456	-13.227071	88.626227	40.767045	33.109797	6.246583	2.027531	8.221313	-7.537798	63.746100	40.328709	78.549004	2.651542	-7.921890
2.285714	7.651697	-1.123703	96.124857	0.422701	0.662715	0.786166	14.853249	4.875657	0.314783	17.878696	0.312042	37.116666	-16.396643	0.000000	7.962674	-1.721388	10.918619	5.278266	0.092123	33.075979	1.489035	0.000000	1.090292	0.540869	-0.361526	2.024780	0.719355	-0.384121	1.791240	1.315068	-0.384121	1.246094	1.315068	-0.316335	1.012445	1.102940	-0.293740	0.622993	0.837806	-0.271145	7.787844	6.118415	-2.010699	0.000000	0.000000	28.470328	-1.171160	23.660049	14.840783	-13.449998	88.209529	41.211165	32.597270	5.806441	2.025455	8.289831	-7.650899	63.477425	40.593016	79.457121	2.951313	-7.831812
2.306122	7.753399	-0.983569	96.486414	0.422694	0.663122	0.785557	14.667302	4.956058	0.141060	17.802774	0.310717	37.248475	-16.525130	0.000000	7.651985	-1.786037	12.518706	4.895673	0.085446	32.716634	-0.154530	0.000000	1.086289	0.557093	-0.385338	2.017347	0.740934	-0.409422	1.784664	1.354516	-0.409422	1.241520	1.354516	-0.337171	1.008728	1.136024	-0.313087	0.620705	0.862937	-0.289004	7.759253	6.301947	-2.143135	0.000000	0.000000	28.468591	-1.073322	22.426412	14.660707	-13.664146	87.466374	41.627647	32.702354	5.556138	2.169112	8.422321	-7.740196	63.307660	40.830114	80.505553	3.158809	-7.768188
2.326531	7.840487	-0.843419	96.836145	0.422622	0.663345	0.785062	14.538132	5.023304	-0.013005	17.833245	0.311249	37.425507	-16.641097	0.000000	7.334545	-1.836846	14.136908	4.501527	0.078566	32.367242	-1.821113	0.000000	1.076243	0.572076	-0.399478	1.998692	0.760861	-0.424446	1.768160	1.390945	-0.424446	1.230039	1.390945	-0.349543	0.999400	1.166577	-0.324576	0.614966	0.886146	-0.299609	7.687500	6.471437	-2.221778	0.000000	0.000000	28.465093	-1.112936	21.146015	14.437746	-13.834368	86.480349	41.950006	34.006842	5.406168	2.308306	8.639707	-7.780325	63.298963	40.991866	81.504764	3.285955	-7.722250
2.346939	7.901914	-0.708713	97.150887	0.422510	0.663354	0.784712	14.467900	5.071462	-0.124412	17.967510	0.313592	37.647989	-16.718318	0.000000	7.023393	-1.865403	15.691295	4.107170	0.071684	32.042875	-3.448197	0.000000	1.060417	0.583288	-0.396394	1.969301	0.775773	-0.421169	1.742160	1.418206	-0.421169	1.211951	1.418206	-0.346845	0.984704	1.189441	-0.322070	0.605923	0.903513	-0.297296	7.574456	6.598269	-2.204625	0.000000	0.000000	28.460028	-1.396731	19.591132	14.219132	-13.929105	85.477626	42.147603	36.389689	5.279230	2.410969	8.948969	-7.762604	63.483724	41.048495	82.325147	3.363311	-7.665042
2.367347	7.931970	-0.587466	97.433536	0.422356	0.663158	0.784537	14.456585	5.094517	-0.184924	18.188545	0.317450	37.903693	-16.766346	0.000000	6.737906	-1.865436	17.133989	3.725074	0.065015	31.746393	-4.976160	0.000000	1.041551	0.591748	-0.380976	1.934264	0.787025	-0.404787	1.711164	1.438776	-0.404787	1.190388	1.438776	-0.333354	0.967184	1.206692	-0.309543	0.595142	0.916617	-0.285732	7.439693	6.693970	-2.118875	0.000000	0.000000	28.455008	-1.799308	18.062838	14.001644	-13.925999	84.475210	42.209497	39.714150	5.243289	2.642231	9.338557	-7.670984	63.859979	40.966304	83.251282	3.255126	-7.637697
2.387755	7.928470	-0.491483	97.658465	0.422190	0.662747	0.784494	14.512481	5.088843	-0.203694	18.489565	0.322704	38.199869	-16.755487	0.000000	6.493627	-1.835868	18.382973	3.367890	0.058781	31.499534	-6.341317	0.000000	1.023465	0.594706	-0.344333	1.900677	0.790959	-0.365854	1.681451	1.445968	-0.365854	1.169718	1.445968	-0.301291	0.950390	1.212724	-0.279771	0.584808	0.921199	-0.258250	7.310509	6.727431	-1.915077	0.000000	0.000000	28.449878	-2.554222	16.117561	13.810747	-13.831568	83.697602	42.142292	43.649773	5.190601	2.787656	9.714897	-7.510991	64.150714	40.772914	84.482874	3.119975	-7.591619
2.408163	7.886962	-0.416251	97.821446	0.422052	0.662162	0.784601	14.632679	5.055228	-0.162681	18.868151	0.329311	38.528166	-16.733113	0.000000	6.292209	-1.774517	19.404500	3.047480	0.053189	31.300897	-7.517128	0.000000	1.006111	0.590389	-0.279976	1.868449	0.785218	-0.297474	1.652940	1.435473	-0.297474	1.149885	1.435473	-0.244979	0.934275	1.203922	-0.227480	0.574892	0.914513	-0.209982	7.186553	6.678603	-1.557142	0.000000	0.000000	28.445109	-3.684488	13.632687	13.617999	-13.649522	83.083276	41.954670	47.854498	5.168595	2.863443	10.117135	-7.304542	64.564931	40.485648	85.480301	2.954902	-7.464415
2.428571	7.812366	-0.368667	97.902996	0.421990	0.661435	0.784864	14.823420	4.998542	-0.071727	19.315761	0.337124	38.885670	-16.681275	0.000000	6.146854	-1.690046	20.141647	2.778912	0.048501	31.160759	-8.454125	0.000000	0.990189	0.579762	-0.184582	1.838880	0.771084	-0.196119	1.626781	1.409634	-0.196119	1.131687	1.409634	-0.161510	0.919489	1.182251	-0.149973	0.565794	0.898052	-0.138437	7.072820	6.558385	-1.026592	0.000000	0.000000	28.440428	-5.114912	10.697464	13.409015	-13.402936	82.582933	41.659327	52.234900	5.152427	2.862546	10.559676	-7.064715	65.212192	40.120387	85.960515	2.764155	-7.272380
2.448980	7.711504	-0.332835	97.935468	0.421986	0.660628	0.785268	15.047912	4.923158	0.058675	19.794549	0.345480	39.245065	-16.644985	0.000000	6.044430	-1.586091	20.685679	2.564390	0.044757	31.074239	-9.203982	0.000000	0.974620	0.562851	-0.072484	1.809968	0.748592	-0.077015	1.601204	1.368516	-0.077015	1.113894	1.368516	-0.063424	0.905033	1.147766	-0.058894	0.556898	0.871856	-0.054363	6.961617	6.367084	-0.403136	0.000000	0.000000	28.435905	-6.813570	7.251509	13.255248	-13.091329	82.416689	41.300092	56.627295	4.939074	2.723663	10.923034	-6.799219	65.681588	39.717317	86.400338	2.693982	-6.867558
2.469388	7.584960	-0.308232	97.905190	0.422088	0.659801	0.785827	15.294043	4.829715	0.215513	20.280211	0.353956	39.591673	-16.604374	0.000000	5.990167	-1.470385	20.940149	2.416823	0.042182	31.056500	-9.660541	0.000000	0.958245	0.540914	0.059192	1.779557	0.719416	0.062892	1.574301	1.315178	0.062892	1.095178	1.315178	0.051793	0.889826	1.103032	0.048094	0.547541	0.837876	0.044394	6.844649	6.118927	0.329210	0.000000	0.000000	28.431000	-8.675274	3.481853	13.151073	-12.744124	82.512607	40.895690	60.960347	4.565976	2.533802	11.299749	-6.523896	66.382955	39.273166	86.145575	2.635921	-6.383733
2.489796	7.447746	-0.284979	97.840675	0.422247	0.659034	0.786512	15.526069	4.725671	0.361949	20.726731	0.361750	39.895711	-16.571696	0.000000	5.956097	-1.336848	21.317834	2.296456	0.040081	31.013443	-10.305497	0.000000	0.938060	0.517946	0.194487	1.742072	0.688868	0.206643	1.541139	1.259334	0.206643	1.072109	1.259334	0.170176	0.871083	1.056196	0.158021	0.536008	0.802299	0.145865	6.700472	5.859110	1.081679	0.000000	0.000000	28.425030	-10.483724	-0.193398	13.132294	-12.390149	82.820740	40.471041	66.152193	3.851424	2.221674	11.621129	-6.228477	67.108998	38.803983	85.232240	2.658280	-5.774696
2.510204	7.302892	-0.248641	97.791170	0.422425	0.658416	0.787331	15.703677	4.605524	0.445409	21.086348	0.368026	40.126368	-16.559651	0.000000	5.948344	-1.199627	21.585642	2.227967	0.038885	31.009076	-10.740562	0.000000	0.911964	0.493901	0.326429	1.693608	0.656888	0.346831	1.498266	1.200871	0.346831	1.042284	1.200871	0.285625	0.846850	1.007163	0.265224	0.521096	0.765052	0.244822	6.514068	5.587105	1.815500	0.000000	0.000000	28.417607	-12.130979	-3.651526	13.178719	-12.053264	83.252931	40.060788	71.848917	2.808542	1.808498	11.933253	-5.919470	68.005814	38.284716	83.410311	2.775446	-5.118486
2.530612	7.146357	-0.214617	97.714372	0.422736	0.657969	0.788275	15.848073	4.474322	0.498446	21.372476	0.373020	40.273324	-16.564722	0.000000	5.970433	-1.062113	21.688466	2.188496	0.038196	31.033271	-10.944309	0.000000	0.881668	0.467547	0.461849	1.637346	0.621838	0.490715	1.448492	1.136795	0.490715	1.007658	1.136795	0.404118	0.818717	0.953423	0.375252	0.503785	0.724231	0.346387	6.297666	5.288989	2.568666	0.000000	0.000000	28.408404	-13.536035	-6.864338	13.254266	-11.752434	83.630086	39.682943	77.768915	1.647100	1.324965	12.258052	-5.622594	69.120703	37.732366	80.874772	2.924969	-4.516967
2.551020	6.980368	-0.181825	97.629988	0.423136	0.657745	0.789312	15.940383	4.327741	0.503503	21.554716	0.376201	40.319237	-16.578796	0.000000	6.009788	-0.914524	21.915991	2.153369	0.037583	31.010865	-11.265470	0.000000	0.846482	0.441282	0.591038	1.572001	0.586905	0.627978	1.390684	1.072932	0.627978	0.967444	1.072932	0.517158	0.786043	0.899862	0.480218	0.483680	0.683545	0.443278	6.046333	4.991867	3.287175	0.000000	0.000000	28.397828	-14.583330	-9.482378	13.346919	-11.513409	83.863562	39.338668	83.645617	0.446392	0.788404	12.585821	-5.345341	70.367738	37.152564	77.837873	3.091159	-4.050977
2.571429	6.809521	-0.158204	97.534839	0.423648	0.657759	0.790370	15.980249	4.170945	0.461759	21.620605	0.377351	40.257205	-16.594860	0.000000	6.067133	-0.769842	22.137438	2.112399	0.036868	30.961896	-11.534249	0.000000	0.811081	0.413693	0.710924	1.506259	0.550211	0.755357	1.332525	1.005852	0.755357	0.926985	1.005852	0.622058	0.753170	0.843602	0.577626	0.463452	0.640810	0.533193	5.793472	4.679773	3.953945	0.000000	0.000000	28.387279	-15.352761	-11.726033	13.458114	-11.337495	84.105851	39.058682	87.908009	-0.640639	0.304817	12.875952	-5.110579	71.542119	36.581668	74.922036	3.301312	-3.751676
2.591837	6.653030	-0.148534	97.455705	0.424230	0.657998	0.791397	15.965403	4.018297	0.354582	21.551969	0.376153	40.088399	-16.605826	0.000000	6.145302	-0.643481	22.408190	2.065090	0.036043	30.872204	-11.807778	0.000000	0.779097	0.386164	0.811557	1.446861	0.513598	0.862279	1.279979	0.938919	0.862279	0.890430	0.938919	0.710112	0.723470	0.787465	0.659390	0.445176	0.598168	0.608668	5.565014	4.368363	4.513635	0.000000	0.000000	28.377752	-15.897544	-13.651544	13.562277	-11.230243	84.361393	38.863374	89.693902	-1.471517	-0.082755	13.109450	-4.940839	72.562098	36.069929	72.288523	3.574746	-3.604159
2.612245	6.523386	-0.144173	97.394754	0.424857	0.658457	0.792363	15.881683	3.884058	0.184247	21.336946	0.372400	39.817869	-16.593793	0.000000	6.231125	-0.550377	22.655636	2.015748	0.035181	30.755453	-12.009211	0.000000	0.749446	0.360050	0.891065	1.391797	0.478866	0.946756	1.231266	0.875425	0.946756	0.856542	0.875425	0.779681	0.695936	0.734214	0.723990	0.428234	0.557717	0.668298	5.353221	4.072955	4.955834	0.000000	0.000000	28.369850	-16.228494	-15.290178	13.619105	-11.197278	84.494347	38.760164	89.283139	-2.035841	-0.356468	13.308167	-4.849675	73.433786	35.658539	70.105911	3.835159	-3.612291
2.632653	6.447513	-0.139727	97.343295	0.425498	0.659104	0.793255	15.723712	3.799810	-0.034349	20.969595	0.365988	39.443985	-16.535003	0.000000	6.316877	-0.515933	22.860668	1.973012	0.034436	30.612641	-12.162670	0.000000	0.721255	0.338884	0.944707	1.339443	0.450716	1.003751	1.184950	0.823963	1.003751	0.824323	0.823963	0.826619	0.669758	0.691053	0.767574	0.412125	0.524932	0.708530	5.151854	3.833528	5.254177	0.000000	0.000000	28.363921	-16.377146	-16.693538	13.667194	-11.243970	84.593907	38.766610	86.804336	-2.345875	-0.496795	13.465801	-4.829702	74.093566	35.356999	68.386367	4.095594	-3.788947
2.653061	6.446276	-0.135356	97.330735	0.426064	0.659882	0.794030	15.479545	3.786922	-0.291787	20.424110	0.356468	38.979651	-16.438189	0.000000	6.406274	-0.557393	23.023312	1.950251	0.034038	30.470133	-12.212245	0.000000	0.694634	0.328338	0.957322	1.290004	0.436689	1.017155	1.141214	0.798320	1.017155	0.793897	0.798320	0.837657	0.645037	0.669546	0.777824	0.396914	0.508595	0.717992	4.961700	3.714222	5.324339	0.000000	0.000000	28.360875	-16.204724	-17.468003	13.724423	-11.376277	84.719200	38.883905	82.269900	-2.359862	-0.465575	13.544305	-4.860252	74.404456	35.178948	67.214531	4.346379	-4.106304
2.673469	6.523396	-0.132316	97.350105	0.426541	0.660716	0.794669	15.126147	3.854979	-0.523923	19.652281	0.342997	38.376076	-16.350634	0.000000	6.491655	-0.671090	23.254037	1.945970	0.033964	30.280449	-12.380178	0.000000	0.670218	0.327211	0.934769	1.244662	0.435190	0.993192	1.101101	0.795580	0.993192	0.765992	0.795580	0.817923	0.622364	0.667248	0.759500	0.382962	0.506849	0.701077	4.787299	3.701472	5.198905	0.000000	0.000000	28.360293	-15.883974	-17.971787	13.728565	-11.572692	84.497732	39.066121	77.938431	-2.049805	-0.284045	13.541433	-4.934669	74.257744	35.154411	66.872898	4.654757	-4.417049
2.693878	6.614866	-0.125655	97.377941	0.427085	0.661717	0.795291	14.691161	3.935349	-0.727567	18.732971	0.326952	37.640467	-16.251930	0.000000	6.564779	-0.806414	23.518590	1.920261	0.033515	30.069544	-12.535910	0.000000	0.645821	0.326060	0.894008	1.199354	0.433660	0.949883	1.061019	0.792783	0.949883	0.738109	0.792783	0.782257	0.599709	0.664902	0.726381	0.369022	0.505067	0.670506	4.613034	3.688458	4.972202	0.000000	0.000000	28.358756	-15.161056	-18.066335	13.783911	-11.833645	84.021404	39.365986	73.495334	-1.411337	0.003817	13.582113	-5.104252	74.097177	35.236438	66.995039	4.838556	-4.995407
2.714286	6.737130	-0.118321	97.421897	0.427617	0.662713	0.795828	14.156974	4.049357	-0.859496	17.619143	0.307512	36.803437	-16.163940	0.000000	6.632914	-0.970139	23.777480	1.903381	0.033220	29.854596	-12.690110	0.000000	0.623816	0.328208	0.832425	1.158488	0.436517	0.884452	1.024867	0.798005	0.884452	0.712959	0.798005	0.728372	0.579275	0.669282	0.676346	0.356448	0.508394	0.624319	4.455853	3.712754	4.629700	0.000000	0.000000	28.357380	-14.326081	-17.998761	13.838144	-12.095921	83.463380	39.691087	68.605726	-0.608904	0.398075	13.569850	-5.303323	73.701375	35.386764	67.375178	5.016514	-5.554741
2.734694	6.887176	-0.109788	97.482308	0.428132	0.663663	0.796271	13.517602	4.195453	-0.895687	16.300501	0.284497	35.868916	-16.094195	0.000000	6.694365	-1.157803	24.026733	1.896504	0.033100	29.641612	-12.845304	0.000000	0.604631	0.333317	0.751195	1.122861	0.443312	0.798144	0.993349	0.810428	0.798144	0.691033	0.810428	0.657295	0.561461	0.679701	0.610346	0.345486	0.516308	0.563396	4.318822	3.770552	4.177919	0.000000	0.000000	28.355892	-13.423109	-17.831229	13.888944	-12.340732	82.841695	40.023131	63.388065	0.325716	0.897426	13.498596	-5.523019	73.062836	35.595908	67.945392	5.193351	-6.046998
2.755102	7.061991	-0.099528	97.559511	0.428625	0.664523	0.796614	12.767062	4.372085	-0.812120	14.766748	0.257728	34.840831	-16.050224	0.000000	6.747438	-1.364947	24.262378	1.900803	0.033175	29.436599	-13.004020	0.000000	0.588697	0.341051	0.651488	1.093270	0.453598	0.692205	0.967171	0.829233	0.692205	0.672822	0.829233	0.570052	0.546664	0.695472	0.529334	0.336382	0.528289	0.488616	4.205005	3.858042	3.623378	0.000000	0.000000	28.354016	-12.496200	-17.625899	13.933991	-12.549286	82.174385	40.343823	57.960809	1.360748	1.500566	13.362301	-5.754477	72.174058	35.854393	68.637760	5.373787	-6.424125
2.775510	7.258562	-0.087016	97.653843	0.429091	0.665251	0.796846	11.899370	4.577703	-0.584772	13.007590	0.227025	33.723112	-16.039559	0.000000	6.790440	-1.587108	24.480441	1.917449	0.033466	29.245562	-13.168784	0.000000	0.576442	0.351074	0.534477	1.070511	0.466928	0.567881	0.947037	0.853601	0.567881	0.658816	0.853601	0.467667	0.535284	0.715910	0.434262	0.329379	0.543813	0.400857	4.117468	3.971417	2.972599	0.000000	0.000000	28.351478	-11.589413	-17.444933	13.970964	-12.702794	81.479485	40.634867	52.442417	2.464416	2.206192	13.154915	-5.988833	71.027541	36.152738	69.384357	5.562540	-6.638068
2.795918	7.473875	-0.071723	97.765639	0.429526	0.665803	0.796959	10.908544	4.810756	-0.189622	11.012728	0.192208	32.519688	-16.069729	0.000000	6.821674	-1.819826	24.676950	1.947616	0.033992	29.074510	-13.342122	0.000000	0.568295	0.363047	0.401334	1.055381	0.482853	0.426418	0.933652	0.882714	0.426418	0.649505	0.882714	0.351168	0.527719	0.740326	0.326084	0.324724	0.562361	0.301001	4.059277	4.106866	2.232101	0.000000	0.000000	28.348003	-10.746808	-17.350495	13.997542	-12.782468	80.775031	40.877969	46.951346	3.604943	3.012999	12.870388	-6.217225	69.615781	36.481466	70.117263	5.764330	-6.640775
2.816327	7.704918	-0.053123	97.895235	0.429926	0.666138	0.796945	9.788600	5.069693	0.397351	8.771867	0.153098	31.234485	-16.148265	0.000000	6.839448	-2.058639	24.847932	1.992475	0.034775	28.929447	-13.526561	0.000000	0.564686	0.376636	0.253233	1.048678	0.500926	0.269060	0.927723	0.915753	0.269060	0.645380	0.915753	0.221579	0.524367	0.768036	0.205752	0.322662	0.583409	0.189925	4.033496	4.260581	1.408406	0.000000	0.000000	28.343317	-10.012445	-17.404746	14.011404	-12.769516	80.079059	41.054833	41.606054	4.750553	3.919684	12.502673	-6.430790	67.931278	36.831096	70.768554	5.983877	-6.384192
2.836735	7.948678	-0.030689	98.042969	0.430284	0.666212	0.796795	8.533555	5.352963	1.200170	6.274711	0.109514	29.871434	-16.282697	0.000000	6.842066	-2.299087	24.989415	2.053200	0.035835	28.816382	-13.724627	0.000000	0.566043	0.391502	0.091345	1.051199	0.520698	0.097054	0.929952	0.951899	0.097054	0.646931	0.951899	0.079927	0.525628	0.798351	0.074218	0.323437	0.606437	0.068509	4.043191	4.428752	0.508033	0.000000	0.000000	28.337146	-9.430384	-17.669847	14.010231	-12.645151	79.409604	41.147165	36.525000	5.869471	4.924942	12.045718	-6.620663	65.966530	37.192149	71.270308	6.225899	-5.820266
2.857143	8.202142	-0.003894	98.209175	0.430598	0.665983	0.796501	7.137426	5.659014	2.242856	3.510963	0.061278	28.434463	-16.480555	0.000000	6.827834	-2.536708	25.097427	2.130963	0.037192	28.741320	-13.938846	0.000000	0.572796	0.407310	-0.083157	1.063740	0.541722	-0.088355	0.941047	0.990333	-0.088355	0.654649	0.990333	-0.072763	0.531899	0.830586	-0.067565	0.327296	0.630923	-0.062368	4.091427	4.607571	-0.462496	0.000000	0.000000	28.329214	-9.044683	-18.207962	13.991702	-12.390581	78.784702	41.136669	31.826641	6.929920	6.027471	11.493475	-6.777983	63.714035	37.555147	71.554602	6.495117	-4.900944
2.877551	8.462295	0.027789	98.394191	0.430861	0.665408	0.796053	5.594230	5.986296	3.549431	0.470327	0.008209	26.927500	-16.749370	0.000000	6.795058	-2.767041	25.167993	2.226936	0.038867	28.710268	-14.171747	0.000000	0.585374	0.423722	-0.269101	1.087098	0.563550	-0.285920	0.961711	1.030238	-0.285920	0.669024	1.030238	-0.235464	0.543578	0.864054	-0.218645	0.334483	0.656346	-0.201826	4.181269	4.793229	-1.496661	0.000000	0.000000	28.319248	-8.899402	-19.081252	13.953495	-11.987018	78.222388	41.005052	27.629437	7.900124	7.225967	10.839894	-6.893886	61.166292	37.910611	71.553514	6.796249	-3.578172
