Model Marker Errors from IK
version=1
nRows=620
nColumns=4
inDegrees=no
endheader
time	total_squared_error	marker_error_RMS	marker_error_max
      0.00000000	      0.01957170	      0.02692355	      0.04462620
      0.01666667	      0.01988032	      0.02713500	      0.04313513
      0.03333333	      0.02008399	      0.02727364	      0.04228493
      0.05000000	      0.02006126	      0.02725820	      0.04217828
      0.06666667	      0.01976634	      0.02705710	      0.04227917
      0.08333333	      0.01936150	      0.02677859	      0.04264126
      0.10000000	      0.01889507	      0.02645406	      0.04234703
      0.11666667	      0.01848317	      0.02616414	      0.04166843
      0.13333333	      0.01833412	      0.02605843	      0.04041905
      0.15000000	      0.01854505	      0.02620790	      0.03975606
      0.16666667	      0.01909066	      0.02659063	      0.04147917
      0.18333333	      0.01970570	      0.02701556	      0.04306074
      0.20000000	      0.02018867	      0.02734462	      0.04463177
      0.21666667	      0.02044858	      0.02752008	      0.04512722
      0.23333333	      0.02059484	      0.02761832	      0.04550728
      0.25000000	      0.02064337	      0.02765085	      0.04453593
      0.26666667	      0.02072973	      0.02770862	      0.04375867
      0.28333333	      0.02084063	      0.02778264	      0.04237859
      0.30000000	      0.02099742	      0.02788696	      0.04326009
      0.31666667	      0.02113256	      0.02797655	      0.04435132
      0.33333333	      0.02125508	      0.02805753	      0.04537503
      0.35000000	      0.02133268	      0.02810871	      0.04615441
      0.36666667	      0.02133283	      0.02810881	      0.04660762
      0.38333333	      0.02128432	      0.02807683	      0.04668389
      0.40000000	      0.02107440	      0.02793803	      0.04631228
      0.41666667	      0.02080954	      0.02776191	      0.04526595
      0.43333333	      0.02045283	      0.02752294	      0.04426551
      0.45000000	      0.02016352	      0.02732759	      0.04316384
      0.46666667	      0.02007362	      0.02726660	      0.04261599
      0.48333333	      0.02024161	      0.02738045	      0.04292765
      0.50000000	      0.02069172	      0.02768321	      0.04455936
      0.51666667	      0.02130355	      0.02808951	      0.04563493
      0.53333333	      0.02205971	      0.02858367	      0.04707116
      0.55000000	      0.02264357	      0.02895947	      0.04747254
      0.56666667	      0.02300507	      0.02918972	      0.04870183
      0.58333333	      0.02303409	      0.02920812	      0.04947172
      0.60000000	      0.02282323	      0.02907413	      0.04971123
      0.61666667	      0.02250911	      0.02887335	      0.04944590
      0.63333333	      0.02219536	      0.02867142	      0.04876927
      0.65000000	      0.02199273	      0.02854025	      0.04811388
      0.66666667	      0.02191215	      0.02848791	      0.04759835
      0.68333333	      0.02193791	      0.02850465	      0.04728766
      0.70000000	      0.02200509	      0.02854827	      0.04700855
      0.71666667	      0.02211033	      0.02861645	      0.04699797
      0.73333333	      0.02218013	      0.02866158	      0.04714505
      0.75000000	      0.02213616	      0.02863316	      0.04687949
      0.76666667	      0.02195214	      0.02851390	      0.04642488
      0.78333333	      0.02162873	      0.02830308	      0.04546133
      0.80000000	      0.02124016	      0.02804769	      0.04512493
      0.81666667	      0.02072880	      0.02770800	      0.04460348
      0.83333333	      0.02036684	      0.02746502	      0.04384121
      0.85000000	      0.02025888	      0.02739213	      0.04361156
      0.86666667	      0.02067339	      0.02767095	      0.04400501
      0.88333333	      0.02139969	      0.02815282	      0.04597937
      0.90000000	      0.02247674	      0.02885259	      0.04649551
      0.91666667	      0.02384856	      0.02972003	      0.04792693
      0.93333333	      0.02535499	      0.03064431	      0.04970436
      0.95000000	      0.02684609	      0.03153252	      0.05274550
      0.96666667	      0.02827991	      0.03236362	      0.05681245
      0.98333333	      0.02958341	      0.03310108	      0.06119026
      1.00000000	      0.03074576	      0.03374510	      0.06529771
      1.01666667	      0.03169488	      0.03426200	      0.06735574
      1.03333333	      0.03262128	      0.03475911	      0.06991876
      1.05000000	      0.03352642	      0.03523803	      0.07192327
      1.06666667	      0.03438854	      0.03568823	      0.07385383
      1.08333333	      0.03499275	      0.03600039	      0.07461372
      1.10000000	      0.03526655	      0.03614095	      0.07484115
      1.11666667	      0.03511060	      0.03606095	      0.07452111
      1.13333333	      0.03445512	      0.03572276	      0.07346075
      1.15000000	      0.03329564	      0.03511654	      0.07151559
      1.16666667	      0.03158732	      0.03420381	      0.06870209
      1.18333333	      0.02961041	      0.03311619	      0.06465984
      1.20000000	      0.02747138	      0.03189763	      0.05994147
      1.21666667	      0.02532054	      0.03062348	      0.05716183
      1.23333333	      0.02330310	      0.02937818	      0.05808370
      1.25000000	      0.02133753	      0.02811190	      0.05864170
      1.26666667	      0.01966554	      0.02698803	      0.05827710
      1.28333333	      0.01837081	      0.02608449	      0.05725996
      1.30000000	      0.01758545	      0.02552084	      0.05565712
      1.31666667	      0.01738582	      0.02537556	      0.05369184
      1.33333333	      0.01775085	      0.02564057	      0.05187200
      1.35000000	      0.01861950	      0.02626045	      0.05139959
      1.36666667	      0.01971998	      0.02702535	      0.05442482
      1.38333333	      0.02061222	      0.02762997	      0.05622180
      1.40000000	      0.02090909	      0.02782823	      0.05681121
      1.41666667	      0.02058092	      0.02760899	      0.05531430
      1.43333333	      0.01977347	      0.02706198	      0.05111388
      1.45000000	      0.01888784	      0.02644900	      0.05121979
      1.46666667	      0.01814387	      0.02592287	      0.05143249
      1.48333333	      0.01754704	      0.02549295	      0.05146573
      1.50000000	      0.01694944	      0.02505508	      0.05132309
      1.51666667	      0.01627700	      0.02455304	      0.05099901
      1.53333333	      0.01557004	      0.02401392	      0.05042591
      1.55000000	      0.01490009	      0.02349160	      0.04980471
      1.56666667	      0.01440096	      0.02309478	      0.04906364
      1.58333333	      0.01406232	      0.02282162	      0.04799043
      1.60000000	      0.01375262	      0.02256892	      0.04695483
      1.61666667	      0.01347840	      0.02234278	      0.04597847
      1.63333333	      0.01325481	      0.02215669	      0.04487913
      1.65000000	      0.01312196	      0.02204538	      0.04401061
      1.66666667	      0.01312966	      0.02205184	      0.04317773
      1.68333333	      0.01325727	      0.02215875	      0.04224558
      1.70000000	      0.01349056	      0.02235286	      0.04148680
      1.71666667	      0.01367433	      0.02250459	      0.04087220
      1.73333333	      0.01393072	      0.02271459	      0.04055870
      1.75000000	      0.01418895	      0.02292415	      0.04069050
      1.76666667	      0.01445809	      0.02314054	      0.04122483
      1.78333333	      0.01471664	      0.02334654	      0.04197876
      1.80000000	      0.01501053	      0.02357850	      0.04318689
      1.81666667	      0.01537016	      0.02385928	      0.04460529
      1.83333333	      0.01585928	      0.02423594	      0.04598323
      1.85000000	      0.01637768	      0.02462886	      0.04715919
      1.86666667	      0.01671200	      0.02487896	      0.04753514
      1.88333333	      0.01689471	      0.02501459	      0.04763675
      1.90000000	      0.01677392	      0.02492501	      0.04757205
      1.91666667	      0.01639636	      0.02464290	      0.04748211
      1.93333333	      0.01591909	      0.02428159	      0.04766408
      1.95000000	      0.01547598	      0.02394127	      0.04812311
      1.96666667	      0.01510976	      0.02365630	      0.04884783
      1.98333333	      0.01486338	      0.02346264	      0.04955668
      2.00000000	      0.01470416	      0.02333663	      0.05014241
      2.01666667	      0.01463959	      0.02328534	      0.05041092
      2.03333333	      0.01458285	      0.02324017	      0.05036924
      2.05000000	      0.01458043	      0.02323824	      0.04993397
      2.06666667	      0.01474512	      0.02336911	      0.04946154
      2.08333333	      0.01507644	      0.02363021	      0.04915634
      2.10000000	      0.01555472	      0.02400210	      0.04919841
      2.11666667	      0.01614390	      0.02445245	      0.04963507
      2.13333333	      0.01681028	      0.02495201	      0.05053366
      2.15000000	      0.01757831	      0.02551565	      0.05178656
      2.16666667	      0.01835546	      0.02607358	      0.05321530
      2.18333333	      0.01898070	      0.02651394	      0.05439397
      2.20000000	      0.01943663	      0.02683049	      0.05523558
      2.21666667	      0.01964684	      0.02697519	      0.05550720
      2.23333333	      0.01963982	      0.02697037	      0.05530825
      2.25000000	      0.01944752	      0.02683800	      0.05490734
      2.26666667	      0.01913126	      0.02661889	      0.05455819
      2.28333333	      0.01878517	      0.02637702	      0.05436395
      2.30000000	      0.01851317	      0.02618536	      0.05430625
      2.31666667	      0.01830871	      0.02604036	      0.05454601
      2.33333333	      0.01822955	      0.02598401	      0.05453438
      2.35000000	      0.01818756	      0.02595406	      0.05458059
      2.36666667	      0.01817781	      0.02594710	      0.05488612
      2.38333333	      0.01819068	      0.02595629	      0.05567006
      2.40000000	      0.01826042	      0.02600600	      0.05699249
      2.41666667	      0.01831261	      0.02604314	      0.05866053
      2.43333333	      0.01839390	      0.02610087	      0.06042022
      2.45000000	      0.01838094	      0.02609168	      0.06187180
      2.46666667	      0.01825621	      0.02600300	      0.06278668
      2.48333333	      0.01801692	      0.02583202	      0.06320753
      2.50000000	      0.01782957	      0.02569736	      0.06312167
      2.51666667	      0.01760310	      0.02553364	      0.06256996
      2.53333333	      0.01743127	      0.02540871	      0.06133741
      2.55000000	      0.01724737	      0.02527432	      0.05973615
      2.56666667	      0.01701960	      0.02510688	      0.05809420
      2.58333333	      0.01680041	      0.02494469	      0.05659464
      2.60000000	      0.01665654	      0.02483765	      0.05517999
      2.61666667	      0.01662519	      0.02481426	      0.05383573
      2.63333333	      0.01670630	      0.02487472	      0.05282715
      2.65000000	      0.01683409	      0.02496967	      0.05249730
      2.66666667	      0.01698082	      0.02507826	      0.05295808
      2.68333333	      0.01708511	      0.02515516	      0.05403463
      2.70000000	      0.01713731	      0.02519355	      0.05516591
      2.71666667	      0.01723188	      0.02526297	      0.05650859
      2.73333333	      0.01742876	      0.02540688	      0.05767280
      2.75000000	      0.01772254	      0.02562011	      0.05872246
      2.76666667	      0.01802285	      0.02583627	      0.05939638
      2.78333333	      0.01823431	      0.02598740	      0.05943871
      2.80000000	      0.01824064	      0.02599191	      0.05886280
      2.81666667	      0.01802425	      0.02583728	      0.05787535
      2.83333333	      0.01760455	      0.02553469	      0.05692554
      2.85000000	      0.01714171	      0.02519679	      0.05604921
      2.86666667	      0.01671707	      0.02488274	      0.05536515
      2.88333333	      0.01643605	      0.02467271	      0.05476125
      2.90000000	      0.01630924	      0.02457735	      0.05442010
      2.91666667	      0.01631635	      0.02458270	      0.05411887
      2.93333333	      0.01634530	      0.02460450	      0.05397918
      2.95000000	      0.01628260	      0.02455727	      0.05374896
      2.96666667	      0.01613661	      0.02444693	      0.05328916
      2.98333333	      0.01595905	      0.02431205	      0.05271654
      3.00000000	      0.01581831	      0.02420461	      0.05203034
      3.01666667	      0.01572472	      0.02413291	      0.05138488
      3.03333333	      0.01571971	      0.02412906	      0.05078206
      3.05000000	      0.01574533	      0.02414871	      0.05033661
      3.06666667	      0.01584558	      0.02422547	      0.05015839
      3.08333333	      0.01602542	      0.02436256	      0.05026273
      3.10000000	      0.01632711	      0.02459081	      0.05081515
      3.11666667	      0.01670129	      0.02487099	      0.05177955
      3.13333333	      0.01705130	      0.02513026	      0.05305494
      3.15000000	      0.01731336	      0.02532263	      0.05428786
      3.16666667	      0.01747034	      0.02543717	      0.05527308
      3.18333333	      0.01758117	      0.02551773	      0.05590439
      3.20000000	      0.01771109	      0.02561184	      0.05619475
      3.21666667	      0.01776185	      0.02564851	      0.05611504
      3.23333333	      0.01768359	      0.02559195	      0.05559514
      3.25000000	      0.01749982	      0.02545863	      0.05557576
      3.26666667	      0.01733661	      0.02533963	      0.05572924
      3.28333333	      0.01728674	      0.02530315	      0.05646864
      3.30000000	      0.01736088	      0.02535736	      0.05758697
      3.31666667	      0.01753025	      0.02548075	      0.05892238
      3.33333333	      0.01762687	      0.02555087	      0.06052430
      3.35000000	      0.01775188	      0.02564131	      0.06181271
      3.36666667	      0.01800187	      0.02582123	      0.06275580
      3.38333333	      0.01837043	      0.02608422	      0.06341151
      3.40000000	      0.01876981	      0.02636623	      0.06377175
      3.41666667	      0.01906724	      0.02657431	      0.06425726
      3.43333333	      0.01936162	      0.02677867	      0.06463887
      3.45000000	      0.01964209	      0.02697192	      0.06519552
      3.46666667	      0.02003108	      0.02723769	      0.06573144
      3.48333333	      0.02042420	      0.02750367	      0.06630957
      3.50000000	      0.02065733	      0.02766020	      0.06680434
      3.51666667	      0.02064159	      0.02764966	      0.06716688
      3.53333333	      0.02032899	      0.02743949	      0.06711637
      3.55000000	      0.01999267	      0.02721157	      0.06657724
      3.56666667	      0.01968444	      0.02700099	      0.06576100
      3.58333333	      0.01950522	      0.02687779	      0.06480034
      3.60000000	      0.01938315	      0.02679355	      0.06362921
      3.61666667	      0.01931697	      0.02674777	      0.06264076
      3.63333333	      0.01919444	      0.02666280	      0.06173087
      3.65000000	      0.01907243	      0.02657793	      0.06106800
      3.66666667	      0.01908511	      0.02658676	      0.06073575
      3.68333333	      0.01918371	      0.02665535	      0.06040726
      3.70000000	      0.01941181	      0.02681335	      0.06015726
      3.71666667	      0.01960836	      0.02694876	      0.05968432
      3.73333333	      0.01979692	      0.02707802	      0.05926352
      3.75000000	      0.02006016	      0.02725746	      0.05931874
      3.76666667	      0.02048373	      0.02754372	      0.06000948
      3.78333333	      0.02092864	      0.02784124	      0.06136077
      3.80000000	      0.02152663	      0.02823619	      0.06299404
      3.81666667	      0.02210290	      0.02861164	      0.06429581
      3.83333333	      0.02242367	      0.02881851	      0.06455284
      3.85000000	      0.02214155	      0.02863665	      0.06359372
      3.86666667	      0.02113545	      0.02797846	      0.06157371
      3.88333333	      0.01976962	      0.02705935	      0.05925166
      3.90000000	      0.01870535	      0.02632092	      0.05753521
      3.91666667	      0.01831225	      0.02604288	      0.05693916
      3.93333333	      0.01850375	      0.02617869	      0.05751482
      3.95000000	      0.01905759	      0.02656759	      0.05882969
      3.96666667	      0.01966893	      0.02699035	      0.06017031
      3.98333333	      0.01989352	      0.02714401	      0.06099103
      4.00000000	      0.01946159	      0.02684772	      0.06081446
      4.01666667	      0.01854671	      0.02620906	      0.06023001
      4.03333333	      0.01762477	      0.02554935	      0.05951162
      4.05000000	      0.01733092	      0.02533547	      0.05889636
      4.06666667	      0.01764384	      0.02556317	      0.05869006
      4.08333333	      0.01853176	      0.02619850	      0.05858653
      4.10000000	      0.01950012	      0.02687427	      0.05849280
      4.11666667	      0.02018476	      0.02734198	      0.05831649
      4.13333333	      0.02046833	      0.02753336	      0.05814443
      4.15000000	      0.02045823	      0.02752657	      0.05784511
      4.16666667	      0.02033250	      0.02744186	      0.05767869
      4.18333333	      0.02001985	      0.02723005	      0.05755501
      4.20000000	      0.01946403	      0.02684940	      0.05753250
      4.21666667	      0.01869984	      0.02631704	      0.05755253
      4.23333333	      0.01790988	      0.02575517	      0.05765251
      4.25000000	      0.01725210	      0.02527779	      0.05789359
      4.26666667	      0.01681445	      0.02495511	      0.05818370
      4.28333333	      0.01665160	      0.02483396	      0.05845100
      4.30000000	      0.01684745	      0.02497959	      0.05856994
      4.31666667	      0.01747265	      0.02543885	      0.05861382
      4.33333333	      0.01862904	      0.02626718	      0.05860601
      4.35000000	      0.02020682	      0.02735691	      0.05864318
      4.36666667	      0.02188089	      0.02846758	      0.05878427
      4.38333333	      0.02327110	      0.02935801	      0.05859280
      4.40000000	      0.02409617	      0.02987391	      0.05886717
      4.41666667	      0.02439543	      0.03005885	      0.06137348
      4.43333333	      0.02412804	      0.02989366	      0.06284233
      4.45000000	      0.02354652	      0.02953123	      0.06379969
      4.46666667	      0.02277560	      0.02904378	      0.06420229
      4.48333333	      0.02196122	      0.02851979	      0.06438444
      4.50000000	      0.02130018	      0.02808728	      0.06465453
      4.51666667	      0.02086383	      0.02779810	      0.06471888
      4.53333333	      0.02058740	      0.02761333	      0.06412356
      4.55000000	      0.02029813	      0.02741865	      0.06379961
      4.56666667	      0.02001025	      0.02722353	      0.06303816
      4.58333333	      0.01982908	      0.02710001	      0.06208657
      4.60000000	      0.01999318	      0.02721191	      0.06115502
      4.61666667	      0.02044176	      0.02751549	      0.06295392
      4.63333333	      0.02088746	      0.02781384	      0.06520893
      4.65000000	      0.02108391	      0.02794433	      0.06683561
      4.66666667	      0.02121992	      0.02803432	      0.06702750
      4.68333333	      0.02141217	      0.02816102	      0.06568653
      4.70000000	      0.02184439	      0.02844383	      0.06311364
      4.71666667	      0.02234702	      0.02876921	      0.06007316
      4.73333333	      0.02299192	      0.02918137	      0.05733980
      4.75000000	      0.02380884	      0.02969526	      0.05916410
      4.76666667	      0.02459153	      0.03017942	      0.06115205
      4.78333333	      0.02518230	      0.03053977	      0.06266128
      4.80000000	      0.02506076	      0.03046599	      0.06366562
      4.81666667	      0.02383545	      0.02971186	      0.06412433
      4.83333333	      0.02253451	      0.02888964	      0.06341802
      4.85000000	      0.02187021	      0.02846064	      0.06140749
      4.86666667	      0.02166916	      0.02832952	      0.05853914
      4.88333333	      0.02132899	      0.02810628	      0.05545210
      4.90000000	      0.02049233	      0.02754950	      0.05198743
      4.91666667	      0.01931470	      0.02674620	      0.05036882
      4.93333333	      0.01818408	      0.02595158	      0.04974719
      4.95000000	      0.01733758	      0.02534033	      0.04960169
      4.96666667	      0.01693425	      0.02504385	      0.04920291
      4.98333333	      0.01684338	      0.02497656	      0.04919092
      5.00000000	      0.01712617	      0.02518536	      0.04944392
      5.01666667	      0.01777164	      0.02565558	      0.05017047
      5.03333333	      0.01878350	      0.02637584	      0.05123821
      5.05000000	      0.02006382	      0.02725994	      0.05260455
      5.06666667	      0.02145483	      0.02818906	      0.05414499
      5.08333333	      0.02257897	      0.02891813	      0.05571424
      5.10000000	      0.02343039	      0.02945831	      0.05714855
      5.11666667	      0.02386705	      0.02973154	      0.05828995
      5.13333333	      0.02397802	      0.02980059	      0.05914355
      5.15000000	      0.02383028	      0.02970864	      0.05995533
      5.16666667	      0.02360722	      0.02956926	      0.06098162
      5.18333333	      0.02344952	      0.02947034	      0.06219260
      5.20000000	      0.02351225	      0.02950973	      0.06367910
      5.21666667	      0.02387048	      0.02973368	      0.06524813
      5.23333333	      0.02450481	      0.03012616	      0.06674825
      5.25000000	      0.02521589	      0.03056013	      0.06782423
      5.26666667	      0.02586859	      0.03095312	      0.06797155
      5.28333333	      0.02627133	      0.03119315	      0.06735111
      5.30000000	      0.02639949	      0.03126914	      0.06621880
      5.31666667	      0.02623331	      0.03117057	      0.06502844
      5.33333333	      0.02580903	      0.03091747	      0.06401056
      5.35000000	      0.02529300	      0.03060682	      0.06354872
      5.36666667	      0.02482591	      0.03032290	      0.06376465
      5.38333333	      0.02441117	      0.03006854	      0.06449654
      5.40000000	      0.02382859	      0.02970758	      0.06564994
      5.41666667	      0.02285611	      0.02909506	      0.06712236
      5.43333333	      0.02152749	      0.02823676	      0.06831700
      5.45000000	      0.02019406	      0.02734828	      0.06909112
      5.46666667	      0.01911333	      0.02660641	      0.06943301
      5.48333333	      0.01849168	      0.02617015	      0.06929531
      5.50000000	      0.01833841	      0.02606147	      0.06902592
      5.51666667	      0.01867745	      0.02630128	      0.06858415
      5.53333333	      0.01934150	      0.02676475	      0.06815530
      5.55000000	      0.02008286	      0.02727287	      0.06779498
      5.56666667	      0.02056910	      0.02760106	      0.06759221
      5.58333333	      0.02062516	      0.02763865	      0.06756672
      5.60000000	      0.02033870	      0.02744604	      0.06746930
      5.61666667	      0.01981330	      0.02708922	      0.06732793
      5.63333333	      0.01909767	      0.02659551	      0.06701359
      5.65000000	      0.01826234	      0.02600737	      0.06659634
      5.66666667	      0.01749960	      0.02545847	      0.06606103
      5.68333333	      0.01699303	      0.02508728	      0.06569626
      5.70000000	      0.01678415	      0.02493261	      0.06512737
      5.71666667	      0.01670680	      0.02487510	      0.06471647
      5.73333333	      0.01653366	      0.02474586	      0.06458183
      5.75000000	      0.01639225	      0.02463981	      0.06441456
      5.76666667	      0.01651015	      0.02472826	      0.06428932
      5.78333333	      0.01693248	      0.02504255	      0.06442267
      5.80000000	      0.01767591	      0.02558639	      0.06467773
      5.81666667	      0.01840590	      0.02610938	      0.06454894
      5.83333333	      0.01852446	      0.02619334	      0.06453293
      5.85000000	      0.01837976	      0.02609084	      0.06406206
      5.86666667	      0.01824875	      0.02599768	      0.06329575
      5.88333333	      0.01832988	      0.02605541	      0.06236723
      5.90000000	      0.01859395	      0.02624242	      0.06139799
      5.91666667	      0.01886842	      0.02643540	      0.06067600
      5.93333333	      0.01906234	      0.02657089	      0.06016873
      5.95000000	      0.01917241	      0.02664750	      0.06000311
      5.96666667	      0.01922827	      0.02668629	      0.06007278
      5.98333333	      0.01920044	      0.02666697	      0.05997172
      6.00000000	      0.01910302	      0.02659924	      0.05983817
      6.01666667	      0.01900277	      0.02652935	      0.05934097
      6.03333333	      0.01878574	      0.02637741	      0.05867904
      6.05000000	      0.01850212	      0.02617754	      0.05772763
      6.06666667	      0.01805346	      0.02585820	      0.05640335
      6.08333333	      0.01745598	      0.02542671	      0.05472061
      6.10000000	      0.01665508	      0.02483656	      0.05309110
      6.11666667	      0.01602005	      0.02435847	      0.05180307
      6.13333333	      0.01554919	      0.02399783	      0.05104079
      6.15000000	      0.01521275	      0.02373679	      0.05037209
      6.16666667	      0.01510037	      0.02364896	      0.05029619
      6.18333333	      0.01505491	      0.02361333	      0.05044731
      6.20000000	      0.01517216	      0.02370510	      0.05057540
      6.21666667	      0.01537072	      0.02385972	      0.05067683
      6.23333333	      0.01558260	      0.02402360	      0.05054554
      6.25000000	      0.01568001	      0.02409857	      0.05027507
      6.26666667	      0.01544642	      0.02391839	      0.04985364
      6.28333333	      0.01493049	      0.02351555	      0.04945043
      6.30000000	      0.01432583	      0.02303446	      0.04905599
      6.31666667	      0.01403820	      0.02280205	      0.04868232
      6.33333333	      0.01433361	      0.02304071	      0.04829944
      6.35000000	      0.01523745	      0.02375605	      0.04781112
      6.36666667	      0.01661350	      0.02480554	      0.04717741
      6.38333333	      0.01810173	      0.02589275	      0.04639572
      6.40000000	      0.01936226	      0.02677911	      0.04521038
      6.41666667	      0.02031921	      0.02743289	      0.04389084
      6.43333333	      0.02134003	      0.02811354	      0.04242847
      6.45000000	      0.02259361	      0.02892750	      0.05260102
      6.46666667	      0.02355935	      0.02953927	      0.05934819
      6.48333333	      0.02429662	      0.02999791	      0.06243331
      6.50000000	      0.02492471	      0.03038317	      0.06244140
      6.51666667	      0.02579811	      0.03091093	      0.06093705
      6.53333333	      0.02671779	      0.03145708	      0.05900390
      6.55000000	      0.02748051	      0.03190293	      0.06005151
      6.56666667	      0.02755011	      0.03194330	      0.06385818
      6.58333333	      0.02683261	      0.03152460	      0.06590860
      6.60000000	      0.02570767	      0.03085670	      0.06610943
      6.61666667	      0.02454593	      0.03015143	      0.06564609
      6.63333333	      0.02360996	      0.02957098	      0.06413051
      6.65000000	      0.02307912	      0.02923666	      0.06148442
      6.66666667	      0.02304264	      0.02921354	      0.05846117
      6.68333333	      0.02346311	      0.02947887	      0.05470544
      6.70000000	      0.02413389	      0.02989729	      0.05749802
      6.71666667	      0.02478749	      0.03029943	      0.05981085
      6.73333333	      0.02535725	      0.03064568	      0.06105780
      6.75000000	      0.02583001	      0.03093004	      0.06204449
      6.76666667	      0.02627540	      0.03119556	      0.06323758
      6.78333333	      0.02663872	      0.03141050	      0.06482320
      6.80000000	      0.02688080	      0.03155290	      0.06621920
      6.81666667	      0.02698354	      0.03161313	      0.06739555
      6.83333333	      0.02682326	      0.03151911	      0.06690590
      6.85000000	      0.02629592	      0.03120774	      0.06495847
      6.86666667	      0.02532856	      0.03062834	      0.06106740
      6.88333333	      0.02403347	      0.02983502	      0.05569133
      6.90000000	      0.02259234	      0.02892669	      0.05452575
      6.91666667	      0.02113731	      0.02797969	      0.05637852
      6.93333333	      0.01983499	      0.02710404	      0.05826235
      6.95000000	      0.01888177	      0.02644475	      0.06004455
      6.96666667	      0.01814657	      0.02592480	      0.06172060
      6.98333333	      0.01785831	      0.02571807	      0.06328112
      7.00000000	      0.01788660	      0.02573843	      0.06460887
      7.01666667	      0.01817173	      0.02594277	      0.06564394
      7.03333333	      0.01852341	      0.02619260	      0.06621428
      7.05000000	      0.01897204	      0.02650789	      0.06653096
      7.06666667	      0.01945622	      0.02684400	      0.06676095
      7.08333333	      0.01992150	      0.02716309	      0.06691155
      7.10000000	      0.02036802	      0.02746582	      0.06710809
      7.11666667	      0.02074296	      0.02771747	      0.06724612
      7.13333333	      0.02104438	      0.02791812	      0.06718513
      7.15000000	      0.02118522	      0.02801138	      0.06683331
      7.16666667	      0.02124281	      0.02804943	      0.06635781
      7.18333333	      0.02136003	      0.02812672	      0.06617420
      7.20000000	      0.02162396	      0.02829995	      0.06634323
      7.21666667	      0.02200743	      0.02854978	      0.06703998
      7.23333333	      0.02235948	      0.02877723	      0.06813025
      7.25000000	      0.02256036	      0.02890621	      0.06961119
      7.26666667	      0.02259352	      0.02892744	      0.07111694
      7.28333333	      0.02251229	      0.02887539	      0.07281360
      7.30000000	      0.02233668	      0.02876255	      0.07408143
      7.31666667	      0.02216961	      0.02865479	      0.07508064
      7.33333333	      0.02203122	      0.02856521	      0.07580915
      7.35000000	      0.02194491	      0.02850920	      0.07611711
      7.36666667	      0.02182974	      0.02843429	      0.07609477
      7.38333333	      0.02157779	      0.02826973	      0.07544070
      7.40000000	      0.02114731	      0.02798631	      0.07417380
      7.41666667	      0.02058027	      0.02760856	      0.07255115
      7.43333333	      0.01986901	      0.02712728	      0.07057707
      7.45000000	      0.01897372	      0.02650906	      0.06847573
      7.46666667	      0.01810576	      0.02589563	      0.06637956
      7.48333333	      0.01740137	      0.02538691	      0.06458483
      7.50000000	      0.01699478	      0.02508857	      0.06362721
      7.51666667	      0.01704082	      0.02512253	      0.06338367
      7.53333333	      0.01758014	      0.02551698	      0.06381608
      7.55000000	      0.01857324	      0.02622781	      0.06489621
      7.56666667	      0.01997670	      0.02720069	      0.06642696
      7.58333333	      0.02149642	      0.02821637	      0.06811333
      7.60000000	      0.02276922	      0.02903970	      0.06911424
      7.61666667	      0.02372156	      0.02964078	      0.06920193
      7.63333333	      0.02428050	      0.02998796	      0.06824307
      7.65000000	      0.02452892	      0.03014098	      0.06650205
      7.66666667	      0.02478401	      0.03029730	      0.06472777
      7.68333333	      0.02506649	      0.03046947	      0.06348947
      7.70000000	      0.02538909	      0.03066491	      0.06365224
      7.71666667	      0.02571458	      0.03086084	      0.06332043
      7.73333333	      0.02596651	      0.03101165	      0.06277758
      7.75000000	      0.02603557	      0.03105286	      0.06334501
      7.76666667	      0.02590600	      0.03097550	      0.06393103
      7.78333333	      0.02557558	      0.03077732	      0.06412407
      7.80000000	      0.02518878	      0.03054370	      0.06410011
      7.81666667	      0.02481954	      0.03031901	      0.06505037
      7.83333333	      0.02479726	      0.03030539	      0.06634189
      7.85000000	      0.02512898	      0.03050742	      0.06803904
      7.86666667	      0.02567773	      0.03083873	      0.07035253
      7.88333333	      0.02613510	      0.03111216	      0.07265865
      7.90000000	      0.02623642	      0.03117241	      0.07524762
      7.91666667	      0.02569196	      0.03084727	      0.07734541
      7.93333333	      0.02477166	      0.03028975	      0.07884883
      7.95000000	      0.02369789	      0.02962600	      0.07896178
      7.96666667	      0.02268276	      0.02898452	      0.07827586
      7.98333333	      0.02201248	      0.02855306	      0.07668399
      8.00000000	      0.02176267	      0.02839058	      0.07456570
      8.01666667	      0.02192462	      0.02849602	      0.07217486
      8.03333333	      0.02233998	      0.02876468	      0.06937537
      8.05000000	      0.02275396	      0.02902997	      0.06683573
      8.06666667	      0.02297281	      0.02916924	      0.06481498
      8.08333333	      0.02299501	      0.02918334	      0.06349957
      8.10000000	      0.02296361	      0.02916341	      0.06303047
      8.11666667	      0.02310572	      0.02925350	      0.06355104
      8.13333333	      0.02351364	      0.02951060	      0.06473320
      8.15000000	      0.02396880	      0.02979486	      0.06641960
      8.16666667	      0.02424581	      0.02996653	      0.06826772
      8.18333333	      0.02414504	      0.02990419	      0.07022021
      8.20000000	      0.02375697	      0.02966290	      0.07155196
      8.21666667	      0.02319623	      0.02931074	      0.07186480
      8.23333333	      0.02253167	      0.02888782	      0.07147045
      8.25000000	      0.02198907	      0.02853787	      0.07034787
      8.26666667	      0.02167163	      0.02833113	      0.06918741
      8.28333333	      0.02151461	      0.02822831	      0.06808635
      8.30000000	      0.02137376	      0.02813576	      0.06684511
      8.31666667	      0.02109847	      0.02795397	      0.06510366
      8.33333333	      0.02075181	      0.02772338	      0.06314738
      8.35000000	      0.02030463	      0.02742304	      0.06096850
      8.36666667	      0.01979406	      0.02707606	      0.05870808
      8.38333333	      0.01925125	      0.02670223	      0.05619471
      8.40000000	      0.01886131	      0.02643042	      0.05435995
      8.41666667	      0.01850940	      0.02618270	      0.05325247
      8.43333333	      0.01818345	      0.02595113	      0.05318537
      8.45000000	      0.01773631	      0.02563007	      0.05355826
      8.46666667	      0.01721603	      0.02525135	      0.05390274
      8.48333333	      0.01681029	      0.02495202	      0.05387543
      8.50000000	      0.01671097	      0.02487820	      0.05326980
      8.51666667	      0.01693789	      0.02504655	      0.05215162
      8.53333333	      0.01735856	      0.02535566	      0.05036967
      8.55000000	      0.01784289	      0.02570696	      0.04809178
      8.56666667	      0.01825064	      0.02599903	      0.04655580
      8.58333333	      0.01861330	      0.02625608	      0.05032004
      8.60000000	      0.01886765	      0.02643486	      0.05291827
      8.61666667	      0.01906004	      0.02656930	      0.05440392
      8.63333333	      0.01927748	      0.02672042	      0.05538977
      8.65000000	      0.01958912	      0.02693553	      0.05597646
      8.66666667	      0.02004420	      0.02724661	      0.05636696
      8.68333333	      0.02063328	      0.02764409	      0.05622314
      8.70000000	      0.02130842	      0.02809272	      0.05552345
      8.71666667	      0.02199183	      0.02853966	      0.05519808
      8.73333333	      0.02258249	      0.02892038	      0.05938475
      8.75000000	      0.02298073	      0.02917427	      0.06329719
      8.76666667	      0.02322552	      0.02932924	      0.06599556
      8.78333333	      0.02336085	      0.02941457	      0.06739450
      8.80000000	      0.02343416	      0.02946068	      0.06757105
      8.81666667	      0.02353622	      0.02952476	      0.06686641
      8.83333333	      0.02364382	      0.02959218	      0.06576318
      8.85000000	      0.02378660	      0.02968139	      0.06454493
      8.86666667	      0.02398736	      0.02980639	      0.06314324
      8.88333333	      0.02419673	      0.02993618	      0.06139694
      8.90000000	      0.02450373	      0.03012549	      0.06056937
      8.91666667	      0.02485446	      0.03034033	      0.06184479
      8.93333333	      0.02526706	      0.03059112	      0.06295285
      8.95000000	      0.02565540	      0.03082531	      0.06377881
      8.96666667	      0.02583725	      0.03093437	      0.06498533
      8.98333333	      0.02574381	      0.03087838	      0.06385712
      9.00000000	      0.02546040	      0.03070795	      0.06103406
      9.01666667	      0.02514559	      0.03051751	      0.06297465
      9.03333333	      0.02503599	      0.03045093	      0.06502868
      9.05000000	      0.02496633	      0.03040853	      0.06679171
      9.06666667	      0.02480807	      0.03031200	      0.06791284
      9.08333333	      0.02443445	      0.03008288	      0.06815467
      9.10000000	      0.02372018	      0.02963993	      0.06769921
      9.11666667	      0.02253928	      0.02889270	      0.06615135
      9.13333333	      0.02096591	      0.02786602	      0.06322550
      9.15000000	      0.01942085	      0.02681960	      0.05924738
      9.16666667	      0.01837249	      0.02608567	      0.05523372
      9.18333333	      0.01795762	      0.02578948	      0.05150086
      9.20000000	      0.01802690	      0.02583918	      0.04848424
      9.21666667	      0.01841258	      0.02611412	      0.04599581
      9.23333333	      0.01919836	      0.02666553	      0.04486776
      9.25000000	      0.02010715	      0.02728936	      0.04402153
      9.26666667	      0.02119728	      0.02801936	      0.04402273
      9.28333333	      0.02218959	      0.02866769	      0.04595846
      9.30000000	      0.02292310	      0.02913767	      0.04963891
      9.31666667	      0.02350486	      0.02950509	      0.05226704
      9.33333333	      0.02413085	      0.02989540	      0.05423680
      9.35000000	      0.02482555	      0.03032268	      0.05580054
      9.36666667	      0.02548032	      0.03071996	      0.05790155
      9.38333333	      0.02602216	      0.03104487	      0.05983911
      9.40000000	      0.02640859	      0.03127452	      0.06142484
      9.41666667	      0.02651395	      0.03133685	      0.06329585
      9.43333333	      0.02631573	      0.03121949	      0.06417595
      9.45000000	      0.02586413	      0.03095046	      0.06428051
      9.46666667	      0.02538812	      0.03066432	      0.06371157
      9.48333333	      0.02508502	      0.03048073	      0.06291851
      9.50000000	      0.02513920	      0.03051363	      0.06290721
      9.51666667	      0.02553669	      0.03075392	      0.06450126
      9.53333333	      0.02608700	      0.03108352	      0.06708309
      9.55000000	      0.02656797	      0.03136875	      0.06957387
      9.56666667	      0.02673647	      0.03146807	      0.07180290
      9.58333333	      0.02666245	      0.03142448	      0.07272724
      9.60000000	      0.02638242	      0.03125902	      0.07200981
      9.61666667	      0.02619784	      0.03114948	      0.07012408
      9.63333333	      0.02625260	      0.03118202	      0.06771317
      9.65000000	      0.02664441	      0.03141385	      0.06573449
      9.66666667	      0.02736844	      0.03183781	      0.06453300
      9.68333333	      0.02823795	      0.03233960	      0.06427676
      9.70000000	      0.02895864	      0.03274969	      0.06429376
      9.71666667	      0.02932704	      0.03295734	      0.06484759
      9.73333333	      0.02931290	      0.03294940	      0.06543877
      9.75000000	      0.02894912	      0.03274431	      0.06596051
      9.76666667	      0.02835352	      0.03240571	      0.06616512
      9.78333333	      0.02756820	      0.03195379	      0.06624845
      9.80000000	      0.02672361	      0.03146050	      0.06596384
      9.81666667	      0.02595600	      0.03100537	      0.06532923
      9.83333333	      0.02533184	      0.03063031	      0.06455985
      9.85000000	      0.02490793	      0.03037295	      0.06369508
      9.86666667	      0.02464833	      0.03021426	      0.06235589
      9.88333333	      0.02460227	      0.03018601	      0.06189941
      9.90000000	      0.02484969	      0.03033742	      0.06070581
      9.91666667	      0.02541990	      0.03068351	      0.05997610
      9.93333333	      0.02618428	      0.03114142	      0.05916489
      9.95000000	      0.02693549	      0.03158498	      0.05841955
      9.96666667	      0.02755596	      0.03194669	      0.05732702
      9.98333333	      0.02798255	      0.03219302	      0.05892566
     10.00000000	      0.02824589	      0.03234415	      0.06205377
     10.01666667	      0.02850735	      0.03249350	      0.06433741
     10.03333333	      0.02889040	      0.03271108	      0.06499285
     10.05000000	      0.02933613	      0.03296245	      0.06442091
     10.06666667	      0.02966747	      0.03314808	      0.06285666
     10.08333333	      0.02966809	      0.03314843	      0.06178302
     10.10000000	      0.02928682	      0.03293474	      0.06141693
     10.11666667	      0.02859086	      0.03254106	      0.06025563
     10.13333333	      0.02766965	      0.03201252	      0.05751887
     10.15000000	      0.02668962	      0.03144049	      0.05581599
     10.16666667	      0.02585617	      0.03094569	      0.05404430
     10.18333333	      0.02539441	      0.03066812	      0.05355020
     10.20000000	      0.02541452	      0.03068026	      0.05483119
     10.21666667	      0.02585224	      0.03094334	      0.05821147
     10.23333333	      0.02655045	      0.03135841	      0.06377407
     10.25000000	      0.02740628	      0.03185981	      0.06964118
     10.26666667	      0.02825990	      0.03235217	      0.07354839
     10.28333333	      0.02908243	      0.03281962	      0.07419753
     10.30000000	      0.03008349	      0.03337969	      0.07048052
     10.31666667	      0.03213161	      0.03449724	      0.06201248
