Model Marker Errors from IK
version=1
nRows=294
nColumns=4
inDegrees=no
endheader
time	total_squared_error	marker_error_RMS	marker_error_max
      0.00000000	      0.02502463	      0.03044402	      0.06311305
      0.01923077	      0.02192955	      0.02849922	      0.05738101
      0.03846154	      0.02026829	      0.02739850	      0.05439203
      0.05769231	      0.01935811	      0.02677624	      0.05311077
      0.07692308	      0.01892987	      0.02647841	      0.05346039
      0.09615385	      0.01896625	      0.02650384	      0.05515334
      0.11538462	      0.01925352	      0.02670380	      0.05655422
      0.13461538	      0.01983757	      0.02710581	      0.05832985
      0.15384615	      0.02054690	      0.02758616	      0.05983565
      0.17307692	      0.02116722	      0.02799948	      0.06106959
      0.19230769	      0.02179132	      0.02840926	      0.06218260
      0.21153846	      0.02238431	      0.02879320	      0.06309609
      0.23076923	      0.02269848	      0.02899456	      0.06377225
      0.25000000	      0.02289631	      0.02912064	      0.06428257
      0.26923077	      0.02275891	      0.02903313	      0.06416693
      0.28846154	      0.02229036	      0.02873272	      0.06249142
      0.30769231	      0.02169093	      0.02834374	      0.05989671
      0.32692308	      0.02137605	      0.02813726	      0.05721424
      0.34615385	      0.02151486	      0.02822847	      0.05474982
      0.36538462	      0.02201992	      0.02855788	      0.05571143
      0.38461538	      0.02239413	      0.02879952	      0.05718844
      0.40384615	      0.02275193	      0.02902867	      0.05765898
      0.42307692	      0.02282238	      0.02907359	      0.06039074
      0.44230769	      0.02233829	      0.02876359	      0.05986376
      0.46153846	      0.02144129	      0.02818017	      0.05859429
      0.48076923	      0.02046779	      0.02753300	      0.05898448
      0.50000000	      0.01943643	      0.02683035	      0.06014991
      0.51923077	      0.01826475	      0.02600908	      0.05905098
      0.53846154	      0.01694582	      0.02505240	      0.05397130
      0.55769231	      0.01564734	      0.02407345	      0.05123310
      0.57692308	      0.01498670	      0.02355978	      0.05124834
      0.59615385	      0.01549045	      0.02395246	      0.05133591
      0.61538462	      0.01700753	      0.02509798	      0.05279185
      0.63461538	      0.01889579	      0.02645456	      0.05615584
      0.65384615	      0.02064448	      0.02765159	      0.06074103
      0.67307692	      0.02208705	      0.02860138	      0.06542519
      0.69230769	      0.02324393	      0.02934086	      0.07019819
      0.71153846	      0.02140612	      0.02815705	      0.05811883
      0.73076923	      0.02192578	      0.02849677	      0.05751402
      0.75000000	      0.02265929	      0.02896952	      0.05719297
      0.76923077	      0.02351177	      0.02950943	      0.05714022
      0.78846154	      0.02422327	      0.02995260	      0.05757075
      0.80769231	      0.02486215	      0.03034502	      0.05839356
      0.82692308	      0.02576813	      0.03089296	      0.05980804
      0.84615385	      0.02729693	      0.03179618	      0.06055911
      0.86538462	      0.02920702	      0.03288984	      0.06085934
      0.88461538	      0.03072698	      0.03373479	      0.06299203
      0.90384615	      0.03157136	      0.03419517	      0.06421808
      0.92307692	      0.03213162	      0.03449725	      0.06255077
      0.94230769	      0.03221059	      0.03453961	      0.05855724
      0.96153846	      0.03168988	      0.03425930	      0.05671871
      0.98076923	      0.03091359	      0.03383708	      0.05481598
      1.00000000	      0.03036095	      0.03353326	      0.05308437
      1.01923077	      0.03037863	      0.03354303	      0.05492074
      1.03846154	      0.03081361	      0.03378232	      0.05602376
      1.05769231	      0.03140167	      0.03410315	      0.05774572
      1.07692308	      0.03187891	      0.03436132	      0.05781708
      1.09615385	      0.03218675	      0.03452683	      0.05833955
      1.11538462	      0.03197852	      0.03441496	      0.05605527
      1.13461538	      0.03141873	      0.03411241	      0.05433416
      1.15384615	      0.03111513	      0.03394720	      0.05248162
      1.17307692	      0.03160009	      0.03421072	      0.05230822
      1.19230769	      0.03246962	      0.03467821	      0.06334662
      1.21153846	      0.03295729	      0.03493766	      0.06760176
      1.23076923	      0.03270090	      0.03480150	      0.06443497
      1.25000000	      0.03195074	      0.03440001	      0.05433797
      1.26923077	      0.03173879	      0.03428572	      0.05540547
      1.28846154	      0.03342605	      0.03518525	      0.05662801
      1.30769231	      0.03724636	      0.03714155	      0.05986991
      1.32692308	      0.04206622	      0.03947161	      0.07425623
      1.34615385	      0.04647621	      0.04148905	      0.08873484
      1.36538462	      0.04937314	      0.04276254	      0.09710185
      1.38461538	      0.05052836	      0.04325992	      0.09949578
      1.40384615	      0.05060183	      0.04329136	      0.09946153
      1.42307692	      0.05053946	      0.04326467	      0.10062859
      1.44230769	      0.05039754	      0.04320388	      0.10238843
      1.46153846	      0.04924084	      0.04270521	      0.10095117
      1.48076923	      0.04639519	      0.04145287	      0.09285322
      1.50000000	      0.04245163	      0.03965202	      0.07878309
      1.51923077	      0.03870379	      0.03786124	      0.06225520
      1.53846154	      0.03595346	      0.03649123	      0.05654268
      1.55769231	      0.03423546	      0.03560871	      0.05543032
      1.57692308	      0.03332890	      0.03513408	      0.05550411
      1.59615385	      0.03301248	      0.03496690	      0.05568605
      1.61538462	      0.03309509	      0.03501063	      0.05557157
      1.63461538	      0.03338237	      0.03516225	      0.05486516
      1.65384615	      0.03349418	      0.03522109	      0.05359608
      1.67307692	      0.03326425	      0.03509999	      0.05226516
      1.69230769	      0.03300436	      0.03496261	      0.05084200
      1.71153846	      0.03290775	      0.03491139	      0.04962848
      1.73076923	      0.03278373	      0.03484555	      0.04930170
      1.75000000	      0.03255085	      0.03472157	      0.04946165
      1.76923077	      0.03225067	      0.03456110	      0.04963728
      1.78846154	      0.03233939	      0.03460860	      0.05034695
      1.80769231	      0.03277934	      0.03484321	      0.05194973
      1.82692308	      0.03330957	      0.03512389	      0.05453460
      1.84615385	      0.03362157	      0.03528801	      0.05499506
      1.86538462	      0.03382774	      0.03539604	      0.05410871
      1.88461538	      0.03427811	      0.03563088	      0.05199174
      1.90384615	      0.03512124	      0.03606642	      0.05181612
      1.92307692	      0.03588426	      0.03645609	      0.05261596
      1.94230769	      0.03624824	      0.03664052	      0.05302061
      1.96153846	      0.03638074	      0.03670742	      0.05287726
      1.98076923	      0.03632474	      0.03667916	      0.05336765
      2.00000000	      0.03558447	      0.03630349	      0.05331358
      2.01923077	      0.03379066	      0.03537663	      0.05234969
      2.03846154	      0.03114361	      0.03396273	      0.05072029
      2.05769231	      0.02830534	      0.03237817	      0.05052449
      2.07692308	      0.02606182	      0.03106851	      0.05084076
      2.09615385	      0.02511184	      0.03049702	      0.05036297
      2.11538462	      0.02597255	      0.03101526	      0.04956798
      2.13461538	      0.02794977	      0.03217416	      0.06154235
      2.15384615	      0.02926776	      0.03292402	      0.06939686
      2.17307692	      0.02878467	      0.03265117	      0.06786607
      2.19230769	      0.02627307	      0.03119418	      0.06733024
      2.21153846	      0.02259215	      0.02892657	      0.06332890
      2.23076923	      0.01908659	      0.02658779	      0.05819255
      2.25000000	      0.01663053	      0.02481825	      0.05752446
      2.26923077	      0.01539639	      0.02387963	      0.05868616
      2.28846154	      0.01505064	      0.02360998	      0.06182956
      2.30769231	      0.01522610	      0.02374720	      0.06582534
      2.32692308	      0.01565717	      0.02408101	      0.06934863
      2.34615385	      0.01589061	      0.02425987	      0.06909330
      2.36538462	      0.01593395	      0.02429293	      0.06656426
      2.38461538	      0.01614520	      0.02445343	      0.06332573
      2.40384615	      0.01700194	      0.02509386	      0.06251767
      2.42307692	      0.01852380	      0.02619287	      0.06286589
      2.44230769	      0.02045331	      0.02752326	      0.06466252
      2.46153846	      0.02169790	      0.02834830	      0.06428337
      2.48076923	      0.02173423	      0.02837202	      0.06231986
      2.50000000	      0.02095640	      0.02785970	      0.06471306
      2.51923077	      0.02043929	      0.02751383	      0.06756426
      2.53846154	      0.02064525	      0.02765210	      0.06868124
      2.55769231	      0.02104711	      0.02791993	      0.06704412
      2.57692308	      0.02112858	      0.02797392	      0.06208209
      2.59615385	      0.02067063	      0.02766909	      0.05659146
      2.61538462	      0.01993369	      0.02717140	      0.05703637
      2.63461538	      0.01931739	      0.02674806	      0.05618644
      2.65384615	      0.01923192	      0.02668882	      0.05593290
      2.67307692	      0.01964463	      0.02697367	      0.05703068
      2.69230769	      0.02022550	      0.02736956	      0.05825941
      2.71153846	      0.02066220	      0.02766345	      0.05916411
      2.73076923	      0.02070241	      0.02769036	      0.05937074
      2.75000000	      0.02033088	      0.02744076	      0.05885435
      2.76923077	      0.01977467	      0.02706280	      0.05795150
      2.78846154	      0.01937937	      0.02679094	      0.05700229
      2.80769231	      0.01924517	      0.02669802	      0.05601415
      2.82692308	      0.01927637	      0.02671965	      0.05443860
      2.84615385	      0.01945458	      0.02684288	      0.05142974
      2.86538462	      0.01991870	      0.02716118	      0.04706445
      2.88461538	      0.02077248	      0.02773718	      0.05327645
      2.90384615	      0.02211148	      0.02861720	      0.06053877
      2.92307692	      0.02337950	      0.02942631	      0.06561595
      2.94230769	      0.02462778	      0.03020166	      0.06855816
      2.96153846	      0.02533147	      0.03063009	      0.06892715
      2.98076923	      0.02527368	      0.03059513	      0.06764458
      3.00000000	      0.02478262	      0.03029645	      0.06558065
      3.01923077	      0.02418821	      0.02993091	      0.06504918
      3.03846154	      0.02363797	      0.02958852	      0.06792615
      3.05769231	      0.02338325	      0.02942866	      0.07084749
      3.07692308	      0.02351920	      0.02951409	      0.07180348
      3.09615385	      0.02420259	      0.02993981	      0.07229668
      3.11538462	      0.02530673	      0.03061513	      0.07177844
      3.13461538	      0.02658367	      0.03137803	      0.06988231
      3.15384615	      0.02741491	      0.03186483	      0.06623024
      3.17307692	      0.02734150	      0.03182213	      0.06153866
      3.19230769	      0.02672284	      0.03146005	      0.05730903
      3.21153846	      0.02636787	      0.03125040	      0.05480268
      3.23076923	      0.02667691	      0.03143300	      0.05529014
      3.25000000	      0.02733147	      0.03181630	      0.05681236
      3.26923077	      0.02803247	      0.03222173	      0.05763260
      3.28846154	      0.02878084	      0.03264900	      0.05754390
      3.30769231	      0.02962071	      0.03312194	      0.05706871
      3.32692308	      0.03044676	      0.03358061	      0.05649032
      3.34615385	      0.03108380	      0.03393010	      0.05599955
      3.36538462	      0.03156099	      0.03418955	      0.05628598
      3.38461538	      0.03207975	      0.03446939	      0.05694458
      3.40384615	      0.03264642	      0.03477250	      0.05739210
      3.42307692	      0.03316009	      0.03504499	      0.05872353
      3.44230769	      0.03354791	      0.03524933	      0.06023272
      3.46153846	      0.03411588	      0.03554646	      0.06154970
      3.48076923	      0.03496653	      0.03598689	      0.06253357
      3.50000000	      0.03582934	      0.03642818	      0.06264558
      3.51923077	      0.03641226	      0.03672332	      0.06217949
      3.53846154	      0.03665992	      0.03684800	      0.05959351
      3.55769231	      0.03658549	      0.03681057	      0.05734292
      3.57692308	      0.03640279	      0.03671854	      0.05739181
      3.59615385	      0.03619829	      0.03661526	      0.05764998
      3.61538462	      0.03629995	      0.03666664	      0.05800671
      3.63461538	      0.03729027	      0.03716344	      0.05820335
      3.65384615	      0.03945218	      0.03822554	      0.07165691
      3.67307692	      0.04179689	      0.03934505	      0.08268716
      3.69230769	      0.04314827	      0.03997605	      0.08747678
      3.71153846	      0.04326533	      0.04003023	      0.08632942
      3.73076923	      0.04285543	      0.03984016	      0.08302762
      3.75000000	      0.04246538	      0.03965844	      0.08142518
      3.76923077	      0.04207671	      0.03947654	      0.08175872
      3.78846154	      0.04128013	      0.03910107	      0.08178965
      3.80769231	      0.03986687	      0.03842591	      0.07937656
      3.82692308	      0.03782260	      0.03742776	      0.07301647
      3.84615385	      0.03507500	      0.03604267	      0.06077511
      3.86538462	      0.03218246	      0.03452453	      0.05486910
      3.88461538	      0.03060459	      0.03366754	      0.05431729
      3.90384615	      0.03149913	      0.03415603	      0.05362669
      3.92307692	      0.03480103	      0.03590163	      0.05539252
      3.94230769	      0.03902299	      0.03801705	      0.07244826
      3.96153846	      0.04165733	      0.03927931	      0.08284433
      3.98076923	      0.04109881	      0.03901510	      0.08309879
      4.00000000	      0.03737876	      0.03720750	      0.07393206
      4.01923077	      0.03234054	      0.03460922	      0.05733518
      4.03846154	      0.02827788	      0.03236246	      0.05502529
      4.05769231	      0.02625014	      0.03118056	      0.05358999
      4.07692308	      0.02579786	      0.03091078	      0.05147362
      4.09615385	      0.02576902	      0.03089349	      0.04857457
      4.11538462	      0.02522257	      0.03056419	      0.04557881
      4.13461538	      0.02388833	      0.02974480	      0.04555592
      4.15384615	      0.02201202	      0.02855276	      0.04360906
      4.17307692	      0.02011271	      0.02729314	      0.04320731
      4.19230769	      0.01882478	      0.02640481	      0.04500675
      4.21153846	      0.01848013	      0.02616198	      0.04826636
      4.23076923	      0.01875008	      0.02635237	      0.05189060
      4.25000000	      0.01913516	      0.02662160	      0.05579315
      4.26923077	      0.01937650	      0.02678896	      0.05786460
      4.28846154	      0.01959497	      0.02693955	      0.05851919
      4.30769231	      0.02004160	      0.02724484	      0.05808222
      4.32692308	      0.02058714	      0.02761316	      0.05587675
      4.34615385	      0.02087213	      0.02780363	      0.05389053
      4.36538462	      0.02070981	      0.02769530	      0.05142910
      4.38461538	      0.02043686	      0.02751219	      0.05008727
      4.40384615	      0.02022201	      0.02736719	      0.05027638
      4.42307692	      0.02001566	      0.02722721	      0.05189239
      4.44230769	      0.01966219	      0.02698572	      0.05241484
      4.46153846	      0.01907959	      0.02658292	      0.05102664
      4.48076923	      0.01842895	      0.02612573	      0.04766947
      4.50000000	      0.01799892	      0.02581912	      0.04275827
      4.51923077	      0.01800250	      0.02582168	      0.04100331
      4.53846154	      0.01840901	      0.02611159	      0.04085024
      4.55769231	      0.01900906	      0.02653374	      0.04305279
      4.57692308	      0.01971415	      0.02702136	      0.04518678
      4.59615385	      0.02057768	      0.02760682	      0.04743092
      4.61538462	      0.02147827	      0.02820446	      0.05008559
      4.63461538	      0.02253944	      0.02889280	      0.05252137
      4.65384615	      0.02364636	      0.02959377	      0.05534018
      4.67307692	      0.02486168	      0.03034473	      0.05798479
      4.69230769	      0.02465893	      0.03022075	      0.05994090
      4.71153846	      0.02627207	      0.03119358	      0.06223996
      4.73076923	      0.02825986	      0.03235215	      0.06433380
      4.75000000	      0.03016861	      0.03342687	      0.06590084
      4.76923077	      0.03175856	      0.03429640	      0.07142110
      4.78846154	      0.03305544	      0.03498965	      0.07841830
      4.80769231	      0.03397846	      0.03547480	      0.08324125
      4.82692308	      0.03438757	      0.03568773	      0.08649010
      4.84615385	      0.03390246	      0.03543511	      0.08747522
      4.86538462	      0.03277671	      0.03484182	      0.08593005
      4.88461538	      0.03153430	      0.03417510	      0.08224465
      4.90384615	      0.03074486	      0.03374461	      0.07777644
      4.92307692	      0.03035897	      0.03353217	      0.07425793
      4.94230769	      0.03032259	      0.03351207	      0.07163670
      4.96153846	      0.03073202	      0.03373756	      0.07008313
      4.98076923	      0.03142785	      0.03411736	      0.07240519
      5.00000000	      0.03217630	      0.03452122	      0.07375798
      5.01923077	      0.03225444	      0.03456312	      0.07219632
      5.03846154	      0.03160005	      0.03421070	      0.06958858
      5.05769231	      0.03048194	      0.03360001	      0.06661075
      5.07692308	      0.02894845	      0.03274393	      0.06460403
      5.09615385	      0.02735157	      0.03182799	      0.06350371
      5.11538462	      0.02582936	      0.03092964	      0.06243519
      5.13461538	      0.02444731	      0.03009079	      0.06060428
      5.15384615	      0.02333310	      0.02939709	      0.05796988
      5.17307692	      0.02255292	      0.02890144	      0.05447678
      5.19230769	      0.02208125	      0.02859762	      0.04922644
      5.21153846	      0.02157531	      0.02826810	      0.04385699
      5.23076923	      0.02140956	      0.02815931	      0.04585685
      5.25000000	      0.02182906	      0.02843385	      0.05117609
      5.26923077	      0.02308857	      0.02924264	      0.05846911
      5.28846154	      0.02462779	      0.03020166	      0.06396729
      5.30769231	      0.02601556	      0.03104093	      0.06806933
      5.32692308	      0.02694640	      0.03159137	      0.06939701
      5.34615385	      0.02731677	      0.03180774	      0.06839623
      5.36538462	      0.02730757	      0.03180238	      0.06797803
      5.38461538	      0.02723605	      0.03176071	      0.07138330
      5.40384615	      0.02539017	      0.03066556	      0.07332853
      5.42307692	      0.02540848	      0.03067661	      0.07571225
      5.44230769	      0.02566455	      0.03083081	      0.07847468
      5.46153846	      0.02568034	      0.03084029	      0.07850575
      5.48076923	      0.02425297	      0.02997096	      0.06329521
      5.50000000	      0.02432017	      0.03001245	      0.06402392
      5.51923077	      0.02460236	      0.03018607	      0.06522848
      5.53846154	      0.02490360	      0.03037030	      0.06677003
      5.55769231	      0.02517406	      0.03053478	      0.06743624
      5.57692308	      0.02543907	      0.03069508	      0.06695359
      5.59615385	      0.02577286	      0.03089580	      0.06598413
      5.61538462	      0.02619938	      0.03115040	      0.06435360
      5.63461538	      0.02514572	      0.03051759	      0.06026593
