Model Marker Errors from IK
version=1
nRows=432
nColumns=4
inDegrees=no
endheader
time	total_squared_error	marker_error_RMS	marker_error_max
      0.00000000	      0.01627654	      0.02455269	      0.04701454
      0.01694915	      0.01500497	      0.02357413	      0.04684420
      0.03389831	      0.01444454	      0.02312970	      0.04698168
      0.05084746	      0.01422619	      0.02295421	      0.04697868
      0.06779661	      0.01420053	      0.02293350	      0.04710474
      0.08474576	      0.01430659	      0.02301899	      0.04731463
      0.10169492	      0.01441029	      0.02310226	      0.04719437
      0.11864407	      0.01432997	      0.02303779	      0.04709532
      0.13559322	      0.01429684	      0.02301114	      0.04695902
      0.15254237	      0.01428812	      0.02300413	      0.04677601
      0.16949153	      0.01437910	      0.02307724	      0.04662578
      0.18644068	      0.01459313	      0.02324836	      0.04662697
      0.20338983	      0.01491623	      0.02350432	      0.04654133
      0.22033898	      0.01523529	      0.02375437	      0.04650925
      0.23728814	      0.01544788	      0.02391953	      0.04640922
      0.25423729	      0.01545548	      0.02392541	      0.04642788
      0.27118644	      0.01529944	      0.02380433	      0.04638613
      0.28813559	      0.01509972	      0.02364844	      0.04651666
      0.30508475	      0.01500157	      0.02357146	      0.04657008
      0.32203390	      0.01501674	      0.02358338	      0.04664563
      0.33898305	      0.01509561	      0.02364522	      0.04681899
      0.35593220	      0.01515213	      0.02368945	      0.04700487
      0.37288136	      0.01521137	      0.02373572	      0.04735718
      0.38983051	      0.01517398	      0.02370652	      0.04740263
      0.40677966	      0.01511586	      0.02366108	      0.04755225
      0.42372881	      0.01501853	      0.02358478	      0.04756741
      0.44067797	      0.01488578	      0.02348032	      0.04735020
      0.45762712	      0.01483331	      0.02343889	      0.04755129
      0.47457627	      0.01473794	      0.02336342	      0.04728899
      0.49152542	      0.01468449	      0.02332102	      0.04726074
      0.50847458	      0.01464518	      0.02328979	      0.04714076
      0.52542373	      0.01459058	      0.02324633	      0.04732511
      0.54237288	      0.01456946	      0.02322950	      0.04757963
      0.55932203	      0.01454530	      0.02321023	      0.04782125
      0.57627119	      0.01456388	      0.02322505	      0.04820117
      0.59322034	      0.01447875	      0.02315707	      0.04777748
      0.61016949	      0.01446503	      0.02314610	      0.04777964
      0.62711864	      0.01439447	      0.02308958	      0.04717790
      0.64406780	      0.01437582	      0.02307461	      0.04723882
      0.66101695	      0.01432437	      0.02303329	      0.04703057
      0.67796610	      0.01432431	      0.02303324	      0.04731698
      0.69491525	      0.01437330	      0.02307259	      0.04764153
      0.71186441	      0.01442925	      0.02311745	      0.04779395
      0.72881356	      0.01454904	      0.02321321	      0.04838694
      0.74576271	      0.01457994	      0.02323785	      0.04833565
      0.76271186	      0.01447187	      0.02315157	      0.04775541
      0.77966102	      0.01426984	      0.02298940	      0.04677269
      0.79661017	      0.01397609	      0.02275155	      0.04617572
      0.81355932	      0.01366970	      0.02250078	      0.04586638
      0.83050847	      0.01333501	      0.02222362	      0.04590740
      0.84745763	      0.01313576	      0.02205696	      0.04572434
      0.86440678	      0.01310130	      0.02202801	      0.04576697
      0.88135593	      0.01323113	      0.02213689	      0.04643310
      0.89830508	      0.01346728	      0.02233357	      0.04661223
      0.91525424	      0.01373452	      0.02255407	      0.04648037
      0.93220339	      0.01377885	      0.02259044	      0.04687108
      0.94915254	      0.01351662	      0.02237444	      0.04713104
      0.96610169	      0.01285494	      0.02181992	      0.04698276
      0.98305085	      0.01211211	      0.02118010	      0.04698859
      1.00000000	      0.01165018	      0.02077229	      0.04669513
      1.01694915	      0.01157205	      0.02070252	      0.04625762
      1.03389831	      0.01163983	      0.02076307	      0.04542992
      1.05084746	      0.01176876	      0.02087774	      0.04547385
      1.06779661	      0.01200620	      0.02108730	      0.04440339
      1.08474576	      0.01237860	      0.02141184	      0.04677024
      1.10169492	      0.01271574	      0.02170146	      0.04945032
      1.11864407	      0.01285077	      0.02181638	      0.05004608
      1.13559322	      0.01300296	      0.02194518	      0.04958031
      1.15254237	      0.01372721	      0.02254806	      0.05037661
      1.16949153	      0.01564677	      0.02407302	      0.05590473
      1.18644068	      0.01869401	      0.02631294	      0.06613430
      1.20338983	      0.02191258	      0.02848819	      0.07805874
      1.22033898	      0.02402224	      0.02982805	      0.08753947
      1.23728814	      0.02438450	      0.03005211	      0.09190565
      1.25423729	      0.02304477	      0.02921489	      0.09064582
      1.27118644	      0.02071588	      0.02769937	      0.08488243
      1.28813559	      0.01845888	      0.02614694	      0.07687804
      1.30508475	      0.01691668	      0.02503086	      0.06960266
      1.32203390	      0.01634436	      0.02460379	      0.06602377
      1.33898305	      0.01655801	      0.02476408	      0.06722535
      1.35593220	      0.01725107	      0.02527704	      0.07118279
      1.37288136	      0.01798094	      0.02580622	      0.07538696
      1.38983051	      0.01857838	      0.02623143	      0.07853066
      1.40677966	      0.01921939	      0.02668013	      0.08120843
      1.42372881	      0.02008429	      0.02727384	      0.08346236
      1.44067797	      0.02107112	      0.02793585	      0.08480642
      1.45762712	      0.02190485	      0.02848317	      0.08566648
      1.47457627	      0.02241462	      0.02881269	      0.08509380
      1.49152542	      0.02257122	      0.02891317	      0.08372938
      1.50847458	      0.02249743	      0.02886586	      0.08207008
      1.52542373	      0.02230863	      0.02874449	      0.08091143
      1.54237288	      0.02193171	      0.02850062	      0.08031762
      1.55932203	      0.02128544	      0.02807757	      0.08042309
      1.57627119	      0.02071285	      0.02769734	      0.08168578
      1.59322034	      0.02069647	      0.02768639	      0.08371124
      1.61016949	      0.02108543	      0.02794534	      0.08620738
      1.62711864	      0.02131501	      0.02809706	      0.08840935
      1.64406780	      0.02094009	      0.02784886	      0.09011511
      1.66101695	      0.02044490	      0.02751760	      0.09096511
      1.67796610	      0.01998845	      0.02720869	      0.09056800
      1.69491525	      0.02002253	      0.02723188	      0.08820310
      1.71186441	      0.02103592	      0.02791251	      0.08449526
      1.72881356	      0.02299200	      0.02918142	      0.07939270
      1.74576271	      0.02522657	      0.03056661	      0.07492168
      1.76271186	      0.02647648	      0.03131470	      0.07250457
      1.77966102	      0.02661977	      0.03139932	      0.07251433
      1.79661017	      0.02586154	      0.03094891	      0.07279945
      1.81355932	      0.02465144	      0.03021616	      0.07180871
      1.83050847	      0.02366828	      0.02960748	      0.06945278
      1.84745763	      0.02347209	      0.02948452	      0.06802941
      1.86440678	      0.02419282	      0.02993377	      0.06974535
      1.88135593	      0.02560176	      0.03079307	      0.07064048
      1.89830508	      0.02727786	      0.03178508	      0.06737166
      1.91525424	      0.02871629	      0.03261236	      0.06750104
      1.93220339	      0.02943337	      0.03301704	      0.06986607
      1.94915254	      0.02920266	      0.03288738	      0.07178665
      1.96610169	      0.02836877	      0.03241443	      0.07108892
      1.98305085	      0.02728366	      0.03178846	      0.07020467
      2.00000000	      0.02610966	      0.03109702	      0.07016115
      2.01694915	      0.02476930	      0.03028831	      0.06796090
      2.03389831	      0.02320067	      0.02931355	      0.06389795
      2.05084746	      0.02126945	      0.02806702	      0.05793375
      2.06779661	      0.01916515	      0.02664246	      0.05208452
      2.08474576	      0.01696238	      0.02506464	      0.04589622
      2.10169492	      0.01493991	      0.02352296	      0.03915465
      2.11864407	      0.01332582	      0.02221596	      0.03757543
      2.13559322	      0.01206730	      0.02114089	      0.03690785
      2.15254237	      0.01111509	      0.02028965	      0.03607897
      2.16949153	      0.01047357	      0.01969544	      0.03518600
      2.18644068	      0.01025309	      0.01948702	      0.03464382
      2.20338983	      0.01027924	      0.01951185	      0.03487867
      2.22033898	      0.01037928	      0.01960657	      0.03548239
      2.23728814	      0.01019885	      0.01943541	      0.03616277
      2.25423729	      0.00958472	      0.01884116	      0.03650308
      2.27118644	      0.00876717	      0.01801971	      0.03620309
      2.28813559	      0.00812608	      0.01734837	      0.03509915
      2.30508475	      0.00817222	      0.01739756	      0.03354653
      2.32203390	      0.00856622	      0.01781200	      0.03181153
      2.33898305	      0.00883725	      0.01809158	      0.03085431
      2.35593220	      0.00878945	      0.01804259	      0.03213035
      2.37288136	      0.00864099	      0.01788957	      0.03350733
      2.38983051	      0.00858086	      0.01782721	      0.03370325
      2.40677966	      0.00863292	      0.01788121	      0.03200550
      2.42372881	      0.00878732	      0.01804041	      0.03002375
      2.44067797	      0.00920156	      0.01846072	      0.02902360
      2.45762712	      0.00992627	      0.01917393	      0.03127289
      2.47457627	      0.01095672	      0.02014459	      0.03340379
      2.49152542	      0.01209426	      0.02116449	      0.03505223
      2.50847458	      0.01310514	      0.02203124	      0.03680859
      2.52542373	      0.01375930	      0.02257440	      0.03940858
      2.54237288	      0.01405141	      0.02281277	      0.04061641
      2.55932203	      0.01413773	      0.02288274	      0.04126813
      2.57627119	      0.01415471	      0.02289648	      0.04160998
      2.59322034	      0.01423062	      0.02295779	      0.04164489
      2.61016949	      0.01454193	      0.02320754	      0.04132370
      2.62711864	      0.01521844	      0.02374123	      0.04116248
      2.64406780	      0.01629495	      0.02456658	      0.04128335
      2.66101695	      0.01774010	      0.02563281	      0.04109580
      2.67796610	      0.01951483	      0.02688441	      0.04391806
      2.69491525	      0.02125393	      0.02805677	      0.04910564
      2.71186441	      0.02276114	      0.02903455	      0.05295924
      2.72881356	      0.02388768	      0.02974439	      0.05458754
      2.74576271	      0.02306897	      0.02923023	      0.05501597
      2.76271186	      0.02326328	      0.02935307	      0.05551493
      2.77966102	      0.02329063	      0.02937032	      0.05563181
      2.79661017	      0.02315348	      0.02928372	      0.05596522
      2.81355932	      0.02293552	      0.02914556	      0.05724211
      2.83050847	      0.02285853	      0.02909660	      0.05863491
      2.84745763	      0.02307492	      0.02923400	      0.06011638
      2.86440678	      0.02357355	      0.02954817	      0.06282245
      2.88135593	      0.02446245	      0.03010011	      0.06556432
      2.89830508	      0.02507446	      0.03047431	      0.06754506
      2.91525424	      0.02562805	      0.03080888	      0.06938201
      2.93220339	      0.02583189	      0.03093116	      0.06953264
      2.94915254	      0.02572982	      0.03086999	      0.06839997
      2.96610169	      0.02544319	      0.03069756	      0.06639076
      2.98305085	      0.02503804	      0.03045217	      0.06328878
      3.00000000	      0.02447081	      0.03010526	      0.06022634
      3.01694915	      0.02393339	      0.02977284	      0.05573909
      3.03389831	      0.02325120	      0.02934545	      0.05347043
      3.05084746	      0.02188850	      0.02847253	      0.04812577
      3.06779661	      0.02041726	      0.02749900	      0.04692728
      3.08474576	      0.01916508	      0.02664241	      0.05547764
      3.10169492	      0.01913046	      0.02661833	      0.06329005
      3.11864407	      0.02171272	      0.02835798	      0.07067956
      3.13559322	      0.02891924	      0.03272740	      0.08350635
      3.15254237	      0.04135468	      0.03913636	      0.10027003
      3.16949153	      0.05854482	      0.04656529	      0.11688182
      3.18644068	      0.08234859	      0.05522633	      0.13132445
      3.20338983	      0.06228949	      0.04803143	      0.12312251
      3.22033898	      0.07923400	      0.05417188	      0.13539202
      3.23728814	      0.09731768	      0.06003631	      0.15200624
      3.25423729	      0.11601186	      0.06554949	      0.17330264
      3.27118644	      0.13516055	      0.07075271	      0.19238427
      3.28813559	      0.15452947	      0.07565259	      0.20858940
      3.30508475	      0.17357948	      0.08018023	      0.22196662
      3.32203390	      0.19161902	      0.08424370	      0.23233933
      3.33898305	      0.20778631	      0.08772565	      0.23996353
      3.35593220	      0.22126652	      0.09052655	      0.24512712
      3.37288136	      0.23126409	      0.09254910	      0.24811925
      3.38983051	      0.23735618	      0.09376017	      0.24947561
      3.40677966	      0.24001065	      0.09428300	      0.24964052
      3.42372881	      0.24045870	      0.09437096	      0.24904782
      3.44067797	      0.23995789	      0.09427263	      0.24804494
      3.45762712	      0.23951720	      0.09418603	      0.24743305
      3.47457627	      0.23980291	      0.09424218	      0.24725148
      3.49152542	      0.24108441	      0.09449366	      0.24771219
      3.50847458	      0.01048170	      0.01970307	      0.03786582
      3.52542373	      0.01084187	      0.02003873	      0.03885959
      3.54237288	      0.01120444	      0.02037104	      0.04016946
      3.55932203	      0.01154679	      0.02067991	      0.04167207
      3.57627119	      0.01184380	      0.02094419	      0.04293918
      3.59322034	      0.01204696	      0.02112306	      0.04413289
      3.61016949	      0.01218839	      0.02124669	      0.04461599
      3.62711864	      0.01226493	      0.02131330	      0.04498908
      3.64406780	      0.01234408	      0.02138196	      0.04487651
      3.66101695	      0.01241682	      0.02144487	      0.04526961
      3.67796610	      0.01248392	      0.02150273	      0.04547419
      3.69491525	      0.01250292	      0.02151908	      0.04585878
      3.71186441	      0.01248274	      0.02150172	      0.04615161
      3.72881356	      0.01246942	      0.02149024	      0.04615799
      3.74576271	      0.01249740	      0.02151434	      0.04593870
      3.76271186	      0.01254942	      0.02155907	      0.04576156
      3.77966102	      0.01257858	      0.02158410	      0.04553823
      3.79661017	      0.01253676	      0.02154819	      0.04563140
      3.81355932	      0.01237297	      0.02140697	      0.04559329
      3.83050847	      0.01209956	      0.02116912	      0.04578893
      3.84745763	      0.01177646	      0.02088457	      0.04586874
      3.86440678	      0.01146750	      0.02060879	      0.04593658
      3.88135593	      0.01128373	      0.02044300	      0.04592225
      3.89830508	      0.01129393	      0.02045223	      0.04586051
      3.91525424	      0.01148581	      0.02062524	      0.04585093
      3.93220339	      0.01179158	      0.02089797	      0.04581884
      3.94915254	      0.01214003	      0.02120450	      0.04582822
      3.96610169	      0.01233905	      0.02137760	      0.04576773
      3.98305085	      0.01240305	      0.02143297	      0.04586210
      4.00000000	      0.01228982	      0.02133491	      0.04605015
      4.01694915	      0.01215105	      0.02121412	      0.04634506
      4.03389831	      0.01195511	      0.02104238	      0.04644050
      4.05084746	      0.01164389	      0.02076669	      0.04606916
      4.06779661	      0.01118213	      0.02035075	      0.04470422
      4.08474576	      0.01062113	      0.01983369	      0.04243868
      4.10169492	      0.01001422	      0.01925869	      0.03948229
      4.11864407	      0.00947865	      0.01873662	      0.03638985
      4.13559322	      0.00911709	      0.01837580	      0.03331342
      4.15254237	      0.00896866	      0.01822560	      0.03024255
      4.16949153	      0.00898909	      0.01824635	      0.03125953
      4.18644068	      0.00913063	      0.01838944	      0.03706415
      4.20338983	      0.00929793	      0.01855715	      0.04107016
      4.22033898	      0.00944219	      0.01870055	      0.04165664
      4.23728814	      0.00968684	      0.01894127	      0.03857337
      4.25423729	      0.01010134	      0.01934228	      0.03547889
      4.27118644	      0.01041647	      0.01964167	      0.03751494
      4.28813559	      0.01047157	      0.01969355	      0.03682091
      4.30508475	      0.01020085	      0.01943732	      0.03822149
      4.32203390	      0.00987901	      0.01912823	      0.03913614
      4.33898305	      0.00980266	      0.01905417	      0.04017779
      4.35593220	      0.01006904	      0.01931133	      0.04081121
      4.37288136	      0.01063292	      0.01984470	      0.04099002
      4.38983051	      0.01161006	      0.02073650	      0.04085155
      4.40677966	      0.01308608	      0.02201522	      0.04024380
      4.42372881	      0.01489267	      0.02348575	      0.04172113
      4.44067797	      0.01647032	      0.02469842	      0.04472226
      4.45762712	      0.01747070	      0.02543743	      0.04532765
      4.47457627	      0.01813401	      0.02591583	      0.04558231
      4.49152542	      0.01876626	      0.02636374	      0.05157550
      4.50847458	      0.01899364	      0.02652297	      0.05577986
      4.52542373	      0.01844295	      0.02613565	      0.05486822
      4.54237288	      0.01698807	      0.02508361	      0.04980738
      4.55932203	      0.01521233	      0.02373646	      0.04182820
      4.57627119	      0.01367708	      0.02250685	      0.04014601
      4.59322034	      0.01280386	      0.02177653	      0.04064216
      4.61016949	      0.01243931	      0.02146427	      0.04125566
      4.62711864	      0.01242098	      0.02144846	      0.04341085
      4.64406780	      0.01222023	      0.02127442	      0.04016103
      4.66101695	      0.01221158	      0.02126689	      0.03969515
      4.67796610	      0.01236465	      0.02139977	      0.03936539
      4.69491525	      0.01251791	      0.02153198	      0.03933295
      4.71186441	      0.01303310	      0.02197061	      0.03995893
      4.72881356	      0.01494133	      0.02352409	      0.04155938
      4.74576271	      0.01837416	      0.02608686	      0.04876334
      4.76271186	      0.02256277	      0.02890775	      0.05627643
      4.77966102	      0.02628435	      0.03120087	      0.06177278
      4.79661017	      0.02799045	      0.03219757	      0.06464043
      4.81355932	      0.02726052	      0.03177498	      0.06460710
      4.83050847	      0.02514578	      0.03051762	      0.06219884
      4.84745763	      0.02295240	      0.02915628	      0.05813768
      4.86440678	      0.02148338	      0.02820781	      0.05459140
      4.88135593	      0.02087935	      0.02780844	      0.05184563
      4.89830508	      0.02090719	      0.02782697	      0.05179205
      4.91525424	      0.02171080	      0.02835672	      0.05198141
      4.93220339	      0.02314520	      0.02927849	      0.05264592
      4.94915254	      0.02507843	      0.03047673	      0.05362919
      4.96610169	      0.02719322	      0.03173573	      0.05452941
      4.98305085	      0.02927622	      0.03292878	      0.05760061
      5.00000000	      0.03114328	      0.03396255	      0.06133051
      5.01694915	      0.03249075	      0.03468950	      0.06475070
      5.03389831	      0.03342407	      0.03518421	      0.06712404
      5.05084746	      0.03293627	      0.03492652	      0.06801338
      5.06779661	      0.03124884	      0.03402006	      0.06757339
      5.08474576	      0.02893717	      0.03273755	      0.06571747
      5.10169492	      0.02664973	      0.03141698	      0.06293535
      5.11864407	      0.02471165	      0.03025304	      0.05983765
      5.13559322	      0.02292134	      0.02913655	      0.05674102
      5.15254237	      0.02112518	      0.02797166	      0.05392574
      5.16949153	      0.01940595	      0.02680931	      0.05117289
      5.18644068	      0.01789721	      0.02574606	      0.04848789
      5.20338983	      0.01671286	      0.02487960	      0.04619124
      5.22033898	      0.01589430	      0.02426268	      0.04421567
      5.23728814	      0.01544421	      0.02391669	      0.04422376
      5.25423729	      0.01507517	      0.02362921	      0.04441581
      5.27118644	      0.01488266	      0.02347786	      0.04407399
      5.28813559	      0.01488403	      0.02347893	      0.04365164
      5.30508475	      0.01490354	      0.02349432	      0.04607566
      5.32203390	      0.01505417	      0.02361275	      0.04776450
      5.33898305	      0.01544782	      0.02391948	      0.04831515
      5.35593220	      0.01597388	      0.02432335	      0.04820336
      5.37288136	      0.01636267	      0.02461757	      0.05080855
      5.38983051	      0.01632412	      0.02458855	      0.05220510
      5.40677966	      0.01599466	      0.02433916	      0.05075065
      5.42372881	      0.01550932	      0.02396705	      0.04801616
      5.44067797	      0.01512925	      0.02367156	      0.04768409
      5.45762712	      0.01500827	      0.02357672	      0.04798163
      5.47457627	      0.01519251	      0.02372099	      0.04821944
      5.49152542	      0.01558513	      0.02402555	      0.05025978
      5.50847458	      0.01612469	      0.02443790	      0.05377358
      5.52542373	      0.01622747	      0.02451566	      0.05358847
      5.54237288	      0.01600411	      0.02434635	      0.05089312
      5.55932203	      0.01568702	      0.02410395	      0.04614027
      5.57627119	      0.01564253	      0.02406975	      0.04585218
      5.59322034	      0.01578018	      0.02417543	      0.04671944
      5.61016949	      0.01611314	      0.02442914	      0.04736542
      5.62711864	      0.01659812	      0.02479406	      0.04748407
      5.64406780	      0.01722624	      0.02525884	      0.04658128
      5.66101695	      0.01785684	      0.02571700	      0.05082439
      5.67796610	      0.01767029	      0.02558232	      0.05402352
      5.69491525	      0.01747924	      0.02544365	      0.05349906
      5.71186441	      0.01700117	      0.02509329	      0.04933406
      5.72881356	      0.01660582	      0.02479980	      0.04336555
      5.74576271	      0.01659796	      0.02479394	      0.04080447
      5.76271186	      0.01710414	      0.02516916	      0.04800238
      5.77966102	      0.01790840	      0.02575411	      0.05403988
      5.79661017	      0.01864769	      0.02628032	      0.05716245
      5.81355932	      0.01886603	      0.02643373	      0.05688935
      5.83050847	      0.01839437	      0.02610121	      0.05404163
      5.84745763	      0.01760187	      0.02553275	      0.04974675
      5.86440678	      0.01688496	      0.02500738	      0.04431381
      5.88135593	      0.01644412	      0.02467877	      0.04003521
      5.89830508	      0.01718981	      0.02523211	      0.04214652
      5.91525424	      0.01784495	      0.02570844	      0.04424507
      5.93220339	      0.01943799	      0.02683143	      0.04837336
      5.94915254	      0.02014057	      0.02731203	      0.05351878
      5.96610169	      0.01990860	      0.02715429	      0.05743349
      5.98305085	      0.01928219	      0.02672368	      0.05769525
      6.00000000	      0.01886222	      0.02643105	      0.05519414
      6.01694915	      0.01887426	      0.02643949	      0.05161594
      6.03389831	      0.01914484	      0.02662834	      0.04808667
      6.05084746	      0.01923037	      0.02668775	      0.04814289
      6.06779661	      0.01847939	      0.02616146	      0.04696398
      6.08474576	      0.01716553	      0.02521429	      0.04401824
      6.10169492	      0.01600215	      0.02434486	      0.04217688
      6.11864407	      0.01565556	      0.02407977	      0.04000091
      6.13559322	      0.01611591	      0.02443124	      0.03945312
      6.15254237	      0.01678797	      0.02493545	      0.04400186
      6.16949153	      0.01713875	      0.02519461	      0.04608367
      6.18644068	      0.01686726	      0.02499426	      0.04469861
      6.20338983	      0.01624766	      0.02453090	      0.04368908
      6.22033898	      0.01590665	      0.02427211	      0.04834053
      6.23728814	      0.01628706	      0.02456063	      0.05253284
      6.25423729	      0.01732962	      0.02533452	      0.05595200
      6.27118644	      0.01872157	      0.02633233	      0.05856622
      6.28813559	      0.02015635	      0.02732273	      0.06267276
      6.30508475	      0.02145895	      0.02819177	      0.06332689
      6.32203390	      0.02104243	      0.02791683	      0.06220162
      6.33898305	      0.02095592	      0.02785938	      0.06158889
      6.35593220	      0.02108350	      0.02794406	      0.06054553
      6.37288136	      0.02135557	      0.02812378	      0.06010878
      6.38983051	      0.02155467	      0.02825458	      0.05962433
      6.40677966	      0.02168564	      0.02834029	      0.05864968
      6.42372881	      0.02195266	      0.02851423	      0.05716674
      6.44067797	      0.02228831	      0.02873139	      0.05430751
      6.45762712	      0.02241634	      0.02881380	      0.05056759
      6.47457627	      0.02210295	      0.02861167	      0.04854832
      6.49152542	      0.02111407	      0.02796431	      0.04876766
      6.50847458	      0.02021707	      0.02736385	      0.04855416
      6.52542373	      0.01971122	      0.02701935	      0.04797207
      6.54237288	      0.01951440	      0.02688411	      0.04904054
      6.55932203	      0.01966663	      0.02698877	      0.05078986
      6.57627119	      0.01999803	      0.02721521	      0.05188485
      6.59322034	      0.02037672	      0.02747168	      0.05152286
      6.61016949	      0.02079007	      0.02774892	      0.05197043
      6.62711864	      0.02115261	      0.02798982	      0.05351782
      6.64406780	      0.02148517	      0.02820899	      0.05317168
      6.66101695	      0.02172405	      0.02836538	      0.05169200
      6.67796610	      0.02163648	      0.02830814	      0.04853484
      6.69491525	      0.02138077	      0.02814037	      0.04876656
      6.71186441	      0.02097921	      0.02787486	      0.05108547
      6.72881356	      0.02076959	      0.02773525	      0.05210769
      6.74576271	      0.02074840	      0.02772110	      0.05301973
      6.76271186	      0.02059926	      0.02762129	      0.05271543
      6.77966102	      0.02043638	      0.02751187	      0.05279960
      6.79661017	      0.02011183	      0.02729254	      0.05204760
      6.81355932	      0.01982619	      0.02709803	      0.05135032
      6.83050847	      0.01964938	      0.02697693	      0.05039313
      6.84745763	      0.01954184	      0.02690301	      0.04984320
      6.86440678	      0.01948886	      0.02686651	      0.05183320
      6.88135593	      0.01946287	      0.02684860	      0.05303077
      6.89830508	      0.01938281	      0.02679332	      0.05270114
      6.91525424	      0.01924883	      0.02670055	      0.05146321
      6.93220339	      0.01906072	      0.02656977	      0.04991256
      6.94915254	      0.01883948	      0.02641512	      0.04853587
      6.96610169	      0.01863061	      0.02626828	      0.04844418
      6.98305085	      0.01846286	      0.02614976	      0.04843047
      7.00000000	      0.01832920	      0.02605493	      0.04844358
      7.01694915	      0.01813819	      0.02591881	      0.04896749
      7.03389831	      0.01798556	      0.02580953	      0.04954836
      7.05084746	      0.01789190	      0.02574224	      0.05020519
      7.06779661	      0.01787344	      0.02572896	      0.05095085
      7.08474576	      0.01791647	      0.02575991	      0.05152502
      7.10169492	      0.01795466	      0.02578735	      0.05214593
      7.11864407	      0.01808411	      0.02588014	      0.05265281
      7.13559322	      0.01827931	      0.02601945	      0.05328902
      7.15254237	      0.01845936	      0.02614728	      0.05360668
      7.16949153	      0.01869893	      0.02631640	      0.05340546
      7.18644068	      0.01857181	      0.02622679	      0.05326525
      7.20338983	      0.01846797	      0.02615337	      0.05246844
      7.22033898	      0.01829574	      0.02603114	      0.05142655
      7.23728814	      0.01801277	      0.02582904	      0.05014700
      7.25423729	      0.01765010	      0.02556770	      0.04885571
      7.27118644	      0.01718311	      0.02522720	      0.04827754
      7.28813559	      0.01666660	      0.02484515	      0.04732079
      7.30508475	      0.01623047	      0.02451792	      0.04737357
