Model Marker Errors from IK
version=1
nRows=273
nColumns=4
inDegrees=no
endheader
time	total_squared_error	marker_error_RMS	marker_error_max
      0.00000000	      0.03645572	      0.03674523	      0.06640920
      0.01666667	      0.03712627	      0.03708163	      0.06588880
      0.03333333	      0.03783900	      0.03743587	      0.06646963
      0.05000000	      0.03836255	      0.03769397	      0.06760220
      0.06666667	      0.03858398	      0.03780260	      0.06871713
      0.08333333	      0.03841803	      0.03772121	      0.06955363
      0.10000000	      0.03762068	      0.03732772	      0.06846568
      0.11666667	      0.03628482	      0.03665900	      0.06594102
      0.13333333	      0.03456775	      0.03578110	      0.06178436
      0.15000000	      0.03276367	      0.03483489	      0.05619105
      0.16666667	      0.03120332	      0.03399527	      0.05351293
      0.18333333	      0.02998166	      0.03332314	      0.05216766
      0.20000000	      0.02927236	      0.03292661	      0.05068754
      0.21666667	      0.02888849	      0.03271000	      0.04955364
      0.23333333	      0.02915573	      0.03286095	      0.05370011
      0.25000000	      0.02998493	      0.03332496	      0.05908656
      0.26666667	      0.03120986	      0.03399883	      0.06355045
      0.28333333	      0.03245853	      0.03467229	      0.06672850
      0.30000000	      0.03376131	      0.03536126	      0.06908466
      0.31666667	      0.03531292	      0.03616470	      0.07027905
      0.33333333	      0.03703491	      0.03703597	      0.07072374
      0.35000000	      0.03841860	      0.03772149	      0.07041183
      0.36666667	      0.03814987	      0.03758933	      0.06945504
      0.38333333	      0.03845402	      0.03773888	      0.06834775
      0.40000000	      0.03880111	      0.03790881	      0.06696957
      0.41666667	      0.03941631	      0.03820816	      0.06691420
      0.43333333	      0.04039941	      0.03868171	      0.06969179
      0.45000000	      0.04185449	      0.03937215	      0.07167766
      0.46666667	      0.04407047	      0.04040099	      0.07284857
      0.48333333	      0.04696361	      0.04170603	      0.07362733
      0.50000000	      0.04997189	      0.04302105	      0.07446855
      0.51666667	      0.05253266	      0.04410957	      0.07783498
      0.53333333	      0.05240958	      0.04405786	      0.08098462
      0.55000000	      0.05439532	      0.04488476	      0.08382731
      0.56666667	      0.05639107	      0.04570074	      0.08623484
      0.58333333	      0.05798900	      0.04634372	      0.08698506
      0.60000000	      0.05889337	      0.04670371	      0.08699250
      0.61666667	      0.05878653	      0.04666132	      0.08638701
      0.63333333	      0.05728490	      0.04606151	      0.08484116
      0.65000000	      0.05427932	      0.04483687	      0.08341945
      0.66666667	      0.05035969	      0.04318766	      0.08118762
      0.68333333	      0.04637588	      0.04144424	      0.07868005
      0.70000000	      0.04283104	      0.03982882	      0.07596118
      0.71666667	      0.03975170	      0.03837037	      0.07381889
      0.73333333	      0.03711450	      0.03707575	      0.08043976
      0.75000000	      0.03535689	      0.03618721	      0.08681211
      0.76666667	      0.03536154	      0.03618960	      0.09496743
      0.78333333	      0.03908243	      0.03804599	      0.10701753
      0.80000000	      0.04735434	      0.04187916	      0.12313768
      0.81666667	      0.05976298	      0.04704725	      0.13937409
      0.83333333	      0.07755956	      0.05359642	      0.15433783
      0.85000000	      0.10000671	      0.06086010	      0.16836457
      0.86666667	      0.04511934	      0.04087893	      0.12312769
      0.88333333	      0.05424578	      0.04482302	      0.13533610
      0.90000000	      0.06484009	      0.04900495	      0.14600605
      0.91666667	      0.07678944	      0.05332967	      0.15525391
      0.93333333	      0.09024962	      0.05781504	      0.16432076
      0.95000000	      0.10522629	      0.06242812	      0.17377192
      0.96666667	      0.12126006	      0.06701577	      0.18261165
      0.98333333	      0.13802599	      0.07149877	      0.18981432
      1.00000000	      0.15603735	      0.07602079	      0.19562632
      1.01666667	      0.17644166	      0.08083858	      0.20139847
      1.03333333	      0.19939640	      0.08593632	      0.20760948
      1.05000000	      0.22308136	      0.09089704	      0.21332900
      1.06666667	      0.24480345	      0.09521972	      0.21719187
      1.08333333	      0.26288926	      0.09867441	      0.21899834
      1.10000000	      0.27741963	      0.10136469	      0.22379799
      1.11666667	      0.28932748	      0.10351731	      0.23323014
      1.13333333	      0.29985526	      0.10538382	      0.24067748
      1.15000000	      0.31014811	      0.10717727	      0.24730559
      1.16666667	      0.32133820	      0.10909361	      0.25461024
      1.18333333	      0.33411360	      0.11124108	      0.26345776
      1.20000000	      0.34857807	      0.11362350	      0.27344821
      1.21666667	      0.36354489	      0.11603717	      0.28327470
      1.23333333	      0.37652079	      0.11808986	      0.29086349
      1.25000000	      0.38486121	      0.11939062	      0.29474380
      1.26666667	      0.38725174	      0.11976083	      0.29438471
      1.28333333	      0.38404377	      0.11926376	      0.28974612
      1.30000000	      0.37718575	      0.11819409	      0.28156593
      1.31666667	      0.36980180	      0.11703146	      0.27166309
      1.33333333	      0.36485836	      0.11624660	      0.26222849
      1.35000000	      0.36418427	      0.11613917	      0.25562687
      1.36666667	      0.36814929	      0.11676968	      0.25285494
      1.38333333	      0.37587794	      0.11798900	      0.25362917
      1.40000000	      0.38443819	      0.11932498	      0.25616028
      1.41666667	      0.39035615	      0.12023991	      0.25890302
      1.43333333	      0.39201558	      0.12049521	      0.26084591
      1.45000000	      0.39008895	      0.12019875	      0.26137603
      1.46666667	      0.38639273	      0.11962793	      0.26038583
      1.48333333	      0.38227469	      0.11898875	      0.25839874
      1.50000000	      0.37849525	      0.11839908	      0.25633579
      1.51666667	      0.37547827	      0.11792626	      0.25482112
      1.53333333	      0.37337342	      0.11759526	      0.25379925
      1.55000000	      0.37172690	      0.11733568	      0.25284284
      1.56666667	      0.36939103	      0.11696645	      0.25170751
      1.58333333	      0.36549095	      0.11634733	      0.25027704
      1.60000000	      0.35982702	      0.11544231	      0.24852748
      1.61666667	      0.35285028	      0.11431767	      0.24653206
      1.63333333	      0.34528618	      0.11308571	      0.24424042
      1.65000000	      0.33764353	      0.11182717	      0.24204997
      1.66666667	      0.33022007	      0.11059102	      0.24026217
      1.68333333	      0.32321762	      0.10941217	      0.23946924
      1.70000000	      0.31701323	      0.10835696	      0.23896357
      1.71666667	      0.31146344	      0.10740430	      0.23730718
      1.73333333	      0.30613321	      0.10648130	      0.23279153
      1.75000000	      0.30023259	      0.10545011	      0.22467061
      1.76666667	      0.29305464	      0.10418194	      0.21518001
      1.78333333	      0.28374302	      0.10251342	      0.21751716
      1.80000000	      0.27156700	      0.10028977	      0.21668731
      1.81666667	      0.25633815	      0.09743719	      0.21488740
      1.83333333	      0.23849060	      0.09398396	      0.21194182
      1.85000000	      0.21903677	      0.09006927	      0.20674899
      1.86666667	      0.19929585	      0.08591465	      0.20054724
      1.88333333	      0.17997673	      0.08164438	      0.19371572
      1.90000000	      0.16185773	      0.07742565	      0.18684735
      1.91666667	      0.14557795	      0.07342871	      0.18034457
      1.93333333	      0.13110832	      0.06968403	      0.17404186
      1.95000000	      0.11793029	      0.06608925	      0.16699484
      1.96666667	      0.10563779	      0.06255007	      0.16028749
      1.98333333	      0.09421425	      0.05907129	      0.15193375
      2.00000000	      0.08458421	      0.05597096	      0.14720725
      2.01666667	      0.07544192	      0.05285968	      0.14154744
      2.03333333	      0.06797184	      0.05017445	      0.13686563
      2.05000000	      0.06180700	      0.04784504	      0.13238522
      2.06666667	      0.05693617	      0.04592110	      0.12784494
      2.08333333	      0.05301678	      0.04431235	      0.12275714
      2.10000000	      0.04954728	      0.04283789	      0.11686098
      2.11666667	      0.04626475	      0.04139456	      0.10994852
      2.13333333	      0.04315845	      0.03998076	      0.10263136
      2.15000000	      0.04026292	      0.03861631	      0.09526488
      2.16666667	      0.03729656	      0.03716657	      0.08890575
      2.18333333	      0.03438407	      0.03568591	      0.08306629
      2.20000000	      0.03186230	      0.03435237	      0.07802902
      2.21666667	      0.03007453	      0.03337471	      0.07431223
      2.23333333	      0.02891375	      0.03272430	      0.07171263
      2.25000000	      0.02809356	      0.03225682	      0.07025145
      2.26666667	      0.02734836	      0.03182613	      0.06857070
      2.28333333	      0.02655900	      0.03136346	      0.06762924
      2.30000000	      0.02595167	      0.03100279	      0.06552900
      2.31666667	      0.02557942	      0.03077963	      0.06347658
      2.33333333	      0.02555761	      0.03076651	      0.06086509
      2.35000000	      0.02585215	      0.03094329	      0.05775072
      2.36666667	      0.02641186	      0.03127646	      0.05423357
      2.38333333	      0.02717581	      0.03172557	      0.05151516
      2.40000000	      0.02790877	      0.03215055	      0.04924731
      2.41666667	      0.02839920	      0.03243181	      0.04813380
      2.43333333	      0.02842368	      0.03244578	      0.04834758
      2.45000000	      0.02846007	      0.03246654	      0.05003204
      2.46666667	      0.02853295	      0.03250809	      0.05179438
      2.48333333	      0.02881826	      0.03267022	      0.05335768
      2.50000000	      0.02922308	      0.03289888	      0.05510409
      2.51666667	      0.02957305	      0.03309529	      0.05639559
      2.53333333	      0.02972465	      0.03318001	      0.05747328
      2.55000000	      0.02978515	      0.03321376	      0.05903042
      2.56666667	      0.02997770	      0.03332094	      0.06123007
      2.58333333	      0.03053635	      0.03362998	      0.06432187
      2.60000000	      0.03144894	      0.03412881	      0.06780669
      2.61666667	      0.03253590	      0.03471359	      0.07152233
      2.63333333	      0.03345814	      0.03520214	      0.07482016
      2.65000000	      0.03386365	      0.03541482	      0.07780798
      2.66666667	      0.03378580	      0.03537409	      0.07988342
      2.68333333	      0.03354788	      0.03524931	      0.08128796
      2.70000000	      0.03354856	      0.03524967	      0.08243466
      2.71666667	      0.03394935	      0.03545960	      0.08344280
      2.73333333	      0.03462459	      0.03581051	      0.08467483
      2.75000000	      0.03540337	      0.03621099	      0.08486351
      2.76666667	      0.03613028	      0.03658085	      0.08418720
      2.78333333	      0.03664686	      0.03684143	      0.08334206
      2.80000000	      0.03679617	      0.03691641	      0.08244083
      2.81666667	      0.03654944	      0.03679243	      0.08213921
      2.83333333	      0.03610225	      0.03656666	      0.08150754
      2.85000000	      0.03568634	      0.03635542	      0.08172734
      2.86666667	      0.03530460	      0.03616045	      0.08191863
      2.88333333	      0.03485773	      0.03593086	      0.08217888
      2.90000000	      0.03430933	      0.03564710	      0.08233346
      2.91666667	      0.03358694	      0.03526983	      0.08156023
      2.93333333	      0.03304290	      0.03498301	      0.08146566
      2.95000000	      0.03277519	      0.03484101	      0.08133440
      2.96666667	      0.03279981	      0.03485409	      0.08100824
      2.98333333	      0.03322327	      0.03507836	      0.08130464
      3.00000000	      0.03389268	      0.03542999	      0.08188405
      3.01666667	      0.03459667	      0.03579606	      0.08228307
      3.03333333	      0.03523881	      0.03612674	      0.08233521
      3.05000000	      0.03570047	      0.03636261	      0.08242398
      3.06666667	      0.03596696	      0.03649808	      0.08262998
      3.08333333	      0.03597792	      0.03650364	      0.08269607
      3.10000000	      0.03570776	      0.03636633	      0.08226763
      3.11666667	      0.03519301	      0.03610325	      0.08124929
      3.13333333	      0.03451503	      0.03575381	      0.07923425
      3.15000000	      0.03361051	      0.03528220	      0.07586625
      3.16666667	      0.03227953	      0.03457656	      0.07019407
      3.18333333	      0.03042382	      0.03356797	      0.06316911
      3.20000000	      0.02821571	      0.03232686	      0.06144206
      3.21666667	      0.02601697	      0.03104177	      0.05820900
      3.23333333	      0.02411158	      0.02988347	      0.05334960
      3.25000000	      0.02271332	      0.02900403	      0.05847979
      3.26666667	      0.02228697	      0.02873053	      0.06685964
      3.28333333	      0.02322429	      0.02932847	      0.07619497
      3.30000000	      0.02553779	      0.03075458	      0.08567614
      3.31666667	      0.02874991	      0.03263145	      0.09350071
      3.33333333	      0.03267264	      0.03478646	      0.10098507
      3.35000000	      0.03702904	      0.03703304	      0.10754862
      3.36666667	      0.04095153	      0.03894513	      0.11393480
      3.38333333	      0.04351910	      0.04014746	      0.11937653
      3.40000000	      0.04468430	      0.04068137	      0.12327186
      3.41666667	      0.04514024	      0.04088839	      0.12567793
      3.43333333	      0.04567537	      0.04113004	      0.12751344
      3.45000000	      0.04635179	      0.04143347	      0.12915030
      3.46666667	      0.04678267	      0.04162561	      0.13023728
      3.48333333	      0.04649298	      0.04149653	      0.13058083
      3.50000000	      0.04526906	      0.04094670	      0.12892537
      3.51666667	      0.04324684	      0.04002168	      0.12438843
      3.53333333	      0.04071403	      0.03883203	      0.11692363
      3.55000000	      0.03818400	      0.03760614	      0.10680623
      3.56666667	      0.03605587	      0.03654316	      0.09553932
      3.58333333	      0.03438836	      0.03568813	      0.08447671
      3.60000000	      0.03310794	      0.03501742	      0.07470174
      3.61666667	      0.03245031	      0.03466790	      0.06747368
      3.63333333	      0.03202993	      0.03444262	      0.06203209
      3.65000000	      0.03163366	      0.03422889	      0.05918014
      3.66666667	      0.03121248	      0.03400026	      0.05812045
      3.68333333	      0.03068342	      0.03371087	      0.05837995
      3.70000000	      0.02997451	      0.03331917	      0.05930776
      3.71666667	      0.02968390	      0.03315726	      0.06035532
      3.73333333	      0.02963423	      0.03312950	      0.06167189
      3.75000000	      0.02969556	      0.03316377	      0.06189972
      3.76666667	      0.02978771	      0.03321519	      0.06233204
      3.78333333	      0.02989233	      0.03327346	      0.06263737
      3.80000000	      0.02800324	      0.03220492	      0.05219593
      3.81666667	      0.02812040	      0.03227222	      0.05285375
      3.83333333	      0.02831310	      0.03238261	      0.05314825
      3.85000000	      0.02850120	      0.03249000	      0.05302468
      3.86666667	      0.02877216	      0.03264408	      0.05256789
      3.88333333	      0.02926585	      0.03292294	      0.05204564
      3.90000000	      0.03036874	      0.03353756	      0.05302730
      3.91666667	      0.03216615	      0.03451578	      0.05532912
      3.93333333	      0.03458056	      0.03578773	      0.05849410
      3.95000000	      0.03726720	      0.03715194	      0.06075269
      3.96666667	      0.04019963	      0.03858594	      0.06776612
      3.98333333	      0.04316681	      0.03998463	      0.07376443
      4.00000000	      0.04434358	      0.04052598	      0.07734580
      4.01666667	      0.04530594	      0.04096337	      0.07860424
      4.03333333	      0.04525917	      0.04094222	      0.07833697
      4.05000000	      0.04457685	      0.04063243	      0.07478002
      4.06666667	      0.04409942	      0.04041425	      0.07187564
      4.08333333	      0.04435388	      0.04053068	      0.07061116
      4.10000000	      0.04546293	      0.04103428	      0.07162016
      4.11666667	      0.04733075	      0.04186873	      0.07179958
      4.13333333	      0.04979217	      0.04294362	      0.07467233
      4.15000000	      0.05256519	      0.04412323	      0.08032157
      4.16666667	      0.05524401	      0.04523356	      0.08593903
      4.18333333	      0.05607604	      0.04557291	      0.09120005
      4.20000000	      0.05761835	      0.04619538	      0.09628523
      4.21666667	      0.05890725	      0.04670921	      0.10020324
      4.23333333	      0.06047951	      0.04732845	      0.10272182
      4.25000000	      0.06299970	      0.04830447	      0.10600361
      4.26666667	      0.06617081	      0.04950526	      0.10917723
      4.28333333	      0.06962499	      0.05078094	      0.11194967
      4.30000000	      0.07286696	      0.05194975	      0.11371113
      4.31666667	      0.07537987	      0.05283793	      0.11442430
      4.33333333	      0.07666615	      0.05328684	      0.11352448
      4.35000000	      0.07675106	      0.05331634	      0.11120802
      4.36666667	      0.07611491	      0.05309492	      0.10803760
      4.38333333	      0.07537178	      0.05283509	      0.10448638
      4.40000000	      0.07481717	      0.05264035	      0.10113980
      4.41666667	      0.07440588	      0.05249546	      0.09820850
      4.43333333	      0.07405252	      0.05237066	      0.09567648
      4.45000000	      0.07390145	      0.05231721	      0.09521200
      4.46666667	      0.07436319	      0.05248040	      0.09662994
      4.48333333	      0.07533918	      0.05282367	      0.10067525
      4.50000000	      0.07665933	      0.05328447	      0.10445340
      4.51666667	      0.07819992	      0.05381722	      0.10539808
      4.53333333	      0.08001816	      0.05443928	      0.10338059
