Model Marker Errors from IK
version=1
nRows=202
nColumns=4
inDegrees=no
endheader
time	total_squared_error	marker_error_RMS	marker_error_max
      0.00000000	      0.03106116	      0.03391775	      0.06818501
      0.01724138	      0.03075665	      0.03375108	      0.06682039
      0.03448276	      0.03083877	      0.03379611	      0.06602286
      0.05172414	      0.03114412	      0.03396301	      0.06540723
      0.06896552	      0.03149134	      0.03415181	      0.06499409
      0.08620690	      0.03177817	      0.03430698	      0.06478323
      0.10344828	      0.03192014	      0.03438353	      0.06450658
      0.12068966	      0.03192819	      0.03438787	      0.06421590
      0.13793103	      0.03189252	      0.03436866	      0.06453757
      0.15517241	      0.03192318	      0.03438517	      0.06509573
      0.17241379	      0.03209022	      0.03447502	      0.06524082
      0.18965517	      0.03238654	      0.03463382	      0.06513181
      0.20689655	      0.03281794	      0.03486372	      0.06506774
      0.22413793	      0.03326079	      0.03509817	      0.06506806
      0.24137931	      0.03363631	      0.03529574	      0.06521639
      0.25862069	      0.03392511	      0.03544694	      0.06554678
      0.27586207	      0.03401548	      0.03549412	      0.06589185
      0.29310345	      0.03397902	      0.03547509	      0.06632927
      0.31034483	      0.03386690	      0.03541652	      0.06665758
      0.32758621	      0.03372535	      0.03534243	      0.06671262
      0.34482759	      0.03359341	      0.03527322	      0.06640046
      0.36206897	      0.03352007	      0.03523470	      0.06572304
      0.37931034	      0.03350644	      0.03522754	      0.06503694
      0.39655172	      0.03359180	      0.03527238	      0.06422770
      0.41379310	      0.03376778	      0.03536465	      0.06357104
      0.43103448	      0.03402032	      0.03549665	      0.06306184
      0.44827586	      0.03431706	      0.03565112	      0.06266070
      0.46551724	      0.03449580	      0.03574384	      0.06271913
      0.48275862	      0.03442516	      0.03570723	      0.06342375
      0.50000000	      0.03391019	      0.03543915	      0.06386547
      0.51724138	      0.03291266	      0.03491400	      0.06396348
      0.53448276	      0.03158156	      0.03420069	      0.06397912
      0.55172414	      0.03033938	      0.03352135	      0.06398221
      0.56896552	      0.02967648	      0.03315311	      0.06432391
      0.58620690	      0.02973659	      0.03318667	      0.06489263
      0.60344828	      0.03049335	      0.03360630	      0.06599053
      0.62068966	      0.03145126	      0.03413007	      0.06766875
      0.63793103	      0.03232731	      0.03460214	      0.06958987
      0.65517241	      0.03300635	      0.03496366	      0.07183206
      0.67241379	      0.03326170	      0.03509864	      0.07431110
      0.68965517	      0.03325578	      0.03509552	      0.07685100
      0.70689655	      0.03311953	      0.03502355	      0.07918008
      0.72413793	      0.03296133	      0.03493980	      0.08104755
      0.74137931	      0.03267417	      0.03478728	      0.08171585
      0.75862069	      0.03214848	      0.03450630	      0.08119372
      0.77586207	      0.03147479	      0.03414283	      0.07966262
      0.79310345	      0.03102767	      0.03389945	      0.07812285
      0.81034483	      0.03119942	      0.03399315	      0.07739777
      0.82758621	      0.03195827	      0.03440406	      0.07771426
      0.84482759	      0.03281190	      0.03486052	      0.07884713
      0.86206897	      0.03322019	      0.03507674	      0.08022240
      0.87931034	      0.03295205	      0.03493489	      0.08080092
      0.89655172	      0.03187326	      0.03435828	      0.08046291
      0.91379310	      0.03005327	      0.03336292	      0.07892912
      0.93103448	      0.02784906	      0.03211614	      0.07634291
      0.94827586	      0.02594695	      0.03099997	      0.07293972
      0.96551724	      0.02482134	      0.03032010	      0.06899459
      0.98275862	      0.02445064	      0.03009284	      0.06545040
      1.00000000	      0.02451662	      0.03013342	      0.06300314
      1.01724138	      0.02472821	      0.03026317	      0.06141453
      1.03448276	      0.02494329	      0.03039450	      0.06240441
      1.05172414	      0.02522787	      0.03056740	      0.06648102
      1.06896552	      0.02582410	      0.03092649	      0.06920480
      1.08620690	      0.02673994	      0.03147012	      0.07133913
      1.10344828	      0.02763054	      0.03198989	      0.07342641
      1.12068966	      0.02846658	      0.03247026	      0.07569046
      1.13793103	      0.02994107	      0.03330058	      0.07780179
      1.15517241	      0.03279334	      0.03485066	      0.08050693
      1.17241379	      0.03702887	      0.03703296	      0.08312659
      1.18965517	      0.04194484	      0.03941463	      0.08576792
      1.20689655	      0.04655606	      0.04152467	      0.08757705
      1.22413793	      0.05072878	      0.04334563	      0.08785507
      1.24137931	      0.05425095	      0.04482516	      0.08677805
      1.25862069	      0.05672183	      0.04583458	      0.08685972
      1.27586207	      0.05742323	      0.04611709	      0.08721181
      1.29310345	      0.05607283	      0.04557161	      0.08719551
      1.31034483	      0.05280468	      0.04422362	      0.08708648
      1.32758621	      0.04837474	      0.04232797	      0.08688877
      1.34482759	      0.04211941	      0.03949656	      0.08633393
      1.36206897	      0.03802928	      0.03752988	      0.08550710
      1.37931034	      0.03467514	      0.03583664	      0.08396513
      1.39655172	      0.03198907	      0.03442064	      0.08156259
      1.41379310	      0.02984195	      0.03324541	      0.07854696
      1.43103448	      0.02835136	      0.03240448	      0.07539164
      1.44827586	      0.02787635	      0.03213187	      0.07317062
      1.46551724	      0.02824862	      0.03234572	      0.07110785
      1.48275862	      0.02895759	      0.03274910	      0.06882741
      1.50000000	      0.02922236	      0.03289848	      0.06496741
      1.51724138	      0.02903794	      0.03279450	      0.06076416
      1.53448276	      0.02717471	      0.03172492	      0.05805907
      1.55172414	      0.02636441	      0.03124836	      0.05789416
      1.56896552	      0.02578988	      0.03090600	      0.06007766
      1.58620690	      0.02560949	      0.03079772	      0.06247345
      1.60344828	      0.02583875	      0.03093526	      0.06425557
      1.62068966	      0.02619728	      0.03114915	      0.06477802
      1.63793103	      0.02622800	      0.03116741	      0.06385889
      1.65517241	      0.02554225	      0.03075726	      0.06486732
      1.67241379	      0.02412901	      0.02989427	      0.06414423
      1.68965517	      0.02250432	      0.02887028	      0.06213168
      1.70689655	      0.02115984	      0.02799460	      0.05950690
      1.72413793	      0.02016953	      0.02733166	      0.05724583
      1.74137931	      0.01956109	      0.02691625	      0.05591519
      1.75862069	      0.01963363	      0.02696612	      0.05622487
      1.77586207	      0.02069307	      0.02768411	      0.05951642
      1.79310345	      0.02264897	      0.02896292	      0.06298907
      1.81034483	      0.02492847	      0.03038547	      0.06579604
      1.82758621	      0.02662475	      0.03140226	      0.06765956
      1.84482759	      0.02701637	      0.03163236	      0.06812181
      1.86206897	      0.02625017	      0.03118058	      0.06744977
      1.87931034	      0.02492875	      0.03038564	      0.06598734
      1.89655172	      0.02355904	      0.02953908	      0.06507059
      1.91379310	      0.02240484	      0.02880640	      0.06351801
      1.93103448	      0.02158238	      0.02827273	      0.06362887
      1.94827586	      0.02120736	      0.02802602	      0.06353789
      1.96551724	      0.02121652	      0.02803207	      0.06345911
      1.98275862	      0.02154951	      0.02825120	      0.06289834
      2.00000000	      0.02219067	      0.02866839	      0.06214524
      2.01724138	      0.02303902	      0.02921125	      0.06129380
      2.03448276	      0.02379863	      0.02968890	      0.06106196
      2.05172414	      0.02423560	      0.02996022	      0.06143288
      2.06896552	      0.02426216	      0.02997663	      0.06207839
      2.08620690	      0.02424193	      0.02996414	      0.06206972
      2.10344828	      0.02428858	      0.02999295	      0.06227079
      2.12068966	      0.02435436	      0.03003354	      0.06044501
      2.13793103	      0.02421005	      0.02994443	      0.05832333
      2.15517241	      0.02379887	      0.02968905	      0.05518569
      2.17241379	      0.02329798	      0.02937496	      0.05332682
      2.18965517	      0.02290051	      0.02912330	      0.05220002
      2.20689655	      0.02277286	      0.02904203	      0.05105889
      2.22413793	      0.02289181	      0.02911778	      0.05069869
      2.24137931	      0.02327594	      0.02936106	      0.05053415
      2.25862069	      0.02389386	      0.02974824	      0.05062486
      2.27586207	      0.02461934	      0.03019648	      0.05154682
      2.29310345	      0.02530025	      0.03061121	      0.05260576
      2.31034483	      0.02597394	      0.03101609	      0.05369600
      2.32758621	      0.02658751	      0.03138029	      0.05418086
      2.34482759	      0.02714425	      0.03170714	      0.05483245
      2.36206897	      0.02748866	      0.03190765	      0.05540605
      2.37931034	      0.02755003	      0.03194325	      0.05587227
      2.39655172	      0.02736998	      0.03183870	      0.05642030
      2.41379310	      0.02709384	      0.03167768	      0.05662340
      2.43103448	      0.02691392	      0.03157233	      0.05663031
      2.44827586	      0.02685386	      0.03153708	      0.05632004
      2.46551724	      0.02701545	      0.03163182	      0.05633336
      2.48275862	      0.02738703	      0.03184862	      0.05612343
      2.50000000	      0.02790590	      0.03214890	      0.05617087
      2.51724138	      0.02840439	      0.03243477	      0.05597533
      2.53448276	      0.02884986	      0.03268812	      0.05590519
      2.55172414	      0.02922542	      0.03290020	      0.05590419
      2.56896552	      0.02953923	      0.03307636	      0.05593117
      2.58620690	      0.02983208	      0.03323992	      0.05613810
      2.60344828	      0.03009926	      0.03338843	      0.05622063
      2.62068966	      0.03035278	      0.03352875	      0.05656196
      2.63793103	      0.03057499	      0.03365126	      0.05685031
      2.65517241	      0.03071679	      0.03372920	      0.05700003
      2.67241379	      0.03077593	      0.03376166	      0.05703949
      2.68965517	      0.03083214	      0.03379247	      0.05712952
      2.70689655	      0.03095186	      0.03385802	      0.05731225
      2.72413793	      0.03115625	      0.03396962	      0.05791417
      2.74137931	      0.03136121	      0.03408117	      0.05872616
      2.75862069	      0.03141801	      0.03411202	      0.05979136
      2.77586207	      0.03134557	      0.03407267	      0.06103885
      2.79310345	      0.03105865	      0.03391637	      0.06154590
      2.81034483	      0.03079431	      0.03377173	      0.06192710
      2.82758621	      0.03059459	      0.03366204	      0.06203158
      2.84482759	      0.03029040	      0.03349428	      0.06169323
      2.86206897	      0.03000941	      0.03333856	      0.06141574
      2.87931034	      0.02969676	      0.03316444	      0.06111982
      2.89655172	      0.02936890	      0.03298086	      0.06070926
      2.91379310	      0.02904314	      0.03279744	      0.06020491
      2.93103448	      0.02873341	      0.03262208	      0.05956043
      2.94827586	      0.02846805	      0.03247110	      0.05913479
      2.96551724	      0.02815176	      0.03229021	      0.05826848
      2.98275862	      0.02789566	      0.03214300	      0.05772662
      3.00000000	      0.02766950	      0.03201244	      0.05744640
      3.01724138	      0.02752290	      0.03192752	      0.05775399
      3.03448276	      0.02736996	      0.03183869	      0.05780541
      3.05172414	      0.02739311	      0.03185215	      0.05831603
      3.06896552	      0.02759970	      0.03197204	      0.05893736
      3.08620690	      0.02783057	      0.03210548	      0.05925460
      3.10344828	      0.02814589	      0.03228685	      0.05961393
      3.12068966	      0.02832627	      0.03239014	      0.05948419
      3.13793103	      0.02832881	      0.03239159	      0.05934701
      3.15517241	      0.02815896	      0.03229434	      0.05906736
      3.17241379	      0.02776538	      0.03206786	      0.05892810
      3.18965517	      0.02729281	      0.03179379	      0.05884596
      3.20689655	      0.02678845	      0.03149864	      0.05884567
      3.22413793	      0.02638603	      0.03126116	      0.05895958
      3.24137931	      0.02618531	      0.03114203	      0.05893027
      3.25862069	      0.02618648	      0.03114273	      0.05880215
      3.27586207	      0.02636258	      0.03124727	      0.05844188
      3.29310345	      0.02673009	      0.03146432	      0.05809728
      3.31034483	      0.02723612	      0.03176075	      0.05772427
      3.32758621	      0.02782556	      0.03210259	      0.05726040
      3.34482759	      0.02842049	      0.03244396	      0.05688613
      3.36206897	      0.02897708	      0.03276012	      0.05663689
      3.37931034	      0.02946351	      0.03303394	      0.05667423
      3.39655172	      0.02978577	      0.03321410	      0.05675836
      3.41379310	      0.03008060	      0.03337808	      0.05704080
      3.43103448	      0.03035363	      0.03352922	      0.05742136
      3.44827586	      0.03069903	      0.03371945	      0.05759557
      3.46551724	      0.03130806	      0.03405228	      0.05858429
