Model Marker Errors from IK
version=1
nRows=147
nColumns=4
inDegrees=no
endheader
time	total_squared_error	marker_error_RMS	marker_error_max
      0.00000000	      0.02798873	      0.03219658	      0.06213898
      0.01694915	      0.02590034	      0.03097212	      0.05953118
      0.03389831	      0.02509423	      0.03048632	      0.06057125
      0.05084746	      0.02484089	      0.03033205	      0.06105774
      0.06779661	      0.02481514	      0.03031632	      0.06129663
      0.08474576	      0.02499388	      0.03042531	      0.06113948
      0.10169492	      0.02547376	      0.03071600	      0.06076324
      0.11864407	      0.02593783	      0.03099452	      0.05970718
      0.13559322	      0.02622073	      0.03116309	      0.05824370
      0.15254237	      0.02630326	      0.03121209	      0.05679622
      0.16949153	      0.02625839	      0.03118546	      0.05592497
      0.18644068	      0.02604114	      0.03105619	      0.05629124
      0.20338983	      0.02562891	      0.03080940	      0.05527793
      0.22033898	      0.02510090	      0.03049038	      0.05466579
      0.23728814	      0.02457202	      0.03016745	      0.05417462
      0.25423729	      0.02406816	      0.02985654	      0.05378937
      0.27118644	      0.02358908	      0.02955790	      0.05390058
      0.28813559	      0.02309173	      0.02924465	      0.05414875
      0.30508475	      0.02261069	      0.02893843	      0.05462727
      0.32203390	      0.02216575	      0.02865229	      0.05494680
      0.33898305	      0.02199158	      0.02853950	      0.05539675
      0.35593220	      0.02218724	      0.02866618	      0.05559999
      0.37288136	      0.02260065	      0.02893201	      0.05695277
      0.38983051	      0.02322668	      0.02932998	      0.05792337
      0.40677966	      0.02383366	      0.02971074	      0.05840026
      0.42372881	      0.02428697	      0.02999196	      0.05851750
      0.44067797	      0.02455511	      0.03015706	      0.05859435
      0.45762712	      0.02465690	      0.03021950	      0.05867825
      0.47457627	      0.02461750	      0.03019535	      0.05884176
      0.49152542	      0.02451416	      0.03013191	      0.05907557
      0.50847458	      0.02437809	      0.03004817	      0.05892454
      0.52542373	      0.02425705	      0.02997347	      0.05886698
      0.54237288	      0.02414227	      0.02990248	      0.05849411
      0.55932203	      0.02395669	      0.02978733	      0.05831626
      0.57627119	      0.02367374	      0.02961090	      0.05773565
      0.59322034	      0.02344002	      0.02946437	      0.05799455
      0.61016949	      0.02326250	      0.02935258	      0.05908533
      0.62711864	      0.02296796	      0.02916617	      0.05964274
      0.64406780	      0.02275253	      0.02902906	      0.05905144
      0.66101695	      0.02248826	      0.02885998	      0.05770746
      0.67796610	      0.02221826	      0.02868621	      0.05799691
      0.69491525	      0.02194927	      0.02851203	      0.05843667
      0.71186441	      0.02172966	      0.02836904	      0.05886610
      0.72881356	      0.02164779	      0.02831554	      0.05941080
      0.74576271	      0.02174639	      0.02837995	      0.05965967
      0.76271186	      0.02197537	      0.02852898	      0.05960479
      0.77966102	      0.02225619	      0.02871069	      0.06071043
      0.79661017	      0.02244598	      0.02883284	      0.06185378
      0.81355932	      0.02260481	      0.02893467	      0.06217321
      0.83050847	      0.02271153	      0.02900289	      0.06207001
      0.84745763	      0.02279825	      0.02905821	      0.06177995
      0.86440678	      0.02286919	      0.02910338	      0.06148555
      0.88135593	      0.02290225	      0.02912441	      0.06119296
      0.89830508	      0.02280175	      0.02906044	      0.06066728
      0.91525424	      0.02263160	      0.02895181	      0.06010781
      0.93220339	      0.02232463	      0.02875480	      0.05941833
      0.94915254	      0.02189040	      0.02847377	      0.05885277
      0.96610169	      0.02155001	      0.02825152	      0.05820928
      0.98305085	      0.02135998	      0.02812669	      0.05770264
      1.00000000	      0.02140822	      0.02815843	      0.05744456
      1.01694915	      0.02158632	      0.02827531	      0.05732520
      1.03389831	      0.02177065	      0.02839578	      0.05730999
      1.05084746	      0.02190241	      0.02848158	      0.05731391
      1.06779661	      0.02195399	      0.02851510	      0.05735957
      1.08474576	      0.02197440	      0.02852835	      0.05742115
      1.10169492	      0.02200323	      0.02854705	      0.05747831
      1.11864407	      0.02206878	      0.02858955	      0.05767533
      1.13559322	      0.02219120	      0.02866873	      0.05789842
      1.15254237	      0.02224441	      0.02870308	      0.05797195
      1.16949153	      0.02216824	      0.02865390	      0.05759879
      1.18644068	      0.02189563	      0.02847717	      0.05660478
      1.20338983	      0.02145118	      0.02818667	      0.05504164
      1.22033898	      0.02092200	      0.02783683	      0.05298374
      1.23728814	      0.02039834	      0.02748626	      0.05098035
      1.25423729	      0.01998396	      0.02720564	      0.04950783
      1.27118644	      0.01978820	      0.02707206	      0.04888369
      1.28813559	      0.01982957	      0.02710034	      0.04918059
      1.30508475	      0.02002812	      0.02723568	      0.05038525
      1.32203390	      0.02024801	      0.02738478	      0.05198102
      1.33898305	      0.02041123	      0.02749494	      0.05362017
      1.35593220	      0.02053935	      0.02758109	      0.05498368
      1.37288136	      0.02069578	      0.02768592	      0.05598510
      1.38983051	      0.02092171	      0.02783663	      0.05639714
      1.40677966	      0.02123092	      0.02804159	      0.05639047
      1.42372881	      0.02160458	      0.02828727	      0.05601471
      1.44067797	      0.02196562	      0.02852265	      0.05539340
      1.45762712	      0.02222956	      0.02869350	      0.05467698
      1.47457627	      0.02238288	      0.02879228	      0.05604276
      1.49152542	      0.02243637	      0.02882666	      0.05680471
      1.50847458	      0.02243108	      0.02882327	      0.05658342
      1.52542373	      0.02245142	      0.02883633	      0.05617652
      1.54237288	      0.02252700	      0.02888483	      0.05533137
      1.55932203	      0.02243800	      0.02882771	      0.05512792
      1.57627119	      0.02237038	      0.02878424	      0.05542182
      1.59322034	      0.02232969	      0.02875805	      0.05500183
      1.61016949	      0.02230380	      0.02874137	      0.05413507
      1.62711864	      0.02229381	      0.02873494	      0.05474308
      1.64406780	      0.02225607	      0.02871060	      0.05509046
      1.66101695	      0.02217880	      0.02866072	      0.05504965
      1.67796610	      0.02207816	      0.02859562	      0.05498135
      1.69491525	      0.02196164	      0.02852006	      0.05475238
      1.71186441	      0.02183026	      0.02843463	      0.05438843
      1.72881356	      0.02177301	      0.02839732	      0.05411677
      1.74576271	      0.02178434	      0.02840471	      0.05381513
      1.76271186	      0.02177019	      0.02839548	      0.05385524
      1.77966102	      0.02189354	      0.02847581	      0.05362268
      1.79661017	      0.02212407	      0.02862534	      0.05365520
      1.81355932	      0.02240774	      0.02880827	      0.05379709
      1.83050847	      0.02264824	      0.02896245	      0.05448132
      1.84745763	      0.02283623	      0.02908241	      0.05661334
      1.86440678	      0.02301098	      0.02919347	      0.05827067
      1.88135593	      0.02319082	      0.02930733	      0.05921148
      1.89830508	      0.02336369	      0.02941635	      0.05924967
      1.91525424	      0.02351519	      0.02951158	      0.05883338
      1.93220339	      0.02366516	      0.02960553	      0.05820191
      1.94915254	      0.02336653	      0.02941814	      0.05802974
      1.96610169	      0.02280778	      0.02906428	      0.05794342
      1.98305085	      0.02219491	      0.02867113	      0.05752353
      2.00000000	      0.02184458	      0.02844395	      0.05737187
      2.01694915	      0.02191594	      0.02849037	      0.05705339
      2.03389831	      0.02236357	      0.02877986	      0.05671644
      2.05084746	      0.02307574	      0.02923452	      0.05705177
      2.06779661	      0.02369796	      0.02962604	      0.05747670
      2.08474576	      0.02374560	      0.02965580	      0.05755920
      2.10169492	      0.02351597	      0.02951206	      0.05753590
      2.11864407	      0.02331415	      0.02938515	      0.05748819
      2.13559322	      0.02324655	      0.02934252	      0.05747084
      2.15254237	      0.02332955	      0.02939485	      0.05725304
      2.16949153	      0.02339315	      0.02943490	      0.05667545
      2.18644068	      0.02319845	      0.02931214	      0.05556693
      2.20338983	      0.02294740	      0.02915311	      0.05426601
      2.22033898	      0.02286197	      0.02909879	      0.05287611
      2.23728814	      0.02291051	      0.02912967	      0.05154082
      2.25423729	      0.02297276	      0.02916921	      0.05047396
      2.27118644	      0.02296919	      0.02916695	      0.04987075
      2.28813559	      0.02294209	      0.02914973	      0.04979680
      2.30508475	      0.02287417	      0.02910656	      0.05021165
      2.32203390	      0.02284720	      0.02908939	      0.05077675
      2.33898305	      0.02292525	      0.02913903	      0.05121440
      2.35593220	      0.02304363	      0.02921417	      0.05142154
      2.37288136	      0.02305310	      0.02922017	      0.05137508
      2.38983051	      0.02289520	      0.02911993	      0.05114746
      2.40677966	      0.02268046	      0.02898305	      0.05071884
      2.42372881	      0.02244050	      0.02882932	      0.05043396
      2.44067797	      0.02219761	      0.02867288	      0.05040465
      2.45762712	      0.02203675	      0.02856880	      0.05102601
      2.47457627	      0.02217014	      0.02865512	      0.05218487
