Model Marker Errors from IK
version=1
nRows=289
nColumns=4
inDegrees=no
endheader
time	total_squared_error	marker_error_RMS	marker_error_max
      0.00000000	      0.01469649	      0.02333055	      0.03725839
      0.01694915	      0.01493839	      0.02352177	      0.03691822
      0.03389831	      0.01520278	      0.02372901	      0.03708027
      0.05084746	      0.01537026	      0.02385936	      0.03713034
      0.06779661	      0.01541491	      0.02389399	      0.03748607
      0.08474576	      0.01536821	      0.02385776	      0.03810864
      0.10169492	      0.01530536	      0.02380893	      0.03882137
      0.11864407	      0.01516109	      0.02369645	      0.03979797
      0.13559322	      0.01503339	      0.02359645	      0.04051240
      0.15254237	      0.01490583	      0.02349612	      0.04119927
      0.16949153	      0.01480194	      0.02341410	      0.04158361
      0.18644068	      0.01474861	      0.02337188	      0.04146651
      0.20338983	      0.01479910	      0.02341186	      0.04129981
      0.22033898	      0.01499596	      0.02356705	      0.04116055
      0.23728814	      0.01534837	      0.02384236	      0.04114992
      0.25423729	      0.01578122	      0.02417622	      0.04160234
      0.27118644	      0.01615330	      0.02445957	      0.04194987
      0.28813559	      0.01626096	      0.02454094	      0.04194107
      0.30508475	      0.01614749	      0.02445517	      0.04167417
      0.32203390	      0.01594984	      0.02430504	      0.04096659
      0.33898305	      0.01585606	      0.02423348	      0.04029874
      0.35593220	      0.01597531	      0.02432443	      0.03967192
      0.37288136	      0.01636513	      0.02461942	      0.03929110
      0.38983051	      0.01710015	      0.02516623	      0.04330691
      0.40677966	      0.01804165	      0.02584974	      0.04777617
      0.42372881	      0.01934525	      0.02676735	      0.05271127
      0.44067797	      0.02079859	      0.02775461	      0.05664130
      0.45762712	      0.02224134	      0.02870110	      0.05973828
      0.47457627	      0.02337731	      0.02942493	      0.06192193
      0.49152542	      0.02388652	      0.02974367	      0.06382986
      0.50847458	      0.02364090	      0.02959035	      0.06322050
      0.52542373	      0.02310748	      0.02925462	      0.06156930
      0.54237288	      0.02270705	      0.02900003	      0.05871638
      0.55932203	      0.02263482	      0.02895387	      0.05574676
      0.57627119	      0.02277338	      0.02904236	      0.05262670
      0.59322034	      0.02295414	      0.02915739	      0.05206524
      0.61016949	      0.02319481	      0.02930985	      0.05198291
      0.62711864	      0.02336641	      0.02941807	      0.05203565
      0.64406780	      0.02355630	      0.02953736	      0.05273803
      0.66101695	      0.02361428	      0.02957369	      0.05418973
      0.67796610	      0.02342526	      0.02945509	      0.05430944
      0.69491525	      0.02330043	      0.02937650	      0.05623272
      0.71186441	      0.02333951	      0.02940113	      0.05885803
      0.72881356	      0.02370098	      0.02962792	      0.06398633
      0.74576271	      0.02418406	      0.02992835	      0.06686297
      0.76271186	      0.02471707	      0.03025635	      0.06810093
      0.77966102	      0.02495355	      0.03040075	      0.06823645
      0.79661017	      0.02502369	      0.03044344	      0.07020417
      0.81355932	      0.02489782	      0.03036678	      0.07162236
      0.83050847	      0.02481080	      0.03031367	      0.07396606
      0.84745763	      0.02462206	      0.03019815	      0.07609921
      0.86440678	      0.02411179	      0.02988360	      0.07664940
      0.88135593	      0.02319143	      0.02930771	      0.07707295
      0.89830508	      0.02124782	      0.02805274	      0.06744639
      0.91525424	      0.01901782	      0.02653985	      0.05920580
      0.93220339	      0.01677706	      0.02492735	      0.05108243
      0.94915254	      0.01495762	      0.02353691	      0.04334516
      0.96610169	      0.01383898	      0.02263968	      0.04080929
      0.98305085	      0.01305853	      0.02199203	      0.03894004
      1.00000000	      0.01278929	      0.02176413	      0.03678780
      1.01694915	      0.01265358	      0.02164835	      0.03462014
      1.03389831	      0.01275892	      0.02173827	      0.03368995
      1.05084746	      0.01294270	      0.02189428	      0.03438123
      1.06779661	      0.01303513	      0.02197232	      0.03582016
      1.08474576	      0.01294389	      0.02189529	      0.03659243
      1.10169492	      0.01263467	      0.02163217	      0.03632751
      1.11864407	      0.01226262	      0.02131129	      0.03501768
      1.13559322	      0.01207347	      0.02114629	      0.03486765
      1.15254237	      0.01218568	      0.02124433	      0.03553652
      1.16949153	      0.01263342	      0.02163110	      0.03652878
      1.18644068	      0.01336751	      0.02225069	      0.04050927
      1.20338983	      0.01424054	      0.02296579	      0.04442721
      1.22033898	      0.01478031	      0.02339699	      0.04463568
      1.23728814	      0.01474931	      0.02337244	      0.04248770
      1.25423729	      0.01435640	      0.02305902	      0.03889720
      1.27118644	      0.01423879	      0.02296437	      0.03793682
      1.28813559	      0.01454669	      0.02321134	      0.03966295
      1.30508475	      0.01479123	      0.02340562	      0.04135454
      1.32203390	      0.01470055	      0.02333377	      0.04134124
      1.33898305	      0.01466013	      0.02330167	      0.03955504
      1.35593220	      0.01495062	      0.02353140	      0.03983496
      1.37288136	      0.01552387	      0.02397828	      0.04034538
      1.38983051	      0.01614620	      0.02445419	      0.04328953
      1.40677966	      0.01649953	      0.02472031	      0.04575927
      1.42372881	      0.01624572	      0.02452944	      0.04647394
      1.44067797	      0.01538588	      0.02387147	      0.04377892
      1.45762712	      0.01439897	      0.02309319	      0.03782225
      1.47457627	      0.01384542	      0.02264494	      0.03456211
      1.49152542	      0.01407807	      0.02283440	      0.03499212
      1.50847458	      0.01510635	      0.02365363	      0.04139750
      1.52542373	      0.01659069	      0.02478850	      0.04804564
      1.54237288	      0.01790507	      0.02575171	      0.05280697
      1.55932203	      0.01866530	      0.02629273	      0.05571246
      1.57627119	      0.01890873	      0.02646362	      0.05649540
      1.59322034	      0.01888253	      0.02644529	      0.05530467
      1.61016949	      0.01870941	      0.02632378	      0.05312204
      1.62711864	      0.01835699	      0.02607467	      0.05033704
      1.64406780	      0.01780224	      0.02567766	      0.04787182
      1.66101695	      0.01731882	      0.02532662	      0.04687640
      1.67796610	      0.01722613	      0.02525876	      0.04761928
      1.69491525	      0.01768514	      0.02559307	      0.04910247
      1.71186441	      0.01861716	      0.02625880	      0.05104344
      1.72881356	      0.01981568	      0.02709085	      0.05293034
      1.74576271	      0.02098131	      0.02787625	      0.05426731
      1.76271186	      0.02182793	      0.02843311	      0.05475106
      1.77966102	      0.02230267	      0.02874065	      0.05475917
      1.79661017	      0.02263995	      0.02895715	      0.05551148
      1.81355932	      0.02280159	      0.02906034	      0.05420347
      1.83050847	      0.02282813	      0.02907725	      0.05710981
      1.84745763	      0.02266146	      0.02897091	      0.06083966
      1.86440678	      0.02221627	      0.02868493	      0.06264230
      1.88135593	      0.02195051	      0.02851283	      0.06385647
      1.89830508	      0.02188435	      0.02846983	      0.06406820
      1.91525424	      0.02178980	      0.02840827	      0.06438040
      1.93220339	      0.02166432	      0.02832635	      0.06456571
      1.94915254	      0.02144457	      0.02818232	      0.06487827
      1.96610169	      0.02135995	      0.02812666	      0.06531585
      1.98305085	      0.02155137	      0.02825241	      0.06644077
      2.00000000	      0.02184883	      0.02844672	      0.06675969
      2.01694915	      0.02208596	      0.02860067	      0.06719647
      2.03389831	      0.02199279	      0.02854028	      0.06654212
      2.05084746	      0.02157925	      0.02827068	      0.06596061
      2.06779661	      0.02086560	      0.02779928	      0.06478880
      2.08474576	      0.02001302	      0.02722541	      0.06403448
      2.10169492	      0.01917735	      0.02665093	      0.06246036
      2.11864407	      0.01859562	      0.02624361	      0.06108778
      2.13559322	      0.01829224	      0.02602865	      0.05954545
      2.15254237	      0.01819997	      0.02596292	      0.05759569
      2.16949153	      0.01825742	      0.02600386	      0.05650269
      2.18644068	      0.01839082	      0.02609869	      0.05520162
      2.20338983	      0.01855615	      0.02621574	      0.05357945
      2.22033898	      0.01870780	      0.02632264	      0.05237943
      2.23728814	      0.01878172	      0.02637460	      0.05032457
      2.25423729	      0.01893965	      0.02648525	      0.04951498
      2.27118644	      0.01921274	      0.02667551	      0.04815366
      2.28813559	      0.01964503	      0.02697394	      0.04766275
      2.30508475	      0.02017157	      0.02733304	      0.05208372
      2.32203390	      0.02082574	      0.02777271	      0.05568692
      2.33898305	      0.02132787	      0.02810554	      0.05844658
      2.35593220	      0.02153594	      0.02824230	      0.05862530
      2.37288136	      0.02138887	      0.02814570	      0.05621563
      2.38983051	      0.02095287	      0.02785735	      0.05159736
      2.40677966	      0.02057305	      0.02760371	      0.04783885
      2.42372881	      0.02036889	      0.02746640	      0.04800181
      2.44067797	      0.02035975	      0.02746024	      0.04773825
      2.45762712	      0.02032785	      0.02743872	      0.04875069
      2.47457627	      0.02004971	      0.02725035	      0.04919376
      2.49152542	      0.01948037	      0.02686067	      0.04900855
      2.50847458	      0.01883110	      0.02640924	      0.04827941
      2.52542373	      0.01833428	      0.02605854	      0.04724158
      2.54237288	      0.01819890	      0.02596215	      0.04673835
      2.55932203	      0.01814914	      0.02592663	      0.04729582
      2.57627119	      0.01819311	      0.02595802	      0.04769862
      2.59322034	      0.01839285	      0.02610013	      0.04744719
      2.61016949	      0.01862210	      0.02626228	      0.04642014
      2.62711864	      0.01854859	      0.02621040	      0.04546228
      2.64406780	      0.01806898	      0.02586931	      0.04586960
      2.66101695	      0.01736900	      0.02536328	      0.04650523
      2.67796610	      0.01657625	      0.02477772	      0.04731255
      2.69491525	      0.01576585	      0.02416444	      0.04700918
      2.71186441	      0.01502434	      0.02358934	      0.04694909
      2.72881356	      0.01440723	      0.02309981	      0.04567289
      2.74576271	      0.01393029	      0.02271424	      0.04376826
      2.76271186	      0.01351457	      0.02237274	      0.04110243
      2.77966102	      0.01311238	      0.02203733	      0.03743454
      2.79661017	      0.01285606	      0.02182087	      0.03536218
      2.81355932	      0.01293658	      0.02188910	      0.03570312
      2.83050847	      0.01293024	      0.02188373	      0.03563883
      2.84745763	      0.01272590	      0.02171013	      0.03507930
      2.86440678	      0.01214211	      0.02120631	      0.03616539
      2.88135593	      0.01144754	      0.02059085	      0.03851421
      2.89830508	      0.01103823	      0.02021938	      0.04023189
      2.91525424	      0.01102879	      0.02021073	      0.04159586
      2.93220339	      0.01125305	      0.02041518	      0.04304430
      2.94915254	      0.01177130	      0.02087999	      0.04423770
      2.96610169	      0.01284365	      0.02181034	      0.04703734
      2.98305085	      0.01460109	      0.02325470	      0.05009840
      3.00000000	      0.01650989	      0.02472807	      0.05285411
      3.01694915	      0.01796498	      0.02579476	      0.05571485
      3.03389831	      0.01901940	      0.02654095	      0.05893158
      3.05084746	      0.01994419	      0.02717855	      0.06115049
      3.06779661	      0.02103263	      0.02791033	      0.06969200
      3.08474576	      0.02255002	      0.02889959	      0.07748283
      3.10169492	      0.02457958	      0.03017209	      0.08344679
      3.11864407	      0.02670679	      0.03145060	      0.08683119
      3.13559322	      0.02829548	      0.03237253	      0.08944164
      3.15254237	      0.02907542	      0.03281566	      0.09088875
      3.16949153	      0.02928583	      0.03293418	      0.09072883
      3.18644068	      0.02934395	      0.03296684	      0.08962107
      3.20338983	      0.02951893	      0.03306499	      0.08876714
      3.22033898	      0.02991909	      0.03328836	      0.08834034
      3.23728814	      0.03046852	      0.03359261	      0.08892141
      3.25423729	      0.03101643	      0.03389331	      0.08969676
      3.27118644	      0.03150591	      0.03415971	      0.09030945
      3.28813559	      0.03199787	      0.03442538	      0.09178491
      3.30508475	      0.03248280	      0.03468525	      0.09371122
      3.32203390	      0.03288143	      0.03489743	      0.09531629
      3.33898305	      0.03305897	      0.03499152	      0.09819418
      3.35593220	      0.03272807	      0.03481595	      0.09779749
      3.37288136	      0.03164608	      0.03423561	      0.09575658
      3.38983051	      0.02987548	      0.03326408	      0.09180972
      3.40677966	      0.02779884	      0.03208718	      0.08807427
      3.42372881	      0.02556288	      0.03076968	      0.08572898
      3.44067797	      0.02296062	      0.02916150	      0.08291703
      3.45762712	      0.01997563	      0.02719997	      0.07661637
      3.47457627	      0.01712423	      0.02518394	      0.06843099
      3.49152542	      0.01503030	      0.02359402	      0.05886175
      3.50847458	      0.01418089	      0.02291764	      0.05010737
      3.52542373	      0.01465488	      0.02329750	      0.05179038
      3.54237288	      0.01626766	      0.02454600	      0.05710602
      3.55932203	      0.01873612	      0.02634256	      0.06332319
      3.57627119	      0.02164631	      0.02831458	      0.06998970
      3.59322034	      0.02449378	      0.03011938	      0.07727282
      3.61016949	      0.02679406	      0.03150195	      0.08398038
      3.62711864	      0.02803229	      0.03222162	      0.08867462
      3.64406780	      0.02774945	      0.03205865	      0.08974864
      3.66101695	      0.02584591	      0.03093955	      0.08549227
      3.67796610	      0.02279996	      0.02905930	      0.07601305
      3.69491525	      0.01950308	      0.02687632	      0.06371362
      3.71186441	      0.01677664	      0.02492703	      0.05212040
      3.72881356	      0.01494352	      0.02352581	      0.04839205
      3.74576271	      0.01381067	      0.02261650	      0.04770760
      3.76271186	      0.01323692	      0.02214173	      0.04890393
      3.77966102	      0.01308283	      0.02201248	      0.04977643
      3.79661017	      0.01353622	      0.02239066	      0.05146384
      3.81355932	      0.01413321	      0.02287908	      0.05153903
      3.83050847	      0.01430919	      0.02302108	      0.05001565
      3.84745763	      0.01390750	      0.02269565	      0.04694246
      3.86440678	      0.01335757	      0.02224241	      0.04385945
      3.88135593	      0.01321817	      0.02212605	      0.04138047
      3.89830508	      0.01369697	      0.02252321	      0.03975362
      3.91525424	      0.01452541	      0.02319436	      0.03904939
      3.93220339	      0.01529539	      0.02380117	      0.03915592
      3.94915254	      0.01587667	      0.02424922	      0.04237295
      3.96610169	      0.01631637	      0.02458271	      0.04826674
      3.98305085	      0.01654839	      0.02475688	      0.05150894
      4.00000000	      0.01643949	      0.02467529	      0.05343240
      4.01694915	      0.01615068	      0.02445758	      0.05332894
      4.03389831	      0.01605495	      0.02438499	      0.05217292
      4.05084746	      0.01660710	      0.02480076	      0.05192293
      4.06779661	      0.01775575	      0.02564411	      0.05190659
      4.08474576	      0.01923588	      0.02669157	      0.05239430
      4.10169492	      0.02085938	      0.02779514	      0.05484101
      4.11864407	      0.02241185	      0.02881091	      0.05636495
      4.13559322	      0.02381567	      0.02969953	      0.05690919
      4.15254237	      0.02486325	      0.03034569	      0.05652397
      4.16949153	      0.02530888	      0.03061643	      0.05602556
      4.18644068	      0.02471705	      0.03025634	      0.05410376
      4.20338983	      0.02298785	      0.02917879	      0.05290737
      4.22033898	      0.02051568	      0.02756519	      0.05193904
      4.23728814	      0.01683783	      0.02497245	      0.04585242
      4.25423729	      0.01568883	      0.02410535	      0.04600114
      4.27118644	      0.01590721	      0.02427254	      0.04713593
      4.28813559	      0.01739933	      0.02538542	      0.04868473
      4.30508475	      0.01953017	      0.02689498	      0.05048474
      4.32203390	      0.02148477	      0.02820873	      0.05227368
      4.33898305	      0.02228424	      0.02872877	      0.05313321
      4.35593220	      0.02284484	      0.02908789	      0.05339553
      4.37288136	      0.02276479	      0.02903688	      0.05222252
      4.38983051	      0.02224491	      0.02870340	      0.05022928
      4.40677966	      0.02164730	      0.02831522	      0.04698017
      4.42372881	      0.02113152	      0.02797586	      0.04611907
      4.44067797	      0.02095040	      0.02785571	      0.04576811
      4.45762712	      0.02085479	      0.02779208	      0.04497665
      4.47457627	      0.02094998	      0.02785544	      0.04565901
      4.49152542	      0.02129484	      0.02808377	      0.04977056
      4.50847458	      0.02182354	      0.02843025	      0.05497690
      4.52542373	      0.02234450	      0.02876758	      0.05974493
      4.54237288	      0.02290589	      0.02912673	      0.06480742
      4.55932203	      0.02361750	      0.02957571	      0.07040870
      4.57627119	      0.02258254	      0.02892041	      0.07573555
      4.59322034	      0.02268486	      0.02898586	      0.08079005
      4.61016949	      0.02305026	      0.02921837	      0.08514193
      4.62711864	      0.02367585	      0.02961222	      0.08905204
      4.64406780	      0.02441451	      0.03007060	      0.09279250
      4.66101695	      0.02484000	      0.03033150	      0.09452441
      4.67796610	      0.02469971	      0.03024573	      0.09339587
      4.69491525	      0.02419042	      0.02993228	      0.09106570
      4.71186441	      0.02346405	      0.02947946	      0.08882297
      4.72881356	      0.02255336	      0.02890172	      0.08607868
      4.74576271	      0.02176252	      0.02839048	      0.08335153
      4.76271186	      0.02123248	      0.02804261	      0.08056408
      4.77966102	      0.01506487	      0.02362114	      0.03613789
      4.79661017	      0.01522667	      0.02374764	      0.03703860
      4.81355932	      0.01570568	      0.02411829	      0.03881137
      4.83050847	      0.01622860	      0.02451651	      0.04066769
      4.84745763	      0.01651090	      0.02472882	      0.04150677
      4.86440678	      0.01631120	      0.02457882	      0.04191836
      4.88135593	      0.01563286	      0.02406231	      0.03907504
