Model Marker Errors from IK
version=1
nRows=502
nColumns=4
inDegrees=no
endheader
time	total_squared_error	marker_error_RMS	marker_error_max
      0.00000000	      0.03360395	      0.03527876	      0.06264841
      0.01666667	      0.03373864	      0.03534939	      0.06043259
      0.03333333	      0.03385723	      0.03541146	      0.05847371
      0.05000000	      0.03379616	      0.03537951	      0.05684247
      0.06666667	      0.03357237	      0.03526218	      0.05547955
      0.08333333	      0.03324334	      0.03508896	      0.05592763
      0.10000000	      0.03290394	      0.03490937	      0.05614060
      0.11666667	      0.03237243	      0.03462628	      0.05596607
      0.13333333	      0.03159919	      0.03421024	      0.05550363
      0.15000000	      0.03063958	      0.03368678	      0.05472759
      0.16666667	      0.02963052	      0.03312743	      0.05375024
      0.18333333	      0.02869479	      0.03260015	      0.05267062
      0.20000000	      0.02793224	      0.03216407	      0.05150318
      0.21666667	      0.02734003	      0.03182128	      0.05014173
      0.23333333	      0.02684732	      0.03153324	      0.04876549
      0.25000000	      0.02634357	      0.03123600	      0.04750902
      0.26666667	      0.02583649	      0.03093392	      0.04704311
      0.28333333	      0.02534435	      0.03063788	      0.04799132
      0.30000000	      0.02492135	      0.03038113	      0.04852681
      0.31666667	      0.02460717	      0.03018902	      0.04864542
      0.33333333	      0.02446168	      0.03009964	      0.04804786
      0.35000000	      0.02446885	      0.03010405	      0.04694426
      0.36666667	      0.02469177	      0.03024087	      0.04522583
      0.38333333	      0.02509670	      0.03048782	      0.04543474
      0.40000000	      0.02566086	      0.03082859	      0.04581866
      0.41666667	      0.02628156	      0.03119921	      0.04604047
      0.43333333	      0.02682880	      0.03152236	      0.04589343
      0.45000000	      0.02712137	      0.03169377	      0.04558411
      0.46666667	      0.02707825	      0.03166857	      0.04496746
      0.48333333	      0.02665826	      0.03142202	      0.04417366
      0.50000000	      0.02572304	      0.03086592	      0.04536588
      0.51666667	      0.02457427	      0.03016883	      0.04299677
      0.53333333	      0.02351153	      0.02950928	      0.04276244
      0.55000000	      0.02244614	      0.02883294	      0.04325490
      0.56666667	      0.02129615	      0.02808463	      0.04399419
      0.58333333	      0.02027478	      0.02740288	      0.04476130
      0.60000000	      0.01957118	      0.02692320	      0.04592870
      0.61666667	      0.01906827	      0.02657503	      0.04742048
      0.63333333	      0.01854506	      0.02620790	      0.04823374
      0.65000000	      0.01813508	      0.02591659	      0.04923031
      0.66666667	      0.01803756	      0.02584681	      0.05005887
      0.68333333	      0.01835538	      0.02607353	      0.05054489
      0.70000000	      0.01915487	      0.02663531	      0.05147773
      0.71666667	      0.02020805	      0.02735774	      0.05222410
      0.73333333	      0.02149566	      0.02821587	      0.05303557
      0.75000000	      0.02268859	      0.02898824	      0.05583787
      0.76666667	      0.02099457	      0.02788506	      0.05332902
      0.78333333	      0.02116201	      0.02799604	      0.05261659
      0.80000000	      0.02127161	      0.02806844	      0.05170749
      0.81666667	      0.02142914	      0.02817218	      0.05040046
      0.83333333	      0.02166432	      0.02832635	      0.04904910
      0.85000000	      0.02221069	      0.02868132	      0.04794004
      0.86666667	      0.02305893	      0.02922387	      0.04723513
      0.88333333	      0.02423481	      0.02995973	      0.04716028
      0.90000000	      0.02559886	      0.03079133	      0.04738980
      0.91666667	      0.02696126	      0.03160008	      0.04847782
      0.93333333	      0.02792908	      0.03216225	      0.05046870
      0.95000000	      0.02852495	      0.03250353	      0.05265493
      0.96666667	      0.02894957	      0.03274456	      0.05450697
      0.98333333	      0.02942495	      0.03301232	      0.05588799
      1.00000000	      0.02997024	      0.03331680	      0.05670289
      1.01666667	      0.03048657	      0.03360256	      0.05682959
      1.03333333	      0.03090706	      0.03383350	      0.05671457
      1.05000000	      0.03125313	      0.03402240	      0.05669773
      1.06666667	      0.03158160	      0.03420072	      0.05693711
      1.08333333	      0.03181667	      0.03432776	      0.05694422
      1.10000000	      0.03195812	      0.03440398	      0.05708139
      1.11666667	      0.03203382	      0.03444471	      0.05716528
      1.13333333	      0.03215663	      0.03451067	      0.05711718
      1.15000000	      0.03233586	      0.03460671	      0.05662697
      1.16666667	      0.03251958	      0.03470489	      0.05561198
      1.18333333	      0.03251835	      0.03470423	      0.05401148
      1.20000000	      0.03173350	      0.03428286	      0.05224376
      1.21666667	      0.03099933	      0.03388397	      0.05125154
      1.23333333	      0.03036195	      0.03353381	      0.04978064
      1.25000000	      0.02973528	      0.03318594	      0.04836384
      1.26666667	      0.02910452	      0.03283207	      0.04735038
      1.28333333	      0.02860439	      0.03254876	      0.04814375
      1.30000000	      0.02816678	      0.03229882	      0.04925276
      1.31666667	      0.02745908	      0.03189048	      0.05013304
      1.33333333	      0.02616210	      0.03112823	      0.05157329
      1.35000000	      0.02448903	      0.03011646	      0.05305029
      1.36666667	      0.02289517	      0.02911991	      0.05501606
      1.38333333	      0.02186595	      0.02845786	      0.05600383
      1.40000000	      0.02153240	      0.02823998	      0.05613848
      1.41666667	      0.02188977	      0.02847336	      0.05540785
      1.43333333	      0.02276666	      0.02903807	      0.05458032
      1.45000000	      0.02392836	      0.02976971	      0.05351137
      1.46666667	      0.02520931	      0.03055615	      0.05324804
      1.48333333	      0.02581988	      0.03092397	      0.05210329
      1.50000000	      0.02613391	      0.03111145	      0.05140688
      1.51666667	      0.02605305	      0.03106329	      0.05091012
      1.53333333	      0.02575854	      0.03088722	      0.05093348
      1.55000000	      0.02545223	      0.03070301	      0.05090842
      1.56666667	      0.02532232	      0.03062456	      0.05050011
      1.58333333	      0.02545001	      0.03070167	      0.05014060
      1.60000000	      0.02579378	      0.03090833	      0.04943017
      1.61666667	      0.02617375	      0.03113516	      0.04845935
      1.63333333	      0.02641643	      0.03127917	      0.04742733
      1.65000000	      0.02642984	      0.03128711	      0.04612968
      1.66666667	      0.02642096	      0.03128185	      0.04616675
      1.68333333	      0.02633998	      0.03123387	      0.04610038
      1.70000000	      0.02630081	      0.03121064	      0.04598058
      1.71666667	      0.02625745	      0.03118490	      0.04638964
      1.73333333	      0.02615020	      0.03112115	      0.04697378
      1.75000000	      0.02605945	      0.03106710	      0.04747999
      1.76666667	      0.02604769	      0.03106009	      0.04766477
      1.78333333	      0.02612421	      0.03110568	      0.04782839
      1.80000000	      0.02631239	      0.03121751	      0.04880608
      1.81666667	      0.02660884	      0.03139287	      0.04888742
      1.83333333	      0.02690066	      0.03156455	      0.04945754
      1.85000000	      0.02707474	      0.03166651	      0.04944303
      1.86666667	      0.02712256	      0.03169447	      0.04968595
      1.88333333	      0.02729429	      0.03179465	      0.05036217
      1.90000000	      0.02768470	      0.03202123	      0.05167219
      1.91666667	      0.02840132	      0.03243302	      0.05332029
      1.93333333	      0.02901934	      0.03278400	      0.05175233
      1.95000000	      0.02904976	      0.03280118	      0.04820110
      1.96666667	      0.02893935	      0.03273878	      0.04839865
      1.98333333	      0.02871616	      0.03261229	      0.04974576
      2.00000000	      0.02797856	      0.03219073	      0.05123058
      2.01666667	      0.02678223	      0.03149499	      0.05215287
      2.03333333	      0.02549789	      0.03073055	      0.05235419
      2.05000000	      0.02463432	      0.03020567	      0.05186233
      2.06666667	      0.02392865	      0.02976989	      0.05098538
      2.08333333	      0.02346619	      0.02948081	      0.05188586
      2.10000000	      0.02328475	      0.02936662	      0.05404876
      2.11666667	      0.02343908	      0.02946378	      0.05588868
      2.13333333	      0.02372300	      0.02964169	      0.05679714
      2.15000000	      0.02313585	      0.02927257	      0.05734978
      2.16666667	      0.02309634	      0.02924756	      0.05850783
      2.18333333	      0.02333253	      0.02939673	      0.05950389
      2.20000000	      0.02410085	      0.02987682	      0.06131476
      2.21666667	      0.02557612	      0.03077765	      0.06436263
      2.23333333	      0.02813221	      0.03227900	      0.06625065
      2.25000000	      0.03144173	      0.03412490	      0.06758869
      2.26666667	      0.03454102	      0.03576726	      0.06882268
      2.28333333	      0.03641245	      0.03672341	      0.07158222
      2.30000000	      0.03689664	      0.03696677	      0.07458841
      2.31666667	      0.03634146	      0.03668760	      0.07346354
      2.33333333	      0.03527317	      0.03614435	      0.06828452
      2.35000000	      0.03391231	      0.03544025	      0.06725888
      2.36666667	      0.03238295	      0.03463190	      0.06667795
      2.38333333	      0.03080218	      0.03377605	      0.06492992
      2.40000000	      0.02918776	      0.03287899	      0.06210492
      2.41666667	      0.02760613	      0.03197576	      0.05891847
      2.43333333	      0.02615756	      0.03112553	      0.05608198
      2.45000000	      0.02508925	      0.03048330	      0.05338509
      2.46666667	      0.02451753	      0.03013398	      0.05375184
      2.48333333	      0.02465351	      0.03021743	      0.05430284
      2.50000000	      0.02526594	      0.03059045	      0.05466287
      2.51666667	      0.02586884	      0.03095327	      0.05472556
      2.53333333	      0.02621697	      0.03116085	      0.05483568
      2.55000000	      0.02632177	      0.03122308	      0.05528578
      2.56666667	      0.02633709	      0.03123216	      0.05689351
      2.58333333	      0.02617611	      0.03113656	      0.05819028
      2.60000000	      0.02626499	      0.03118938	      0.05999175
      2.61666667	      0.02647535	      0.03131403	      0.06179459
      2.63333333	      0.02655202	      0.03135934	      0.06312267
      2.65000000	      0.02634151	      0.03123478	      0.06384782
      2.66666667	      0.02596889	      0.03101307	      0.06394863
      2.68333333	      0.02565581	      0.03082556	      0.06350378
      2.70000000	      0.02552303	      0.03074569	      0.06319503
      2.71666667	      0.02560655	      0.03079595	      0.06313476
      2.73333333	      0.02592731	      0.03098824	      0.06378372
      2.75000000	      0.02659772	      0.03138631	      0.06552784
      2.76666667	      0.02773182	      0.03204847	      0.06750548
      2.78333333	      0.02935433	      0.03297268	      0.06971506
      2.80000000	      0.03135200	      0.03407617	      0.07195062
      2.81666667	      0.03353831	      0.03524429	      0.07416568
      2.83333333	      0.03566587	      0.03634499	      0.07653146
      2.85000000	      0.03744994	      0.03724292	      0.07876542
      2.86666667	      0.03873729	      0.03787762	      0.08090721
      2.88333333	      0.03945113	      0.03822503	      0.08237314
      2.90000000	      0.03973807	      0.03836379	      0.08301288
      2.91666667	      0.03984924	      0.03841742	      0.08320355
      2.93333333	      0.03976617	      0.03837735	      0.08221281
      2.95000000	      0.03972362	      0.03835681	      0.08143546
      2.96666667	      0.03956003	      0.03827775	      0.08029232
      2.98333333	      0.03941444	      0.03820725	      0.07957513
      3.00000000	      0.03934468	      0.03817343	      0.07957709
      3.01666667	      0.03942087	      0.03821037	      0.08022574
      3.03333333	      0.03966333	      0.03832769	      0.08097241
      3.05000000	      0.04004973	      0.03851394	      0.08136768
      3.06666667	      0.04053632	      0.03874720	      0.08126150
      3.08333333	      0.04101514	      0.03897537	      0.08078217
      3.10000000	      0.04129968	      0.03911033	      0.08009274
      3.11666667	      0.04123654	      0.03908042	      0.07928271
      3.13333333	      0.04076157	      0.03885470	      0.07869644
      3.15000000	      0.03984643	      0.03841606	      0.07801405
      3.16666667	      0.03854625	      0.03778411	      0.07720809
      3.18333333	      0.03705471	      0.03704587	      0.07586107
      3.20000000	      0.03567185	      0.03634804	      0.07420138
      3.21666667	      0.03470512	      0.03585213	      0.07257516
      3.23333333	      0.03426010	      0.03562152	      0.07111847
      3.25000000	      0.03428849	      0.03563628	      0.06999677
      3.26666667	      0.03464807	      0.03582264	      0.06926703
      3.28333333	      0.03530671	      0.03616153	      0.06891387
      3.30000000	      0.03639515	      0.03671469	      0.06891563
      3.31666667	      0.03781553	      0.03742426	      0.06910017
      3.33333333	      0.03959102	      0.03829274	      0.06892974
      3.35000000	      0.04139659	      0.03915619	      0.06937870
      3.36666667	      0.04304420	      0.03992780	      0.07268986
      3.38333333	      0.04431272	      0.04051187	      0.07517447
      3.40000000	      0.04507193	      0.04085744	      0.07652699
      3.41666667	      0.04481238	      0.04073963	      0.07685420
      3.43333333	      0.04372186	      0.04024088	      0.07611996
      3.45000000	      0.04202617	      0.03945282	      0.07467693
      3.46666667	      0.03999512	      0.03848767	      0.07304163
      3.48333333	      0.03820380	      0.03761589	      0.07218939
      3.50000000	      0.03666124	      0.03684866	      0.07256011
      3.51666667	      0.03565462	      0.03633925	      0.07267536
      3.53333333	      0.03510737	      0.03605930	      0.07229956
      3.55000000	      0.03505465	      0.03603221	      0.07164121
      3.56666667	      0.03529439	      0.03615522	      0.07249625
      3.58333333	      0.03563479	      0.03632915	      0.07402449
      3.60000000	      0.03609158	      0.03656125	      0.07551390
      3.61666667	      0.03640084	      0.03671756	      0.07701172
      3.63333333	      0.03666979	      0.03685295	      0.07832242
      3.65000000	      0.03644507	      0.03673986	      0.07901225
      3.66666667	      0.03561031	      0.03631667	      0.07873951
      3.68333333	      0.03442161	      0.03570539	      0.07759172
      3.70000000	      0.03335326	      0.03514692	      0.07761561
      3.71666667	      0.03266015	      0.03477981	      0.07926577
      3.73333333	      0.03216540	      0.03451538	      0.08045809
      3.75000000	      0.03163308	      0.03422858	      0.08108231
      3.76666667	      0.03101985	      0.03389518	      0.08080231
      3.78333333	      0.03057164	      0.03364941	      0.07963153
      3.80000000	      0.03059847	      0.03366417	      0.07774654
      3.81666667	      0.03122054	      0.03400465	      0.07562042
      3.83333333	      0.03254666	      0.03471933	      0.07361730
      3.85000000	      0.03276937	      0.03483792	      0.07243178
      3.86666667	      0.03266132	      0.03478043	      0.07201526
      3.88333333	      0.03213802	      0.03450068	      0.07241729
      3.90000000	      0.03180313	      0.03432046	      0.07359557
      3.91666667	      0.03167241	      0.03424985	      0.07465148
      3.93333333	      0.03144302	      0.03412559	      0.07485597
      3.95000000	      0.03096653	      0.03386604	      0.07373399
      3.96666667	      0.03024541	      0.03346939	      0.07156058
      3.98333333	      0.02941928	      0.03300914	      0.06907996
      4.00000000	      0.02866800	      0.03258493	      0.06725880
      4.01666667	      0.02781142	      0.03209444	      0.06640210
      4.03333333	      0.02709368	      0.03167759	      0.06658346
      4.05000000	      0.02656122	      0.03136477	      0.06745629
      4.06666667	      0.02628676	      0.03120230	      0.06850395
      4.08333333	      0.02622652	      0.03116653	      0.06906308
      4.10000000	      0.02624330	      0.03117650	      0.06909078
      4.11666667	      0.02631133	      0.03121688	      0.06858050
      4.13333333	      0.02658684	      0.03137989	      0.06811941
      4.15000000	      0.02722545	      0.03175452	      0.06813534
      4.16666667	      0.02814811	      0.03228812	      0.06865468
      4.18333333	      0.02899481	      0.03277014	      0.06940517
      4.20000000	      0.02945362	      0.03302839	      0.07011810
      4.21666667	      0.02971776	      0.03317616	      0.07068694
      4.23333333	      0.02933499	      0.03296181	      0.07086446
      4.25000000	      0.02931436	      0.03295022	      0.07062042
      4.26666667	      0.02900114	      0.03277371	      0.07014095
      4.28333333	      0.02910247	      0.03283092	      0.06950498
      4.30000000	      0.02948383	      0.03304533	      0.06885486
      4.31666667	      0.03001370	      0.03334094	      0.06830711
      4.33333333	      0.03041983	      0.03356576	      0.06786221
      4.35000000	      0.03056785	      0.03364733	      0.06752100
      4.36666667	      0.03066601	      0.03370131	      0.06748589
      4.38333333	      0.03089067	      0.03382453	      0.06767355
      4.40000000	      0.03122246	      0.03400570	      0.06782621
      4.41666667	      0.03150388	      0.03415861	      0.06759986
      4.43333333	      0.03162834	      0.03422601	      0.06699664
      4.45000000	      0.03160988	      0.03421602	      0.06636155
      4.46666667	      0.03154124	      0.03417885	      0.06602055
      4.48333333	      0.03157982	      0.03419975	      0.06621461
      4.50000000	      0.03185738	      0.03434972	      0.06697955
      4.51666667	      0.03249271	      0.03469054	      0.06858232
      4.53333333	      0.03355201	      0.03525148	      0.07185959
      4.55000000	      0.03495290	      0.03597988	      0.07483320
      4.56666667	      0.03646453	      0.03674967	      0.07718225
      4.58333333	      0.03778455	      0.03740893	      0.07835254
      4.60000000	      0.03865524	      0.03783749	      0.07774602
      4.61666667	      0.03922826	      0.03811691	      0.07539509
      4.63333333	      0.03946491	      0.03823171	      0.07309134
      4.65000000	      0.03955052	      0.03827315	      0.07350138
      4.66666667	      0.03940956	      0.03820489	      0.07497124
      4.68333333	      0.03919101	      0.03809881	      0.07719425
      4.70000000	      0.03929795	      0.03815075	      0.07966709
      4.71666667	      0.04009207	      0.03853429	      0.08164495
      4.73333333	      0.04153570	      0.03922193	      0.08305000
      4.75000000	      0.04335047	      0.04006960	      0.08480568
      4.76666667	      0.04539798	      0.04100496	      0.08631719
      4.78333333	      0.04768186	      0.04202374	      0.08760958
      4.80000000	      0.05007588	      0.04306579	      0.08913456
      4.81666667	      0.05232907	      0.04402401	      0.09068660
      4.83333333	      0.05399119	      0.04471771	      0.09200883
      4.85000000	      0.05478695	      0.04504605	      0.09299954
      4.86666667	      0.05487768	      0.04508333	      0.09301549
      4.88333333	      0.05458908	      0.04496463	      0.09243045
      4.90000000	      0.05423993	      0.04482060	      0.09125431
      4.91666667	      0.05396069	      0.04470508	      0.08979216
      4.93333333	      0.05380476	      0.04464044	      0.08835823
      4.95000000	      0.05384229	      0.04465601	      0.08713961
      4.96666667	      0.05416409	      0.04478926	      0.08612517
      4.98333333	      0.05486474	      0.04507801	      0.08525022
      5.00000000	      0.05572801	      0.04543127	      0.08452524
      5.01666667	      0.05626577	      0.04564994	      0.08408218
      5.03333333	      0.05604836	      0.04556167	      0.08366312
      5.05000000	      0.05514068	      0.04519123	      0.08282631
      5.06666667	      0.05375436	      0.04461953	      0.08156785
      5.08333333	      0.05220251	      0.04397074	      0.07973612
      5.10000000	      0.05074091	      0.04335081	      0.07776031
      5.11666667	      0.04934637	      0.04275095	      0.07578729
      5.13333333	      0.04798910	      0.04215891	      0.07441255
      5.15000000	      0.04662011	      0.04155323	      0.07369312
      5.16666667	      0.04528166	      0.04095239	      0.07261507
      5.18333333	      0.04390561	      0.04032535	      0.07124807
      5.20000000	      0.04251007	      0.03967930	      0.06996314
      5.21666667	      0.04108779	      0.03900987	      0.06886733
      5.23333333	      0.03968122	      0.03833634	      0.06772025
      5.25000000	      0.03839619	      0.03771049	      0.06622367
      5.26666667	      0.03736218	      0.03719925	      0.06470361
      5.28333333	      0.03663630	      0.03683613	      0.06345387
      5.30000000	      0.03610826	      0.03656970	      0.06236872
      5.31666667	      0.03570080	      0.03636278	      0.06134781
      5.33333333	      0.03536855	      0.03619318	      0.06022902
      5.35000000	      0.03516482	      0.03608879	      0.05963370
      5.36666667	      0.03512416	      0.03606792	      0.05889900
      5.38333333	      0.03530285	      0.03615955	      0.05802580
      5.40000000	      0.03573990	      0.03638269	      0.05771178
      5.41666667	      0.03628626	      0.03665973	      0.05834463
      5.43333333	      0.03667057	      0.03685335	      0.05967750
      5.45000000	      0.03667939	      0.03685778	      0.06103289
      5.46666667	      0.03640584	      0.03672008	      0.05983545
      5.48333333	      0.03612413	      0.03657774	      0.05997896
      5.50000000	      0.03617416	      0.03660306	      0.06129903
      5.51666667	      0.03643444	      0.03673451	      0.06219005
      5.53333333	      0.03705010	      0.03704357	      0.06335730
      5.55000000	      0.03776144	      0.03739748	      0.06415407
      5.56666667	      0.03846637	      0.03774494	      0.06447463
      5.58333333	      0.03897816	      0.03799521	      0.06414225
      5.60000000	      0.03919944	      0.03810290	      0.06311834
      5.61666667	      0.03921722	      0.03811154	      0.06194099
      5.63333333	      0.03922874	      0.03811714	      0.06233107
      5.65000000	      0.03939273	      0.03819673	      0.06724167
      5.66666667	      0.03969686	      0.03834389	      0.07196137
      5.68333333	      0.03995455	      0.03846815	      0.07550002
      5.70000000	      0.04002225	      0.03850072	      0.07739590
      5.71666667	      0.03988317	      0.03843377	      0.07790971
      5.73333333	      0.03961458	      0.03830413	      0.07755862
      5.75000000	      0.03931055	      0.03815686	      0.07692909
      5.76666667	      0.03908625	      0.03804785	      0.07652806
      5.78333333	      0.03901549	      0.03801340	      0.07634939
      5.80000000	      0.03910800	      0.03805843	      0.07624542
      5.81666667	      0.03934035	      0.03817133	      0.07601326
      5.83333333	      0.03961318	      0.03830346	      0.07567670
      5.85000000	      0.03986218	      0.03842365	      0.07509400
      5.86666667	      0.04008652	      0.03853162	      0.07475602
      5.88333333	      0.04020265	      0.03858739	      0.07489272
      5.90000000	      0.04022841	      0.03859975	      0.07477568
      5.91666667	      0.04005492	      0.03851643	      0.07436780
      5.93333333	      0.03971787	      0.03835404	      0.07367598
      5.95000000	      0.03922168	      0.03811371	      0.07268916
      5.96666667	      0.03860322	      0.03781202	      0.07135445
      5.98333333	      0.03793577	      0.03748371	      0.06991223
      6.00000000	      0.03725312	      0.03714492	      0.06853898
      6.01666667	      0.03656983	      0.03680269	      0.06758665
      6.03333333	      0.03598512	      0.03650729	      0.06770989
      6.05000000	      0.03567564	      0.03634997	      0.06940818
      6.06666667	      0.03575532	      0.03639054	      0.07299234
      6.08333333	      0.03621386	      0.03662314	      0.07818624
      6.10000000	      0.03692838	      0.03698267	      0.08398176
      6.11666667	      0.03765905	      0.03734675	      0.08907276
      6.13333333	      0.03822606	      0.03762685	      0.09205272
      6.15000000	      0.03847818	      0.03775073	      0.09231436
      6.16666667	      0.03843892	      0.03773147	      0.08972219
      6.18333333	      0.03828553	      0.03765611	      0.08473448
      6.20000000	      0.03836573	      0.03769553	      0.07853976
      6.21666667	      0.03891727	      0.03796552	      0.07307989
      6.23333333	      0.03982427	      0.03840538	      0.06958693
      6.25000000	      0.04064679	      0.03879996	      0.07189328
      6.26666667	      0.04105269	      0.03899321	      0.07300201
      6.28333333	      0.04104616	      0.03899010	      0.07247611
      6.30000000	      0.04097035	      0.03895408	      0.07187031
      6.31666667	      0.04099360	      0.03896513	      0.07203143
      6.33333333	      0.04096030	      0.03894930	      0.07239031
      6.35000000	      0.04047185	      0.03871637	      0.07237477
      6.36666667	      0.03929154	      0.03814764	      0.07140553
      6.38333333	      0.03754774	      0.03729151	      0.06941695
      6.40000000	      0.03559245	      0.03630756	      0.06664609
      6.41666667	      0.03374463	      0.03535253	      0.06350124
      6.43333333	      0.03226897	      0.03457090	      0.06050127
      6.45000000	      0.03129950	      0.03404762	      0.05818433
      6.46666667	      0.03087707	      0.03381708	      0.05837385
      6.48333333	      0.03093357	      0.03384801	      0.05816041
      6.50000000	      0.03124608	      0.03401856	      0.05774532
      6.51666667	      0.03156998	      0.03419442	      0.05739988
      6.53333333	      0.03175572	      0.03429487	      0.05785251
      6.55000000	      0.03186859	      0.03435576	      0.05792913
      6.56666667	      0.03186603	      0.03435438	      0.05860282
      6.58333333	      0.03179540	      0.03431629	      0.05792029
      6.60000000	      0.03144458	      0.03412644	      0.05783009
      6.61666667	      0.03111169	      0.03394532	      0.05689920
      6.63333333	      0.03092856	      0.03384527	      0.05784883
      6.65000000	      0.03105811	      0.03391608	      0.06077732
      6.66666667	      0.03149236	      0.03415236	      0.06543333
      6.68333333	      0.03206616	      0.03446209	      0.07047639
      6.70000000	      0.03254472	      0.03471830	      0.07394188
      6.71666667	      0.03271074	      0.03480674	      0.07521400
      6.73333333	      0.03246996	      0.03467839	      0.07489747
      6.75000000	      0.03185563	      0.03434877	      0.07376980
      6.76666667	      0.03092416	      0.03384286	      0.07306327
      6.78333333	      0.02995393	      0.03330773	      0.07357241
      6.80000000	      0.02927420	      0.03292764	      0.07586016
      6.81666667	      0.02906516	      0.03280987	      0.07897360
      6.83333333	      0.02905731	      0.03280544	      0.08072416
      6.85000000	      0.02881409	      0.03266785	      0.07836801
      6.86666667	      0.02822911	      0.03233454	      0.07152829
      6.88333333	      0.02765870	      0.03200619	      0.06205512
      6.90000000	      0.02750658	      0.03191805	      0.05849129
      6.91666667	      0.02785769	      0.03212112	      0.05899272
      6.93333333	      0.02831715	      0.03238493	      0.05944299
      6.95000000	      0.02822529	      0.03233235	      0.05886045
      6.96666667	      0.02720633	      0.03174337	      0.05689309
      6.98333333	      0.02555139	      0.03076276	      0.05391304
      7.00000000	      0.02392480	      0.02976749	      0.04993801
      7.01666667	      0.02304275	      0.02921361	      0.04952143
      7.03333333	      0.02296149	      0.02916206	      0.05084821
      7.05000000	      0.02380963	      0.02969576	      0.05238931
      7.06666667	      0.02475712	      0.03028086	      0.05260393
      7.08333333	      0.02529846	      0.03061013	      0.05444242
      7.10000000	      0.02536205	      0.03064857	      0.05519216
      7.11666667	      0.02518916	      0.03054394	      0.05622414
      7.13333333	      0.02517197	      0.03053351	      0.05653887
      7.15000000	      0.02521096	      0.03055715	      0.05722924
      7.16666667	      0.02533857	      0.03063439	      0.05778847
      7.18333333	      0.02566434	      0.03083069	      0.05836104
      7.20000000	      0.02606834	      0.03107240	      0.05889367
      7.21666667	      0.02670281	      0.03144826	      0.05930521
      7.23333333	      0.02726812	      0.03177940	      0.05984798
      7.25000000	      0.02801201	      0.03220996	      0.05971888
      7.26666667	      0.02861942	      0.03255731	      0.05979724
      7.28333333	      0.02916034	      0.03286355	      0.06126713
      7.30000000	      0.02965603	      0.03314169	      0.06356840
      7.31666667	      0.02939646	      0.03299633	      0.06488830
      7.33333333	      0.02915270	      0.03285924	      0.06618788
      7.35000000	      0.02881698	      0.03266949	      0.06732522
      7.36666667	      0.02849964	      0.03248911	      0.06777836
      7.38333333	      0.02842976	      0.03244925	      0.06873431
      7.40000000	      0.02861194	      0.03255306	      0.06901035
      7.41666667	      0.02913100	      0.03284701	      0.06987553
      7.43333333	      0.02971404	      0.03317408	      0.07115095
      7.45000000	      0.03058276	      0.03365553	      0.07305148
      7.46666667	      0.03161189	      0.03421711	      0.07505172
      7.48333333	      0.03279830	      0.03485329	      0.07702850
      7.50000000	      0.03403673	      0.03550521	      0.07931683
      7.51666667	      0.03506630	      0.03603820	      0.08124650
      7.53333333	      0.03591607	      0.03647225	      0.08342791
      7.55000000	      0.03667523	      0.03685569	      0.08578840
      7.56666667	      0.03682890	      0.03693282	      0.08815572
      7.58333333	      0.03701987	      0.03702845	      0.09047591
      7.60000000	      0.03731381	      0.03717517	      0.09248846
      7.61666667	      0.03781733	      0.03742515	      0.09375130
      7.63333333	      0.03844834	      0.03773609	      0.09511753
      7.65000000	      0.03909474	      0.03805198	      0.09612623
      7.66666667	      0.03984230	      0.03841407	      0.09726541
      7.68333333	      0.04129606	      0.03910862	      0.09933708
      7.70000000	      0.04407687	      0.04040392	      0.10286229
      7.71666667	      0.04750371	      0.04194516	      0.10653561
      7.73333333	      0.04864025	      0.04244397	      0.10700501
      7.75000000	      0.04462582	      0.04065474	      0.10161409
      7.76666667	      0.03559214	      0.03630740	      0.08946681
      7.78333333	      0.02509417	      0.03048629	      0.07194384
      7.80000000	      0.01805043	      0.02585603	      0.05314889
      7.81666667	      0.01617615	      0.02447686	      0.04407426
      7.83333333	      0.01819786	      0.02596141	      0.04521675
      7.85000000	      0.02139751	      0.02815138	      0.05028824
      7.86666667	      0.02442910	      0.03007959	      0.05244242
      7.88333333	      0.02532664	      0.03062718	      0.05139608
      7.90000000	      0.02470054	      0.03024624	      0.04924920
      7.91666667	      0.02417762	      0.02992436	      0.05216591
      7.93333333	      0.02389580	      0.02974945	      0.05734297
      7.95000000	      0.02341105	      0.02944615	      0.05448379
      7.96666667	      0.02332588	      0.02939254	      0.05333160
      7.98333333	      0.02311625	      0.02926017	      0.05200772
      8.00000000	      0.02222660	      0.02869159	      0.05308434
      8.01666667	      0.02092848	      0.02784114	      0.05517992
      8.03333333	      0.01969755	      0.02700998	      0.05758688
      8.05000000	      0.01886851	      0.02643546	      0.06088133
      8.06666667	      0.01849190	      0.02617031	      0.06471731
      8.08333333	      0.01862032	      0.02626103	      0.06903394
      8.10000000	      0.01946003	      0.02684663	      0.07350183
      8.11666667	      0.01923481	      0.02669083	      0.07670609
      8.13333333	      0.02048092	      0.02754183	      0.08007823
      8.15000000	      0.01760447	      0.02553463	      0.04799245
      8.16666667	      0.01791953	      0.02576211	      0.04615831
      8.18333333	      0.01820991	      0.02597000	      0.04379190
      8.20000000	      0.01850176	      0.02617728	      0.04221366
      8.21666667	      0.01873130	      0.02633917	      0.04493451
      8.23333333	      0.01894146	      0.02648651	      0.04696906
      8.25000000	      0.01907323	      0.02657849	      0.04725246
      8.26666667	      0.01896181	      0.02650074	      0.04706950
      8.28333333	      0.01853059	      0.02619768	      0.04923402
      8.30000000	      0.01808335	      0.02587960	      0.04998926
      8.31666667	      0.01756342	      0.02550484	      0.04905677
      8.33333333	      0.01692498	      0.02503700	      0.04598398
      8.35000000	      0.01701511	      0.02510357	      0.04103991
