Model Marker Errors from IK
version=1
nRows=156
nColumns=4
inDegrees=no
endheader
time	total_squared_error	marker_error_RMS	marker_error_max
      0.00000000	      0.02574096	      0.03087667	      0.05685164
      0.01923077	      0.02706642	      0.03166165	      0.06349105
      0.03846154	      0.02879110	      0.03265482	      0.07430482
      0.05769231	      0.02782576	      0.03210271	      0.07346343
      0.07692308	      0.02448585	      0.03011451	      0.06398546
      0.09615385	      0.02035910	      0.02745980	      0.04974567
      0.11538462	      0.01708118	      0.02515226	      0.04090932
      0.13461538	      0.01560742	      0.02404272	      0.04037534
      0.15384615	      0.01606540	      0.02439293	      0.04069950
      0.17307692	      0.01729395	      0.02530843	      0.04668983
      0.19230769	      0.01782488	      0.02569398	      0.04744052
      0.21153846	      0.01800028	      0.02582009	      0.04802041
      0.23076923	      0.01823287	      0.02598637	      0.04846144
      0.25000000	      0.01887179	      0.02643776	      0.05868888
      0.26923077	      0.01939770	      0.02680361	      0.06544388
      0.28846154	      0.01926773	      0.02671366	      0.06688658
      0.30769231	      0.01867201	      0.02629745	      0.06461936
      0.32692308	      0.01819450	      0.02595901	      0.06054676
      0.34615385	      0.01834259	      0.02606444	      0.05851395
      0.36538462	      0.01901168	      0.02653557	      0.05966739
      0.38461538	      0.01963185	      0.02696489	      0.05946791
      0.40384615	      0.01955439	      0.02691164	      0.05701802
      0.42307692	      0.01874834	      0.02635115	      0.05324359
      0.44230769	      0.01842593	      0.02612359	      0.05007051
      0.46153846	      0.01901643	      0.02653888	      0.04796009
      0.48076923	      0.02004546	      0.02724747	      0.04746770
      0.50000000	      0.02124311	      0.02804963	      0.04707509
      0.51923077	      0.02193239	      0.02850107	      0.04809478
      0.53846154	      0.02116825	      0.02800016	      0.04888929
      0.55769231	      0.01923581	      0.02669152	      0.04741662
      0.57692308	      0.01729933	      0.02531236	      0.04777824
      0.59615385	      0.01589193	      0.02426087	      0.04828387
      0.61538462	      0.01553600	      0.02398765	      0.04863476
      0.63461538	      0.01627954	      0.02455496	      0.04909818
      0.65384615	      0.01756665	      0.02550719	      0.04950956
      0.67307692	      0.01875024	      0.02635248	      0.05001310
      0.69230769	      0.01958797	      0.02693474	      0.05106798
      0.71153846	      0.02009781	      0.02728302	      0.05634104
      0.73076923	      0.02050602	      0.02755871	      0.06215528
      0.75000000	      0.02094684	      0.02785335	      0.06610295
      0.76923077	      0.02176134	      0.02838971	      0.06818318
      0.78846154	      0.02270357	      0.02899781	      0.06980334
      0.80769231	      0.02355253	      0.02953499	      0.06743887
      0.82692308	      0.02424112	      0.02996363	      0.06194453
      0.84615385	      0.02505217	      0.03046077	      0.05915833
      0.86538462	      0.02611421	      0.03109973	      0.06292793
      0.88461538	      0.02765611	      0.03200470	      0.06632913
      0.90384615	      0.02958466	      0.03310178	      0.06823150
      0.92307692	      0.03170999	      0.03427016	      0.07176216
      0.94230769	      0.03366452	      0.03531054	      0.07909776
      0.96153846	      0.03527128	      0.03614338	      0.08601260
      0.98076923	      0.03669354	      0.03686489	      0.09102606
      1.00000000	      0.03840176	      0.03771323	      0.09529017
      1.01923077	      0.04051564	      0.03873731	      0.09838260
      1.03846154	      0.04248136	      0.03966590	      0.10014562
      1.05769231	      0.04402236	      0.04037893	      0.10121543
      1.07692308	      0.04449839	      0.04059666	      0.10197495
      1.09615385	      0.04774385	      0.04205105	      0.10306535
      1.11538462	      0.05549367	      0.04533565	      0.10529957
      1.13461538	      0.06526820	      0.04916646	      0.10844840
      1.15384615	      0.07322824	      0.05207838	      0.12098094
      1.17307692	      0.07616642	      0.05311289	      0.11807583
      1.19230769	      0.07474424	      0.05261469	      0.12030855
      1.21153846	      0.07277479	      0.05191688	      0.12143295
      1.23076923	      0.07520720	      0.05277738	      0.12421403
      1.25000000	      0.07948513	      0.05425766	      0.12555455
      1.26923077	      0.08051285	      0.05460730	      0.13766387
      1.28846154	      0.08422401	      0.05585166	      0.14881970
      1.30769231	      0.09087086	      0.05801368	      0.14477749
      1.32692308	      0.09534602	      0.05942503	      0.12879049
      1.34615385	      0.09257791	      0.05855606	      0.12031152
      1.36538462	      0.08182146	      0.05504929	      0.12386395
      1.38461538	      0.06955654	      0.05075597	      0.12857552
      1.40384615	      0.06409837	      0.04872385	      0.13313793
      1.42307692	      0.06047637	      0.04732722	      0.13433440
      1.44230769	      0.05823774	      0.04644301	      0.13403558
      1.46153846	      0.05641045	      0.04570860	      0.13210955
      1.48076923	      0.05401022	      0.04472559	      0.12778152
      1.50000000	      0.05187839	      0.04383403	      0.12172858
      1.51923077	      0.05011413	      0.04308223	      0.11566710
      1.53846154	      0.04863788	      0.04244294	      0.11109782
      1.55769231	      0.04729893	      0.04185466	      0.10832946
      1.57692308	      0.04577084	      0.04117301	      0.10689826
      1.59615385	      0.04368835	      0.04022545	      0.10631091
      1.61538462	      0.04122597	      0.03907541	      0.10620036
      1.63461538	      0.03869237	      0.03785566	      0.10616064
      1.65384615	      0.03591411	      0.03647125	      0.10502384
      1.67307692	      0.03289990	      0.03490723	      0.10210117
      1.69230769	      0.03005469	      0.03336370	      0.09768881
      1.71153846	      0.02766379	      0.03200914	      0.09285830
      1.73076923	      0.02565037	      0.03082229	      0.08788118
      1.75000000	      0.02384489	      0.02971774	      0.08300967
      1.76923077	      0.02226373	      0.02871554	      0.07805742
      1.78846154	      0.02107812	      0.02794049	      0.07269754
      1.80769231	      0.02039766	      0.02748579	      0.06671439
      1.82692308	      0.02016662	      0.02732969	      0.06020585
      1.84615385	      0.02033515	      0.02744365	      0.05327617
      1.86538462	      0.02059304	      0.02761712	      0.05456829
      1.88461538	      0.02094037	      0.02784904	      0.05810658
      1.90384615	      0.02121775	      0.02803289	      0.06018921
      1.92307692	      0.02152798	      0.02823708	      0.06184040
      1.94230769	      0.02180397	      0.02841750	      0.06256244
      1.96153846	      0.02210244	      0.02861134	      0.06266357
      1.98076923	      0.02241752	      0.02881456	      0.06268198
      2.00000000	      0.02276042	      0.02903409	      0.06247226
      2.01923077	      0.02303549	      0.02920901	      0.06304281
      2.03846154	      0.02312468	      0.02926550	      0.06306243
      2.05769231	      0.02283143	      0.02907935	      0.06257047
      2.07692308	      0.02213846	      0.02863465	      0.06112492
      2.09615385	      0.02114352	      0.02798380	      0.05995568
      2.11538462	      0.01980509	      0.02708361	      0.05741249
      2.13461538	      0.01838739	      0.02609626	      0.05578044
      2.15384615	      0.01704765	      0.02512756	      0.05388076
      2.17307692	      0.01593827	      0.02429622	      0.05162888
      2.19230769	      0.01521589	      0.02373924	      0.04874973
      2.21153846	      0.01477564	      0.02339329	      0.04704392
      2.23076923	      0.01446986	      0.02314996	      0.04759853
      2.25000000	      0.01409594	      0.02284889	      0.04609769
      2.26923077	      0.01382482	      0.02262809	      0.04367012
      2.28846154	      0.01413501	      0.02288053	      0.04233567
      2.30769231	      0.01493442	      0.02351864	      0.04617367
      2.32692308	      0.01554714	      0.02399625	      0.04969262
      2.34615385	      0.01549241	      0.02395398	      0.04922338
      2.36538462	      0.01489192	      0.02348516	      0.04472994
      2.38461538	      0.01423480	      0.02296116	      0.03833825
      2.40384615	      0.01413466	      0.02288025	      0.03438447
      2.42307692	      0.01465940	      0.02330109	      0.03612738
      2.44230769	      0.01639494	      0.02464184	      0.03725714
      2.46153846	      0.01884055	      0.02641587	      0.04182060
      2.48076923	      0.02097952	      0.02787507	      0.04727889
      2.50000000	      0.02114763	      0.02798653	      0.05099746
      2.51923077	      0.02134966	      0.02811989	      0.05718579
      2.53846154	      0.02207863	      0.02859592	      0.06136591
      2.55769231	      0.02384723	      0.02971920	      0.06366093
      2.57692308	      0.02542173	      0.03068462	      0.06470342
      2.59615385	      0.02523276	      0.03057036	      0.06529011
      2.61538462	      0.02350763	      0.02950683	      0.06593945
      2.63461538	      0.02150367	      0.02822113	      0.06604551
      2.65384615	      0.02008338	      0.02727322	      0.06408602
      2.67307692	      0.01926894	      0.02671450	      0.05976017
      2.69230769	      0.01901868	      0.02654045	      0.05455678
      2.71153846	      0.01859016	      0.02623975	      0.04815939
      2.73076923	      0.01731978	      0.02532732	      0.04035894
      2.75000000	      0.01617924	      0.02447919	      0.03829184
      2.76923077	      0.01528905	      0.02379624	      0.03576683
      2.78846154	      0.01452594	      0.02319478	      0.03316197
      2.80769231	      0.01456280	      0.02322419	      0.03381448
      2.82692308	      0.01528999	      0.02379698	      0.04317730
      2.84615385	      0.01680684	      0.02494946	      0.05518882
      2.86538462	      0.01917453	      0.02664897	      0.06840794
      2.88461538	      0.02259990	      0.02893153	      0.08245840
      2.90384615	      0.02749747	      0.03191277	      0.09721408
      2.92307692	      0.03269694	      0.03479939	      0.11157888
      2.94230769	      0.03700903	      0.03702303	      0.12348692
      2.96153846	      0.03965670	      0.03832449	      0.13031179
      2.98076923	      0.01818390	      0.02595145	      0.04508814
