Model Marker Errors from IK
version=1
nRows=272
nColumns=4
inDegrees=no
endheader
time	total_squared_error	marker_error_RMS	marker_error_max
      0.00000000	      0.02013837	      0.02731054	      0.05096471
      0.01694915	      0.01944911	      0.02683910	      0.05018384
      0.03389831	      0.01896929	      0.02650597	      0.04962952
      0.05084746	      0.01857260	      0.02622736	      0.04933337
      0.06779661	      0.01823582	      0.02598847	      0.04923408
      0.08474576	      0.01797308	      0.02580057	      0.04928102
      0.10169492	      0.01773113	      0.02562632	      0.04887578
      0.11864407	      0.01752414	      0.02547630	      0.04883112
      0.13559322	      0.01735813	      0.02535535	      0.04854045
      0.15254237	      0.01727707	      0.02529608	      0.04843204
      0.16949153	      0.01717252	      0.02521942	      0.04811324
      0.18644068	      0.01705233	      0.02513101	      0.04793832
      0.20338983	      0.01685299	      0.02498369	      0.04797474
      0.22033898	      0.01681887	      0.02495839	      0.04803510
      0.23728814	      0.01673256	      0.02489426	      0.04809675
      0.25423729	      0.01672895	      0.02489158	      0.04817495
      0.27118644	      0.01674135	      0.02490081	      0.04803367
      0.28813559	      0.01676754	      0.02492027	      0.04806192
      0.30508475	      0.01681076	      0.02495237	      0.04774376
      0.32203390	      0.01698814	      0.02508367	      0.04754633
      0.33898305	      0.01724027	      0.02526912	      0.04722957
      0.35593220	      0.01762564	      0.02554998	      0.04723760
      0.37288136	      0.01813925	      0.02591957	      0.04767908
      0.38983051	      0.01866734	      0.02629416	      0.04817960
      0.40677966	      0.01917227	      0.02664740	      0.04893051
      0.42372881	      0.01954373	      0.02690431	      0.04959565
      0.44067797	      0.01973120	      0.02703304	      0.05029738
      0.45762712	      0.01980933	      0.02708651	      0.05082799
      0.47457627	      0.01982230	      0.02709538	      0.05106990
      0.49152542	      0.01978250	      0.02706816	      0.05111267
      0.50847458	      0.01965098	      0.02697803	      0.05103056
      0.52542373	      0.01937539	      0.02678819	      0.05096609
      0.54237288	      0.01896931	      0.02650598	      0.05078319
      0.55932203	      0.01849288	      0.02617101	      0.05048062
      0.57627119	      0.01806133	      0.02586384	      0.05127040
      0.59322034	      0.01772435	      0.02562142	      0.05282581
      0.61016949	      0.01757576	      0.02551380	      0.05459215
      0.62711864	      0.01759793	      0.02552989	      0.05608878
      0.64406780	      0.01778258	      0.02566348	      0.05769561
      0.66101695	      0.01804725	      0.02585375	      0.05890113
      0.67796610	      0.01831345	      0.02604373	      0.05970104
      0.69491525	      0.01864240	      0.02627659	      0.06007576
      0.71186441	      0.01902149	      0.02654241	      0.06012896
      0.72881356	      0.01960332	      0.02694529	      0.05969915
      0.74576271	      0.02035251	      0.02745536	      0.05889557
      0.76271186	      0.02122691	      0.02803894	      0.05774854
      0.77966102	      0.02207048	      0.02859065	      0.05626494
      0.79661017	      0.02272666	      0.02901255	      0.05427967
      0.81355932	      0.02295729	      0.02915939	      0.05315985
      0.83050847	      0.02279523	      0.02905628	      0.05328012
      0.84745763	      0.02225580	      0.02871043	      0.05349488
      0.86440678	      0.02154013	      0.02824504	      0.05367040
      0.88135593	      0.02086330	      0.02779775	      0.05394088
      0.89830508	      0.02021635	      0.02736337	      0.05358652
      0.91525424	      0.01964918	      0.02697679	      0.05346036
      0.93220339	      0.01918327	      0.02665504	      0.05292991
      0.94915254	      0.01894710	      0.02649046	      0.05193522
      0.96610169	      0.01897378	      0.02650911	      0.05108812
      0.98305085	      0.01907316	      0.02657844	      0.05051078
      1.00000000	      0.01902833	      0.02654718	      0.05033039
      1.01694915	      0.01898384	      0.02651613	      0.05090861
      1.03389831	      0.01910743	      0.02660230	      0.05160342
      1.05084746	      0.01952174	      0.02688917	      0.05264523
      1.06779661	      0.02010859	      0.02729034	      0.05254046
      1.08474576	      0.02072395	      0.02770476	      0.05452773
      1.10169492	      0.02095855	      0.02786113	      0.05819814
      1.11864407	      0.02061571	      0.02763231	      0.05798971
      1.13559322	      0.01960496	      0.02694642	      0.05339408
      1.15254237	      0.01836417	      0.02607977	      0.05283074
      1.16949153	      0.01730310	      0.02531512	      0.05446502
      1.18644068	      0.01667354	      0.02485032	      0.05594659
      1.20338983	      0.01651708	      0.02473345	      0.05642918
      1.22033898	      0.01670407	      0.02487306	      0.05621049
      1.23728814	      0.01709627	      0.02516337	      0.05529173
      1.25423729	      0.01749745	      0.02545690	      0.05351550
      1.27118644	      0.01780469	      0.02567943	      0.05212221
      1.28813559	      0.01800616	      0.02582430	      0.05350146
      1.30508475	      0.01815920	      0.02593382	      0.05520878
      1.32203390	      0.01823419	      0.02598731	      0.05421664
      1.33898305	      0.01820355	      0.02596547	      0.05271366
      1.35593220	      0.01802839	      0.02584024	      0.05109769
      1.37288136	      0.01768115	      0.02559019	      0.04979125
      1.38983051	      0.01717796	      0.02522341	      0.04800939
      1.40677966	      0.01645183	      0.02468455	      0.04383979
      1.42372881	      0.01569252	      0.02410818	      0.04240828
      1.44067797	      0.01516273	      0.02369773	      0.04760965
      1.45762712	      0.01505367	      0.02361236	      0.05272752
      1.47457627	      0.01529628	      0.02380186	      0.05677241
      1.49152542	      0.01567588	      0.02409540	      0.05911347
      1.50847458	      0.01589766	      0.02426525	      0.05942628
      1.52542373	      0.01576855	      0.02416652	      0.05758188
      1.54237288	      0.01527973	      0.02378899	      0.05391107
      1.55932203	      0.01457402	      0.02323314	      0.04918192
      1.57627119	      0.01375511	      0.02257097	      0.04439470
      1.59322034	      0.01289476	      0.02185369	      0.03965411
      1.61016949	      0.01195657	      0.02104367	      0.03715519
      1.62711864	      0.01130385	      0.02046121	      0.03374386
      1.64406780	      0.01074969	      0.01995337	      0.03019443
      1.66101695	      0.01070130	      0.01990841	      0.02994782
      1.67796610	      0.01091802	      0.02010898	      0.03232541
      1.69491525	      0.01120953	      0.02037566	      0.03451842
      1.71186441	      0.01159349	      0.02072170	      0.03647435
      1.72881356	      0.01191866	      0.02101028	      0.03752398
      1.74576271	      0.01216281	      0.02122439	      0.03802942
      1.76271186	      0.01239876	      0.02142926	      0.04557022
      1.77966102	      0.01280730	      0.02177945	      0.05441037
      1.79661017	      0.01346313	      0.02233012	      0.06214317
      1.81355932	      0.01434279	      0.02304809	      0.06686937
      1.83050847	      0.01520521	      0.02373090	      0.06813177
      1.84745763	      0.01578701	      0.02418066	      0.06601018
      1.86440678	      0.01599125	      0.02433657	      0.06148082
      1.88135593	      0.01584622	      0.02422596	      0.05917603
      1.89830508	      0.01564295	      0.02407008	      0.05741482
      1.91525424	      0.01548433	      0.02394773	      0.05552712
      1.93220339	      0.01536660	      0.02385652	      0.05398523
      1.94915254	      0.01521954	      0.02374208	      0.05307368
      1.96610169	      0.01497626	      0.02355157	      0.05081268
      1.98305085	      0.01468163	      0.02331875	      0.04954580
      2.00000000	      0.01438587	      0.02308268	      0.04934440
      2.01694915	      0.01419338	      0.02292773	      0.04802578
      2.03389831	      0.01411357	      0.02286318	      0.04867540
      2.05084746	      0.01410427	      0.02285564	      0.04690292
      2.06779661	      0.01410941	      0.02285980	      0.04702256
      2.08474576	      0.01418059	      0.02291739	      0.04672278
      2.10169492	      0.01435618	      0.02305884	      0.04693986
      2.11864407	      0.01458935	      0.02324535	      0.04742790
      2.13559322	      0.01481154	      0.02342169	      0.04835929
      2.15254237	      0.01498119	      0.02355544	      0.04895506
      2.16949153	      0.01507900	      0.02363222	      0.04826470
      2.18644068	      0.01525285	      0.02376805	      0.04815807
      2.20338983	      0.01550990	      0.02396750	      0.04801370
      2.22033898	      0.01591048	      0.02427503	      0.04825370
      2.23728814	      0.01651341	      0.02473071	      0.04985306
      2.25423729	      0.01712028	      0.02518103	      0.04977109
      2.27118644	      0.01770691	      0.02560882	      0.05213452
      2.28813559	      0.01808347	      0.02587969	      0.05439756
      2.30508475	      0.01823220	      0.02598589	      0.05565228
      2.32203390	      0.01831155	      0.02604238	      0.05580606
      2.33898305	      0.01829083	      0.02602764	      0.05528064
      2.35593220	      0.01834655	      0.02606725	      0.05432339
      2.37288136	      0.01836977	      0.02608374	      0.05360013
      2.38983051	      0.01827711	      0.02601788	      0.05353297
      2.40677966	      0.01813401	      0.02591582	      0.05418787
      2.42372881	      0.01808895	      0.02588360	      0.05562960
      2.44067797	      0.01849233	      0.02617061	      0.05767515
      2.45762712	      0.01935009	      0.02677069	      0.05989524
      2.47457627	      0.02028635	      0.02741070	      0.06127109
      2.49152542	      0.02078901	      0.02774821	      0.06226355
      2.50847458	      0.02060590	      0.02762574	      0.06275004
      2.52542373	      0.01989034	      0.02714184	      0.06271169
      2.54237288	      0.01898400	      0.02651624	      0.06188658
      2.55932203	      0.01816355	      0.02593693	      0.06012868
      2.57627119	      0.01757649	      0.02551433	      0.05744810
      2.59322034	      0.01725444	      0.02527951	      0.05454430
      2.61016949	      0.01702041	      0.02510748	      0.05131436
      2.62711864	      0.01680679	      0.02494942	      0.04905324
      2.64406780	      0.01645357	      0.02468586	      0.04705171
      2.66101695	      0.01611628	      0.02443152	      0.04570988
      2.67796610	      0.01596857	      0.02431930	      0.04488931
      2.69491525	      0.01619522	      0.02449128	      0.04439144
      2.71186441	      0.01685415	      0.02498455	      0.04392699
      2.72881356	      0.01789965	      0.02574782	      0.04885514
      2.74576271	      0.01908061	      0.02658363	      0.05605934
      2.76271186	      0.02011748	      0.02729637	      0.06129689
      2.77966102	      0.02081710	      0.02776695	      0.06547508
      2.79661017	      0.02098103	      0.02787607	      0.06715002
      2.81355932	      0.02062852	      0.02764090	      0.06646338
      2.83050847	      0.01991418	      0.02715810	      0.06352333
      2.84745763	      0.01916063	      0.02663931	      0.05998746
      2.86440678	      0.01843447	      0.02612964	      0.05648747
      2.88135593	      0.01775621	      0.02564444	      0.05347475
      2.89830508	      0.01712377	      0.02518360	      0.05113826
      2.91525424	      0.01673184	      0.02489373	      0.05056875
      2.93220339	      0.01683719	      0.02497198	      0.05157367
      2.94915254	      0.01737043	      0.02536433	      0.05379910
      2.96610169	      0.01818120	      0.02594952	      0.05637175
      2.98305085	      0.01899124	      0.02652130	      0.05837247
      3.00000000	      0.01968533	      0.02700160	      0.05953229
      3.01694915	      0.01999981	      0.02721642	      0.05977763
      3.03389831	      0.02003828	      0.02724259	      0.05899766
      3.05084746	      0.01987638	      0.02713231	      0.05763600
      3.06779661	      0.01972622	      0.02702963	      0.05619089
      3.08474576	      0.01960805	      0.02694854	      0.05508950
      3.10169492	      0.01968922	      0.02700427	      0.05482611
      3.11864407	      0.01993069	      0.02716935	      0.05526972
      3.13559322	      0.02030345	      0.02742224	      0.05587029
      3.15254237	      0.02075256	      0.02772388	      0.05691520
      3.16949153	      0.02111485	      0.02796483	      0.05762459
      3.18644068	      0.02154748	      0.02824987	      0.05862966
      3.20338983	      0.02202067	      0.02855837	      0.05955386
      3.22033898	      0.02274801	      0.02902617	      0.06061752
      3.23728814	      0.02378259	      0.02967889	      0.06184708
      3.25423729	      0.02502209	      0.03044247	      0.06307376
      3.27118644	      0.02630809	      0.03121496	      0.06441905
      3.28813559	      0.02744626	      0.03188304	      0.06598982
      3.30508475	      0.02839975	      0.03243212	      0.06759462
      3.32203390	      0.02912903	      0.03284590	      0.06911175
      3.33898305	      0.02979645	      0.03322006	      0.07016434
      3.35593220	      0.03038928	      0.03354890	      0.07070859
      3.37288136	      0.03083661	      0.03379492	      0.07053216
      3.38983051	      0.03105536	      0.03391458	      0.06971755
      3.40677966	      0.03105765	      0.03391583	      0.06865713
      3.42372881	      0.03077592	      0.03376165	      0.06773353
      3.44067797	      0.03037379	      0.03354035	      0.06712352
      3.45762712	      0.03002340	      0.03334633	      0.06695197
      3.47457627	      0.02977592	      0.03320861	      0.06683277
      3.49152542	      0.02959988	      0.03311030	      0.06668279
      3.50847458	      0.02935161	      0.03297115	      0.06593922
      3.52542373	      0.02906920	      0.03281215	      0.06460834
      3.54237288	      0.02867718	      0.03259015	      0.06237354
      3.55932203	      0.02813036	      0.03227794	      0.05937865
      3.57627119	      0.02744749	      0.03188375	      0.05992398
      3.59322034	      0.02662841	      0.03140442	      0.06058456
      3.61016949	      0.02583788	      0.03093475	      0.06069704
      3.62711864	      0.02512028	      0.03050214	      0.06082346
      3.64406780	      0.02444503	      0.03008939	      0.06067223
      3.66101695	      0.02378628	      0.02968119	      0.06034237
      3.67796610	      0.02317046	      0.02929445	      0.05961012
      3.69491525	      0.02260438	      0.02893439	      0.05791349
      3.71186441	      0.02220078	      0.02867492	      0.05673194
      3.72881356	      0.02186385	      0.02845650	      0.05531997
      3.74576271	      0.02157403	      0.02826726	      0.05423812
      3.76271186	      0.02129654	      0.02808488	      0.05316489
      3.77966102	      0.02102817	      0.02790737	      0.05263604
      3.79661017	      0.02075519	      0.02772564	      0.05327121
      3.81355932	      0.02044645	      0.02751865	      0.05308204
      3.83050847	      0.02016300	      0.02732723	      0.05264469
      3.84745763	      0.02003813	      0.02724249	      0.05351492
      3.86440678	      0.02020014	      0.02735239	      0.05497468
      3.88135593	      0.02069391	      0.02768467	      0.05721292
      3.89830508	      0.02143806	      0.02817804	      0.05901678
      3.91525424	      0.02232258	      0.02875347	      0.06056365
      3.93220339	      0.02307088	      0.02923144	      0.06222058
      3.94915254	      0.02361136	      0.02957186	      0.06257483
      3.96610169	      0.02385418	      0.02972353	      0.06210875
      3.98305085	      0.02378313	      0.02967923	      0.06112408
      4.00000000	      0.02342256	      0.02945339	      0.05961182
      4.01694915	      0.02288061	      0.02911065	      0.05790418
      4.03389831	      0.02233756	      0.02876312	      0.05639192
      4.05084746	      0.02190042	      0.02848028	      0.05620678
      4.06779661	      0.02138260	      0.02814157	      0.05498996
      4.08474576	      0.02076562	      0.02773260	      0.05393407
      4.10169492	      0.02004897	      0.02724985	      0.05302424
      4.11864407	      0.01914695	      0.02662980	      0.05213061
      4.13559322	      0.01813056	      0.02591336	      0.05161905
      4.15254237	      0.01701169	      0.02510105	      0.05169632
      4.16949153	      0.01584653	      0.02422620	      0.05147488
      4.18644068	      0.01480596	      0.02341728	      0.05138059
      4.20338983	      0.01401176	      0.02278057	      0.05090954
      4.22033898	      0.01347742	      0.02234198	      0.05016872
      4.23728814	      0.01312293	      0.02204619	      0.04874272
      4.25423729	      0.01290016	      0.02185827	      0.04672849
      4.27118644	      0.01285717	      0.02182181	      0.04448532
      4.28813559	      0.01296359	      0.02191194	      0.04265144
      4.30508475	      0.01313026	      0.02205234	      0.04165545
      4.32203390	      0.01324008	      0.02214438	      0.04134728
      4.33898305	      0.01325821	      0.02215953	      0.04175298
      4.35593220	      0.01323379	      0.02213911	      0.04255726
      4.37288136	      0.01328210	      0.02217948	      0.04358834
      4.38983051	      0.01350173	      0.02236211	      0.04505955
      4.40677966	      0.01369802	      0.02252408	      0.04596190
      4.42372881	      0.01381065	      0.02261649	      0.04658505
      4.44067797	      0.01372557	      0.02254672	      0.04690422
      4.45762712	      0.01340045	      0.02227808	      0.04655588
      4.47457627	      0.01301217	      0.02195296	      0.04624300
      4.49152542	      0.01265990	      0.02165376	      0.04552635
      4.50847458	      0.01237306	      0.02140705	      0.04461622
      4.52542373	      0.01211884	      0.02118598	      0.04350684
      4.54237288	      0.01190084	      0.02099457	      0.04210606
      4.55932203	      0.01175475	      0.02086531	      0.04147546
      4.57627119	      0.01182164	      0.02092459	      0.04107235
      4.59322034	      0.01241044	      0.02143935	      0.04143535
