Model Marker Errors from IK
version=1
nRows=352
nColumns=4
inDegrees=no
endheader
time	total_squared_error	marker_error_RMS	marker_error_max
      0.00000000	      0.02104108	      0.02791593	      0.04914822
      0.01785714	      0.02110601	      0.02795897	      0.05072258
      0.03571429	      0.02121857	      0.02803342	      0.05183038
      0.05357143	      0.02141040	      0.02815986	      0.05247524
      0.07142857	      0.02165772	      0.02832204	      0.05285837
      0.08928571	      0.02184870	      0.02844664	      0.05275901
      0.10714286	      0.02198426	      0.02853475	      0.05272805
      0.12500000	      0.02197877	      0.02853118	      0.05266659
      0.14285714	      0.02186823	      0.02845935	      0.05265319
      0.16071429	      0.02164953	      0.02831668	      0.05262813
      0.17857143	      0.02134214	      0.02811494	      0.05263696
      0.19642857	      0.02104516	      0.02791864	      0.05272626
      0.21428571	      0.02075883	      0.02772806	      0.05279876
      0.23214286	      0.02063603	      0.02764593	      0.05312110
      0.25000000	      0.02061673	      0.02763300	      0.05325643
      0.26785714	      0.02066337	      0.02766424	      0.05354209
      0.28571429	      0.02086544	      0.02779918	      0.05384910
      0.30357143	      0.02113279	      0.02797670	      0.05406657
      0.32142857	      0.02135156	      0.02812114	      0.05421369
      0.33928571	      0.02166850	      0.02832908	      0.05444456
      0.35714286	      0.02198805	      0.02853721	      0.05455996
      0.37500000	      0.02245207	      0.02883675	      0.05480427
      0.39285714	      0.02297317	      0.02916948	      0.05524864
      0.41071429	      0.02339132	      0.02943374	      0.05545621
      0.42857143	      0.02365552	      0.02959950	      0.05563960
      0.44642857	      0.02379314	      0.02968548	      0.05581545
      0.46428571	      0.02357038	      0.02954618	      0.05548810
      0.48214286	      0.02329315	      0.02937191	      0.05478140
      0.50000000	      0.02288680	      0.02911459	      0.05387153
      0.51785714	      0.02253815	      0.02889197	      0.05294415
      0.53571429	      0.02228223	      0.02872747	      0.05221134
      0.55357143	      0.02224347	      0.02870248	      0.05167769
      0.57142857	      0.02228541	      0.02872952	      0.05152806
      0.58928571	      0.02231734	      0.02875010	      0.05164822
      0.60714286	      0.02231062	      0.02874577	      0.05201605
      0.62500000	      0.02227235	      0.02872110	      0.05240534
      0.64285714	      0.02223510	      0.02869708	      0.05265799
      0.66071429	      0.02210622	      0.02861379	      0.05309420
      0.67857143	      0.02191804	      0.02849174	      0.05336750
      0.69642857	      0.02177029	      0.02839554	      0.05371090
      0.71428571	      0.02154233	      0.02824649	      0.05360712
      0.73214286	      0.02127240	      0.02806896	      0.05352155
      0.75000000	      0.02089597	      0.02781951	      0.05331376
      0.76785714	      0.02035172	      0.02745482	      0.05287373
      0.78571429	      0.01968707	      0.02700279	      0.05249922
      0.80357143	      0.01914946	      0.02663155	      0.05221588
      0.82142857	      0.01903057	      0.02654874	      0.05227481
      0.83928571	      0.01929390	      0.02673179	      0.05264081
      0.85714286	      0.01954332	      0.02690402	      0.05315972
      0.87500000	      0.01936054	      0.02677792	      0.05395386
      0.89285714	      0.01900789	      0.02653292	      0.05458935
      0.91071429	      0.01900094	      0.02652807	      0.05515530
      0.92857143	      0.01941085	      0.02681269	      0.05551213
      0.94642857	      0.02003764	      0.02724215	      0.05573984
      0.96428571	      0.02048928	      0.02754746	      0.05583001
      0.98214286	      0.02064064	      0.02764901	      0.05580325
      1.00000000	      0.02052686	      0.02757271	      0.05568580
      1.01785714	      0.02028721	      0.02741128	      0.05545420
      1.03571429	      0.02012766	      0.02730328	      0.05527903
      1.05357143	      0.02042021	      0.02750098	      0.05517147
      1.07142857	      0.02116019	      0.02799483	      0.05527811
      1.08928571	      0.02194260	      0.02850770	      0.05551751
      1.10714286	      0.02247394	      0.02885079	      0.05577923
      1.12500000	      0.02289013	      0.02911671	      0.05605261
      1.14285714	      0.02341408	      0.02944806	      0.05629260
      1.16071429	      0.02319699	      0.02931122	      0.05555719
      1.17857143	      0.02413469	      0.02989778	      0.05559841
      1.19642857	      0.02494453	      0.03039525	      0.05579995
      1.21428571	      0.02565980	      0.03082796	      0.05843304
      1.23214286	      0.02633403	      0.03123035	      0.06015873
      1.25000000	      0.02695405	      0.03159586	      0.06196905
      1.26785714	      0.02747265	      0.03189836	      0.06332549
      1.28571429	      0.02783096	      0.03210570	      0.06446047
      1.30357143	      0.02802253	      0.03221601	      0.06500439
      1.32142857	      0.02801376	      0.03221097	      0.06498417
      1.33928571	      0.02783188	      0.03210624	      0.06507928
      1.35714286	      0.02761125	      0.03197873	      0.06471028
      1.37500000	      0.02741312	      0.03186378	      0.06383794
      1.39285714	      0.02722264	      0.03175289	      0.06196168
      1.41071429	      0.02688618	      0.03155605	      0.05966406
      1.42857143	      0.02635848	      0.03124484	      0.05700362
      1.44642857	      0.02548661	      0.03072375	      0.05614283
      1.46428571	      0.02452559	      0.03013893	      0.05539055
      1.48214286	      0.02343025	      0.02945822	      0.05440823
      1.50000000	      0.02266054	      0.02897032	      0.05341964
      1.51785714	      0.02227877	      0.02872524	      0.05235419
      1.53571429	      0.02217307	      0.02865702	      0.05131654
      1.55357143	      0.02192516	      0.02849637	      0.05295815
      1.57142857	      0.02172686	      0.02836721	      0.05882738
      1.58928571	      0.01989730	      0.02714658	      0.04960712
      1.60714286	      0.01942553	      0.02682283	      0.04918459
      1.62500000	      0.01911119	      0.02660492	      0.04900693
      1.64285714	      0.01873678	      0.02634302	      0.04880057
      1.66071429	      0.01838901	      0.02609741	      0.04879652
      1.67857143	      0.01837356	      0.02608644	      0.04875441
      1.69642857	      0.01890204	      0.02645894	      0.04886552
      1.71428571	      0.01980402	      0.02708287	      0.05197180
      1.73214286	      0.02046078	      0.02752829	      0.05552321
      1.75000000	      0.02059419	      0.02761789	      0.05512118
      1.76785714	      0.02029384	      0.02741576	      0.05195363
      1.78571429	      0.01988464	      0.02713795	      0.04893453
      1.80357143	      0.01956647	      0.02691996	      0.04874535
      1.82142857	      0.01929229	      0.02673068	      0.04856210
      1.83928571	      0.01929963	      0.02673577	      0.04815693
      1.85714286	      0.01945355	      0.02684216	      0.04835592
      1.87500000	      0.01970892	      0.02701777	      0.04848555
      1.89285714	      0.01993472	      0.02717210	      0.04881617
      1.91071429	      0.02006858	      0.02726317	      0.04921816
      1.92857143	      0.02009198	      0.02727906	      0.04957731
      1.94642857	      0.02007467	      0.02726731	      0.04987945
      1.96428571	      0.02003438	      0.02723994	      0.05009695
      1.98214286	      0.02000566	      0.02722040	      0.05011111
      2.00000000	      0.01994819	      0.02718128	      0.04999775
      2.01785714	      0.01984494	      0.02711084	      0.04971166
      2.03571429	      0.01968102	      0.02699864	      0.04942412
      2.05357143	      0.01949176	      0.02686851	      0.04936988
      2.07142857	      0.01932657	      0.02675442	      0.04932308
      2.08928571	      0.01917155	      0.02664690	      0.04928365
      2.10714286	      0.01907477	      0.02657956	      0.04917165
      2.12500000	      0.01902369	      0.02654394	      0.04897997
      2.14285714	      0.01901072	      0.02653489	      0.04880048
      2.16071429	      0.01904609	      0.02655957	      0.04875459
      2.17857143	      0.01910620	      0.02660145	      0.04872730
      2.19642857	      0.01921693	      0.02667842	      0.04871575
      2.21428571	      0.01943040	      0.02682619	      0.04891376
      2.23214286	      0.01982213	      0.02709526	      0.04907318
      2.25000000	      0.02021470	      0.02736224	      0.05000029
      2.26785714	      0.02067027	      0.02766885	      0.05059931
      2.28571429	      0.02097391	      0.02787134	      0.05094460
      2.30357143	      0.02105970	      0.02792828	      0.05086963
      2.32142857	      0.02089840	      0.02782112	      0.05084135
      2.33928571	      0.02060645	      0.02762611	      0.05060794
      2.35714286	      0.02025167	      0.02738725	      0.05028933
      2.37500000	      0.01986768	      0.02712637	      0.05005422
      2.39285714	      0.01949061	      0.02686772	      0.04974813
      2.41071429	      0.01927059	      0.02671564	      0.04943710
      2.42857143	      0.01920859	      0.02667263	      0.04893734
      2.44642857	      0.01923109	      0.02668825	      0.04868472
      2.46428571	      0.01937395	      0.02678719	      0.04844618
      2.48214286	      0.01951210	      0.02688253	      0.04845081
      2.50000000	      0.01984348	      0.02710985	      0.04849559
      2.51785714	      0.02015994	      0.02732516	      0.04846806
      2.53571429	      0.02031053	      0.02742703	      0.04878888
      2.55357143	      0.02036142	      0.02746137	      0.04892715
      2.57142857	      0.02033194	      0.02744148	      0.04895522
      2.58928571	      0.02024353	      0.02738175	      0.04878267
      2.60714286	      0.02006290	      0.02725932	      0.04862963
      2.62500000	      0.01981325	      0.02708919	      0.04848796
      2.64285714	      0.01954196	      0.02690309	      0.04844852
      2.66071429	      0.01933949	      0.02676336	      0.04853216
      2.67857143	      0.01928248	      0.02672388	      0.04890073
      2.69642857	      0.01929620	      0.02673339	      0.04912943
      2.71428571	      0.01925057	      0.02670176	      0.04909653
      2.73214286	      0.01910413	      0.02660001	      0.04871610
      2.75000000	      0.01891251	      0.02646627	      0.04822950
      2.76785714	      0.01873342	      0.02634066	      0.04787737
      2.78571429	      0.01857486	      0.02622895	      0.04767495
      2.80357143	      0.01847035	      0.02615506	      0.04748399
      2.82142857	      0.01842131	      0.02612031	      0.04730470
      2.83928571	      0.01847008	      0.02615487	      0.04737914
      2.85714286	      0.01864176	      0.02627614	      0.04764193
      2.87500000	      0.01880793	      0.02639299	      0.04849421
      2.89285714	      0.01893273	      0.02648041	      0.04860022
      2.91071429	      0.01902756	      0.02654664	      0.04839563
      2.92857143	      0.01909408	      0.02659301	      0.04769975
      2.94642857	      0.01912607	      0.02661527	      0.04812949
      2.96428571	      0.01903251	      0.02655010	      0.04845071
      2.98214286	      0.01884327	      0.02641777	      0.04887821
      3.00000000	      0.01864896	      0.02628121	      0.04881482
      3.01785714	      0.01849680	      0.02617378	      0.04879490
      3.03571429	      0.01844205	      0.02613501	      0.04868932
      3.05357143	      0.01846062	      0.02614817	      0.04878218
      3.07142857	      0.01854137	      0.02620530	      0.04855232
      3.08928571	      0.01864697	      0.02627981	      0.04889744
      3.10714286	      0.01869829	      0.02631595	      0.04932231
      3.12500000	      0.01868736	      0.02630826	      0.04962703
      3.14285714	      0.01865804	      0.02628761	      0.04970928
      3.16071429	      0.01866668	      0.02629370	      0.04987447
      3.17857143	      0.01878251	      0.02637515	      0.05001673
      3.19642857	      0.01899679	      0.02652517	      0.05026073
      3.21428571	      0.01927914	      0.02672157	      0.05051964
      3.23214286	      0.01961633	      0.02695424	      0.05064175
      3.25000000	      0.01989139	      0.02714255	      0.05059224
      3.26785714	      0.02010229	      0.02728606	      0.05031971
      3.28571429	      0.02016839	      0.02733089	      0.04989968
      3.30357143	      0.02008267	      0.02727274	      0.04943795
      3.32142857	      0.01989544	      0.02714531	      0.04900490
      3.33928571	      0.01965927	      0.02698372	      0.04874750
      3.35714286	      0.01950045	      0.02687450	      0.04887100
      3.37500000	      0.01946684	      0.02685133	      0.04968899
      3.39285714	      0.01960211	      0.02694446	      0.05082446
      3.41071429	      0.01987497	      0.02713135	      0.05197413
      3.42857143	      0.02025805	      0.02739157	      0.05292686
      3.44642857	      0.02067445	      0.02767166	      0.05359545
      3.46428571	      0.02087326	      0.02780438	      0.05412806
      3.48214286	      0.02089499	      0.02781885	      0.05392236
      3.50000000	      0.02067284	      0.02767058	      0.05362261
      3.51785714	      0.02036342	      0.02746271	      0.05288061
      3.53571429	      0.02007337	      0.02726643	      0.05206572
      3.55357143	      0.01984830	      0.02711314	      0.05111016
      3.57142857	      0.01967784	      0.02699646	      0.05015183
      3.58928571	      0.01949007	      0.02686735	      0.04920985
      3.60714286	      0.01925819	      0.02670705	      0.04841312
      3.62500000	      0.01896128	      0.02650037	      0.04785809
      3.64285714	      0.01873430	      0.02634128	      0.04716355
      3.66071429	      0.01857135	      0.02622647	      0.04640054
      3.67857143	      0.01844207	      0.02613503	      0.04624167
      3.69642857	      0.01834374	      0.02606526	      0.04561374
      3.71428571	      0.01825034	      0.02599882	      0.04515358
      3.73214286	      0.01822259	      0.02597905	      0.04474144
      3.75000000	      0.01830748	      0.02603948	      0.04473948
      3.76785714	      0.01854858	      0.02621039	      0.04493207
      3.78571429	      0.01891080	      0.02646507	      0.04534369
      3.80357143	      0.01930560	      0.02673990	      0.04582094
      3.82142857	      0.01964063	      0.02697092	      0.04588966
      3.83928571	      0.01983890	      0.02710672	      0.04562265
      3.85714286	      0.01991703	      0.02716004	      0.04534135
      3.87500000	      0.01995231	      0.02718408	      0.04532752
      3.89285714	      0.01995802	      0.02718797	      0.04532268
      3.91071429	      0.02000382	      0.02721915	      0.04543141
      3.92857143	      0.02011649	      0.02729570	      0.04572153
      3.94642857	      0.02033333	      0.02744242	      0.04637752
      3.96428571	      0.02057718	      0.02760648	      0.04714861
      3.98214286	      0.02067423	      0.02767151	      0.04785011
      4.00000000	      0.02076323	      0.02773100	      0.04865202
      4.01785714	      0.02077431	      0.02773840	      0.04921823
      4.03571429	      0.02088135	      0.02780977	      0.04956203
      4.05357143	      0.02129544	      0.02808416	      0.04974715
      4.07142857	      0.02200117	      0.02854572	      0.04969833
      4.08928571	      0.02281940	      0.02907169	      0.04967294
      4.10714286	      0.02381343	      0.02969813	      0.04957673
      4.12500000	      0.02486746	      0.03034826	      0.04945486
      4.14285714	      0.02534052	      0.03063556	      0.04937818
      4.16071429	      0.02483782	      0.03033017	      0.05043695
      4.17857143	      0.02354089	      0.02952769	      0.05073782
      4.19642857	      0.02138674	      0.02814430	      0.04933533
      4.21428571	      0.01981227	      0.02708852	      0.04740765
      4.23214286	      0.01909241	      0.02659185	      0.04643781
      4.25000000	      0.01901731	      0.02653949	      0.04535947
      4.26785714	      0.01909832	      0.02659596	      0.04516987
      4.28571429	      0.01906525	      0.02657293	      0.04545435
      4.30357143	      0.01901902	      0.02654069	      0.04588958
      4.32142857	      0.01911772	      0.02660946	      0.04594721
      4.33928571	      0.01939128	      0.02679917	      0.04595417
      4.35714286	      0.01975025	      0.02704608	      0.04622514
      4.37500000	      0.02008324	      0.02727313	      0.04599475
      4.39285714	      0.02016040	      0.02732547	      0.04620016
      4.41071429	      0.01978401	      0.02706919	      0.04672259
      4.42857143	      0.01926142	      0.02670928	      0.04761897
      4.44642857	      0.01902975	      0.02654818	      0.04827417
      4.46428571	      0.01902225	      0.02654294	      0.04863288
      4.48214286	      0.01903693	      0.02655319	      0.04869939
      4.50000000	      0.01910960	      0.02660381	      0.04862521
      4.51785714	      0.01932329	      0.02675215	      0.04853639
      4.53571429	      0.01982898	      0.02709994	      0.04843681
      4.55357143	      0.02056375	      0.02759747	      0.04848928
      4.57142857	      0.02118796	      0.02801320	      0.04862693
      4.58928571	      0.02145668	      0.02819028	      0.05004507
      4.60714286	      0.02155424	      0.02825429	      0.05092518
      4.62500000	      0.02158031	      0.02827138	      0.05399732
      4.64285714	      0.02127040	      0.02806764	      0.05565803
      4.66071429	      0.02061493	      0.02763179	      0.05506931
      4.67857143	      0.02065144	      0.02765625	      0.05263275
      4.69642857	      0.02184371	      0.02844339	      0.04965772
      4.71428571	      0.02353642	      0.02952489	      0.05569940
      4.73214286	      0.02476080	      0.03028311	      0.06121986
      4.75000000	      0.02495876	      0.03040392	      0.06210590
      4.76785714	      0.02391556	      0.02976174	      0.05703886
      4.78571429	      0.02222363	      0.02868967	      0.05007239
      4.80357143	      0.02085466	      0.02779199	      0.05147045
      4.82142857	      0.02004599	      0.02724783	      0.04810491
      4.83928571	      0.01951232	      0.02688268	      0.04728463
      4.85714286	      0.01890001	      0.02645752	      0.04810769
      4.87500000	      0.01830375	      0.02603684	      0.04896913
      4.89285714	      0.01792993	      0.02576958	      0.04994355
      4.91071429	      0.01801973	      0.02583403	      0.05111766
      4.92857143	      0.01849411	      0.02617187	      0.05239489
      4.94642857	      0.01893050	      0.02647885	      0.05396787
      4.96428571	      0.01898461	      0.02651667	      0.05545410
      4.98214286	      0.01879338	      0.02638278	      0.05676763
      5.00000000	      0.01876949	      0.02636601	      0.05760907
      5.01785714	      0.01926284	      0.02671027	      0.05802134
      5.03571429	      0.02028547	      0.02741010	      0.05796348
      5.05357143	      0.02130636	      0.02809136	      0.05759856
      5.07142857	      0.02158617	      0.02827522	      0.05698508
      5.08928571	      0.02091257	      0.02783055	      0.05612053
      5.10714286	      0.01965575	      0.02698130	      0.05509445
      5.12500000	      0.01831338	      0.02604368	      0.05371437
      5.14285714	      0.01745317	      0.02542467	      0.05239934
      5.16071429	      0.01728784	      0.02530396	      0.05098597
      5.17857143	      0.01768847	      0.02559548	      0.04968226
      5.19642857	      0.01818311	      0.02595089	      0.05010119
      5.21428571	      0.01855528	      0.02621512	      0.05124760
      5.23214286	      0.01886413	      0.02643239	      0.05239397
      5.25000000	      0.01918521	      0.02665639	      0.05324050
      5.26785714	      0.01961909	      0.02695613	      0.05316200
      5.28571429	      0.01998737	      0.02720796	      0.05203005
      5.30357143	      0.02000968	      0.02722314	      0.05033568
      5.32142857	      0.01974326	      0.02704130	      0.04848424
      5.33928571	      0.01929141	      0.02673007	      0.04680229
      5.35714286	      0.01887057	      0.02643691	      0.04614626
      5.37500000	      0.01860672	      0.02625143	      0.04707485
      5.39285714	      0.01855977	      0.02621829	      0.04901750
      5.41071429	      0.01896178	      0.02650072	      0.05157528
      5.42857143	      0.01985284	      0.02711624	      0.05502968
      5.44642857	      0.02102039	      0.02790221	      0.05916700
      5.46428571	      0.02222480	      0.02869043	      0.06314768
      5.48214286	      0.02308971	      0.02924337	      0.06572403
      5.50000000	      0.02352309	      0.02951653	      0.06683035
      5.51785714	      0.02349710	      0.02950022	      0.06588408
      5.53571429	      0.02310000	      0.02924988	      0.06326882
      5.55357143	      0.02247164	      0.02884931	      0.05896761
      5.57142857	      0.02178666	      0.02840622	      0.05415584
      5.58928571	      0.02124531	      0.02805108	      0.05038552
      5.60714286	      0.02092317	      0.02783760	      0.04846398
      5.62500000	      0.02084270	      0.02778402	      0.04844965
      5.64285714	      0.02088980	      0.02781540	      0.04848975
      5.66071429	      0.02090804	      0.02782754	      0.04854746
      5.67857143	      0.02089554	      0.02781921	      0.04853058
      5.69642857	      0.02105801	      0.02792716	      0.04862891
      5.71428571	      0.02140336	      0.02815523	      0.04859972
      5.73214286	      0.02172374	      0.02836517	      0.04858650
      5.75000000	      0.02171872	      0.02836189	      0.04834077
      5.76785714	      0.02124670	      0.02805200	      0.04837445
      5.78571429	      0.02058063	      0.02760880	      0.04764724
      5.80357143	      0.02014410	      0.02731442	      0.04736664
      5.82142857	      0.02005761	      0.02725572	      0.04757748
      5.83928571	      0.02005956	      0.02725705	      0.04795741
      5.85714286	      0.01984584	      0.02711146	      0.04773164
      5.87500000	      0.01951435	      0.02688408	      0.04579311
      5.89285714	      0.01944911	      0.02683910	      0.04528322
      5.91071429	      0.01971104	      0.02701922	      0.04705938
      5.92857143	      0.02027240	      0.02740127	      0.05183067
      5.94642857	      0.02105504	      0.02792519	      0.05673286
      5.96428571	      0.02168517	      0.02833998	      0.06015229
      5.98214286	      0.02186146	      0.02845494	      0.06101383
      6.00000000	      0.02184250	      0.02844260	      0.05979565
      6.01785714	      0.02192802	      0.02849823	      0.05936427
      6.03571429	      0.02226873	      0.02871877	      0.05975495
      6.05357143	      0.02279705	      0.02905745	      0.05972603
      6.07142857	      0.02316947	      0.02929383	      0.05799786
      6.08928571	      0.02310112	      0.02925059	      0.05469584
      6.10714286	      0.02252776	      0.02888531	      0.04994402
      6.12500000	      0.02164333	      0.02831263	      0.04754564
      6.14285714	      0.02064425	      0.02765143	      0.04755085
      6.16071429	      0.01968494	      0.02700133	      0.04763286
      6.17857143	      0.01892649	      0.02647605	      0.04769243
      6.19642857	      0.01841641	      0.02611684	      0.04777637
      6.21428571	      0.01814341	      0.02592254	      0.04774458
      6.23214286	      0.01815840	      0.02593325	      0.04747731
      6.25000000	      0.01855530	      0.02621514	      0.04728935
      6.26785714	      0.01965318	      0.02697954	      0.04650400
