Model Marker Errors from IK
version=1
nRows=649
nColumns=4
inDegrees=no
endheader
time	total_squared_error	marker_error_RMS	marker_error_max
      0.00000000	      0.02821180	      0.03232463	      0.05464603
      0.01694915	      0.02745220	      0.03188649	      0.05366359
      0.03389831	      0.02729792	      0.03179676	      0.05365923
      0.05084746	      0.02735593	      0.03183053	      0.05543915
      0.06779661	      0.02749238	      0.03190981	      0.05661560
      0.08474576	      0.02767404	      0.03201506	      0.05719873
      0.10169492	      0.02779950	      0.03208755	      0.05749134
      0.11864407	      0.02777228	      0.03207184	      0.05734083
      0.13559322	      0.02753590	      0.03193506	      0.05694666
      0.15254237	      0.02714352	      0.03170671	      0.05617687
      0.16949153	      0.02670643	      0.03145039	      0.05516758
      0.18644068	      0.02628780	      0.03120292	      0.05392631
      0.20338983	      0.02588893	      0.03096529	      0.05247637
      0.22033898	      0.02540458	      0.03067426	      0.05078919
      0.23728814	      0.02491577	      0.03037773	      0.04931523
      0.25423729	      0.02447638	      0.03010868	      0.04820603
      0.27118644	      0.02414162	      0.02990208	      0.04745930
      0.28813559	      0.02392832	      0.02976969	      0.04706830
      0.30508475	      0.02385568	      0.02972447	      0.04681194
      0.32203390	      0.02385971	      0.02972698	      0.04672674
      0.33898305	      0.02406873	      0.02985690	      0.04680981
      0.35593220	      0.02450874	      0.03012858	      0.04795174
      0.37288136	      0.02518708	      0.03054267	      0.05016516
      0.38983051	      0.02615129	      0.03112180	      0.05266670
      0.40677966	      0.02720058	      0.03174002	      0.05521414
      0.42372881	      0.02835603	      0.03240715	      0.05558201
      0.44067797	      0.02950182	      0.03305541	      0.05288469
      0.45762712	      0.03079407	      0.03377160	      0.05350825
      0.47457627	      0.03228719	      0.03458066	      0.06232148
      0.49152542	      0.03336184	      0.03515144	      0.06937405
      0.50847458	      0.03345943	      0.03520281	      0.07185814
      0.52542373	      0.03223006	      0.03455005	      0.06938631
      0.54237288	      0.03027620	      0.03348643	      0.06335018
      0.55932203	      0.02867909	      0.03259123	      0.05674604
      0.57627119	      0.02793296	      0.03216448	      0.05239614
      0.59322034	      0.02788789	      0.03213853	      0.05108411
      0.61016949	      0.02834914	      0.03240321	      0.05211217
      0.62711864	      0.02910717	      0.03283357	      0.05417779
      0.64406780	      0.02967633	      0.03315303	      0.05516318
      0.66101695	      0.02960705	      0.03311431	      0.05436089
      0.67796610	      0.02883264	      0.03267837	      0.05168568
      0.69491525	      0.02767104	      0.03201333	      0.05174968
      0.71186441	      0.02706699	      0.03166198	      0.05041877
      0.72881356	      0.02677712	      0.03149199	      0.04812641
      0.74576271	      0.02659074	      0.03138220	      0.04701052
      0.76271186	      0.02627077	      0.03119281	      0.04715539
      0.77966102	      0.02588109	      0.03096060	      0.04759332
      0.79661017	      0.02565404	      0.03082450	      0.04828241
      0.81355932	      0.02549888	      0.03073114	      0.04909391
      0.83050847	      0.02596078	      0.03100823	      0.05000523
      0.84745763	      0.02662621	      0.03140312	      0.05086456
      0.86440678	      0.02727693	      0.03178453	      0.05152288
      0.88135593	      0.02784109	      0.03211155	      0.05223751
      0.89830508	      0.02820275	      0.03231944	      0.05275991
      0.91525424	      0.02844773	      0.03245951	      0.05336784
      0.93220339	      0.02858022	      0.03253501	      0.05403401
      0.94915254	      0.02862882	      0.03256266	      0.05473745
      0.96610169	      0.02849434	      0.03248609	      0.05540970
      0.98305085	      0.02833425	      0.03239470	      0.05611825
      1.00000000	      0.02818607	      0.03230988	      0.05673816
      1.01694915	      0.02806869	      0.03224254	      0.05720449
      1.03389831	      0.02798669	      0.03219541	      0.05758330
      1.05084746	      0.02778963	      0.03208186	      0.05775579
      1.06779661	      0.02751804	      0.03192470	      0.05788096
      1.08474576	      0.02707321	      0.03166562	      0.05808799
      1.10169492	      0.02656231	      0.03136542	      0.05810514
      1.11864407	      0.02618753	      0.03114336	      0.05799606
      1.13559322	      0.02613213	      0.03111040	      0.05823009
      1.15254237	      0.02631712	      0.03122032	      0.05837246
      1.16949153	      0.02659237	      0.03138316	      0.05836285
      1.18644068	      0.02673335	      0.03146624	      0.05872551
      1.20338983	      0.02683941	      0.03152860	      0.05875133
      1.22033898	      0.02694990	      0.03159342	      0.05848242
      1.23728814	      0.02706801	      0.03166258	      0.05814700
      1.25423729	      0.02726881	      0.03177980	      0.05756553
      1.27118644	      0.02750597	      0.03191770	      0.05709259
      1.28813559	      0.02770917	      0.03203538	      0.05680821
      1.30508475	      0.02774255	      0.03205467	      0.05637218
      1.32203390	      0.02759273	      0.03196800	      0.05614176
      1.33898305	      0.02722840	      0.03175625	      0.05582415
      1.35593220	      0.02672298	      0.03146013	      0.05547961
      1.37288136	      0.02619833	      0.03114978	      0.05511465
      1.38983051	      0.02572200	      0.03086530	      0.05445588
      1.40677966	      0.02550379	      0.03073410	      0.05385499
      1.42372881	      0.02550920	      0.03073736	      0.05331890
      1.44067797	      0.02571534	      0.03086131	      0.05292449
      1.45762712	      0.02590840	      0.03097693	      0.05285895
      1.47457627	      0.02599089	      0.03102621	      0.05322067
      1.49152542	      0.02587835	      0.03095896	      0.05343438
      1.50847458	      0.02580211	      0.03091332	      0.05403550
      1.52542373	      0.02584711	      0.03094027	      0.05455885
      1.54237288	      0.02597020	      0.03101386	      0.05511897
      1.55932203	      0.02601535	      0.03104081	      0.05553698
      1.57627119	      0.02614535	      0.03111826	      0.05603587
      1.59322034	      0.02620629	      0.03115451	      0.05636547
      1.61016949	      0.02622210	      0.03116390	      0.05689830
      1.62711864	      0.02611927	      0.03110274	      0.05752871
      1.64406780	      0.02607222	      0.03107471	      0.05792976
      1.66101695	      0.02609636	      0.03108909	      0.05822782
      1.67796610	      0.02624274	      0.03117617	      0.05832190
      1.69491525	      0.02568494	      0.03084305	      0.05424587
      1.71186441	      0.02589392	      0.03096828	      0.05383113
      1.72881356	      0.02609719	      0.03108959	      0.05331923
      1.74576271	      0.02619099	      0.03114541	      0.05290885
      1.76271186	      0.02617925	      0.03113843	      0.05245975
      1.77966102	      0.02614790	      0.03111978	      0.05203916
      1.79661017	      0.02615603	      0.03112462	      0.05156207
      1.81355932	      0.02623208	      0.03116983	      0.05136195
      1.83050847	      0.02642778	      0.03128589	      0.05129884
      1.84745763	      0.02666211	      0.03142428	      0.05158834
      1.86440678	      0.02685857	      0.03153984	      0.05203743
      1.88135593	      0.02695587	      0.03159692	      0.05257304
      1.89830508	      0.02696126	      0.03160008	      0.05307801
      1.91525424	      0.02694763	      0.03159210	      0.05358654
      1.93220339	      0.02703088	      0.03164085	      0.05399338
      1.94915254	      0.02726165	      0.03177563	      0.05434268
      1.96610169	      0.02760589	      0.03197562	      0.05438462
      1.98305085	      0.02790324	      0.03214737	      0.05491256
      2.00000000	      0.02812976	      0.03227759	      0.05490180
      2.01694915	      0.02822951	      0.03233477	      0.05517351
      2.03389831	      0.02827837	      0.03236274	      0.05547953
      2.05084746	      0.02831902	      0.03238600	      0.05539863
      2.06779661	      0.02834051	      0.03239828	      0.05518546
      2.08474576	      0.02835708	      0.03240775	      0.05494859
      2.10169492	      0.02842113	      0.03244433	      0.05457007
      2.11864407	      0.02854008	      0.03251215	      0.05407257
      2.13559322	      0.02864357	      0.03257104	      0.05360975
      2.15254237	      0.02868253	      0.03259319	      0.05328526
      2.16949153	      0.02864726	      0.03257314	      0.05313403
      2.18644068	      0.02864123	      0.03256971	      0.05318219
      2.20338983	      0.02875127	      0.03263222	      0.05338456
      2.22033898	      0.02897312	      0.03275788	      0.05362312
      2.23728814	      0.02923564	      0.03290595	      0.05386695
      2.25423729	      0.02942738	      0.03301368	      0.05399717
      2.27118644	      0.02949777	      0.03305314	      0.05399301
      2.28813559	      0.02944498	      0.03302355	      0.05384863
      2.30508475	      0.02930652	      0.03294581	      0.05357852
      2.32203390	      0.02907311	      0.03281435	      0.05321570
      2.33898305	      0.02877727	      0.03264697	      0.05285948
      2.35593220	      0.02841504	      0.03244085	      0.05250686
      2.37288136	      0.02801849	      0.03221369	      0.05226030
      2.38983051	      0.02750377	      0.03191642	      0.05192011
      2.40677966	      0.02708691	      0.03167363	      0.05163422
      2.42372881	      0.02680938	      0.03151095	      0.05132755
      2.44067797	      0.02669127	      0.03144146	      0.05150715
      2.45762712	      0.02661109	      0.03139420	      0.05273660
      2.47457627	      0.02652449	      0.03134308	      0.05349544
      2.49152542	      0.02630057	      0.03121050	      0.05389538
      2.50847458	      0.02597394	      0.03101609	      0.05375895
      2.52542373	      0.02562964	      0.03080984	      0.05318774
      2.54237288	      0.02539260	      0.03066703	      0.05233431
      2.55932203	      0.02526496	      0.03058986	      0.05162935
      2.57627119	      0.02525304	      0.03058264	      0.05149468
      2.59322034	      0.02525378	      0.03058309	      0.05182808
      2.61016949	      0.02517876	      0.03053762	      0.05226443
      2.62711864	      0.02510355	      0.03049199	      0.05262953
      2.64406780	      0.02511694	      0.03050011	      0.05306524
      2.66101695	      0.02516109	      0.03052691	      0.05325829
      2.67796610	      0.02528523	      0.03060212	      0.05345613
      2.69491525	      0.02537527	      0.03065656	      0.05342488
      2.71186441	      0.02539810	      0.03067035	      0.05337176
      2.72881356	      0.02538434	      0.03066204	      0.05318512
      2.74576271	      0.02541162	      0.03067851	      0.05300886
      2.76271186	      0.02544529	      0.03069883	      0.05274058
      2.77966102	      0.02544259	      0.03069720	      0.05235474
      2.79661017	      0.02538018	      0.03065953	      0.05181406
      2.81355932	      0.02534570	      0.03063870	      0.05115011
      2.83050847	      0.02547681	      0.03071784	      0.05106394
      2.84745763	      0.02573888	      0.03087542	      0.05147320
      2.86440678	      0.02605651	      0.03106535	      0.05189124
      2.88135593	      0.02624755	      0.03117902	      0.05200716
      2.89830508	      0.02641310	      0.03127720	      0.05175194
      2.91525424	      0.02649265	      0.03132426	      0.05134255
      2.93220339	      0.02661193	      0.03139470	      0.05084060
      2.94915254	      0.02670238	      0.03144800	      0.05009132
      2.96610169	      0.02695577	      0.03159687	      0.04950881
      2.98305085	      0.02733047	      0.03181571	      0.04887950
      3.00000000	      0.02774265	      0.03205473	      0.04818575
      3.01694915	      0.02809559	      0.03225798	      0.04813780
      3.03389831	      0.02830081	      0.03237558	      0.04875946
      3.05084746	      0.02830560	      0.03237832	      0.04931077
      3.06779661	      0.02810645	      0.03226422	      0.04914635
      3.08474576	      0.02772825	      0.03204640	      0.04857538
      3.10169492	      0.02732594	      0.03181308	      0.04805867
      3.11864407	      0.02701264	      0.03163018	      0.04719635
      3.13559322	      0.02686077	      0.03154114	      0.04688815
      3.15254237	      0.02692462	      0.03157860	      0.04700096
      3.16949153	      0.02711467	      0.03168986	      0.04756055
      3.18644068	      0.02742836	      0.03187264	      0.04837602
      3.20338983	      0.02775586	      0.03206236	      0.04930265
      3.22033898	      0.02805573	      0.03223509	      0.05024649
      3.23728814	      0.02823313	      0.03233685	      0.05074901
      3.25423729	      0.02828517	      0.03236663	      0.05082436
      3.27118644	      0.02819714	      0.03231623	      0.05048298
      3.28813559	      0.02801366	      0.03221091	      0.05023161
      3.30508475	      0.02779181	      0.03208312	      0.04958571
      3.32203390	      0.02763137	      0.03199038	      0.04846126
      3.33898305	      0.02754185	      0.03193851	      0.04751421
      3.35593220	      0.02759317	      0.03196825	      0.04662759
      3.37288136	      0.02773656	      0.03205121	      0.04666445
      3.38983051	      0.02794491	      0.03217136	      0.04686249
      3.40677966	      0.02812901	      0.03227716	      0.04699655
      3.42372881	      0.02822715	      0.03233342	      0.04706910
      3.44067797	      0.02819512	      0.03231507	      0.04715262
      3.45762712	      0.02803413	      0.03222268	      0.04724959
      3.47457627	      0.02777368	      0.03207265	      0.04728010
      3.49152542	      0.02749019	      0.03190855	      0.04726223
      3.50847458	      0.02722388	      0.03175361	      0.04727668
      3.52542373	      0.02705732	      0.03165633	      0.04806962
      3.54237288	      0.02696085	      0.03159984	      0.04905435
      3.55932203	      0.02688188	      0.03155353	      0.04975503
      3.57627119	      0.02673200	      0.03146544	      0.04989233
      3.59322034	      0.02649958	      0.03132836	      0.04964034
      3.61016949	      0.02615562	      0.03112437	      0.04893216
      3.62711864	      0.02584880	      0.03094128	      0.04807231
      3.64406780	      0.02559792	      0.03079077	      0.04735423
      3.66101695	      0.02542516	      0.03068668	      0.04707429
      3.67796610	      0.02520012	      0.03055058	      0.04690961
      3.69491525	      0.02497734	      0.03041524	      0.04665103
      3.71186441	      0.02467671	      0.03023164	      0.04635275
      3.72881356	      0.02434019	      0.03002480	      0.04589189
      3.74576271	      0.02390081	      0.02975257	      0.04608468
      3.76271186	      0.02350327	      0.02950409	      0.04601470
      3.77966102	      0.02314676	      0.02927947	      0.04565139
      3.79661017	      0.02287852	      0.02910932	      0.04507904
      3.81355932	      0.02264791	      0.02896224	      0.04498874
      3.83050847	      0.02250595	      0.02887133	      0.04544529
      3.84745763	      0.02248833	      0.02886003	      0.04588931
      3.86440678	      0.02267172	      0.02897746	      0.04647913
      3.88135593	      0.02307479	      0.02923392	      0.04701392
      3.89830508	      0.02366441	      0.02960506	      0.04734298
      3.91525424	      0.02430171	      0.03000105	      0.04762258
      3.93220339	      0.02484329	      0.03033351	      0.04803956
      3.94915254	      0.02522864	      0.03056786	      0.04843939
      3.96610169	      0.02548014	      0.03071985	      0.04862906
      3.98305085	      0.02567338	      0.03083612	      0.04847294
      4.00000000	      0.02585043	      0.03094226	      0.04834414
      4.01694915	      0.02600019	      0.03103176	      0.04792043
      4.03389831	      0.02613672	      0.03111312	      0.04774605
      4.05084746	      0.02623449	      0.03117127	      0.04755997
      4.06779661	      0.02624179	      0.03117560	      0.04773850
      4.08474576	      0.02626281	      0.03118809	      0.04803994
      4.10169492	      0.02623616	      0.03117226	      0.04816459
      4.11864407	      0.02627386	      0.03119465	      0.04820142
      4.13559322	      0.02640974	      0.03127521	      0.04820375
      4.15254237	      0.02663393	      0.03140767	      0.04845199
      4.16949153	      0.02692874	      0.03158102	      0.04883878
      4.18644068	      0.02720260	      0.03174120	      0.04904978
      4.20338983	      0.02730977	      0.03180366	      0.04909997
      4.22033898	      0.02722120	      0.03175205	      0.04900172
      4.23728814	      0.02704837	      0.03165109	      0.04891064
      4.25423729	      0.02691389	      0.03157231	      0.04895200
      4.27118644	      0.02682608	      0.03152076	      0.04935158
      4.28813559	      0.02687024	      0.03154670	      0.04999224
      4.30508475	      0.02689386	      0.03156056	      0.05054979
      4.32203390	      0.02673309	      0.03146608	      0.05066698
      4.33898305	      0.02648126	      0.03131752	      0.05040181
      4.35593220	      0.02620074	      0.03115121	      0.04974624
      4.37288136	      0.02600114	      0.03103233	      0.04881065
      4.38983051	      0.02586842	      0.03095302	      0.04898214
      4.40677966	      0.02575398	      0.03088448	      0.04915123
      4.42372881	      0.02560744	      0.03079649	      0.04918210
      4.44067797	      0.02540949	      0.03067722	      0.04910475
      4.45762712	      0.02518413	      0.03054088	      0.04902904
      4.47457627	      0.02494116	      0.03039320	      0.04897964
      4.49152542	      0.02471869	      0.03025735	      0.04900233
      4.50847458	      0.02446168	      0.03009964	      0.04903110
      4.52542373	      0.02421591	      0.02994805	      0.04899736
      4.54237288	      0.02399296	      0.02980987	      0.04883389
      4.55932203	      0.02376994	      0.02967100	      0.04850951
      4.57627119	      0.02353928	      0.02952668	      0.04828226
      4.59322034	      0.02332823	      0.02939402	      0.04800996
      4.61016949	      0.02310654	      0.02925402	      0.04775841
      4.62711864	      0.02287932	      0.02910983	      0.04762319
      4.64406780	      0.02270032	      0.02899573	      0.04745640
      4.66101695	      0.02254141	      0.02889407	      0.04734430
      4.67796610	      0.02251652	      0.02887811	      0.04695063
      4.69491525	      0.02257741	      0.02891713	      0.04674763
      4.71186441	      0.02278187	      0.02904777	      0.04643620
      4.72881356	      0.02299384	      0.02918259	      0.04592439
      4.74576271	      0.02325554	      0.02934819	      0.04548131
      4.76271186	      0.02354549	      0.02953058	      0.04539512
      4.77966102	      0.02387240	      0.02973488	      0.04564543
      4.79661017	      0.02423577	      0.02996033	      0.04587163
      4.81355932	      0.02458962	      0.03017825	      0.04622115
      4.83050847	      0.02485480	      0.03034053	      0.04646113
      4.84745763	      0.02517569	      0.03053576	      0.04686930
      4.86440678	      0.02552363	      0.03074605	      0.04783373
      4.88135593	      0.02593207	      0.03099108	      0.04887798
      4.89830508	      0.02640876	      0.03127463	      0.04948827
      4.91525424	      0.02690264	      0.03156571	      0.04981935
      4.93220339	      0.02740924	      0.03186153	      0.04988797
      4.94915254	      0.02789637	      0.03214341	      0.04987506
      4.96610169	      0.02819274	      0.03231371	      0.04987820
      4.98305085	      0.02829440	      0.03237191	      0.04999210
      5.00000000	      0.02819736	      0.03231635	      0.05050629
      5.01694915	      0.02800454	      0.03220567	      0.05126336
      5.03389831	      0.02777765	      0.03207494	      0.05182906
      5.05084746	      0.02750721	      0.03191842	      0.05192124
      5.06779661	      0.02731720	      0.03180799	      0.05172368
      5.08474576	      0.02719954	      0.03173941	      0.05134946
      5.10169492	      0.02716406	      0.03171871	      0.05114209
      5.11864407	      0.02717376	      0.03172437	      0.05120772
      5.13559322	      0.02716724	      0.03172056	      0.05126032
      5.15254237	      0.02715606	      0.03171404	      0.05124754
      5.16949153	      0.02720531	      0.03174278	      0.05109301
      5.18644068	      0.02727899	      0.03178574	      0.05105968
      5.20338983	      0.02738896	      0.03184974	      0.05081194
      5.22033898	      0.02751408	      0.03192241	      0.05061317
      5.23728814	      0.02757299	      0.03195656	      0.05073148
      5.25423729	      0.02760761	      0.03197662	      0.05082824
      5.27118644	      0.02749794	      0.03191304	      0.05106406
      5.28813559	      0.02739094	      0.03185089	      0.05135511
      5.30508475	      0.02731790	      0.03180839	      0.05169368
      5.32203390	      0.02731157	      0.03180471	      0.05223797
      5.33898305	      0.02735825	      0.03183188	      0.05251196
      5.35593220	      0.02740978	      0.03186184	      0.05262733
      5.37288136	      0.02733664	      0.03181931	      0.05229670
      5.38983051	      0.02717495	      0.03172506	      0.05162739
      5.40677966	      0.02695307	      0.03159528	      0.05079652
      5.42372881	      0.02673306	      0.03146606	      0.04992909
      5.44067797	      0.02655619	      0.03136180	      0.04909804
      5.45762712	      0.02647194	      0.03131202	      0.04886322
      5.47457627	      0.02649042	      0.03132294	      0.04915650
      5.49152542	      0.02661532	      0.03139670	      0.04943833
      5.50847458	      0.02676463	      0.03148464	      0.04958714
      5.52542373	      0.02684303	      0.03153072	      0.04945494
      5.54237288	      0.02681496	      0.03151423	      0.04916668
      5.55932203	      0.02664000	      0.03141125	      0.04869171
      5.57627119	      0.02636347	      0.03124780	      0.04840825
      5.59322034	      0.02602047	      0.03104386	      0.04858291
      5.61016949	      0.02563533	      0.03081325	      0.04878779
      5.62711864	      0.02525153	      0.03058172	      0.04893425
      5.64406780	      0.02486238	      0.03034516	      0.04899299
      5.66101695	      0.02460374	      0.03018691	      0.04898688
      5.67796610	      0.02443595	      0.03008380	      0.04906072
      5.69491525	      0.02448631	      0.03011478	      0.04900228
      5.71186441	      0.02463548	      0.03020638	      0.04897608
      5.72881356	      0.02484413	      0.03033402	      0.04890903
      5.74576271	      0.02502577	      0.03044471	      0.04909968
      5.76271186	      0.02508220	      0.03047901	      0.04883943
      5.77966102	      0.02508343	      0.03047977	      0.04887516
      5.79661017	      0.02507071	      0.03047203	      0.04895463
      5.81355932	      0.02503006	      0.03044732	      0.04911349
      5.83050847	      0.02505550	      0.03046279	      0.04927805
      5.84745763	      0.02515109	      0.03052084	      0.04946140
      5.86440678	      0.02536049	      0.03064763	      0.04960837
      5.88135593	      0.02548966	      0.03072558	      0.05000510
      5.89830508	      0.02565201	      0.03082328	      0.05021640
      5.91525424	      0.02571300	      0.03085990	      0.05052518
      5.93220339	      0.02566437	      0.03083070	      0.05086728
      5.94915254	      0.02560307	      0.03079386	      0.05123998
      5.96610169	      0.02559160	      0.03078696	      0.05163362
      5.98305085	      0.02566268	      0.03082969	      0.05195432
      6.00000000	      0.02583155	      0.03093096	      0.05217811
      6.01694915	      0.02603781	      0.03105420	      0.05225912
      6.03389831	      0.02625237	      0.03118188	      0.05222220
      6.05084746	      0.02638241	      0.03125902	      0.05212005
      6.06779661	      0.02643203	      0.03128840	      0.05208465
      6.08474576	      0.02638590	      0.03126109	      0.05211097
      6.10169492	      0.02631055	      0.03121642	      0.05209336
      6.11864407	      0.02618665	      0.03114283	      0.05199729
      6.13559322	      0.02599863	      0.03103083	      0.05174630
      6.15254237	      0.02587336	      0.03095598	      0.05106178
      6.16949153	      0.02577378	      0.03089635	      0.05012625
      6.18644068	      0.02566854	      0.03083321	      0.04909513
      6.20338983	      0.02570023	      0.03085223	      0.04909477
      6.22033898	      0.02584388	      0.03093834	      0.04970877
      6.23728814	      0.02606738	      0.03107183	      0.04997633
      6.25423729	      0.02624843	      0.03117954	      0.05001735
      6.27118644	      0.02630772	      0.03121474	      0.04952574
      6.28813559	      0.02625116	      0.03118117	      0.04915489
      6.30508475	      0.02622943	      0.03116826	      0.04859511
      6.32203390	      0.02621330	      0.03115867	      0.04829795
      6.33898305	      0.02623195	      0.03116975	      0.04800790
      6.35593220	      0.02624891	      0.03117983	      0.04919590
      6.37288136	      0.02626993	      0.03119231	      0.05093250
      6.38983051	      0.02627617	      0.03119602	      0.05288415
      6.40677966	      0.02630116	      0.03121085	      0.05448968
      6.42372881	      0.02635172	      0.03124083	      0.05575349
      6.44067797	      0.02641338	      0.03127736	      0.05675923
      6.45762712	      0.02652032	      0.03134061	      0.05716026
      6.47457627	      0.02661436	      0.03139613	      0.05703523
      6.49152542	      0.02663458	      0.03140805	      0.05625413
      6.50847458	      0.02656644	      0.03136785	      0.05505457
      6.52542373	      0.02648409	      0.03131920	      0.05389521
      6.54237288	      0.02645079	      0.03129951	      0.05314548
      6.55932203	      0.02654112	      0.03135290	      0.05288640
      6.57627119	      0.02676737	      0.03148625	      0.05322782
      6.59322034	      0.02718481	      0.03173082	      0.05430553
      6.61016949	      0.02772951	      0.03204713	      0.05553700
      6.62711864	      0.02825816	      0.03235118	      0.05614768
      6.64406780	      0.02865613	      0.03257818	      0.05575636
      6.66101695	      0.02886674	      0.03269769	      0.05477136
      6.67796610	      0.02895617	      0.03274829	      0.05457958
      6.69491525	      0.02899043	      0.03276766	      0.05446662
      6.71186441	      0.02899743	      0.03277162	      0.05397749
      6.72881356	      0.02897940	      0.03276142	      0.05287824
      6.74576271	      0.02898128	      0.03276249	      0.05167099
      6.76271186	      0.02895326	      0.03274665	      0.05066216
      6.77966102	      0.02902311	      0.03278612	      0.05062022
      6.79661017	      0.02919012	      0.03288032	      0.05057292
      6.81355932	      0.02945630	      0.03302990	      0.05054658
      6.83050847	      0.02977150	      0.03320615	      0.05036347
      6.84745763	      0.03004805	      0.03336002	      0.05032229
      6.86440678	      0.03022983	      0.03346078	      0.05015941
      6.88135593	      0.03024326	      0.03346821	      0.04991398
      6.89830508	      0.03005305	      0.03336279	      0.04980041
      6.91525424	      0.02973238	      0.03318432	      0.04995434
      6.93220339	      0.02940010	      0.03299837	      0.05007878
      6.94915254	      0.02920370	      0.03288797	      0.05023371
      6.96610169	      0.02912239	      0.03284215	      0.05058273
      6.98305085	      0.02920226	      0.03288716	      0.05108774
      7.00000000	      0.02935662	      0.03297396	      0.05179932
      7.01694915	      0.02959786	      0.03310917	      0.05231236
      7.03389831	      0.02975970	      0.03319956	      0.05268626
      7.05084746	      0.02980380	      0.03322416	      0.05245112
      7.06779661	      0.02962485	      0.03312426	      0.05181763
      7.08474576	      0.02939034	      0.03299289	      0.05126594
      7.10169492	      0.02919621	      0.03288375	      0.05103260
      7.11864407	      0.02906117	      0.03280761	      0.05135212
      7.13559322	      0.02900463	      0.03277568	      0.05226935
      7.15254237	      0.02902209	      0.03278555	      0.05288917
      7.16949153	      0.02911692	      0.03283907	      0.05421395
      7.18644068	      0.02925173	      0.03291500	      0.05486499
      7.20338983	      0.02938226	      0.03298836	      0.05516583
      7.22033898	      0.02945872	      0.03303125	      0.05499354
      7.23728814	      0.02947539	      0.03304060	      0.05451038
      7.25423729	      0.02941059	      0.03300426	      0.05410021
      7.27118644	      0.02929292	      0.03293817	      0.05316974
      7.28813559	      0.02916144	      0.03286416	      0.05270180
      7.30508475	      0.02907819	      0.03281722	      0.05254593
      7.32203390	      0.02904328	      0.03279752	      0.05364437
      7.33898305	      0.02924045	      0.03290866	      0.05482732
      7.35593220	      0.02955062	      0.03308274	      0.05635694
      7.37288136	      0.02986638	      0.03325902	      0.05744646
      7.38983051	      0.03009039	      0.03338351	      0.05834745
      7.40677966	      0.03014692	      0.03341486	      0.05795772
      7.42372881	      0.03005209	      0.03336226	      0.05736644
      7.44067797	      0.02983986	      0.03324425	      0.05630077
      7.45762712	      0.02959775	      0.03310911	      0.05510235
      7.47457627	      0.02941357	      0.03300593	      0.05415355
      7.49152542	      0.02933401	      0.03296126	      0.05373969
      7.50847458	      0.02933072	      0.03295941	      0.05393125
      7.52542373	      0.02940933	      0.03300355	      0.05378618
      7.54237288	      0.02950667	      0.03305812	      0.05462967
      7.55932203	      0.02961673	      0.03311972	      0.05527750
      7.57627119	      0.02970927	      0.03317142	      0.05473421
      7.59322034	      0.02977451	      0.03320782	      0.05479805
      7.61016949	      0.02976259	      0.03320118	      0.05463185
      7.62711864	      0.02957071	      0.03309398	      0.05440463
      7.64406780	      0.02928560	      0.03293405	      0.05386921
      7.66101695	      0.02906488	      0.03280971	      0.05320114
      7.67796610	      0.02885796	      0.03269271	      0.05234399
      7.69491525	      0.02864448	      0.03257156	      0.05252501
      7.71186441	      0.02858262	      0.03253637	      0.05295568
      7.72881356	      0.02863459	      0.03256594	      0.05332484
      7.74576271	      0.02877431	      0.03264529	      0.05445069
      7.76271186	      0.02891168	      0.03272312	      0.05518034
      7.77966102	      0.02895785	      0.03274925	      0.05609727
      7.79661017	      0.02884874	      0.03268749	      0.05658670
      7.81355932	      0.02863688	      0.03256724	      0.05618104
      7.83050847	      0.02832070	      0.03238696	      0.05595329
      7.84745763	      0.02798436	      0.03219406	      0.05585761
      7.86440678	      0.02767463	      0.03201540	      0.05525478
      7.88135593	      0.02741913	      0.03186728	      0.05482414
      7.89830508	      0.02722467	      0.03175407	      0.05465635
      7.91525424	      0.02717468	      0.03172490	      0.05487347
      7.93220339	      0.02720582	      0.03174308	      0.05479745
      7.94915254	      0.02734206	      0.03182246	      0.05517095
      7.96610169	      0.02747536	      0.03189994	      0.05547640
      7.98305085	      0.02760740	      0.03197650	      0.05595197
      8.00000000	      0.02772117	      0.03204231	      0.05578781
      8.01694915	      0.02786522	      0.03212546	      0.05567284
      8.03389831	      0.02801639	      0.03221248	      0.05529841
      8.05084746	      0.02812258	      0.03227347	      0.05553399
      8.06779661	      0.02828902	      0.03236883	      0.05527565
      8.08474576	      0.02847389	      0.03247443	      0.05521457
      8.10169492	      0.02862693	      0.03256158	      0.05553837
      8.11864407	      0.02879857	      0.03265905	      0.05516801
      8.13559322	      0.02899875	      0.03277236	      0.05487289
      8.15254237	      0.02924163	      0.03290932	      0.05496133
      8.16949153	      0.02959774	      0.03310910	      0.05493574
      8.18644068	      0.02993555	      0.03329751	      0.05521289
      8.20338983	      0.03016306	      0.03342380	      0.05550359
      8.22033898	      0.03025576	      0.03347512	      0.05597169
      8.23728814	      0.03026077	      0.03347789	      0.05672262
      8.25423729	      0.03020270	      0.03344576	      0.05833571
      8.27118644	      0.03006461	      0.03336921	      0.05770565
      8.28813559	      0.02987287	      0.03326263	      0.05779312
      8.30508475	      0.02970624	      0.03316973	      0.05744893
      8.32203390	      0.02968720	      0.03315910	      0.05704225
      8.33898305	      0.02981861	      0.03323241	      0.05630518
      8.35593220	      0.02992291	      0.03329048	      0.05635394
      8.37288136	      0.02990622	      0.03328119	      0.05604381
      8.38983051	      0.02969615	      0.03316410	      0.05563546
      8.40677966	      0.02936960	      0.03298125	      0.05490173
      8.42372881	      0.02903833	      0.03279472	      0.05397452
      8.44067797	      0.02874284	      0.03262744	      0.05339846
      8.45762712	      0.02854009	      0.03251216	      0.05283307
      8.47457627	      0.02845868	      0.03246575	      0.05224922
      8.49152542	      0.02844137	      0.03245588	      0.05228286
      8.50847458	      0.02847534	      0.03247525	      0.05218596
      8.52542373	      0.02853896	      0.03251152	      0.05183507
      8.54237288	      0.02859451	      0.03254314	      0.05186466
      8.55932203	      0.02865672	      0.03257852	      0.05211541
      8.57627119	      0.02874446	      0.03262836	      0.05313649
      8.59322034	      0.02886679	      0.03269771	      0.05376933
      8.61016949	      0.02899408	      0.03276972	      0.05431440
      8.62711864	      0.02907674	      0.03281640	      0.05446745
      8.64406780	      0.02908361	      0.03282028	      0.05454085
      8.66101695	      0.02902333	      0.03278625	      0.05424769
      8.67796610	      0.02887854	      0.03270437	      0.05346894
      8.69491525	      0.02864190	      0.03257010	      0.05219899
      8.71186441	      0.02835826	      0.03240842	      0.05179153
      8.72881356	      0.02810810	      0.03226516	      0.05111597
      8.74576271	      0.02795254	      0.03217576	      0.05126205
      8.76271186	      0.02803468	      0.03222300	      0.05119140
      8.77966102	      0.02828484	      0.03236644	      0.05183201
      8.79661017	      0.02859149	      0.03254142	      0.05299177
      8.81355932	      0.02884747	      0.03268677	      0.05412193
      8.83050847	      0.02904477	      0.03279836	      0.05566457
      8.84745763	      0.02918865	      0.03287949	      0.05636505
      8.86440678	      0.02923621	      0.03290627	      0.05699605
      8.88135593	      0.02907772	      0.03281696	      0.05670765
      8.89830508	      0.02878403	      0.03265081	      0.05550042
      8.91525424	      0.02836797	      0.03241397	      0.05433547
      8.93220339	      0.02801285	      0.03221045	      0.05387225
      8.94915254	      0.02778427	      0.03207877	      0.05402438
      8.96610169	      0.02764772	      0.03199984	      0.05472993
      8.98305085	      0.02759167	      0.03196739	      0.05554109
      9.00000000	      0.02763190	      0.03199068	      0.05633888
      9.01694915	      0.02778611	      0.03207982	      0.05675553
      9.03389831	      0.02798277	      0.03219315	      0.05666867
      9.05084746	      0.02812599	      0.03227543	      0.05592364
      9.06779661	      0.02823626	      0.03233864	      0.05489440
      9.08474576	      0.02837381	      0.03241731	      0.05414251
      9.10169492	      0.02856346	      0.03252547	      0.05358276
      9.11864407	      0.02873528	      0.03262315	      0.05385204
      9.13559322	      0.02885558	      0.03269136	      0.05378923
      9.15254237	      0.02894479	      0.03274186	      0.05359317
      9.16949153	      0.02902996	      0.03278999	      0.05305479
      9.18644068	      0.02915893	      0.03286275	      0.05235770
      9.20338983	      0.02930774	      0.03294650	      0.05162799
      9.22033898	      0.02951396	      0.03306221	      0.05138261
      9.23728814	      0.02976777	      0.03320407	      0.05130853
      9.25423729	      0.03000450	      0.03333584	      0.05157059
      9.27118644	      0.03018634	      0.03343670	      0.05225679
      9.28813559	      0.03034719	      0.03352566	      0.05359229
      9.30508475	      0.03047156	      0.03359429	      0.05518133
      9.32203390	      0.03056747	      0.03364712	      0.05689300
      9.33898305	      0.03067880	      0.03370833	      0.05825869
      9.35593220	      0.03081820	      0.03378483	      0.05967607
      9.37288136	      0.03106605	      0.03392041	      0.05936528
      9.38983051	      0.03126009	      0.03402618	      0.06062449
      9.40677966	      0.03145894	      0.03413423	      0.05385385
      9.42372881	      0.03127102	      0.03403213	      0.05394021
      9.44067797	      0.03094820	      0.03385601	      0.05344829
      9.45762712	      0.03068573	      0.03371214	      0.05408115
      9.47457627	      0.03049977	      0.03360984	      0.05541977
      9.49152542	      0.03048456	      0.03360145	      0.05715319
      9.50847458	      0.03058256	      0.03365542	      0.05771373
      9.52542373	      0.03067497	      0.03370623	      0.05845887
      9.54237288	      0.03065145	      0.03369330	      0.05991767
      9.55932203	      0.03052127	      0.03362168	      0.05997561
      9.57627119	      0.03015718	      0.03342054	      0.05961261
      9.59322034	      0.02967451	      0.03315202	      0.05788215
      9.61016949	      0.02917616	      0.03287246	      0.05563296
      9.62711864	      0.02876125	      0.03263788	      0.05369370
      9.64406780	      0.02857946	      0.03253458	      0.05161927
      9.66101695	      0.02864616	      0.03257251	      0.05031586
      9.67796610	      0.02885276	      0.03268977	      0.04963610
      9.69491525	      0.02908345	      0.03282019	      0.04998600
      9.71186441	      0.02917261	      0.03287046	      0.05014393
      9.72881356	      0.02908754	      0.03282250	      0.05016694
      9.74576271	      0.02884836	      0.03268727	      0.05026442
      9.76271186	      0.02849862	      0.03248853	      0.04986220
      9.77966102	      0.02821607	      0.03232707	      0.05000692
      9.79661017	      0.02800407	      0.03220540	      0.05013194
      9.81355932	      0.02790278	      0.03214710	      0.05027591
      9.83050847	      0.02792546	      0.03216017	      0.05064327
      9.84745763	      0.02802941	      0.03221997	      0.05062828
      9.86440678	      0.02819627	      0.03231573	      0.05065607
      9.88135593	      0.02836606	      0.03241288	      0.05074098
      9.89830508	      0.02844493	      0.03245791	      0.05060915
      9.91525424	      0.02835944	      0.03240910	      0.05044770
      9.93220339	      0.02806118	      0.03223822	      0.05021918
      9.94915254	      0.02754906	      0.03194269	      0.04958172
      9.96610169	      0.02699926	      0.03162234	      0.04898601
      9.98305085	      0.02640872	      0.03127460	      0.04817028
     10.00000000	      0.02598518	      0.03102280	      0.04792002
     10.01694915	      0.02580783	      0.03091675	      0.04750687
     10.03389831	      0.02586862	      0.03095314	      0.04772771
     10.05084746	      0.02611285	      0.03109891	      0.04762891
     10.06779661	      0.02642381	      0.03128353	      0.04771775
     10.08474576	      0.02661957	      0.03139920	      0.04789970
     10.10169492	      0.02664194	      0.03141240	      0.04816254
     10.11864407	      0.02648666	      0.03132072	      0.04847948
     10.13559322	      0.02626245	      0.03118787	      0.04881841
     10.15254237	      0.02599808	      0.03103050	      0.04818451
     10.16949153	      0.02589509	      0.03096898	      0.04782255
     10.18644068	      0.02599806	      0.03103049	      0.04791610
     10.20338983	      0.02613426	      0.03111166	      0.04685224
     10.22033898	      0.02636314	      0.03124760	      0.04659476
     10.23728814	      0.02655190	      0.03135927	      0.04691868
     10.25423729	      0.02657573	      0.03137334	      0.04683477
     10.27118644	      0.02651387	      0.03133680	      0.04688623
     10.28813559	      0.02645963	      0.03130473	      0.04726212
     10.30508475	      0.02646883	      0.03131017	      0.04782568
     10.32203390	      0.02659088	      0.03138228	      0.04807701
     10.33898305	      0.02684171	      0.03152995	      0.04805407
     10.35593220	      0.02714075	      0.03170509	      0.04744806
     10.37288136	      0.02736597	      0.03183637	      0.04726683
     10.38983051	      0.02732753	      0.03181400	      0.04695009
     10.40677966	      0.02704121	      0.03164690	      0.04673622
     10.42372881	      0.02663969	      0.03141107	      0.04673909
     10.44067797	      0.02607042	      0.03107364	      0.04664312
     10.45762712	      0.02542549	      0.03068688	      0.04674753
     10.47457627	      0.02486393	      0.03034611	      0.04763670
     10.49152542	      0.02446494	      0.03010164	      0.04699582
     10.50847458	      0.02437225	      0.03004456	      0.04644504
     10.52542373	      0.02460036	      0.03018484	      0.04614251
     10.54237288	      0.02518095	      0.03053896	      0.04562488
     10.55932203	      0.02607167	      0.03107439	      0.04704395
     10.57627119	      0.02672457	      0.03146107	      0.04890178
     10.59322034	      0.02680156	      0.03150635	      0.05118094
     10.61016949	      0.02628350	      0.03120037	      0.05281375
     10.62711864	      0.02546921	      0.03071325	      0.05275258
     10.64406780	      0.02482453	      0.03032206	      0.05143431
     10.66101695	      0.02481748	      0.03031775	      0.04987778
     10.67796610	      0.02531927	      0.03062271	      0.04962938
     10.69491525	      0.02609754	      0.03108980	      0.04939991
     10.71186441	      0.02678457	      0.03149637	      0.04963954
     10.72881356	      0.02721574	      0.03174887	      0.04981830
     10.74576271	      0.02743472	      0.03187634	      0.05017198
     10.76271186	      0.02776026	      0.03206490	      0.05063215
     10.77966102	      0.02837795	      0.03241968	      0.05086543
     10.79661017	      0.02902429	      0.03278679	      0.05119104
     10.81355932	      0.02953574	      0.03307440	      0.05134757
     10.83050847	      0.02969657	      0.03316433	      0.05143330
     10.84745763	      0.02961268	      0.03311746	      0.05148334
     10.86440678	      0.02944649	      0.03302440	      0.05138815
     10.88135593	      0.02916841	      0.03286809	      0.05123004
     10.89830508	      0.02879719	      0.03265827	      0.05103521
     10.91525424	      0.02845640	      0.03246446	      0.05078442
     10.93220339	      0.02806350	      0.03223956	      0.05114415
     10.94915254	      0.02768616	      0.03202208	      0.05097446
     10.96610169	      0.02726384	      0.03177691	      0.05132953
     10.98305085	      0.02703929	      0.03164578	      0.05149513
