Model Marker Errors from IK
version=1
nRows=306
nColumns=4
inDegrees=no
endheader
time	total_squared_error	marker_error_RMS	marker_error_max
      0.00000000	      0.02434018	      0.03002479	      0.05264450
      0.01666667	      0.02313819	      0.02927405	      0.05432209
      0.03333333	      0.02270431	      0.02899828	      0.05529370
      0.05000000	      0.02253059	      0.02888713	      0.05582677
      0.06666667	      0.02249222	      0.02886252	      0.05579240
      0.08333333	      0.02256479	      0.02890904	      0.05549870
      0.10000000	      0.02271423	      0.02900461	      0.05471502
      0.11666667	      0.02289107	      0.02911731	      0.05311605
      0.13333333	      0.02305063	      0.02921861	      0.05192410
      0.15000000	      0.02318730	      0.02930510	      0.05112607
      0.16666667	      0.02326169	      0.02935207	      0.05029776
      0.18333333	      0.02343048	      0.02945837	      0.05107446
      0.20000000	      0.02344805	      0.02946942	      0.05150215
      0.21666667	      0.02335535	      0.02941110	      0.05231557
      0.23333333	      0.02321412	      0.02932204	      0.05301262
      0.25000000	      0.02308297	      0.02923910	      0.05344812
      0.26666667	      0.02299084	      0.02918069	      0.05378521
      0.28333333	      0.02289763	      0.02912148	      0.05369439
      0.30000000	      0.02279536	      0.02905637	      0.05385209
      0.31666667	      0.02270070	      0.02899598	      0.05400925
      0.33333333	      0.02254139	      0.02889405	      0.05415942
      0.35000000	      0.02239712	      0.02880144	      0.05454011
      0.36666667	      0.02233115	      0.02875899	      0.05478203
      0.38333333	      0.02241820	      0.02881499	      0.05527555
      0.40000000	      0.02262214	      0.02894576	      0.05641927
      0.41666667	      0.02274721	      0.02902567	      0.05593048
      0.43333333	      0.02287639	      0.02910797	      0.05651980
      0.45000000	      0.02292773	      0.02914061	      0.05672873
      0.46666667	      0.02286929	      0.02910345	      0.05692325
      0.48333333	      0.02269337	      0.02899129	      0.05725951
      0.50000000	      0.02237695	      0.02878847	      0.05674404
      0.51666667	      0.02215217	      0.02864351	      0.05740178
      0.53333333	      0.02196464	      0.02852202	      0.05772517
      0.55000000	      0.02180335	      0.02841710	      0.05789498
      0.56666667	      0.02161331	      0.02829298	      0.05811628
      0.58333333	      0.02138630	      0.02814401	      0.05782128
      0.60000000	      0.02120615	      0.02802522	      0.05747703
      0.61666667	      0.02104290	      0.02791714	      0.05651410
      0.63333333	      0.02095721	      0.02786024	      0.05594390
      0.65000000	      0.02087799	      0.02780753	      0.05523876
      0.66666667	      0.02082724	      0.02777372	      0.05460227
      0.68333333	      0.02086353	      0.02779790	      0.05429206
      0.70000000	      0.02099613	      0.02788610	      0.05378856
      0.71666667	      0.02118438	      0.02801083	      0.05324696
      0.73333333	      0.02135797	      0.02812536	      0.05297986
      0.75000000	      0.02141786	      0.02816477	      0.05258520
      0.76666667	      0.02135249	      0.02812175	      0.05202050
      0.78333333	      0.02123996	      0.02804755	      0.05321251
      0.80000000	      0.02125164	      0.02805526	      0.05437136
      0.81666667	      0.02136559	      0.02813037	      0.05619024
      0.83333333	      0.02173246	      0.02837087	      0.05914781
      0.85000000	      0.02211809	      0.02862147	      0.06083694
      0.86666667	      0.02246381	      0.02884429	      0.06163420
      0.88333333	      0.02273059	      0.02901506	      0.06115106
      0.90000000	      0.02117805	      0.02800665	      0.05042691
      0.91666667	      0.02135545	      0.02812370	      0.04856277
      0.93333333	      0.02157828	      0.02827005	      0.04860222
      0.95000000	      0.02181389	      0.02842397	      0.04929440
      0.96666667	      0.02213971	      0.02863545	      0.04983456
      0.98333333	      0.02244188	      0.02883021	      0.04988651
      1.00000000	      0.02273904	      0.02902045	      0.05152591
      1.01666667	      0.02298770	      0.02917870	      0.05386274
      1.03333333	      0.02311757	      0.02926100	      0.05512285
      1.05000000	      0.02288869	      0.02911579	      0.05480540
      1.06666667	      0.02240955	      0.02880943	      0.05330509
      1.08333333	      0.02185107	      0.02844818	      0.05165845
      1.10000000	      0.02155517	      0.02825491	      0.05094555
      1.11666667	      0.02149196	      0.02821345	      0.05558052
      1.13333333	      0.02171823	      0.02836157	      0.05873764
      1.15000000	      0.02230995	      0.02874534	      0.06210884
      1.16666667	      0.02304348	      0.02921407	      0.06384940
      1.18333333	      0.02349531	      0.02949909	      0.06387180
      1.20000000	      0.02338832	      0.02943186	      0.06307261
      1.21666667	      0.02277311	      0.02904218	      0.06181515
      1.23333333	      0.02196359	      0.02852133	      0.05969593
      1.25000000	      0.02120812	      0.02802652	      0.05754203
      1.26666667	      0.02066154	      0.02766301	      0.05571152
      1.28333333	      0.02042122	      0.02750166	      0.05434870
      1.30000000	      0.02037065	      0.02746759	      0.05368037
      1.31666667	      0.02039463	      0.02748375	      0.05372319
      1.33333333	      0.02044904	      0.02752039	      0.05426153
      1.35000000	      0.02068985	      0.02768196	      0.05483533
      1.36666667	      0.02120387	      0.02802371	      0.05515661
      1.38333333	      0.02190675	      0.02848440	      0.05514070
      1.40000000	      0.02264114	      0.02895791	      0.05452028
      1.41666667	      0.02322714	      0.02933027	      0.05343635
      1.43333333	      0.02358831	      0.02955742	      0.05216690
      1.45000000	      0.02370751	      0.02963201	      0.05077563
      1.46666667	      0.02362462	      0.02958016	      0.04952594
      1.48333333	      0.02343088	      0.02945862	      0.04905682
      1.50000000	      0.02325944	      0.02935065	      0.04871091
      1.51666667	      0.02326444	      0.02935381	      0.04825705
      1.53333333	      0.02347457	      0.02948607	      0.04779265
      1.55000000	      0.02379022	      0.02968366	      0.05078448
      1.56666667	      0.02404023	      0.02983922	      0.05291959
      1.58333333	      0.02423586	      0.02996038	      0.05607991
      1.60000000	      0.02416808	      0.02991846	      0.05652404
      1.61666667	      0.02392389	      0.02976693	      0.05628843
      1.63333333	      0.02344360	      0.02946662	      0.05535127
      1.65000000	      0.02269320	      0.02899119	      0.05481226
      1.66666667	      0.02195807	      0.02851774	      0.05508427
      1.68333333	      0.02149813	      0.02821750	      0.05627116
      1.70000000	      0.02161980	      0.02829723	      0.05884504
      1.71666667	      0.02241871	      0.02881532	      0.06464318
      1.73333333	      0.02398533	      0.02980513	      0.07208735
      1.75000000	      0.02623340	      0.03117062	      0.08105654
      1.76666667	      0.02159145	      0.02827867	      0.06313972
      1.78333333	      0.02142059	      0.02816656	      0.06295229
      1.80000000	      0.02134192	      0.02811479	      0.06288321
      1.81666667	      0.02137897	      0.02813918	      0.06316116
      1.83333333	      0.02143912	      0.02817874	      0.06371126
      1.85000000	      0.02134324	      0.02811566	      0.06438727
      1.86666667	      0.02109492	      0.02795163	      0.06508079
      1.88333333	      0.02082558	      0.02777261	      0.06532542
      1.90000000	      0.02044926	      0.02752054	      0.06426975
      1.91666667	      0.01969172	      0.02700598	      0.06105243
      1.93333333	      0.01840703	      0.02611018	      0.05526848
      1.95000000	      0.01656043	      0.02476589	      0.04756272
      1.96666667	      0.01462576	      0.02327434	      0.03924140
      1.98333333	      0.01310230	      0.02202885	      0.03449698
      2.00000000	      0.01224572	      0.02129660	      0.03451838
      2.01666667	      0.01206435	      0.02113830	      0.03451179
      2.03333333	      0.01251827	      0.02153229	      0.03443956
      2.05000000	      0.01364880	      0.02248357	      0.03569515
      2.06666667	      0.01524369	      0.02376091	      0.03979025
      2.08333333	      0.01666037	      0.02484051	      0.04312031
      2.10000000	      0.01717566	      0.02522173	      0.04444457
      2.11666667	      0.01651796	      0.02473411	      0.04265913
      2.13333333	      0.01514692	      0.02368537	      0.03868701
      2.15000000	      0.01380182	      0.02260926	      0.03640967
      2.16666667	      0.01297214	      0.02191916	      0.03592260
      2.18333333	      0.01281246	      0.02178384	      0.03547526
      2.20000000	      0.01328007	      0.02217779	      0.03451776
      2.21666667	      0.01432255	      0.02303182	      0.03617214
      2.23333333	      0.01560491	      0.02404079	      0.04226263
      2.25000000	      0.01657317	      0.02477541	      0.04597017
      2.26666667	      0.01693600	      0.02504514	      0.04691799
      2.28333333	      0.01678491	      0.02493318	      0.04524189
      2.30000000	      0.01635655	      0.02461296	      0.04196072
      2.31666667	      0.01578433	      0.02417860	      0.04108542
      2.33333333	      0.01525805	      0.02377210	      0.03868812
      2.35000000	      0.01491731	      0.02350516	      0.03802675
      2.36666667	      0.01474568	      0.02336956	      0.03997266
      2.38333333	      0.01482131	      0.02342941	      0.04082915
      2.40000000	      0.01507846	      0.02363179	      0.04241236
      2.41666667	      0.01538794	      0.02387307	      0.04242015
      2.43333333	      0.01562725	      0.02405799	      0.04083913
      2.45000000	      0.01587269	      0.02424619	      0.04170952
      2.46666667	      0.01629861	      0.02456934	      0.04377191
      2.48333333	      0.01699372	      0.02508778	      0.04510978
      2.50000000	      0.01776892	      0.02565362	      0.04569803
      2.51666667	      0.01830118	      0.02603501	      0.04780299
      2.53333333	      0.01825250	      0.02600035	      0.04893363
      2.55000000	      0.01747721	      0.02544217	      0.04703203
      2.56666667	      0.01605628	      0.02438600	      0.04168265
      2.58333333	      0.01469049	      0.02332579	      0.04174244
      2.60000000	      0.01394246	      0.02272416	      0.04145895
      2.61666667	      0.01420743	      0.02293907	      0.04211486
      2.63333333	      0.01515509	      0.02369176	      0.04627051
      2.65000000	      0.01664468	      0.02482881	      0.04929520
      2.66666667	      0.01838145	      0.02609204	      0.04998103
      2.68333333	      0.02016981	      0.02733185	      0.04832808
      2.70000000	      0.02172036	      0.02836296	      0.05530444
      2.71666667	      0.02289835	      0.02912193	      0.06069110
      2.73333333	      0.02331620	      0.02938644	      0.06433725
      2.75000000	      0.02292006	      0.02913573	      0.06372904
      2.76666667	      0.02182589	      0.02843178	      0.05987079
      2.78333333	      0.02033396	      0.02744284	      0.05323299
      2.80000000	      0.01884556	      0.02641938	      0.05307262
      2.81666667	      0.01759053	      0.02552452	      0.05046566
      2.83333333	      0.01679283	      0.02493906	      0.04632343
      2.85000000	      0.01666041	      0.02484053	      0.04609340
      2.86666667	      0.01728337	      0.02530069	      0.04756877
      2.88333333	      0.01873229	      0.02633987	      0.04865034
      2.90000000	      0.02069952	      0.02768843	      0.04933933
      2.91666667	      0.02308993	      0.02924350	      0.05780039
      2.93333333	      0.02588491	      0.03096289	      0.06826016
      2.95000000	      0.02876487	      0.03263994	      0.07720797
      2.96666667	      0.03060922	      0.03367009	      0.08242017
      2.98333333	      0.03015973	      0.03342195	      0.08237733
      3.00000000	      0.02723196	      0.03175832	      0.07708572
      3.01666667	      0.02300460	      0.02918942	      0.06789334
      3.03333333	      0.01923132	      0.02668841	      0.05735014
      3.05000000	      0.01688657	      0.02500857	      0.04972933
      3.06666667	      0.01583133	      0.02421457	      0.04851223
      3.08333333	      0.01546911	      0.02393596	      0.04733380
      3.10000000	      0.01536941	      0.02385870	      0.04621866
      3.11666667	      0.01554839	      0.02399721	      0.04560700
      3.13333333	      0.01592634	      0.02428712	      0.04888690
      3.15000000	      0.01617500	      0.02447599	      0.05282176
      3.16666667	      0.01609333	      0.02441412	      0.05528289
      3.18333333	      0.01561097	      0.02404546	      0.05554613
      3.20000000	      0.01503119	      0.02359472	      0.05330946
      3.21666667	      0.01469472	      0.02332914	      0.04903041
      3.23333333	      0.01490249	      0.02349349	      0.04321800
      3.25000000	      0.01532256	      0.02382231	      0.03744776
      3.26666667	      0.01534982	      0.02384349	      0.03734145
      3.28333333	      0.01500778	      0.02357634	      0.03908629
      3.30000000	      0.01465389	      0.02329671	      0.04062156
      3.31666667	      0.01439927	      0.02309342	      0.03945941
      3.33333333	      0.01426716	      0.02298725	      0.03793588
      3.35000000	      0.01436437	      0.02306542	      0.04340759
      3.36666667	      0.01475783	      0.02337918	      0.04880247
      3.38333333	      0.01533588	      0.02383266	      0.05277775
      3.40000000	      0.01583478	      0.02421721	      0.05467807
      3.41666667	      0.01607820	      0.02440264	      0.05435433
      3.43333333	      0.01601090	      0.02435152	      0.05221610
      3.45000000	      0.01554866	      0.02399742	      0.04874853
      3.46666667	      0.01496702	      0.02354430	      0.04513025
      3.48333333	      0.01463567	      0.02328223	      0.04269206
      3.50000000	      0.01471318	      0.02334379	      0.04254398
      3.51666667	      0.01510478	      0.02365241	      0.04442061
      3.53333333	      0.01570989	      0.02412152	      0.04762872
      3.55000000	      0.01659848	      0.02479432	      0.05135589
      3.56666667	      0.01782758	      0.02569593	      0.05530665
      3.58333333	      0.01939977	      0.02680504	      0.05939610
      3.60000000	      0.02114289	      0.02798339	      0.06306782
      3.61666667	      0.02296965	      0.02916724	      0.06685641
      3.63333333	      0.02478976	      0.03030081	      0.07035490
      3.65000000	      0.02684394	      0.03153126	      0.07389804
      3.66666667	      0.02913814	      0.03285103	      0.07769179
      3.68333333	      0.03141814	      0.03411209	      0.08190624
      3.70000000	      0.03334524	      0.03514269	      0.08593614
      3.71666667	      0.03465481	      0.03582613	      0.08698488
      3.73333333	      0.03511054	      0.03606092	      0.08623711
      3.75000000	      0.03430001	      0.03564226	      0.08278321
      3.76666667	      0.03187699	      0.03436029	      0.07601887
      3.78333333	      0.02815702	      0.03229323	      0.06641591
      3.80000000	      0.02422141	      0.02995145	      0.05662565
      3.81666667	      0.02108462	      0.02794480	      0.05442447
      3.83333333	      0.01901222	      0.02653594	      0.05345967
      3.85000000	      0.01783201	      0.02569912	      0.05170130
      3.86666667	      0.01714425	      0.02519865	      0.04915863
      3.88333333	      0.01665702	      0.02483801	      0.04754378
      3.90000000	      0.01607366	      0.02439920	      0.04713178
      3.91666667	      0.01531344	      0.02381521	      0.04438732
      3.93333333	      0.01485306	      0.02345450	      0.04177045
      3.95000000	      0.01503508	      0.02359777	      0.04458593
      3.96666667	      0.01565602	      0.02408013	      0.04942827
      3.98333333	      0.01626928	      0.02454722	      0.05232925
      4.00000000	      0.01677399	      0.02492507	      0.05318678
      4.01666667	      0.01748483	      0.02544772	      0.05313762
      4.03333333	      0.01875098	      0.02635300	      0.05306277
      4.05000000	      0.02000459	      0.02721968	      0.05336945
      4.06666667	      0.02135218	      0.02812155	      0.05458083
      4.08333333	      0.02249695	      0.02886556	      0.05686376
      4.10000000	      0.02303399	      0.02920806	      0.05893302
      4.11666667	      0.02285814	      0.02909635	      0.06085915
      4.13333333	      0.02212723	      0.02862738	      0.06184788
      4.15000000	      0.02138269	      0.02814163	      0.06139911
      4.16666667	      0.02076346	      0.02773116	      0.06023766
      4.18333333	      0.02040054	      0.02748774	      0.05776255
      4.20000000	      0.02025401	      0.02738884	      0.05475604
      4.21666667	      0.02018870	      0.02734464	      0.05605026
      4.23333333	      0.02002502	      0.02723357	      0.05727262
      4.25000000	      0.01971534	      0.02702218	      0.05691024
      4.26666667	      0.01917340	      0.02664819	      0.05428865
      4.28333333	      0.01883159	      0.02640959	      0.05221865
      4.30000000	      0.01892037	      0.02647177	      0.05138601
      4.31666667	      0.01945711	      0.02684462	      0.05145967
      4.33333333	      0.02030070	      0.02742039	      0.05183142
      4.35000000	      0.02105388	      0.02792442	      0.05279464
      4.36666667	      0.02142223	      0.02816764	      0.05408483
      4.38333333	      0.02132442	      0.02810326	      0.05519060
      4.40000000	      0.02103984	      0.02791511	      0.05579581
      4.41666667	      0.02075636	      0.02772642	      0.05546241
      4.43333333	      0.02067487	      0.02767194	      0.05611573
      4.45000000	      0.02060108	      0.02762251	      0.05602615
      4.46666667	      0.02056035	      0.02759519	      0.05603925
      4.48333333	      0.02049878	      0.02755384	      0.05613871
      4.50000000	      0.02040976	      0.02749394	      0.05624774
      4.51666667	      0.02036223	      0.02746191	      0.05662288
      4.53333333	      0.02034693	      0.02745159	      0.05671296
      4.55000000	      0.02039615	      0.02748478	      0.05679132
      4.56666667	      0.02045475	      0.02752423	      0.05672486
      4.58333333	      0.02046628	      0.02753199	      0.05643912
      4.60000000	      0.02038792	      0.02747923	      0.05572431
      4.61666667	      0.02014340	      0.02731395	      0.05442186
      4.63333333	      0.01980171	      0.02708130	      0.05323223
      4.65000000	      0.01935739	      0.02677574	      0.05157140
      4.66666667	      0.01895366	      0.02649504	      0.05053908
      4.68333333	      0.01861044	      0.02625406	      0.04936152
      4.70000000	      0.01835762	      0.02607512	      0.04834600
      4.71666667	      0.01819389	      0.02595858	      0.04755543
      4.73333333	      0.01812922	      0.02591240	      0.04715911
      4.75000000	      0.01816851	      0.02594047	      0.04765666
      4.76666667	      0.01817967	      0.02594843	      0.04791655
      4.78333333	      0.01824466	      0.02599477	      0.04892514
      4.80000000	      0.01825635	      0.02600309	      0.04983708
      4.81666667	      0.01825612	      0.02600293	      0.05079673
      4.83333333	      0.01827298	      0.02601494	      0.05187195
      4.85000000	      0.01837022	      0.02608406	      0.05307679
      4.86666667	      0.01856143	      0.02621947	      0.05417921
      4.88333333	      0.01891787	      0.02647002	      0.05540130
      4.90000000	      0.01943563	      0.02682980	      0.05641861
      4.91666667	      0.01994574	      0.02717961	      0.05698264
      4.93333333	      0.02033103	      0.02744087	      0.05719991
      4.95000000	      0.02054286	      0.02758345	      0.05686644
      4.96666667	      0.02063563	      0.02764566	      0.05655927
      4.98333333	      0.02069848	      0.02768773	      0.05663968
      5.00000000	      0.02070412	      0.02769150	      0.05662179
      5.01666667	      0.02061069	      0.02762895	      0.05613419
      5.03333333	      0.02043986	      0.02751421	      0.05587541
      5.05000000	      0.02014911	      0.02731782	      0.05548644
      5.06666667	      0.01982761	      0.02709900	      0.05503713
      5.08333333	      0.01981030	      0.02708717	      0.05654805
