Model Marker Errors from IK
version=1
nRows=506
nColumns=4
inDegrees=no
endheader
time	total_squared_error	marker_error_RMS	marker_error_max
      0.00000000	      0.03242729	      0.03465560	      0.08046698
      0.01694915	      0.03113335	      0.03395714	      0.07864014
      0.03389831	      0.03049983	      0.03360987	      0.07856514
      0.05084746	      0.03023995	      0.03346637	      0.07819006
      0.06779661	      0.03023215	      0.03346206	      0.07794032
      0.08474576	      0.03033543	      0.03351917	      0.07806537
      0.10169492	      0.03047078	      0.03359386	      0.07795842
      0.11864407	      0.03055647	      0.03364106	      0.07847060
      0.13559322	      0.03050978	      0.03361535	      0.07849575
      0.15254237	      0.03026159	      0.03347834	      0.07839763
      0.16949153	      0.02989242	      0.03327351	      0.07806061
      0.18644068	      0.02955187	      0.03308343	      0.07763141
      0.20338983	      0.02936816	      0.03298044	      0.07762609
      0.22033898	      0.02939538	      0.03299573	      0.07814737
      0.23728814	      0.02967416	      0.03315182	      0.07915626
      0.25423729	      0.03017198	      0.03342874	      0.08057808
      0.27118644	      0.03084296	      0.03379840	      0.08233675
      0.28813559	      0.03157824	      0.03419890	      0.08445468
      0.30508475	      0.03240031	      0.03464118	      0.08608923
      0.32203390	      0.03317284	      0.03505173	      0.08720063
      0.33898305	      0.03381422	      0.03538896	      0.08775473
      0.35593220	      0.03428491	      0.03563441	      0.08743791
      0.37288136	      0.03467097	      0.03583448	      0.08684322
      0.38983051	      0.03502440	      0.03601666	      0.08612715
      0.40677966	      0.03528065	      0.03614818	      0.08553138
      0.42372881	      0.03573893	      0.03638219	      0.08522423
      0.44067797	      0.03651436	      0.03677477	      0.08543707
      0.45762712	      0.03768469	      0.03735946	      0.08661278
      0.47457627	      0.03915085	      0.03807928	      0.08833617
      0.49152542	      0.04065779	      0.03880521	      0.09003470
      0.50847458	      0.04215881	      0.03951503	      0.09231109
      0.52542373	      0.04344369	      0.04011266	      0.09442058
      0.54237288	      0.04433724	      0.04052308	      0.09599225
      0.55932203	      0.04477249	      0.04072150	      0.09678230
      0.57627119	      0.04484101	      0.04075265	      0.09707189
      0.59322034	      0.04466465	      0.04067243	      0.09732999
      0.61016949	      0.04425437	      0.04048519	      0.09776457
      0.62711864	      0.04363846	      0.04020248	      0.09899767
      0.64406780	      0.04278021	      0.03980518	      0.10015596
      0.66101695	      0.04195500	      0.03941940	      0.10212871
      0.67796610	      0.04110003	      0.03901568	      0.10329311
      0.69491525	      0.04021503	      0.03859333	      0.10365264
      0.71186441	      0.03926612	      0.03813529	      0.10373177
      0.72881356	      0.03806773	      0.03754885	      0.10168871
      0.74576271	      0.03702201	      0.03702952	      0.09973872
      0.76271186	      0.03624883	      0.03664081	      0.09791685
      0.77966102	      0.03581814	      0.03642249	      0.09700779
      0.79661017	      0.03558657	      0.03630456	      0.09639907
      0.81355932	      0.03541828	      0.03621861	      0.09602031
      0.83050847	      0.03517544	      0.03609424	      0.09572913
      0.84745763	      0.03472610	      0.03586296	      0.09487409
      0.86440678	      0.03415210	      0.03556533	      0.09378126
      0.88135593	      0.03354716	      0.03524894	      0.09253110
      0.89830508	      0.03302297	      0.03497246	      0.09137261
      0.91525424	      0.03258689	      0.03474078	      0.09020620
      0.93220339	      0.03228651	      0.03458029	      0.08951789
      0.94915254	      0.03210995	      0.03448561	      0.08903446
      0.96610169	      0.03197965	      0.03441557	      0.08865234
      0.98305085	      0.03197890	      0.03441517	      0.08862286
      1.00000000	      0.03205810	      0.03445776	      0.08878376
      1.01694915	      0.03220742	      0.03453791	      0.08911083
      1.03389831	      0.03238010	      0.03463038	      0.08958640
      1.05084746	      0.03242541	      0.03465460	      0.08970899
      1.06779661	      0.03234062	      0.03460926	      0.08915565
      1.08474576	      0.03198620	      0.03441909	      0.08791641
      1.10169492	      0.03174214	      0.03428753	      0.08673536
      1.11864407	      0.03179317	      0.03431508	      0.08567585
      1.13559322	      0.03229487	      0.03458477	      0.08495069
      1.15254237	      0.03307017	      0.03499744	      0.08470652
      1.16949153	      0.03369973	      0.03532900	      0.08344804
      1.18644068	      0.03374293	      0.03535163	      0.08258282
      1.20338983	      0.03311179	      0.03501946	      0.08087873
      1.22033898	      0.03202400	      0.03443943	      0.07879703
      1.23728814	      0.03085944	      0.03380743	      0.07627189
      1.25423729	      0.02996816	      0.03331564	      0.07352205
      1.27118644	      0.02940652	      0.03300198	      0.07070027
      1.28813559	      0.02908923	      0.03282345	      0.06795222
      1.30508475	      0.02886284	      0.03269547	      0.06537468
      1.32203390	      0.02870855	      0.03260797	      0.06280633
      1.33898305	      0.02844756	      0.03245941	      0.06097468
      1.35593220	      0.02779882	      0.03208716	      0.06050230
      1.37288136	      0.02647878	      0.03131606	      0.06045645
      1.38983051	      0.02461898	      0.03019626	      0.05898411
      1.40677966	      0.02275785	      0.02903245	      0.05485898
      1.42372881	      0.02135227	      0.02812161	      0.05009606
      1.44067797	      0.02043835	      0.02751319	      0.04569233
      1.45762712	      0.01989793	      0.02714702	      0.04850988
      1.47457627	      0.01904162	      0.02655646	      0.04886135
      1.49152542	      0.01885450	      0.02642565	      0.04886392
      1.50847458	      0.01839804	      0.02610381	      0.04673426
      1.52542373	      0.01758358	      0.02551948	      0.04756211
      1.54237288	      0.01666614	      0.02484481	      0.04876230
      1.55932203	      0.01608697	      0.02440930	      0.04964206
      1.57627119	      0.01603011	      0.02436612	      0.05041613
      1.59322034	      0.01651132	      0.02472914	      0.05100132
      1.61016949	      0.01743623	      0.02541233	      0.05149164
      1.62711864	      0.01886712	      0.02643449	      0.05114806
      1.64406780	      0.01906373	      0.02657187	      0.05118781
      1.66101695	      0.02038355	      0.02747628	      0.05059563
      1.67796610	      0.02187306	      0.02846249	      0.04990102
      1.69491525	      0.02360719	      0.02956925	      0.04914339
      1.71186441	      0.02546813	      0.03071261	      0.05112690
      1.72881356	      0.02715082	      0.03171097	      0.05560817
      1.74576271	      0.02789759	      0.03214412	      0.05866695
      1.76271186	      0.02710966	      0.03168693	      0.05837799
      1.77966102	      0.02482356	      0.03032146	      0.05381295
      1.79661017	      0.02175178	      0.02838347	      0.04884001
      1.81355932	      0.01894879	      0.02649164	      0.04931548
      1.83050847	      0.01699711	      0.02509029	      0.05003791
      1.84745763	      0.01600508	      0.02434709	      0.05084904
      1.86440678	      0.01596253	      0.02431471	      0.05157314
      1.88135593	      0.01662762	      0.02481608	      0.05199734
      1.89830508	      0.01748532	      0.02544807	      0.05205404
      1.91525424	      0.01830898	      0.02604055	      0.05184947
      1.93220339	      0.01927493	      0.02671865	      0.05150991
      1.94915254	      0.01995086	      0.02718309	      0.05220933
      1.96610169	      0.02007057	      0.02726453	      0.05688290
      1.98305085	      0.01964329	      0.02697275	      0.05994449
      2.00000000	      0.01869850	      0.02631610	      0.06149075
      2.01694915	      0.01731498	      0.02532382	      0.06149086
      2.03389831	      0.01579945	      0.02419018	      0.05927284
      2.05084746	      0.01426107	      0.02298234	      0.05369916
      2.06779661	      0.01339017	      0.02226953	      0.04656132
      2.08474576	      0.01345387	      0.02232244	      0.04520220
      2.10169492	      0.01434067	      0.02304639	      0.04366173
      2.11864407	      0.01585393	      0.02423185	      0.04232611
      2.13559322	      0.01756160	      0.02550352	      0.04859368
      2.15254237	      0.01883986	      0.02641539	      0.05190119
      2.16949153	      0.01919900	      0.02666597	      0.05064453
      2.18644068	      0.01882905	      0.02640781	      0.04602601
      2.20338983	      0.01828801	      0.02602563	      0.05170696
      2.22033898	      0.01774983	      0.02563983	      0.05644015
      2.23728814	      0.01728563	      0.02530234	      0.05882692
      2.25423729	      0.01675293	      0.02490941	      0.05914261
      2.27118644	      0.01611890	      0.02443351	      0.05749003
      2.28813559	      0.01582281	      0.02420806	      0.05597773
      2.30508475	      0.01605310	      0.02438359	      0.05565398
      2.32203390	      0.01662287	      0.02481254	      0.05687665
      2.33898305	      0.01732932	      0.02533430	      0.05896122
      2.35593220	      0.01808271	      0.02587914	      0.06075441
      2.37288136	      0.01894221	      0.02648704	      0.06205524
      2.38983051	      0.01993042	      0.02716917	      0.06235516
      2.40677966	      0.02078809	      0.02774760	      0.06090527
      2.42372881	      0.02124407	      0.02805026	      0.05797723
      2.44067797	      0.02118018	      0.02800806	      0.05389874
      2.45762712	      0.02062919	      0.02764134	      0.04964976
      2.47457627	      0.01968329	      0.02700020	      0.04604799
      2.49152542	      0.01853703	      0.02620223	      0.04533226
      2.50847458	      0.01746270	      0.02543161	      0.04537889
      2.52542373	      0.01676055	      0.02491508	      0.04608514
      2.54237288	      0.01648748	      0.02471128	      0.04729263
      2.55932203	      0.01684095	      0.02497477	      0.04947787
      2.57627119	      0.01762628	      0.02555045	      0.05250554
      2.59322034	      0.01872263	      0.02633307	      0.05490691
      2.61016949	      0.01979486	      0.02707661	      0.05583055
      2.62711864	      0.02043161	      0.02750866	      0.05451224
      2.64406780	      0.02028414	      0.02740920	      0.05097009
      2.66101695	      0.01927460	      0.02671842	      0.04655525
      2.67796610	      0.01779909	      0.02567539	      0.04417826
      2.69491525	      0.01643179	      0.02466951	      0.04317920
      2.71186441	      0.01565441	      0.02407889	      0.04307259
      2.72881356	      0.01549490	      0.02395590	      0.04172326
      2.74576271	      0.01574351	      0.02414732	      0.04340271
      2.76271186	      0.01614488	      0.02445319	      0.04550979
      2.77966102	      0.01619571	      0.02449166	      0.04626630
      2.79661017	      0.01582393	      0.02420891	      0.04374108
      2.81355932	      0.01502942	      0.02359333	      0.04136397
      2.83050847	      0.01404953	      0.02281125	      0.03856751
      2.84745763	      0.01312239	      0.02204574	      0.03809457
      2.86440678	      0.01252798	      0.02154065	      0.04039776
      2.88135593	      0.01271935	      0.02170454	      0.04552548
      2.89830508	      0.01370233	      0.02252762	      0.05144427
      2.91525424	      0.01542306	      0.02390031	      0.05772869
      2.93220339	      0.01716954	      0.02521724	      0.06277483
      2.94915254	      0.01823365	      0.02598693	      0.06508815
      2.96610169	      0.01841133	      0.02611323	      0.06558520
      2.98305085	      0.01798088	      0.02580618	      0.06497431
      3.00000000	      0.01732026	      0.02532767	      0.06319899
      3.01694915	      0.01666674	      0.02484526	      0.06204351
      3.03389831	      0.01610127	      0.02442014	      0.06024546
      3.05084746	      0.01557160	      0.02401512	      0.05799217
      3.06779661	      0.01500733	      0.02357599	      0.05597380
      3.08474576	      0.01429843	      0.02301242	      0.05317227
      3.10169492	      0.01354400	      0.02239709	      0.04986130
      3.11864407	      0.01284118	      0.02180824	      0.04607533
      3.13559322	      0.01239194	      0.02142337	      0.04175931
      3.15254237	      0.01244445	      0.02146871	      0.03891960
      3.16949153	      0.01314322	      0.02206323	      0.03824292
      3.18644068	      0.01420059	      0.02293355	      0.03753077
      3.20338983	      0.01513961	      0.02367966	      0.03967895
      3.22033898	      0.01573418	      0.02414016	      0.04284290
      3.23728814	      0.01615350	      0.02445972	      0.04456352
      3.25423729	      0.01650446	      0.02472400	      0.04251013
      3.27118644	      0.01708368	      0.02515411	      0.04058799
      3.28813559	      0.01844277	      0.02613553	      0.04904137
      3.30508475	      0.02058074	      0.02760887	      0.05655004
      3.32203390	      0.02261495	      0.02894116	      0.06125556
      3.33898305	      0.02388578	      0.02974321	      0.06344169
      3.35593220	      0.02407176	      0.02985878	      0.06349114
      3.37288136	      0.02336810	      0.02941913	      0.06393406
      3.38983051	      0.02216312	      0.02865059	      0.06308269
      3.40677966	      0.02085414	      0.02779164	      0.06042493
      3.42372881	      0.01978254	      0.02706819	      0.05707195
      3.44067797	      0.01908463	      0.02658643	      0.05458231
      3.45762712	      0.01882620	      0.02640581	      0.05362323
      3.47457627	      0.01895299	      0.02649457	      0.05323396
      3.49152542	      0.01930984	      0.02674284	      0.05314521
      3.50847458	      0.01972844	      0.02703115	      0.05333894
      3.52542373	      0.02003363	      0.02723942	      0.05381429
      3.54237288	      0.02014405	      0.02731439	      0.05370936
      3.55932203	      0.02003789	      0.02724232	      0.05365761
      3.57627119	      0.01972958	      0.02703193	      0.05317883
      3.59322034	      0.01934795	      0.02676921	      0.05214387
      3.61016949	      0.01899983	      0.02652730	      0.05135249
      3.62711864	      0.01882278	      0.02640341	      0.05143936
      3.64406780	      0.01882268	      0.02640334	      0.05113886
      3.66101695	      0.01904162	      0.02655645	      0.05094762
      3.67796610	      0.01950373	      0.02687676	      0.05111625
      3.69491525	      0.02014020	      0.02731178	      0.05174268
      3.71186441	      0.02084206	      0.02778359	      0.05268133
      3.72881356	      0.02136560	      0.02813038	      0.05388169
      3.74576271	      0.02170598	      0.02835357	      0.05538805
      3.76271186	      0.02179646	      0.02841261	      0.05679174
      3.77966102	      0.02168035	      0.02833683	      0.05838095
      3.79661017	      0.02140151	      0.02815402	      0.05998952
      3.81355932	      0.02095109	      0.02785617	      0.06137492
      3.83050847	      0.02011965	      0.02729784	      0.06142902
      3.84745763	      0.01880098	      0.02638812	      0.05989416
      3.86440678	      0.01715847	      0.02520910	      0.05623698
      3.88135593	      0.01546368	      0.02393176	      0.05129259
      3.89830508	      0.01395057	      0.02273077	      0.04505291
      3.91525424	      0.01272829	      0.02171217	      0.03812585
      3.93220339	      0.01176025	      0.02087019	      0.03501964
      3.94915254	      0.01112699	      0.02030051	      0.03494708
      3.96610169	      0.01076745	      0.01996984	      0.03499353
      3.98305085	      0.01066672	      0.01987621	      0.03506200
      4.00000000	      0.01066820	      0.01987759	      0.03529160
      4.01694915	      0.01076792	      0.01997027	      0.03574506
      4.03389831	      0.01105863	      0.02023806	      0.03637422
      4.05084746	      0.01159045	      0.02071898	      0.03710429
      4.06779661	      0.01233875	      0.02137735	      0.03787804
      4.08474576	      0.01328011	      0.02217783	      0.03832035
      4.10169492	      0.01439829	      0.02309264	      0.04538258
      4.11864407	      0.01566459	      0.02408672	      0.05285561
      4.13559322	      0.01717294	      0.02521973	      0.05816249
      4.15254237	      0.01902329	      0.02654367	      0.06052354
      4.16949153	      0.02097052	      0.02786909	      0.06004918
      4.18644068	      0.02279431	      0.02905570	      0.05700823
      4.20338983	      0.02428590	      0.02999130	      0.05607736
      4.22033898	      0.02514276	      0.03051579	      0.05899943
      4.23728814	      0.02535172	      0.03064234	      0.06049146
      4.25423729	      0.02510547	      0.03049315	      0.06091836
      4.27118644	      0.02470477	      0.03024883	      0.05985238
      4.28813559	      0.02441543	      0.03007117	      0.06050505
      4.30508475	      0.02428448	      0.02999042	      0.06177709
      4.32203390	      0.02413395	      0.02989732	      0.06211144
      4.33898305	      0.02388419	      0.02974222	      0.06142169
      4.35593220	      0.02341751	      0.02945021	      0.05980830
      4.37288136	      0.02279198	      0.02905421	      0.05751195
      4.38983051	      0.02206290	      0.02858574	      0.05483508
      4.40677966	      0.02128237	      0.02807554	      0.05372271
      4.42372881	      0.02061987	      0.02763510	      0.05325773
      4.44067797	      0.02003091	      0.02723757	      0.05301846
      4.45762712	      0.01968292	      0.02699995	      0.05268644
      4.47457627	      0.01941828	      0.02681782	      0.05214426
      4.49152542	      0.01897487	      0.02650986	      0.04996179
      4.50847458	      0.01835479	      0.02607311	      0.04750336
      4.52542373	      0.01763925	      0.02555984	      0.04461773
      4.54237288	      0.01707258	      0.02514593	      0.04438563
      4.55932203	      0.01681069	      0.02495232	      0.04676184
      4.57627119	      0.01681525	      0.02495570	      0.04966272
      4.59322034	      0.01689299	      0.02501332	      0.05390048
      4.61016949	      0.01691703	      0.02503111	      0.05634827
      4.62711864	      0.01693152	      0.02504183	      0.05609968
      4.64406780	      0.01693072	      0.02504124	      0.05232349
      4.66101695	      0.01697819	      0.02507632	      0.04473943
      4.67796610	      0.01732069	      0.02532799	      0.05268089
      4.69491525	      0.01811542	      0.02590254	      0.06138092
      4.71186441	      0.01921601	      0.02667778	      0.06946235
      4.72881356	      0.02018041	      0.02733903	      0.07518460
      4.74576271	      0.02062651	      0.02763955	      0.07788385
      4.76271186	      0.02048028	      0.02754141	      0.07803265
      4.77966102	      0.02006794	      0.02726274	      0.07709857
      4.79661017	      0.01964153	      0.02697154	      0.07553062
      4.81355932	      0.01937666	      0.02678906	      0.07369740
      4.83050847	      0.01929480	      0.02673242	      0.07161065
      4.84745763	      0.01929909	      0.02673539	      0.06940699
      4.86440678	      0.01930183	      0.02673729	      0.06727403
      4.88135593	      0.01927053	      0.02671560	      0.06537577
      4.89830508	      0.01922416	      0.02668344	      0.06376077
      4.91525424	      0.01914750	      0.02663019	      0.06271558
      4.93220339	      0.01903553	      0.02655220	      0.06238762
      4.94915254	      0.01890223	      0.02645908	      0.06236275
      4.96610169	      0.01883859	      0.02641449	      0.06268148
      4.98305085	      0.01899408	      0.02652328	      0.06328385
      5.00000000	      0.01940718	      0.02681016	      0.06395490
      5.01694915	      0.02011060	      0.02729170	      0.06542858
      5.03389831	      0.02072137	      0.02770304	      0.06746822
      5.05084746	      0.02089113	      0.02781628	      0.06996908
      5.06779661	      0.02041509	      0.02749754	      0.07135575
      5.08474576	      0.01923583	      0.02669153	      0.07044673
      5.10169492	      0.01764744	      0.02556578	      0.06658130
      5.11864407	      0.01624974	      0.02453248	      0.05987169
      5.13559322	      0.01554726	      0.02399634	      0.05222187
      5.15254237	      0.01548106	      0.02394520	      0.04482377
      5.16949153	      0.01563768	      0.02406602	      0.04648524
      5.18644068	      0.01551255	      0.02396954	      0.04887240
      5.20338983	      0.01482087	      0.02342906	      0.04804757
      5.22033898	      0.01371410	      0.02253730	      0.04463447
      5.23728814	      0.01265902	      0.02165300	      0.04285551
      5.25423729	      0.01200506	      0.02108629	      0.04364310
      5.27118644	      0.01197929	      0.02106365	      0.04484649
      5.28813559	      0.01265157	      0.02164663	      0.04620095
      5.30508475	      0.01372150	      0.02254337	      0.04777260
      5.32203390	      0.01489160	      0.02348491	      0.04926832
      5.33898305	      0.01584318	      0.02422363	      0.05047263
      5.35593220	      0.01642230	      0.02466239	      0.05145097
      5.37288136	      0.01655700	      0.02476332	      0.05217081
      5.38983051	      0.01649253	      0.02471506	      0.05276214
      5.40677966	      0.01649520	      0.02471707	      0.05327179
      5.42372881	      0.01666750	      0.02484582	      0.05386795
      5.44067797	      0.01681093	      0.02495249	      0.05449316
      5.45762712	      0.01669247	      0.02486443	      0.05510587
      5.47457627	      0.01617288	      0.02447438	      0.05576493
      5.49152542	      0.01541598	      0.02389482	      0.05620135
      5.50847458	      0.01466632	      0.02330659	      0.05639968
      5.52542373	      0.01428737	      0.02300352	      0.05646708
      5.54237288	      0.01433327	      0.02304044	      0.05622039
      5.55932203	      0.01471534	      0.02334550	      0.05591970
      5.57627119	      0.01519837	      0.02372557	      0.05529945
      5.59322034	      0.01565632	      0.02408036	      0.05479559
      5.61016949	      0.01611326	      0.02442924	      0.05425505
      5.62711864	      0.01666885	      0.02484683	      0.05388085
      5.64406780	      0.01727159	      0.02529207	      0.05330754
      5.66101695	      0.01788943	      0.02574046	      0.05295972
      5.67796610	      0.01859765	      0.02624503	      0.05281934
      5.69491525	      0.01952537	      0.02689167	      0.05269124
      5.71186441	      0.02066644	      0.02766629	      0.05585409
      5.72881356	      0.02173870	      0.02837494	      0.06284840
      5.74576271	      0.02226170	      0.02871424	      0.06663715
      5.76271186	      0.02196984	      0.02852539	      0.06693198
      5.77966102	      0.02094429	      0.02785165	      0.06476248
      5.79661017	      0.01978693	      0.02707119	      0.06147223
      5.81355932	      0.01890675	      0.02646224	      0.05842934
      5.83050847	      0.01849174	      0.02617020	      0.05628563
      5.84745763	      0.01845839	      0.02614659	      0.05485260
      5.86440678	      0.01852901	      0.02619655	      0.05646354
      5.88135593	      0.01850427	      0.02617907	      0.05745456
      5.89830508	      0.01825675	      0.02600338	      0.05743719
      5.91525424	      0.01785553	      0.02571607	      0.05671238
      5.93220339	      0.01745467	      0.02542576	      0.05601768
      5.94915254	      0.01727451	      0.02529421	      0.05577351
      5.96610169	      0.01726186	      0.02528494	      0.05575832
      5.98305085	      0.01725040	      0.02527654	      0.05601745
      6.00000000	      0.01723269	      0.02526357	      0.05595949
      6.01694915	      0.01721045	      0.02524726	      0.05610826
      6.03389831	      0.01715112	      0.02520370	      0.05600956
      6.05084746	      0.01687155	      0.02499744	      0.05363407
      6.06779661	      0.01635992	      0.02461550	      0.05050699
      6.08474576	      0.01574788	      0.02415067	      0.04920388
      6.10169492	      0.01523254	      0.02375222	      0.04833985
      6.11864407	      0.01494375	      0.02352599	      0.04841841
      6.13559322	      0.01487886	      0.02347486	      0.04835509
      6.15254237	      0.01505134	      0.02361053	      0.04834531
      6.16949153	      0.01547423	      0.02393992	      0.04775243
      6.18644068	      0.01603271	      0.02436810	      0.04641111
      6.20338983	      0.01637369	      0.02462586	      0.04619882
      6.22033898	      0.01619476	      0.02449093	      0.04707066
      6.23728814	      0.01562755	      0.02405822	      0.04792980
      6.25423729	      0.01523388	      0.02375327	      0.04876408
      6.27118644	      0.01537197	      0.02386068	      0.04947700
      6.28813559	      0.01584039	      0.02422150	      0.05010023
      6.30508475	      0.01618463	      0.02448327	      0.05051292
      6.32203390	      0.01628757	      0.02456101	      0.05103934
      6.33898305	      0.01655796	      0.02476404	      0.05192955
      6.35593220	      0.01716185	      0.02521158	      0.05274771
      6.37288136	      0.01790405	      0.02575098	      0.05339290
      6.38983051	      0.01866592	      0.02629316	      0.05377277
      6.40677966	      0.01935389	      0.02677332	      0.05460514
      6.42372881	      0.01983028	      0.02710083	      0.05655731
      6.44067797	      0.01995509	      0.02718598	      0.05705938
      6.45762712	      0.01977302	      0.02706167	      0.05637331
      6.47457627	      0.01934410	      0.02676655	      0.05577210
      6.49152542	      0.01873855	      0.02634427	      0.05434333
      6.50847458	      0.01803020	      0.02584154	      0.05288059
      6.52542373	      0.01727696	      0.02529600	      0.05178949
      6.54237288	      0.01663820	      0.02482397	      0.05022339
      6.55932203	      0.01617395	      0.02447519	      0.04894030
      6.57627119	      0.01611583	      0.02443118	      0.04893560
      6.59322034	      0.01645782	      0.02468904	      0.04898638
      6.61016949	      0.01721126	      0.02524785	      0.04878643
      6.62711864	      0.01823892	      0.02599069	      0.04883580
      6.64406780	      0.01928839	      0.02672798	      0.05328825
      6.66101695	      0.02057829	      0.02760723	      0.05952735
      6.67796610	      0.02184943	      0.02844711	      0.06534278
      6.69491525	      0.02295499	      0.02915793	      0.07035160
      6.71186441	      0.02379866	      0.02968892	      0.07436977
      6.72881356	      0.02433494	      0.03002156	      0.07753449
      6.74576271	      0.02456633	      0.03016395	      0.07959078
      6.76271186	      0.02445758	      0.03009712	      0.07973642
      6.77966102	      0.02388545	      0.02974300	      0.07687038
      6.79661017	      0.02267601	      0.02898020	      0.07073388
      6.81355932	      0.02086073	      0.02779604	      0.06173894
      6.83050847	      0.01871375	      0.02632683	      0.05093642
      6.84745763	      0.01694939	      0.02505504	      0.04793888
      6.86440678	      0.01621136	      0.02450349	      0.04676809
      6.88135593	      0.01645653	      0.02468807	      0.04578618
      6.89830508	      0.01675940	      0.02491422	      0.04649130
      6.91525424	      0.01635896	      0.02461478	      0.05104475
      6.93220339	      0.01546906	      0.02393592	      0.05421138
      6.94915254	      0.01481109	      0.02342134	      0.05512194
      6.96610169	      0.01474095	      0.02336581	      0.05358418
      6.98305085	      0.01487965	      0.02347548	      0.05023573
      7.00000000	      0.01468620	      0.02332238	      0.04632662
      7.01694915	      0.01411125	      0.02286130	      0.04319100
      7.03389831	      0.01363008	      0.02246815	      0.04093719
      7.05084746	      0.01366567	      0.02249747	      0.03964957
      7.06779661	      0.01407242	      0.02282982	      0.03897730
      7.08474576	      0.01451425	      0.02318544	      0.03973704
      7.10169492	      0.01468171	      0.02331882	      0.04043148
      7.11864407	      0.01452807	      0.02319648	      0.04023800
      7.13559322	      0.01419220	      0.02292678	      0.04045868
      7.15254237	      0.01385965	      0.02265658	      0.04144268
      7.16949153	      0.01358577	      0.02243160	      0.04231756
      7.18644068	      0.01343653	      0.02230805	      0.04310972
      7.20338983	      0.01341376	      0.02228915	      0.04357694
      7.22033898	      0.01365897	      0.02249195	      0.04337262
      7.23728814	      0.01420599	      0.02293791	      0.04279013
      7.25423729	      0.01478452	      0.02340031	      0.04111825
      7.27118644	      0.01491119	      0.02350035	      0.04264833
      7.28813559	      0.01429160	      0.02300693	      0.04033777
      7.30508475	      0.01340196	      0.02227934	      0.03985685
      7.32203390	      0.01302445	      0.02196331	      0.04128710
      7.33898305	      0.01391909	      0.02270510	      0.04319902
      7.35593220	      0.01591847	      0.02428112	      0.04565602
      7.37288136	      0.01813796	      0.02591865	      0.04672280
      7.38983051	      0.01989483	      0.02714490	      0.05198661
      7.40677966	      0.02099455	      0.02788505	      0.05580045
      7.42372881	      0.02165114	      0.02831773	      0.05680029
      7.44067797	      0.02203761	      0.02856935	      0.05549510
      7.45762712	      0.02231664	      0.02874965	      0.05300865
      7.47457627	      0.02249472	      0.02886412	      0.05333446
      7.49152542	      0.02250230	      0.02886899	      0.05434532
      7.50847458	      0.02236353	      0.02877983	      0.05495390
      7.52542373	      0.02208196	      0.02859809	      0.05522394
      7.54237288	      0.02159871	      0.02828343	      0.05503107
      7.55932203	      0.02089103	      0.02781622	      0.05425935
      7.57627119	      0.02000956	      0.02722305	      0.05353807
      7.59322034	      0.01909418	      0.02659308	      0.05346511
      7.61016949	      0.01845029	      0.02614085	      0.05400954
      7.62711864	      0.01825420	      0.02600157	      0.05440083
      7.64406780	      0.01840816	      0.02611099	      0.05653406
      7.66101695	      0.01881949	      0.02640110	      0.05835822
      7.67796610	      0.01972226	      0.02702691	      0.05915567
      7.69491525	      0.02168865	      0.02834225	      0.05861581
      7.71186441	      0.02491032	      0.03037441	      0.06186861
      7.72881356	      0.02845585	      0.03246414	      0.08031563
      7.74576271	      0.03054599	      0.03363529	      0.09214885
      7.76271186	      0.03001670	      0.03334261	      0.09572482
      7.77966102	      0.02716761	      0.03172078	      0.09180668
      7.79661017	      0.02352734	      0.02951920	      0.08335649
      7.81355932	      0.02081073	      0.02776271	      0.07391228
      7.83050847	      0.02021286	      0.02736100	      0.06627339
      7.84745763	      0.02112867	      0.02797398	      0.06190774
      7.86440678	      0.02454230	      0.03014920	      0.05979482
      7.88135593	      0.02671778	      0.03145707	      0.05154601
      7.89830508	      0.03086972	      0.03381306	      0.05717021
      7.91525424	      0.03501085	      0.03600970	      0.05967349
      7.93220339	      0.03847738	      0.03775034	      0.06805656
      7.94915254	      0.04086886	      0.03890580	      0.07609906
      7.96610169	      0.04172442	      0.03931092	      0.08006236
      7.98305085	      0.04086760	      0.03890520	      0.07819422
      8.00000000	      0.03885209	      0.03793371	      0.07064451
      8.01694915	      0.03676475	      0.03690064	      0.06025611
      8.03389831	      0.03535486	      0.03618617	      0.06527358
      8.05084746	      0.03489775	      0.03595149	      0.07100222
      8.06779661	      0.03477443	      0.03588791	      0.07546078
      8.08474576	      0.03430185	      0.03564322	      0.07751040
      8.10169492	      0.03318845	      0.03505998	      0.07712006
      8.11864407	      0.03159280	      0.03420678	      0.07498758
      8.13559322	      0.02993119	      0.03329508	      0.07164812
      8.15254237	      0.02855203	      0.03251896	      0.06818578
      8.16949153	      0.02763383	      0.03199180	      0.06530083
      8.18644068	      0.02728476	      0.03178910	      0.06326324
      8.20338983	      0.02758623	      0.03196424	      0.06140579
      8.22033898	      0.02866478	      0.03258310	      0.05969430
      8.23728814	      0.03046527	      0.03359082	      0.05649422
      8.25423729	      0.03289294	      0.03490354	      0.05999560
      8.27118644	      0.03564633	      0.03633503	      0.06647519
      8.28813559	      0.03842794	      0.03772608	      0.07161822
      8.30508475	      0.04094799	      0.03894345	      0.07490579
      8.32203390	      0.04272566	      0.03977979	      0.07715388
      8.33898305	      0.04368543	      0.04022411	      0.07780736
      8.35593220	      0.04381364	      0.04028309	      0.07612505
      8.37288136	      0.04358208	      0.04017650	      0.07430961
      8.38983051	      0.04313493	      0.03996986	      0.07143914
      8.40677966	      0.04248651	      0.03966830	      0.06806973
      8.42372881	      0.04197224	      0.03942750	      0.07168994
      8.44067797	      0.04145489	      0.03918375	      0.07632049
      8.45762712	      0.04092779	      0.03893384	      0.08076601
      8.47457627	      0.04050228	      0.03873093	      0.08468281
      8.49152542	      0.04041610	      0.03868970	      0.08810796
      8.50847458	      0.04055125	      0.03875433	      0.08942946
      8.52542373	      0.04062702	      0.03879052	      0.08832065
      8.54237288	      0.04085170	      0.03889763	      0.08640996
      8.55932203	      0.04270561	      0.03977046	      0.08828749
