Model Marker Errors from IK
version=1
nRows=342
nColumns=4
inDegrees=no
endheader
time	total_squared_error	marker_error_RMS	marker_error_max
      0.00000000	      0.02799119	      0.03219799	      0.06602579
      0.01694915	      0.02545619	      0.03070541	      0.05479587
      0.03389831	      0.02373081	      0.02964657	      0.04760314
      0.05084746	      0.02246154	      0.02884283	      0.04728442
      0.06779661	      0.02157211	      0.02826601	      0.04677803
      0.08474576	      0.02104921	      0.02792133	      0.04644798
      0.10169492	      0.02087574	      0.02780603	      0.04634045
      0.11864407	      0.02083307	      0.02777760	      0.04665292
      0.13559322	      0.02074781	      0.02772070	      0.04688445
      0.15254237	      0.02061100	      0.02762916	      0.04758264
      0.16949153	      0.02061282	      0.02763038	      0.04815065
      0.18644068	      0.02091945	      0.02783513	      0.04929403
      0.20338983	      0.02154594	      0.02824886	      0.05000176
      0.22033898	      0.02239881	      0.02880253	      0.05149790
      0.23728814	      0.02322870	      0.02933125	      0.05275719
      0.25423729	      0.02391112	      0.02975899	      0.05407812
      0.27118644	      0.02439291	      0.03005730	      0.05509039
      0.28813559	      0.02465606	      0.03021899	      0.05569748
      0.30508475	      0.02465250	      0.03021681	      0.05579146
      0.32203390	      0.02441128	      0.03006861	      0.05543962
      0.33898305	      0.02404529	      0.02984236	      0.05494607
      0.35593220	      0.02373405	      0.02964859	      0.05473786
      0.37288136	      0.02355362	      0.02953568	      0.05479605
      0.38983051	      0.02351898	      0.02951395	      0.05494446
      0.40677966	      0.02361497	      0.02957412	      0.05501698
      0.42372881	      0.02376482	      0.02966780	      0.05490384
      0.44067797	      0.02393409	      0.02977327	      0.05449626
      0.45762712	      0.02404724	      0.02984357	      0.05415450
      0.47457627	      0.02413649	      0.02989889	      0.05372126
      0.49152542	      0.02418443	      0.02992857	      0.05323849
      0.50847458	      0.02419034	      0.02993223	      0.05245287
      0.52542373	      0.02409473	      0.02987302	      0.05182615
      0.54237288	      0.02395882	      0.02978865	      0.05204332
      0.55932203	      0.02384111	      0.02971538	      0.05253426
      0.57627119	      0.02378102	      0.02967791	      0.05325006
      0.59322034	      0.02376031	      0.02966499	      0.05415858
      0.61016949	      0.02370546	      0.02963073	      0.05473091
      0.62711864	      0.02360566	      0.02956829	      0.05520166
      0.64406780	      0.02341468	      0.02944844	      0.05530454
      0.66101695	      0.02315431	      0.02928425	      0.05488497
      0.67796610	      0.02283799	      0.02908353	      0.05399633
      0.69491525	      0.02252317	      0.02888238	      0.05256270
      0.71186441	      0.02230329	      0.02874105	      0.05131688
      0.72881356	      0.02212490	      0.02862588	      0.05034947
      0.74576271	      0.02203932	      0.02857046	      0.04970611
      0.76271186	      0.02185082	      0.02844801	      0.04928146
      0.77966102	      0.02164404	      0.02831309	      0.04927711
      0.79661017	      0.02145199	      0.02818720	      0.04928489
      0.81355932	      0.02132954	      0.02810664	      0.04948002
      0.83050847	      0.02128895	      0.02807988	      0.04995821
      0.84745763	      0.02129894	      0.02808647	      0.05034939
      0.86440678	      0.02137889	      0.02813913	      0.05044865
      0.88135593	      0.02154524	      0.02824840	      0.05018358
      0.89830508	      0.02171856	      0.02836179	      0.04966630
      0.91525424	      0.02183209	      0.02843582	      0.04875586
      0.93220339	      0.02181642	      0.02842561	      0.04759895
      0.94915254	      0.02172945	      0.02836890	      0.04638978
      0.96610169	      0.02166932	      0.02832962	      0.04582389
      0.98305085	      0.02174629	      0.02837989	      0.04660012
      1.00000000	      0.02204887	      0.02857665	      0.04800755
      1.01694915	      0.02254886	      0.02889884	      0.05006886
      1.03389831	      0.02325409	      0.02934728	      0.05222230
      1.05084746	      0.02409631	      0.02987400	      0.05432964
      1.06779661	      0.02490249	      0.03036963	      0.05575468
      1.08474576	      0.02578353	      0.03090219	      0.05672709
      1.10169492	      0.02673882	      0.03146946	      0.05695511
      1.11864407	      0.02769458	      0.03202694	      0.05831506
      1.13559322	      0.02875602	      0.03263491	      0.06162618
      1.15254237	      0.02983492	      0.03324149	      0.06391028
      1.16949153	      0.03076415	      0.03375519	      0.06487646
      1.18644068	      0.03157696	      0.03419820	      0.06561353
      1.20338983	      0.03226277	      0.03456758	      0.06681344
      1.22033898	      0.03262134	      0.03475914	      0.06731767
      1.23728814	      0.03259620	      0.03474574	      0.06788410
      1.25423729	      0.03227409	      0.03457364	      0.06791350
      1.27118644	      0.03189842	      0.03437183	      0.06778682
      1.28813559	      0.03156624	      0.03419240	      0.06825198
      1.30508475	      0.03102060	      0.03389559	      0.06788503
      1.32203390	      0.03011377	      0.03339648	      0.06625761
      1.33898305	      0.02910294	      0.03283118	      0.06445078
      1.35593220	      0.02839171	      0.03242753	      0.06196209
      1.37288136	      0.02834073	      0.03239840	      0.06104015
      1.38983051	      0.02868468	      0.03259441	      0.05967728
      1.40677966	      0.02909937	      0.03282917	      0.06030959
      1.42372881	      0.02919724	      0.03288433	      0.06242747
      1.44067797	      0.02883665	      0.03268063	      0.06304136
      1.45762712	      0.02826442	      0.03235476	      0.06235487
      1.47457627	      0.02761526	      0.03198105	      0.06068318
      1.49152542	      0.02702003	      0.03163451	      0.05888911
      1.50847458	      0.02670968	      0.03145231	      0.05768428
      1.52542373	      0.02670323	      0.03144851	      0.05731189
      1.54237288	      0.02688877	      0.03155757	      0.05782784
      1.55932203	      0.02714619	      0.03170827	      0.05859664
      1.57627119	      0.02734983	      0.03182698	      0.05915723
      1.59322034	      0.02741918	      0.03186730	      0.05875665
      1.61016949	      0.02731683	      0.03180777	      0.05738013
      1.62711864	      0.02708348	      0.03167162	      0.05700461
      1.64406780	      0.02688837	      0.03155734	      0.05621986
      1.66101695	      0.02689549	      0.03156151	      0.05534413
      1.67796610	      0.02693104	      0.03158237	      0.05752988
      1.69491525	      0.02685822	      0.03153964	      0.05983333
      1.71186441	      0.02664233	      0.03141262	      0.06095468
      1.72881356	      0.02639878	      0.03126872	      0.06163394
      1.74576271	      0.02618417	      0.03114136	      0.06318925
      1.76271186	      0.02579599	      0.03090966	      0.06345957
      1.77966102	      0.02526801	      0.03059170	      0.06381033
      1.79661017	      0.02461981	      0.03019677	      0.06360366
      1.81355932	      0.02399603	      0.02981178	      0.06339106
      1.83050847	      0.02341146	      0.02944641	      0.06262125
      1.84745763	      0.02288715	      0.02911481	      0.06138212
      1.86440678	      0.02249718	      0.02886571	      0.05995320
      1.88135593	      0.02221269	      0.02868261	      0.05802676
      1.89830508	      0.02202337	      0.02856012	      0.05693349
      1.91525424	      0.02166879	      0.02832927	      0.05419254
      1.93220339	      0.02110963	      0.02796137	      0.05089556
      1.94915254	      0.02056852	      0.02760067	      0.04936707
      1.96610169	      0.01993049	      0.02716922	      0.04459680
      1.98305085	      0.01955671	      0.02691324	      0.04480371
      2.00000000	      0.01939160	      0.02679939	      0.04547531
      2.01694915	      0.01942617	      0.02682327	      0.04653775
      2.03389831	      0.01966508	      0.02698771	      0.04778254
      2.05084746	      0.02003428	      0.02723987	      0.04905875
      2.06779661	      0.02048369	      0.02754369	      0.04987677
      2.08474576	      0.02062350	      0.02763754	      0.05046201
      2.10169492	      0.02069598	      0.02768605	      0.05033883
      2.11864407	      0.02075886	      0.02772808	      0.05228749
      2.13559322	      0.02089775	      0.02782069	      0.05130020
      2.15254237	      0.02107707	      0.02793980	      0.04756279
      2.16949153	      0.02109220	      0.02794982	      0.04699226
      2.18644068	      0.02101315	      0.02789740	      0.04703244
      2.20338983	      0.02072522	      0.02770561	      0.04753371
      2.22033898	      0.02025330	      0.02738836	      0.04847762
      2.23728814	      0.01974768	      0.02704433	      0.04937061
      2.25423729	      0.01930610	      0.02674025	      0.05013741
      2.27118644	      0.01896784	      0.02650496	      0.05073380
      2.28813559	      0.01878477	      0.02637673	      0.05121284
      2.30508475	      0.01877549	      0.02637022	      0.05128763
      2.32203390	      0.01892082	      0.02647208	      0.05258476
      2.33898305	      0.01912328	      0.02661334	      0.05390328
      2.35593220	      0.01925412	      0.02670422	      0.05498368
      2.37288136	      0.01922759	      0.02668582	      0.05500534
      2.38983051	      0.01895002	      0.02649250	      0.05411439
      2.40677966	      0.01862004	      0.02626083	      0.05269146
      2.42372881	      0.01823955	      0.02599113	      0.05107042
      2.44067797	      0.01788712	      0.02573880	      0.04960831
      2.45762712	      0.01767059	      0.02558254	      0.04892014
      2.47457627	      0.01772266	      0.02562020	      0.04908647
      2.49152542	      0.01806808	      0.02586867	      0.04978092
      2.50847458	      0.01864677	      0.02627967	      0.05082300
      2.52542373	      0.01933117	      0.02675760	      0.05158030
      2.54237288	      0.01997217	      0.02719761	      0.05233769
      2.55932203	      0.02036503	      0.02746380	      0.05344977
      2.57627119	      0.02043093	      0.02750820	      0.05331197
      2.59322034	      0.02016140	      0.02732615	      0.05202545
      2.61016949	      0.01974055	      0.02703944	      0.05002159
      2.62711864	      0.01938688	      0.02679613	      0.04923488
      2.64406780	      0.01928095	      0.02672282	      0.04971168
      2.66101695	      0.01936793	      0.02678303	      0.05060754
      2.67796610	      0.01959762	      0.02694137	      0.05175038
      2.69491525	      0.01982259	      0.02709557	      0.05238424
      2.71186441	      0.01998191	      0.02720424	      0.05218200
      2.72881356	      0.01992110	      0.02716282	      0.05141129
      2.74576271	      0.01974764	      0.02704430	      0.05027882
      2.76271186	      0.01949656	      0.02687182	      0.04932888
      2.77966102	      0.01927306	      0.02671736	      0.04871460
      2.79661017	      0.01913545	      0.02662181	      0.04829068
      2.81355932	      0.01913629	      0.02662239	      0.04825645
      2.83050847	      0.01923675	      0.02669217	      0.04833372
      2.84745763	      0.01948707	      0.02686528	      0.04864498
      2.86440678	      0.01992627	      0.02716634	      0.04914326
      2.88135593	      0.02060601	      0.02762581	      0.05000634
      2.89830508	      0.02129537	      0.02808411	      0.05109367
      2.91525424	      0.02206404	      0.02858648	      0.05249939
      2.93220339	      0.02272289	      0.02901014	      0.05398915
      2.94915254	      0.02318453	      0.02930335	      0.05541690
      2.96610169	      0.02342191	      0.02945298	      0.05661641
      2.98305085	      0.02339999	      0.02943920	      0.05731057
      3.00000000	      0.02316582	      0.02929152	      0.05753631
      3.01694915	      0.02276737	      0.02903852	      0.05715774
      3.03389831	      0.02229767	      0.02873743	      0.05625864
      3.05084746	      0.02183207	      0.02843581	      0.05498373
      3.06779661	      0.02139774	      0.02815153	      0.05341044
      3.08474576	      0.02102902	      0.02790793	      0.05154729
      3.10169492	      0.02074995	      0.02772213	      0.05132261
      3.11864407	      0.02061937	      0.02763477	      0.05145302
      3.13559322	      0.02069125	      0.02768289	      0.05161744
      3.15254237	      0.02091425	      0.02783167	      0.05160476
      3.16949153	      0.02110520	      0.02795844	      0.05158823
      3.18644068	      0.02104651	      0.02791954	      0.05163925
      3.20338983	      0.02067633	      0.02767291	      0.05181932
      3.22033898	      0.02009519	      0.02728125	      0.05217710
      3.23728814	      0.01945645	      0.02684417	      0.05260836
      3.25423729	      0.01885836	      0.02642835	      0.05255045
      3.27118644	      0.01833489	      0.02605897	      0.05159719
      3.28813559	      0.01801118	      0.02582791	      0.04948976
      3.30508475	      0.01794623	      0.02578129	      0.04704094
      3.32203390	      0.01816757	      0.02593980	      0.04468047
      3.33898305	      0.01850763	      0.02618144	      0.04532586
      3.35593220	      0.01878112	      0.02637417	      0.04678810
      3.37288136	      0.01896211	      0.02650095	      0.04787732
      3.38983051	      0.01917119	      0.02664665	      0.04852329
      3.40677966	      0.01945192	      0.02684104	      0.04755726
      3.42372881	      0.01980137	      0.02708107	      0.04934320
      3.44067797	      0.02010479	      0.02728776	      0.05026572
      3.45762712	      0.02030448	      0.02742294	      0.05069412
      3.47457627	      0.02045614	      0.02752517	      0.05059028
      3.49152542	      0.02051468	      0.02756452	      0.05066497
      3.50847458	      0.02055770	      0.02759341	      0.05051032
      3.52542373	      0.02055999	      0.02759495	      0.05028826
      3.54237288	      0.02052107	      0.02756882	      0.04971491
      3.55932203	      0.02042562	      0.02750463	      0.04900241
      3.57627119	      0.02026914	      0.02739907	      0.04855929
      3.59322034	      0.02011275	      0.02729316	      0.04766566
      3.61016949	      0.01996228	      0.02719088	      0.04714568
      3.62711864	      0.01986077	      0.02712165	      0.04703015
      3.64406780	      0.01994175	      0.02717689	      0.04723631
      3.66101695	      0.02025831	      0.02739175	      0.04753400
      3.67796610	      0.02054909	      0.02758763	      0.04735122
      3.69491525	      0.02073833	      0.02771437	      0.04658613
      3.71186441	      0.02064955	      0.02765498	      0.04518557
      3.72881356	      0.02027599	      0.02740370	      0.04341461
      3.74576271	      0.01975311	      0.02704805	      0.04145048
      3.76271186	      0.01921765	      0.02667892	      0.03998678
      3.77966102	      0.01884467	      0.02641876	      0.03979874
      3.79661017	      0.01872081	      0.02633179	      0.04050523
      3.81355932	      0.01882389	      0.02640419	      0.04162289
      3.83050847	      0.01906406	      0.02657210	      0.04198999
      3.84745763	      0.01933062	      0.02675722	      0.04247950
      3.86440678	      0.01950219	      0.02687570	      0.04169017
      3.88135593	      0.01954534	      0.02690542	      0.04166715
      3.89830508	      0.01949585	      0.02687133	      0.04106658
      3.91525424	      0.01931713	      0.02674788	      0.04073724
      3.93220339	      0.01910986	      0.02660400	      0.04054005
      3.94915254	      0.01900589	      0.02653152	      0.03979446
      3.96610169	      0.01900390	      0.02653014	      0.03942191
      3.98305085	      0.01906018	      0.02656939	      0.04069525
      4.00000000	      0.01904997	      0.02656227	      0.04117653
      4.01694915	      0.01895113	      0.02649327	      0.04171982
      4.03389831	      0.01875542	      0.02635612	      0.04211034
      4.05084746	      0.01853116	      0.02619808	      0.04254049
      4.06779661	      0.01836542	      0.02608066	      0.04230842
      4.08474576	      0.01821972	      0.02597700	      0.04259128
      4.10169492	      0.01802481	      0.02583768	      0.04299237
      4.11864407	      0.01774941	      0.02563953	      0.04204230
      4.13559322	      0.01748690	      0.02544922	      0.04411025
      4.15254237	      0.01737797	      0.02536983	      0.04574799
      4.16949153	      0.01740274	      0.02538791	      0.04287416
      4.18644068	      0.01759509	      0.02552783	      0.04337186
      4.20338983	      0.01784312	      0.02570713	      0.04298447
      4.22033898	      0.01811309	      0.02590087	      0.04266088
      4.23728814	      0.01836062	      0.02607725	      0.04322933
      4.25423729	      0.01851790	      0.02618870	      0.04443371
      4.27118644	      0.01842982	      0.02612634	      0.04505261
      4.28813559	      0.01810741	      0.02589681	      0.04352047
      4.30508475	      0.01768465	      0.02559271	      0.04329994
      4.32203390	      0.01733493	      0.02533840	      0.04335521
      4.33898305	      0.01706222	      0.02513830	      0.04355949
      4.35593220	      0.01672033	      0.02488516	      0.04215365
      4.37288136	      0.01629768	      0.02456863	      0.03962429
      4.38983051	      0.01573914	      0.02414397	      0.03630143
      4.40677966	      0.01502871	      0.02359277	      0.03507651
      4.42372881	      0.01429288	      0.02300796	      0.03408009
      4.44067797	      0.01373713	      0.02255621	      0.03360607
      4.45762712	      0.01347436	      0.02233944	      0.03264113
      4.47457627	      0.01349315	      0.02235501	      0.03226796
      4.49152542	      0.01380208	      0.02260947	      0.03347817
      4.50847458	      0.01433137	      0.02303891	      0.03462969
      4.52542373	      0.01501032	      0.02357833	      0.03595494
      4.54237288	      0.01575715	      0.02415777	      0.03742111
      4.55932203	      0.01642007	      0.02466071	      0.03904140
      4.57627119	      0.01686841	      0.02499512	      0.04039828
      4.59322034	      0.01711841	      0.02517966	      0.04166823
      4.61016949	      0.01726613	      0.02528806	      0.04239981
      4.62711864	      0.01734376	      0.02534485	      0.04303186
      4.64406780	      0.01758548	      0.02552086	      0.04300995
      4.66101695	      0.01796180	      0.02579248	      0.04293008
      4.67796610	      0.01844190	      0.02613490	      0.04284766
      4.69491525	      0.01889868	      0.02645659	      0.04268703
      4.71186441	      0.01934441	      0.02676677	      0.04296905
      4.72881356	      0.01974656	      0.02704356	      0.04370337
      4.74576271	      0.02000738	      0.02722157	      0.04480316
      4.76271186	      0.02006808	      0.02726283	      0.04555655
      4.77966102	      0.01991170	      0.02715640	      0.04560207
      4.79661017	      0.01961410	      0.02695270	      0.04572450
      4.81355932	      0.01924389	      0.02669713	      0.04625593
      4.83050847	      0.01877378	      0.02636902	      0.04662577
      4.84745763	      0.01824199	      0.02599287	      0.04672978
      4.86440678	      0.01762782	      0.02555156	      0.04630272
      4.88135593	      0.01703053	      0.02511494	      0.04569375
      4.89830508	      0.01650818	      0.02472679	      0.04504042
      4.91525424	      0.01604058	      0.02437408	      0.04447758
      4.93220339	      0.01559336	      0.02403190	      0.04430022
      4.94915254	      0.01521741	      0.02374043	      0.04434976
      4.96610169	      0.01491345	      0.02350212	      0.04415619
      4.98305085	      0.01478012	      0.02339684	      0.04361616
      5.00000000	      0.01480584	      0.02341718	      0.04232762
      5.01694915	      0.01498782	      0.02356065	      0.04067267
      5.03389831	      0.01515234	      0.02368961	      0.04181266
      5.05084746	      0.01520904	      0.02373390	      0.04297132
      5.06779661	      0.01508784	      0.02363914	      0.04196886
      5.08474576	      0.01478763	      0.02340277	      0.03959509
      5.10169492	      0.01434791	      0.02305220	      0.03570228
      5.11864407	      0.01380363	      0.02261074	      0.03206952
      5.13559322	      0.01329458	      0.02218990	      0.03256201
      5.15254237	      0.01289717	      0.02185573	      0.03191544
      5.16949153	      0.01273419	      0.02171720	      0.03213751
      5.18644068	      0.01279411	      0.02176823	      0.03427182
      5.20338983	      0.01289482	      0.02185374	      0.03713434
      5.22033898	      0.01307683	      0.02200743	      0.03945840
      5.23728814	      0.01339148	      0.02227062	      0.04108836
      5.25423729	      0.01378389	      0.02259456	      0.04269337
      5.27118644	      0.01409579	      0.02284877	      0.04191176
      5.28813559	      0.01415927	      0.02290016	      0.03914006
      5.30508475	      0.01396769	      0.02274471	      0.03560359
      5.32203390	      0.01369058	      0.02251796	      0.03401500
      5.33898305	      0.01362443	      0.02246349	      0.03481505
      5.35593220	      0.01406817	      0.02282637	      0.03587424
      5.37288136	      0.01532033	      0.02382057	      0.03735361
      5.38983051	      0.01757632	      0.02551420	      0.04161646
      5.40677966	      0.02073641	      0.02771308	      0.05188794
      5.42372881	      0.02421751	      0.02994904	      0.06202656
      5.44067797	      0.02711331	      0.03168906	      0.06988410
      5.45762712	      0.02865424	      0.03257711	      0.07327824
      5.47457627	      0.02871624	      0.03261234	      0.07192689
      5.49152542	      0.02792167	      0.03215799	      0.06694422
      5.50847458	      0.02699908	      0.03162224	      0.06069292
      5.52542373	      0.02626417	      0.03118889	      0.05525438
      5.54237288	      0.02562027	      0.03080420	      0.05603252
      5.55932203	      0.02492023	      0.03038045	      0.05534843
      5.57627119	      0.02424770	      0.02996770	      0.05459293
      5.59322034	      0.02366584	      0.02960596	      0.05429654
      5.61016949	      0.02327581	      0.02936098	      0.05452807
      5.62711864	      0.02315520	      0.02928481	      0.05526811
      5.64406780	      0.02332600	      0.02939262	      0.05624233
      5.66101695	      0.02384727	      0.02971922	      0.05759572
      5.67796610	      0.02455439	      0.03015662	      0.05863742
      5.69491525	      0.02540336	      0.03067353	      0.05952243
      5.71186441	      0.02633604	      0.03123154	      0.05945641
      5.72881356	      0.02711702	      0.03169123	      0.05898349
      5.74576271	      0.02760102	      0.03197280	      0.05856290
      5.76271186	      0.02781727	      0.03209781	      0.05768765
      5.77966102	      0.02816846	      0.03229979	      0.05714614
