Model Marker Errors from IK
version=1
nRows=506
nColumns=4
inDegrees=no
endheader
time	total_squared_error	marker_error_RMS	marker_error_max
      0.00000000	      0.02347464	      0.02948611	      0.04689291
      0.02272727	      0.01911842	      0.02660995	      0.04076080
      0.04545455	      0.01756861	      0.02550861	      0.04030046
      0.06818182	      0.01740075	      0.02538646	      0.04178653
      0.09090909	      0.01789704	      0.02574594	      0.04406457
      0.11363636	      0.01875620	      0.02635667	      0.04584972
      0.13636364	      0.01897633	      0.02651089	      0.04945008
      0.15909091	      0.01935612	      0.02677486	      0.05334252
      0.18181818	      0.01974660	      0.02704359	      0.05617332
      0.20454545	      0.01999507	      0.02721320	      0.05672297
      0.22727273	      0.02045121	      0.02752185	      0.05556962
      0.25000000	      0.02118007	      0.02800798	      0.05413048
      0.27272727	      0.02172960	      0.02836900	      0.05383549
      0.29545455	      0.02183643	      0.02843865	      0.05383974
      0.31818182	      0.02142926	      0.02817226	      0.05225603
      0.34090909	      0.02065181	      0.02765650	      0.05286233
      0.36363636	      0.01984922	      0.02711377	      0.05319400
      0.38636364	      0.01925257	      0.02670315	      0.05346068
      0.40909091	      0.01902976	      0.02654818	      0.05380284
      0.43181818	      0.01891563	      0.02646845	      0.05362637
      0.45454545	      0.01887447	      0.02643964	      0.05309968
      0.47727273	      0.01877595	      0.02637054	      0.05206512
      0.50000000	      0.01859253	      0.02624142	      0.05070742
      0.52272727	      0.01836822	      0.02608265	      0.04926525
      0.54545455	      0.01817847	      0.02594758	      0.04801627
      0.56818182	      0.01798441	      0.02580871	      0.04681658
      0.59090909	      0.01782862	      0.02569668	      0.04607647
      0.61363636	      0.01766459	      0.02557819	      0.04567186
      0.63636364	      0.01755988	      0.02550228	      0.04575657
      0.65909091	      0.01760781	      0.02553705	      0.04601113
      0.68181818	      0.01776021	      0.02564733	      0.04651837
      0.70454545	      0.01790027	      0.02574826	      0.04694796
      0.72727273	      0.01809971	      0.02589131	      0.04729483
      0.75000000	      0.01851807	      0.02618883	      0.04753628
      0.77272727	      0.01914877	      0.02663107	      0.04794420
      0.79545455	      0.01977009	      0.02705967	      0.04864546
      0.81818182	      0.02015312	      0.02732054	      0.04991864
      0.84090909	      0.02056255	      0.02759666	      0.05119990
      0.86363636	      0.02115587	      0.02799197	      0.05229174
      0.88636364	      0.02169190	      0.02834438	      0.05292973
      0.90909091	      0.02192272	      0.02849478	      0.05297306
      0.93181818	      0.02184475	      0.02844407	      0.05264478
      0.95454545	      0.02165073	      0.02831747	      0.05232709
      0.97727273	      0.02143356	      0.02817509	      0.05215932
      1.00000000	      0.02107774	      0.02794024	      0.05217682
      1.02272727	      0.02060302	      0.02762381	      0.05236389
      1.04545455	      0.02029839	      0.02741883	      0.05267510
      1.06818182	      0.02034049	      0.02744725	      0.05320953
      1.09090909	      0.02058157	      0.02760942	      0.05377406
      1.11363636	      0.02077494	      0.02773882	      0.05454332
      1.13636364	      0.02082818	      0.02777434	      0.05568435
      1.15909091	      0.02091415	      0.02783160	      0.05727274
      1.18181818	      0.02116874	      0.02800049	      0.05930172
      1.20454545	      0.02162998	      0.02830389	      0.06142784
      1.22727273	      0.02213812	      0.02863443	      0.06330470
      1.25000000	      0.02275519	      0.02903075	      0.06467563
      1.27272727	      0.02344416	      0.02946697	      0.06576223
      1.29545455	      0.02422944	      0.02995641	      0.06660367
      1.31818182	      0.02510430	      0.03049244	      0.06701794
      1.34090909	      0.02599415	      0.03102815	      0.06722816
      1.36363636	      0.02665866	      0.03142225	      0.06715826
      1.38636364	      0.02682656	      0.03152105	      0.06681111
      1.40909091	      0.02656886	      0.03136928	      0.06642946
      1.43181818	      0.02597388	      0.03101605	      0.06565560
      1.45454545	      0.02513299	      0.03050986	      0.06452618
      1.47727273	      0.02428112	      0.02998834	      0.06333232
      1.50000000	      0.02358002	      0.02955223	      0.06185938
      1.52272727	      0.02316327	      0.02928991	      0.06042659
      1.54545455	      0.02302435	      0.02920195	      0.05911706
      1.56818182	      0.02308233	      0.02923869	      0.05798208
      1.59090909	      0.02310182	      0.02925104	      0.05713975
      1.61363636	      0.02284653	      0.02908896	      0.05635478
      1.63636364	      0.02258106	      0.02891946	      0.05603590
      1.65909091	      0.02238669	      0.02879473	      0.05577582
      1.68181818	      0.02224249	      0.02870184	      0.05514187
      1.70454545	      0.02191237	      0.02848806	      0.05423192
      1.72727273	      0.02135860	      0.02812578	      0.05295251
      1.75000000	      0.02051572	      0.02756522	      0.05139503
      1.77272727	      0.01934546	      0.02676749	      0.05022440
      1.79545455	      0.01802808	      0.02584002	      0.04966774
      1.81818182	      0.01703186	      0.02511593	      0.04969875
      1.84090909	      0.01670687	      0.02487515	      0.05049955
      1.86363636	      0.01712385	      0.02518366	      0.05142489
      1.88636364	      0.01813543	      0.02591684	      0.05251604
      1.90909091	      0.01939917	      0.02680462	      0.05335207
      1.93181818	      0.02051752	      0.02756643	      0.05385006
      1.95454545	      0.02112134	      0.02796912	      0.05402335
      1.97727273	      0.02146485	      0.02819565	      0.05400421
      2.00000000	      0.02215518	      0.02864546	      0.05369889
      2.02272727	      0.02323603	      0.02933588	      0.05284258
      2.04545455	      0.02434443	      0.03002741	      0.05146492
      2.06818182	      0.02534550	      0.03063857	      0.05336776
      2.09090909	      0.02631551	      0.03121936	      0.05476552
      2.11363636	      0.02696440	      0.03160192	      0.05410399
      2.13636364	      0.02544514	      0.03069874	      0.05040239
      2.15909091	      0.02470874	      0.03025125	      0.04709384
      2.18181818	      0.02451394	      0.03013177	      0.04765685
      2.20454545	      0.02565654	      0.03082600	      0.05213690
      2.22727273	      0.02754879	      0.03194254	      0.05682660
      2.25000000	      0.02717770	      0.03172667	      0.05891528
      2.27272727	      0.02569634	      0.03084990	      0.05680779
      2.29545455	      0.02280208	      0.02906065	      0.05125451
      2.31818182	      0.01964427	      0.02697342	      0.04308137
      2.34090909	      0.01698963	      0.02508477	      0.04112269
      2.36363636	      0.01539971	      0.02388220	      0.04101156
      2.38636364	      0.01474781	      0.02337125	      0.04157066
      2.40909091	      0.01463318	      0.02328024	      0.04163468
      2.43181818	      0.01455189	      0.02321549	      0.04196971
      2.45454545	      0.01455183	      0.02321544	      0.04190749
      2.47727273	      0.01467553	      0.02331391	      0.04140201
      2.50000000	      0.01485739	      0.02345791	      0.04072209
      2.52272727	      0.01497352	      0.02354941	      0.04000443
      2.54545455	      0.01555430	      0.02400177	      0.03930334
      2.56818182	      0.01669277	      0.02486465	      0.04035754
      2.59090909	      0.01642152	      0.02466180	      0.04050875
      2.61363636	      0.01609552	      0.02441578	      0.04050532
      2.63636364	      0.01554885	      0.02399757	      0.04133589
      2.65909091	      0.01499266	      0.02356446	      0.04195032
      2.68181818	      0.01471989	      0.02334911	      0.04251025
      2.70454545	      0.01469560	      0.02332984	      0.04158530
      2.72727273	      0.01477872	      0.02339573	      0.04008311
      2.75000000	      0.01489830	      0.02349018	      0.03792054
      2.77272727	      0.01545619	      0.02392596	      0.04092225
      2.79545455	      0.01639291	      0.02464031	      0.04463385
      2.81818182	      0.01773358	      0.02562809	      0.05158892
      2.84090909	      0.01960871	      0.02694900	      0.05881447
      2.86363636	      0.02229507	      0.02873575	      0.06747877
      2.88636364	      0.02562014	      0.03080413	      0.07617754
      2.90909091	      0.02843656	      0.03245314	      0.08329078
      2.93181818	      0.03031489	      0.03350781	      0.08891689
      2.95454545	      0.03248585	      0.03468688	      0.09637621
      2.97727273	      0.03557658	      0.03629946	      0.10573807
      3.00000000	      0.03753308	      0.03728423	      0.11151770
      3.02272727	      0.03598370	      0.03650657	      0.10803962
      3.04545455	      0.03130400	      0.03405007	      0.09496210
      3.06818182	      0.02548144	      0.03072063	      0.07504793
      3.09090909	      0.02201658	      0.02855572	      0.05890361
      3.11363636	      0.02100272	      0.02789047	      0.05229485
      3.13636364	      0.02075191	      0.02772344	      0.05392084
      3.15909091	      0.01967372	      0.02699363	      0.05127309
      3.18181818	      0.01831171	      0.02604249	      0.04529456
      3.20454545	      0.01691781	      0.02503169	      0.04670598
      3.22727273	      0.01613792	      0.02444792	      0.04675367
      3.25000000	      0.01604596	      0.02437816	      0.04506402
      3.27272727	      0.01644358	      0.02467836	      0.04261271
      3.29545455	      0.01661322	      0.02480533	      0.03981536
      3.31818182	      0.01639378	      0.02464096	      0.03798225
      3.34090909	      0.01583136	      0.02421460	      0.03730336
      3.36363636	      0.01532296	      0.02382261	      0.03831454
      3.38636364	      0.01518594	      0.02371586	      0.03950013
      3.40909091	      0.01537692	      0.02386452	      0.04040948
      3.43181818	      0.01613691	      0.02444715	      0.04091386
      3.45454545	      0.01726814	      0.02528954	      0.04126215
      3.47727273	      0.01826183	      0.02600700	      0.04138285
      3.50000000	      0.01914450	      0.02662810	      0.04390042
      3.52272727	      0.01997256	      0.02719788	      0.04689754
      3.54545455	      0.02041840	      0.02749976	      0.04935290
      3.56818182	      0.02039422	      0.02748347	      0.05123121
      3.59090909	      0.02026725	      0.02739779	      0.05274685
      3.61363636	      0.01998649	      0.02720736	      0.05398956
      3.63636364	      0.01989284	      0.02714354	      0.05417940
      3.65909091	      0.01994561	      0.02717952	      0.05352410
      3.68181818	      0.02024326	      0.02738157	      0.05221106
      3.70454545	      0.02054148	      0.02758252	      0.05136110
      3.72727273	      0.02044855	      0.02752006	      0.05108416
      3.75000000	      0.01981281	      0.02708888	      0.04988537
      3.77272727	      0.01903618	      0.02655266	      0.04919055
      3.79545455	      0.01848724	      0.02616701	      0.04925404
      3.81818182	      0.01812065	      0.02590627	      0.04903683
      3.84090909	      0.01788280	      0.02573570	      0.04871275
      3.86363636	      0.01789128	      0.02574180	      0.04899110
      3.88636364	      0.01810821	      0.02589738	      0.04940713
      3.90909091	      0.01839311	      0.02610031	      0.05019179
      3.93181818	      0.01860364	      0.02624926	      0.05070136
      3.95454545	      0.01879904	      0.02638675	      0.05127273
      3.97727273	      0.01911818	      0.02660979	      0.05159760
      4.00000000	      0.01927432	      0.02671822	      0.05316463
      4.02272727	      0.01954939	      0.02690820	      0.05321998
      4.04545455	      0.01987288	      0.02712992	      0.05298598
      4.06818182	      0.02027383	      0.02740223	      0.05361773
      4.09090909	      0.02099313	      0.02788411	      0.05245748
      4.11363636	      0.02192908	      0.02849891	      0.05009577
      4.13636364	      0.02287234	      0.02910539	      0.04849444
      4.15909091	      0.02384254	      0.02971627	      0.04895626
      4.18181818	      0.02470849	      0.03025111	      0.05058754
      4.20454545	      0.02521678	      0.03056068	      0.05315245
      4.22727273	      0.02512522	      0.03050514	      0.05474995
      4.25000000	      0.02450380	      0.03012554	      0.05590902
      4.27272727	      0.02375056	      0.02965890	      0.05686093
      4.29545455	      0.02293241	      0.02914359	      0.05700327
      4.31818182	      0.02217421	      0.02865775	      0.05573164
      4.34090909	      0.02165093	      0.02831760	      0.05453569
      4.36363636	      0.02159787	      0.02828288	      0.05411494
      4.38636364	      0.02193269	      0.02850126	      0.05479784
      4.40909091	      0.02246131	      0.02884268	      0.05498510
      4.43181818	      0.02289033	      0.02911683	      0.05598571
      4.45454545	      0.02316926	      0.02929370	      0.05562821
      4.47727273	      0.02318905	      0.02930621	      0.05423632
      4.50000000	      0.02304040	      0.02921212	      0.05281439
      4.52272727	      0.02273215	      0.02901605	      0.05061570
      4.54545455	      0.02232219	      0.02875322	      0.04989889
      4.56818182	      0.02186872	      0.02845966	      0.05002169
      4.59090909	      0.02149512	      0.02821552	      0.05016764
      4.61363636	      0.02131457	      0.02809677	      0.05032295
      4.63636364	      0.02124349	      0.02804988	      0.04987611
      4.65909091	      0.02122303	      0.02803637	      0.04903922
      4.68181818	      0.02135490	      0.02812334	      0.04866109
      4.70454545	      0.02153072	      0.02823887	      0.04724801
      4.72727273	      0.02172412	      0.02836542	      0.04619798
      4.75000000	      0.02189311	      0.02847553	      0.04529028
      4.77272727	      0.02208249	      0.02859843	      0.04541323
      4.79545455	      0.02232309	      0.02875380	      0.04574899
      4.81818182	      0.02260671	      0.02893589	      0.04629208
      4.84090909	      0.02285094	      0.02909177	      0.04651089
      4.86363636	      0.02313789	      0.02927386	      0.04668580
      4.88636364	      0.02354623	      0.02953104	      0.04679503
      4.90909091	      0.02410538	      0.02987962	      0.04656157
      4.93181818	      0.02479429	      0.03030358	      0.04690446
      4.95454545	      0.02541186	      0.03067866	      0.04884064
      4.97727273	      0.02587946	      0.03095962	      0.05119621
      5.00000000	      0.02608075	      0.03107980	      0.05242612
      5.02272727	      0.02606984	      0.03107329	      0.05231581
      5.04545455	      0.02583417	      0.03093252	      0.05057443
      5.06818182	      0.02529775	      0.03060970	      0.04763031
      5.09090909	      0.02457843	      0.03017138	      0.04660780
      5.11363636	      0.02367834	      0.02961377	      0.04614347
      5.13636364	      0.02277966	      0.02904636	      0.04569229
      5.15909091	      0.02215988	      0.02864850	      0.04573139
      5.18181818	      0.02192908	      0.02849891	      0.04664173
      5.20454545	      0.02199115	      0.02853922	      0.04777954
      5.22727273	      0.02216547	      0.02865211	      0.04908860
      5.25000000	      0.02246276	      0.02884361	      0.04990543
      5.27272727	      0.02252727	      0.02888500	      0.05134092
      5.29545455	      0.02223326	      0.02869589	      0.05234478
      5.31818182	      0.02143058	      0.02817313	      0.05547303
      5.34090909	      0.01996450	      0.02719238	      0.04946100
      5.36363636	      0.01848619	      0.02616627	      0.04676153
      5.38636364	      0.01720851	      0.02524583	      0.04177918
      5.40909091	      0.01641276	      0.02465522	      0.04047195
      5.43181818	      0.01602693	      0.02436370	      0.03937027
      5.45454545	      0.01597152	      0.02432155	      0.03883276
      5.47727273	      0.01603864	      0.02437260	      0.03867712
      5.50000000	      0.01589217	      0.02426106	      0.03842738
      5.52272727	      0.01576551	      0.02416418	      0.03834485
      5.54545455	      0.01589512	      0.02426331	      0.03902156
      5.56818182	      0.01602852	      0.02436491	      0.03853767
      5.59090909	      0.01597740	      0.02432603	      0.03951842
      5.61363636	      0.01594743	      0.02430320	      0.04099878
      5.63636364	      0.01615437	      0.02446038	      0.04252440
      5.65909091	      0.01663450	      0.02482121	      0.04380482
      5.68181818	      0.01704183	      0.02512328	      0.04400454
      5.70454545	      0.01769573	      0.02560073	      0.04392453
      5.72727273	      0.01926307	      0.02671043	      0.04761999
      5.75000000	      0.02250173	      0.02886863	      0.05636126
      5.77272727	      0.02702980	      0.03164022	      0.06547125
      5.79545455	      0.03100330	      0.03388614	      0.06996875
      5.81818182	      0.03264282	      0.03477058	      0.07744206
      5.84090909	      0.03168596	      0.03425717	      0.07836453
      5.86363636	      0.02891228	      0.03272346	      0.06952116
      5.88636364	      0.02598708	      0.03102393	      0.05721966
      5.90909091	      0.02389735	      0.02975041	      0.05582215
      5.93181818	      0.02255346	      0.02890179	      0.05404167
      5.95454545	      0.02165565	      0.02832068	      0.05271677
      5.97727273	      0.02112317	      0.02797034	      0.05142293
      6.00000000	      0.02096720	      0.02786688	      0.05006800
      6.02272727	      0.02133732	      0.02811176	      0.04960092
      6.04545455	      0.02246994	      0.02884822	      0.05050842
      6.06818182	      0.02393548	      0.02977414	      0.05185682
      6.09090909	      0.02475508	      0.03027961	      0.05058443
      6.11363636	      0.02434713	      0.03002908	      0.04829846
      6.13636364	      0.02319433	      0.02930954	      0.04610129
      6.15909091	      0.02171801	      0.02836143	      0.04433006
      6.18181818	      0.02030059	      0.02742031	      0.04411028
      6.20454545	      0.01923438	      0.02669053	      0.04267104
      6.22727273	      0.01855934	      0.02621799	      0.04053311
      6.25000000	      0.01839991	      0.02610514	      0.04536155
      6.27272727	      0.01921606	      0.02667782	      0.05502112
      6.29545455	      0.02135857	      0.02812576	      0.06904907
      6.31818182	      0.01702111	      0.02510800	      0.04400212
      6.34090909	      0.01653292	      0.02474531	      0.04532091
      6.36363636	      0.01611462	      0.02443026	      0.04551648
      6.38636364	      0.01763538	      0.02555704	      0.04500819
      6.40909091	      0.02020374	      0.02735483	      0.05341358
      6.43181818	      0.02156518	      0.02826146	      0.06091599
      6.45454545	      0.02088747	      0.02781385	      0.05611873
      6.47727273	      0.01955431	      0.02691159	      0.05111444
      6.50000000	      0.01898245	      0.02651516	      0.05211610
      6.52272727	      0.01909727	      0.02659523	      0.05212494
      6.54545455	      0.01925817	      0.02670703	      0.05138979
      6.56818182	      0.01916589	      0.02664297	      0.05057650
      6.59090909	      0.01893989	      0.02648542	      0.05033245
      6.61363636	      0.01880522	      0.02639109	      0.05013420
      6.63636364	      0.01873877	      0.02634442	      0.05012498
      6.65909091	      0.01840749	      0.02611052	      0.05019525
      6.68181818	      0.01790653	      0.02575277	      0.04992448
      6.70454545	      0.01725363	      0.02527891	      0.04978125
      6.72727273	      0.01665043	      0.02483309	      0.04907022
      6.75000000	      0.01621531	      0.02450647	      0.04818406
      6.77272727	      0.01595770	      0.02431102	      0.04708207
      6.79545455	      0.01598130	      0.02432900	      0.04596365
      6.81818182	      0.01623820	      0.02452376	      0.04542517
      6.84090909	      0.01666801	      0.02484620	      0.04576150
      6.86363636	      0.01714485	      0.02519910	      0.04639359
      6.88636364	      0.01765019	      0.02556777	      0.04740452
      6.90909091	      0.01811228	      0.02590030	      0.04883889
      6.93181818	      0.01845226	      0.02614225	      0.05204616
      6.95454545	      0.01893175	      0.02647973	      0.05547597
      6.97727273	      0.01935162	      0.02677175	      0.05724009
      7.00000000	      0.01961930	      0.02695628	      0.05846501
      7.02272727	      0.01988080	      0.02713532	      0.05957961
      7.04545455	      0.02009242	      0.02727936	      0.06089238
      7.06818182	      0.02027607	      0.02740375	      0.06146929
      7.09090909	      0.02046793	      0.02753310	      0.06143240
      7.11363636	      0.02047113	      0.02753525	      0.06001788
      7.13636364	      0.02016425	      0.02732809	      0.05558232
      7.15909091	      0.01993679	      0.02717351	      0.05519001
      7.18181818	      0.01941329	      0.02681437	      0.05548230
      7.20454545	      0.01877730	      0.02637149	      0.05807984
      7.22727273	      0.01835792	      0.02607533	      0.06112620
      7.25000000	      0.01847542	      0.02615865	      0.06406389
      7.27272727	      0.01907400	      0.02657902	      0.06699671
      7.29545455	      0.02001450	      0.02722642	      0.06917056
      7.31818182	      0.02114014	      0.02798157	      0.07072258
      7.34090909	      0.02205081	      0.02857791	      0.07227190
      7.36363636	      0.02228934	      0.02873206	      0.07339201
      7.38636364	      0.02196252	      0.02852063	      0.07430879
      7.40909091	      0.02149836	      0.02821764	      0.07367440
      7.43181818	      0.02109420	      0.02795115	      0.07177883
      7.45454545	      0.02097796	      0.02787403	      0.06770008
      7.47727273	      0.02113904	      0.02798084	      0.06231104
      7.50000000	      0.02151910	      0.02823126	      0.05722089
      7.52272727	      0.02195227	      0.02851398	      0.05305142
      7.54545455	      0.02211016	      0.02861634	      0.04870494
      7.56818182	      0.02201958	      0.02855766	      0.04925057
      7.59090909	      0.02181215	      0.02842283	      0.04964073
      7.61363636	      0.02165026	      0.02831716	      0.04947704
      7.63636364	      0.02157458	      0.02826762	      0.04873802
      7.65909091	      0.02146808	      0.02819777	      0.04902566
      7.68181818	      0.02150173	      0.02821986	      0.04944649
      7.70454545	      0.02153771	      0.02824346	      0.05059320
      7.72727273	      0.02152284	      0.02823371	      0.05134207
      7.75000000	      0.02139120	      0.02814723	      0.05283672
      7.77272727	      0.02125590	      0.02805808	      0.05251969
      7.79545455	      0.02111235	      0.02796317	      0.05279706
      7.81818182	      0.02100547	      0.02789230	      0.05235258
      7.84090909	      0.02090952	      0.02782853	      0.05142973
      7.86363636	      0.02081432	      0.02776510	      0.04901092
      7.88636364	      0.02092502	      0.02783884	      0.04958214
      7.90909091	      0.02122594	      0.02803830	      0.05158806
      7.93181818	      0.02141605	      0.02816358	      0.05325421
      7.95454545	      0.02098229	      0.02787690	      0.05257271
      7.97727273	      0.02018710	      0.02734356	      0.04993247
      8.00000000	      0.01986548	      0.02712487	      0.04786205
      8.02272727	      0.02022728	      0.02737076	      0.04658873
      8.04545455	      0.02093682	      0.02784668	      0.04633540
      8.06818182	      0.02167114	      0.02833081	      0.05092350
      8.09090909	      0.02224800	      0.02870540	      0.05533722
      8.11363636	      0.02262185	      0.02894558	      0.06043452
      8.13636364	      0.02288769	      0.02911515	      0.06426007
      8.15909091	      0.02311150	      0.02925716	      0.06585173
      8.18181818	      0.02316578	      0.02929150	      0.06444192
      8.20454545	      0.02289973	      0.02912281	      0.06076219
      8.22727273	      0.02259692	      0.02892962	      0.05662190
      8.25000000	      0.02218882	      0.02866719	      0.05214714
      8.27272727	      0.02181261	      0.02842313	      0.04714233
      8.29545455	      0.02150648	      0.02822297	      0.04369274
      8.31818182	      0.02116186	      0.02799594	      0.04589224
      8.34090909	      0.02053102	      0.02757550	      0.04642937
      8.36363636	      0.01950655	      0.02687870	      0.04349606
      8.38636364	      0.01811197	      0.02590007	      0.03851525
      8.40909091	      0.01663746	      0.02482342	      0.03631017
      8.43181818	      0.01544031	      0.02391366	      0.03892689
      8.45454545	      0.01490810	      0.02349791	      0.04150028
      8.47727273	      0.01545498	      0.02392502	      0.04369796
      8.50000000	      0.01716196	      0.02521166	      0.04529410
      8.52272727	      0.02000234	      0.02721815	      0.05981122
      8.54545455	      0.02325136	      0.02934555	      0.07554573
      8.56818182	      0.02534068	      0.03063566	      0.08505937
      8.59090909	      0.02490205	      0.03036936	      0.08473260
      8.61363636	      0.02226607	      0.02871705	      0.07375418
      8.63636364	      0.01981546	      0.02709070	      0.05927071
      8.65909091	      0.01888191	      0.02644485	      0.05318954
      8.68181818	      0.01920116	      0.02666747	      0.05454777
      8.70454545	      0.02030556	      0.02742367	      0.05557422
      8.72727273	      0.02166852	      0.02832910	      0.05632081
      8.75000000	      0.02281478	      0.02906875	      0.05676743
      8.77272727	      0.02345047	      0.02947093	      0.05688202
      8.79545455	      0.02365628	      0.02959997	      0.05656585
      8.81818182	      0.02366693	      0.02960664	      0.05588285
      8.84090909	      0.02341471	      0.02944845	      0.05788874
      8.86363636	      0.02268538	      0.02898619	      0.05952959
      8.88636364	      0.02140833	      0.02815850	      0.06081399
      8.90909091	      0.01998722	      0.02720785	      0.05657703
      8.93181818	      0.01847683	      0.02615964	      0.05194181
      8.95454545	      0.01701687	      0.02510487	      0.05124794
      8.97727273	      0.01604628	      0.02437840	      0.05095939
      9.00000000	      0.01537945	      0.02386649	      0.05098091
      9.02272727	      0.01485837	      0.02345869	      0.05112655
      9.04545455	      0.01469298	      0.02332776	      0.05094725
      9.06818182	      0.01499124	      0.02356334	      0.05072909
      9.09090909	      0.01574646	      0.02414958	      0.05068860
      9.11363636	      0.01698146	      0.02507874	      0.05063872
      9.13636364	      0.01808656	      0.02588190	      0.05037628
      9.15909091	      0.01855945	      0.02621806	      0.05018090
      9.18181818	      0.01879368	      0.02638299	      0.05015889
      9.20454545	      0.01949565	      0.02687119	      0.05048077
      9.22727273	      0.02067669	      0.02767315	      0.05124837
      9.25000000	      0.02213531	      0.02863261	      0.05226429
      9.27272727	      0.02394258	      0.02977856	      0.05353907
      9.29545455	      0.02558691	      0.03078414	      0.05485048
      9.31818182	      0.02675410	      0.03147845	      0.05597970
      9.34090909	      0.02682285	      0.03151887	      0.05664108
      9.36363636	      0.02699722	      0.03162115	      0.05698531
      9.38636364	      0.02606326	      0.03106937	      0.05658427
      9.40909091	      0.02426957	      0.02998121	      0.05549693
      9.43181818	      0.02247669	      0.02885255	      0.05397270
      9.45454545	      0.02114517	      0.02798490	      0.05196951
      9.47727273	      0.02042737	      0.02750581	      0.04994627
      9.50000000	      0.02031847	      0.02743239	      0.04801660
      9.52272727	      0.02063424	      0.02764473	      0.04609909
      9.54545455	      0.02104909	      0.02792125	      0.04675938
      9.56818182	      0.02096474	      0.02786525	      0.05220498
      9.59090909	      0.01927357	      0.02671771	      0.05078121
      9.61363636	      0.01868982	      0.02630999	      0.05176811
      9.63636364	      0.01842635	      0.02612388	      0.05170212
      9.65909091	      0.01850796	      0.02618167	      0.05228556
      9.68181818	      0.01896760	      0.02650479	      0.05315476
      9.70454545	      0.01949579	      0.02687129	      0.05386468
      9.72727273	      0.01940322	      0.02680742	      0.05007115
      9.75000000	      0.01896592	      0.02650361	      0.04864695
      9.77272727	      0.01830219	      0.02603573	      0.04597787
      9.79545455	      0.01763100	      0.02555386	      0.04350887
      9.81818182	      0.01695967	      0.02506264	      0.04411907
      9.84090909	      0.01625485	      0.02453633	      0.04401792
      9.86363636	      0.01564017	      0.02406793	      0.04404013
      9.88636364	      0.01516568	      0.02370004	      0.04534366
      9.90909091	      0.01491864	      0.02350621	      0.04632449
      9.93181818	      0.01506676	      0.02362262	      0.04662550
      9.95454545	      0.01577954	      0.02417494	      0.04622034
      9.97727273	      0.01730725	      0.02531816	      0.04545640
     10.00000000	      0.01951970	      0.02688776	      0.04880429
     10.02272727	      0.02161049	      0.02829114	      0.05743981
     10.04545455	      0.02273131	      0.02901552	      0.05256868
     10.06818182	      0.02261440	      0.02894081	      0.04810171
     10.09090909	      0.02161896	      0.02829668	      0.04912563
     10.11363636	      0.02101120	      0.02789610	      0.04975478
     10.13636364	      0.02109388	      0.02795094	      0.04999587
     10.15909091	      0.02162531	      0.02830083	      0.05075317
     10.18181818	      0.02270871	      0.02900109	      0.05055445
     10.20454545	      0.02402170	      0.02982772	      0.04911488
     10.22727273	      0.02361022	      0.02957115	      0.04947214
     10.25000000	      0.02367386	      0.02961097	      0.05606197
     10.27272727	      0.02363761	      0.02958829	      0.06472053
     10.29545455	      0.02397758	      0.02980031	      0.07139668
     10.31818182	      0.02440246	      0.03006318	      0.07628210
     10.34090909	      0.02493490	      0.03038939	      0.08175346
     10.36363636	      0.02663614	      0.03140898	      0.08878129
     10.38636364	      0.03018029	      0.03343335	      0.09693592
     10.40909091	      0.03400111	      0.03548662	      0.10300850
     10.43181818	      0.03587820	      0.03645301	      0.10462197
     10.45454545	      0.03494688	      0.03597678	      0.10147189
     10.47727273	      0.03158053	      0.03420014	      0.09593593
     10.50000000	      0.02709452	      0.03167808	      0.08933233
     10.52272727	      0.02339152	      0.02943387	      0.08277798
     10.54545455	      0.02135170	      0.02812123	      0.07758383
     10.56818182	      0.01997025	      0.02719630	      0.07349696
     10.59090909	      0.01929731	      0.02673416	      0.07178187
     10.61363636	      0.01631931	      0.02458494	      0.04557310
     10.63636364	      0.01626546	      0.02454433	      0.04722325
     10.65909091	      0.01689511	      0.02501489	      0.05085938
     10.68181818	      0.01807976	      0.02587703	      0.05502557
     10.70454545	      0.01947232	      0.02685511	      0.05882350
     10.72727273	      0.02080893	      0.02776150	      0.06158586
     10.75000000	      0.02174538	      0.02837929	      0.06216530
     10.77272727	      0.02207491	      0.02859352	      0.05935451
     10.79545455	      0.02204030	      0.02857110	      0.05451998
     10.81818182	      0.02201489	      0.02855462	      0.05179933
     10.84090909	      0.02131306	      0.02809578	      0.05178914
     10.86363636	      0.02263818	      0.02895602	      0.05208289
     10.88636364	      0.02395798	      0.02978813	      0.05138523
     10.90909091	      0.02448950	      0.03011675	      0.04985017
     10.93181818	      0.02445096	      0.03009304	      0.04818239
     10.95454545	      0.02437035	      0.03004339	      0.04700641
     10.97727273	      0.02440124	      0.03006243	      0.04639042
     11.00000000	      0.02455658	      0.03015797	      0.04917542
     11.02272727	      0.02490157	      0.03036907	      0.05084433
     11.04545455	      0.02519213	      0.03054573	      0.05087927
     11.06818182	      0.02508973	      0.03048359	      0.05331909
     11.09090909	      0.02492837	      0.03038540	      0.05397803
     11.11363636	      0.02532242	      0.03062462	      0.05203635
     11.13636364	      0.02584757	      0.03094054	      0.05488450
     11.15909091	      0.02591763	      0.03098245	      0.06094803
     11.18181818	      0.02564382	      0.03081835	      0.06474420
     11.20454545	      0.02508759	      0.03048229	      0.06905425
     11.22727273	      0.02468838	      0.03023879	      0.07304287
     11.25000000	      0.02447954	      0.03011062	      0.07591048
     11.27272727	      0.02442350	      0.03007614	      0.07719565
     11.29545455	      0.02449231	      0.03011848	      0.07809782
     11.31818182	      0.01881453	      0.02639762	      0.07568014
     11.34090909	      0.01770148	      0.02560489	      0.07297748
     11.36363636	      0.01683453	      0.02497000	      0.06834639
     11.38636364	      0.01623916	      0.02452449	      0.06136502
     11.40909091	      0.01636851	      0.02462197	      0.05534580
     11.43181818	      0.01741350	      0.02539576	      0.05226419
     11.45454545	      0.01983946	      0.02710710	      0.05255853
     11.47727273	      0.02410661	      0.02988039	      0.06283775
