Model Marker Errors from IK
version=1
nRows=154
nColumns=4
inDegrees=no
endheader
time	total_squared_error	marker_error_RMS	marker_error_max
      0.00000000	      0.01285969	      0.02182395	      0.05054642
      0.02500000	      0.01287444	      0.02183646	      0.05201906
      0.05000000	      0.01312443	      0.02204745	      0.05319199
      0.07500000	      0.01346282	      0.02232987	      0.05419890
      0.10000000	      0.01383384	      0.02263547	      0.05475861
      0.12500000	      0.01427289	      0.02299186	      0.05529958
      0.15000000	      0.01472275	      0.02335138	      0.05570095
      0.17500000	      0.01514459	      0.02368355	      0.05628654
      0.20000000	      0.01546871	      0.02393565	      0.05671914
      0.22500000	      0.01568322	      0.02410104	      0.05691695
      0.25000000	      0.01579050	      0.02418333	      0.05725010
      0.27500000	      0.01584565	      0.02422552	      0.05749597
      0.30000000	      0.01589702	      0.02426476	      0.05779593
      0.32500000	      0.01602080	      0.02435904	      0.05817253
      0.35000000	      0.01618763	      0.02448555	      0.05884145
      0.37500000	      0.01643084	      0.02466880	      0.05959577
      0.40000000	      0.01681503	      0.02495554	      0.06044133
      0.42500000	      0.01730034	      0.02531311	      0.06133978
      0.45000000	      0.01793126	      0.02577054	      0.06211835
      0.47500000	      0.01853376	      0.02619991	      0.06313429
      0.50000000	      0.01896360	      0.02650199	      0.06405148
      0.52500000	      0.01942107	      0.02681975	      0.06511769
      0.55000000	      0.02006844	      0.02726308	      0.06604558
      0.57500000	      0.02091181	      0.02783004	      0.06697743
      0.60000000	      0.02185117	      0.02844825	      0.06824293
      0.62500000	      0.02254022	      0.02889330	      0.06960037
      0.65000000	      0.02256615	      0.02890992	      0.06993750
      0.67500000	      0.02201332	      0.02855360	      0.06893626
      0.70000000	      0.02112885	      0.02797410	      0.06718858
      0.72500000	      0.02012114	      0.02729885	      0.06544763
      0.75000000	      0.01922748	      0.02668574	      0.06430491
      0.77500000	      0.01865730	      0.02628709	      0.06358655
      0.80000000	      0.01838125	      0.02609190	      0.06326922
      0.82500000	      0.01854455	      0.02620754	      0.06325672
      0.85000000	      0.01903589	      0.02655246	      0.06367615
      0.87500000	      0.01937497	      0.02678790	      0.06409838
      0.90000000	      0.01922723	      0.02668557	      0.06414734
      0.92500000	      0.01885006	      0.02642254	      0.06386386
      0.95000000	      0.01844063	      0.02613401	      0.06315529
      0.97500000	      0.01819110	      0.02595659	      0.06260403
      1.00000000	      0.01825500	      0.02600214	      0.06260852
      1.02500000	      0.01846885	      0.02615400	      0.06295860
      1.05000000	      0.01860577	      0.02625076	      0.06372112
      1.07500000	      0.01861968	      0.02626058	      0.06461187
      1.10000000	      0.01854756	      0.02620967	      0.06558878
      1.12500000	      0.01831418	      0.02604425	      0.06624235
      1.15000000	      0.01818480	      0.02595209	      0.06684552
      1.17500000	      0.01831493	      0.02604478	      0.06743060
      1.20000000	      0.01886478	      0.02643285	      0.06797157
      1.22500000	      0.01967286	      0.02699304	      0.06834697
      1.25000000	      0.02025466	      0.02738928	      0.06770195
      1.27500000	      0.02071414	      0.02769820	      0.06744062
      1.30000000	      0.02104871	      0.02792099	      0.06648519
      1.32500000	      0.02144472	      0.02818242	      0.06586199
      1.35000000	      0.02185902	      0.02845336	      0.06517963
      1.37500000	      0.02224941	      0.02870631	      0.06438390
      1.40000000	      0.02259748	      0.02892998	      0.06342338
      1.42500000	      0.02275555	      0.02903099	      0.06178625
      1.45000000	      0.02301034	      0.02919306	      0.06031349
      1.47500000	      0.02320785	      0.02931808	      0.05920618
      1.50000000	      0.02317606	      0.02929799	      0.05833557
      1.52500000	      0.02296381	      0.02916353	      0.05775676
      1.55000000	      0.02238780	      0.02879545	      0.05714121
      1.57500000	      0.02176843	      0.02839433	      0.05697049
      1.60000000	      0.02114555	      0.02798515	      0.05729082
      1.62500000	      0.02062638	      0.02763947	      0.05793202
      1.65000000	      0.02022204	      0.02736721	      0.05886978
      1.67500000	      0.02005641	      0.02725490	      0.05965347
      1.70000000	      0.02016652	      0.02732962	      0.06033419
      1.72500000	      0.02046914	      0.02753391	      0.06074173
      1.75000000	      0.02093089	      0.02784274	      0.06122744
      1.77500000	      0.02144912	      0.02818531	      0.06190462
      1.80000000	      0.02189270	      0.02847526	      0.06299301
      1.82500000	      0.02218065	      0.02866192	      0.06425832
      1.85000000	      0.02230151	      0.02873990	      0.06532142
      1.87500000	      0.02226114	      0.02871387	      0.06582368
      1.90000000	      0.02210330	      0.02861190	      0.06573739
      1.92500000	      0.02193689	      0.02850399	      0.06520032
      1.95000000	      0.02173787	      0.02837440	      0.06423495
      1.97500000	      0.02159300	      0.02827969	      0.06288805
      2.00000000	      0.02141845	      0.02816516	      0.06145881
      2.02500000	      0.02121204	      0.02802911	      0.06025860
      2.05000000	      0.02103808	      0.02791394	      0.05938033
      2.07500000	      0.02094634	      0.02785302	      0.05865862
      2.10000000	      0.02080733	      0.02776044	      0.05790338
      2.12500000	      0.02055015	      0.02758834	      0.05687106
      2.15000000	      0.02036069	      0.02746087	      0.05569269
      2.17500000	      0.02034066	      0.02744736	      0.05444655
      2.20000000	      0.02053803	      0.02758021	      0.05348321
      2.22500000	      0.02074569	      0.02771929	      0.05301874
      2.25000000	      0.02079844	      0.02775450	      0.05290355
      2.27500000	      0.02079274	      0.02775070	      0.05417303
      2.30000000	      0.02087119	      0.02780300	      0.05542183
      2.32500000	      0.02080348	      0.02775787	      0.05578387
      2.35000000	      0.02060444	      0.02762476	      0.05299722
      2.37500000	      0.02055186	      0.02758949	      0.05202286
      2.40000000	      0.02038347	      0.02747623	      0.05229766
      2.42500000	      0.02038600	      0.02747794	      0.05293908
      2.45000000	      0.02031586	      0.02743062	      0.05352456
      2.47500000	      0.02024694	      0.02738406	      0.05420013
      2.50000000	      0.02021522	      0.02736260	      0.05524533
      2.52500000	      0.02031541	      0.02743032	      0.05638793
      2.55000000	      0.02038321	      0.02747606	      0.05738073
      2.57500000	      0.02043466	      0.02751071	      0.05871576
      2.60000000	      0.02058609	      0.02761246	      0.06028661
      2.62500000	      0.02088739	      0.02781379	      0.06192337
      2.65000000	      0.02111657	      0.02796596	      0.06347546
      2.67500000	      0.02125873	      0.02805995	      0.06472414
      2.70000000	      0.02134360	      0.02811590	      0.06550491
      2.72500000	      0.02140796	      0.02815826	      0.06571734
      2.75000000	      0.02163880	      0.02830966	      0.06580547
      2.77500000	      0.02198564	      0.02853565	      0.06597625
      2.80000000	      0.02226104	      0.02871381	      0.06610369
      2.82500000	      0.02229943	      0.02873856	      0.06586797
      2.85000000	      0.02216774	      0.02865358	      0.06535562
      2.87500000	      0.02190130	      0.02848086	      0.06455110
      2.90000000	      0.02152854	      0.02823744	      0.06387202
      2.92500000	      0.02116765	      0.02799977	      0.06357092
      2.95000000	      0.02089777	      0.02782070	      0.06320096
      2.97500000	      0.02087818	      0.02780766	      0.06285423
      3.00000000	      0.02124528	      0.02805106	      0.06225130
      3.02500000	      0.02181201	      0.02842274	      0.06176305
      3.05000000	      0.02237396	      0.02878655	      0.06125461
      3.07500000	      0.02274133	      0.02902192	      0.06090959
      3.10000000	      0.02286501	      0.02910073	      0.06040332
      3.12500000	      0.02282356	      0.02907434	      0.05985212
      3.15000000	      0.02263741	      0.02895553	      0.05928780
      3.17500000	      0.02216252	      0.02865020	      0.05853458
      3.20000000	      0.02137707	      0.02813793	      0.05767197
      3.22500000	      0.02071293	      0.02769739	      0.05687894
      3.25000000	      0.02026449	      0.02739593	      0.05600682
      3.27500000	      0.01965813	      0.02698294	      0.05471927
      3.30000000	      0.01921879	      0.02667971	      0.05360317
      3.32500000	      0.01874299	      0.02634738	      0.05282542
      3.35000000	      0.01829752	      0.02603240	      0.05219353
      3.37500000	      0.01827569	      0.02601686	      0.05192069
      3.40000000	      0.01875553	      0.02635620	      0.05177184
      3.42500000	      0.01892232	      0.02647313	      0.05196543
      3.45000000	      0.01784028	      0.02570508	      0.05282921
      3.47500000	      0.01611427	      0.02443000	      0.05378873
      3.50000000	      0.01475779	      0.02337916	      0.05442871
      3.52500000	      0.01397274	      0.02274882	      0.05466135
      3.55000000	      0.01371886	      0.02254120	      0.05498861
      3.57500000	      0.01394312	      0.02272470	      0.05546183
      3.60000000	      0.01449522	      0.02317024	      0.05588613
      3.62500000	      0.01472629	      0.02335419	      0.05655011
      3.65000000	      0.01460962	      0.02326149	      0.05736405
      3.67500000	      0.01489039	      0.02348395	      0.05846974
      3.70000000	      0.01578419	      0.02417850	      0.05972359
      3.72500000	      0.01705047	      0.02512964	      0.06125325
      3.75000000	      0.01827919	      0.02601936	      0.06283063
      3.77500000	      0.01911220	      0.02660563	      0.06476589
      3.80000000	      0.01956120	      0.02691633	      0.06700592
      3.82500000	      0.02181541	      0.02842496	      0.06949500
