Model Marker Errors from IK
version=1
nRows=393
nColumns=4
inDegrees=no
endheader
time	total_squared_error	marker_error_RMS	marker_error_max
      0.00000000	      0.01982072	      0.02709430	      0.04571961
      0.01666667	      0.01924968	      0.02670114	      0.04236914
      0.03333333	      0.01928197	      0.02672353	      0.04102085
      0.05000000	      0.01954227	      0.02690331	      0.04253078
      0.06666667	      0.01983654	      0.02710510	      0.04338207
      0.08333333	      0.02019647	      0.02734991	      0.04424037
      0.10000000	      0.02047502	      0.02753787	      0.04483773
      0.11666667	      0.02063546	      0.02764555	      0.04519652
      0.13333333	      0.02071227	      0.02769695	      0.04552576
      0.15000000	      0.02070937	      0.02769501	      0.04521787
      0.16666667	      0.02072820	      0.02770760	      0.04567741
      0.18333333	      0.02081559	      0.02776595	      0.04572845
      0.20000000	      0.02097314	      0.02787082	      0.04540529
      0.21666667	      0.02112342	      0.02797050	      0.04493901
      0.23333333	      0.02119533	      0.02801807	      0.04473318
      0.25000000	      0.02116664	      0.02799910	      0.04477646
      0.26666667	      0.02099419	      0.02788481	      0.04487989
      0.28333333	      0.02072935	      0.02770837	      0.04492827
      0.30000000	      0.02044100	      0.02751498	      0.04495567
      0.31666667	      0.02024108	      0.02738009	      0.04485445
      0.33333333	      0.02014521	      0.02731518	      0.04469029
      0.35000000	      0.02008879	      0.02727690	      0.04452271
      0.36666667	      0.02004685	      0.02724841	      0.04434028
      0.38333333	      0.01998235	      0.02720454	      0.04459694
      0.40000000	      0.01991979	      0.02716192	      0.04500982
      0.41666667	      0.02000018	      0.02721668	      0.04585654
      0.43333333	      0.02018773	      0.02734399	      0.05030909
      0.45000000	      0.02073153	      0.02770983	      0.05559757
      0.46666667	      0.02155833	      0.02825697	      0.05959980
      0.48333333	      0.02274065	      0.02902148	      0.06305304
      0.50000000	      0.02422064	      0.02995097	      0.06522884
      0.51666667	      0.02618415	      0.03114135	      0.06631365
      0.53333333	      0.02872881	      0.03261947	      0.06693828
      0.55000000	      0.03143210	      0.03411967	      0.06690533
      0.56666667	      0.03404715	      0.03551064	      0.06608291
      0.58333333	      0.03618939	      0.03661076	      0.06747340
      0.60000000	      0.03760152	      0.03731821	      0.06847131
      0.61666667	      0.03818596	      0.03760711	      0.07022750
      0.63333333	      0.03778867	      0.03741097	      0.07122293
      0.65000000	      0.03704533	      0.03704118	      0.07289803
      0.66666667	      0.03602443	      0.03652722	      0.07317565
      0.68333333	      0.03510594	      0.03605856	      0.07337784
      0.70000000	      0.03429517	      0.03563975	      0.07314867
      0.71666667	      0.03345032	      0.03519802	      0.07136088
      0.73333333	      0.03249672	      0.03469268	      0.06873025
      0.75000000	      0.03134868	      0.03407436	      0.06672885
      0.76666667	      0.02970877	      0.03317114	      0.06478549
      0.78333333	      0.02737209	      0.03183993	      0.06245651
      0.80000000	      0.02452777	      0.03014027	      0.05965434
      0.81666667	      0.02145941	      0.02819207	      0.05586382
      0.83333333	      0.01908054	      0.02658358	      0.05094894
      0.85000000	      0.01765236	      0.02556934	      0.04681753
      0.86666667	      0.01722067	      0.02525475	      0.04645315
      0.88333333	      0.01756090	      0.02550301	      0.04629763
      0.90000000	      0.01818654	      0.02595333	      0.04655385
      0.91666667	      0.01878349	      0.02637584	      0.04849779
      0.93333333	      0.01944792	      0.02683828	      0.04982624
      0.95000000	      0.02044788	      0.02751961	      0.05221525
      0.96666667	      0.02178185	      0.02840309	      0.05633292
      0.98333333	      0.02306661	      0.02922874	      0.06122910
      1.00000000	      0.02367555	      0.02961203	      0.06591577
      1.01666667	      0.02309042	      0.02924381	      0.06797998
      1.03333333	      0.02146151	      0.02819345	      0.06618608
      1.05000000	      0.01946895	      0.02685279	      0.06078430
      1.06666667	      0.01769773	      0.02560218	      0.05287767
      1.08333333	      0.01629748	      0.02456848	      0.05122884
      1.10000000	      0.01503627	      0.02359870	      0.05217534
      1.11666667	      0.01408205	      0.02283763	      0.05326947
      1.13333333	      0.01361197	      0.02245322	      0.05414069
      1.15000000	      0.01353264	      0.02238769	      0.05431785
      1.16666667	      0.01384760	      0.02264673	      0.05398963
      1.18333333	      0.01473108	      0.02335799	      0.05336584
      1.20000000	      0.01599535	      0.02433969	      0.05209639
      1.21666667	      0.01794994	      0.02578396	      0.05112969
      1.23333333	      0.02020215	      0.02735376	      0.05043576
      1.25000000	      0.02029295	      0.02741516	      0.05035946
      1.26666667	      0.02005401	      0.02725327	      0.05074099
      1.28333333	      0.01993120	      0.02716970	      0.05125401
      1.30000000	      0.01981113	      0.02708774	      0.05148104
      1.31666667	      0.01961030	      0.02695009	      0.05124728
      1.33333333	      0.01937036	      0.02678471	      0.05072803
      1.35000000	      0.01928179	      0.02672341	      0.05011104
      1.36666667	      0.01948522	      0.02686401	      0.04992453
      1.38333333	      0.02003396	      0.02723965	      0.05135790
      1.40000000	      0.02091834	      0.02783439	      0.05131732
      1.41666667	      0.02207594	      0.02859418	      0.05075232
      1.43333333	      0.02336784	      0.02941897	      0.05171711
      1.45000000	      0.02450337	      0.03012527	      0.05554950
      1.46666667	      0.02542268	      0.03068519	      0.06177135
      1.48333333	      0.02628271	      0.03119990	      0.06756342
      1.50000000	      0.02719118	      0.03173453	      0.07189972
      1.51666667	      0.02782552	      0.03210257	      0.07475262
      1.53333333	      0.02660900	      0.03139297	      0.06995993
      1.55000000	      0.02540895	      0.03067690	      0.05979431
      1.56666667	      0.02396940	      0.02979523	      0.04993736
      1.58333333	      0.02249718	      0.02886571	      0.04874231
      1.60000000	      0.02098316	      0.02787749	      0.05057405
      1.61666667	      0.01942064	      0.02681945	      0.05217296
      1.63333333	      0.01808323	      0.02587952	      0.05340364
      1.65000000	      0.01759576	      0.02552832	      0.05396190
      1.66666667	      0.01861021	      0.02625389	      0.05897953
      1.68333333	      0.02183717	      0.02843913	      0.07334754
      1.70000000	      0.02656107	      0.03136468	      0.08120209
      1.71666667	      0.03132078	      0.03405920	      0.08946332
      1.73333333	      0.03487688	      0.03594073	      0.09355831
      1.75000000	      0.03603827	      0.03653424	      0.09397593
      1.76666667	      0.03463297	      0.03581484	      0.09195189
      1.78333333	      0.03125266	      0.03402214	      0.08317412
      1.80000000	      0.02704130	      0.03164695	      0.07830976
      1.81666667	      0.02317564	      0.02929773	      0.07355560
      1.83333333	      0.02104621	      0.02791933	      0.07038780
      1.85000000	      0.02124434	      0.02805044	      0.07217012
      1.86666667	      0.02339245	      0.02943446	      0.08279686
      1.88333333	      0.02644532	      0.03129626	      0.08841967
      1.90000000	      0.02869130	      0.03259817	      0.08807532
      1.91666667	      0.02881898	      0.03267062	      0.08390958
      1.93333333	      0.02715605	      0.03171403	      0.07838067
      1.95000000	      0.02499948	      0.03042872	      0.07289152
      1.96666667	      0.02165878	      0.02832273	      0.06957477
      1.98333333	      0.02016318	      0.02732736	      0.06756215
      2.00000000	      0.01891854	      0.02647048	      0.06716098
      2.01666667	      0.01799384	      0.02581547	      0.06706611
      2.03333333	      0.01774974	      0.02563977	      0.06785580
      2.05000000	      0.01829283	      0.02602907	      0.06928244
      2.06666667	      0.01930576	      0.02674001	      0.07104232
      2.08333333	      0.02028729	      0.02741133	      0.07312842
      2.10000000	      0.02088509	      0.02781226	      0.07566591
      2.11666667	      0.01990243	      0.02715008	      0.07161930
      2.13333333	      0.01991423	      0.02715813	      0.07361112
      2.15000000	      0.01995561	      0.02718633	      0.07479068
      2.16666667	      0.02005490	      0.02725388	      0.07453742
      2.18333333	      0.02009712	      0.02728255	      0.07251598
      2.20000000	      0.02014753	      0.02731675	      0.06872101
      2.21666667	      0.02017917	      0.02733819	      0.06538006
      2.23333333	      0.02022017	      0.02736595	      0.06200162
      2.25000000	      0.02020113	      0.02735306	      0.05961985
      2.26666667	      0.01882828	      0.02640726	      0.05777220
      2.28333333	      0.01888718	      0.02644854	      0.05742595
      2.30000000	      0.01936136	      0.02677848	      0.05783995
      2.31666667	      0.02026689	      0.02739755	      0.05914066
      2.33333333	      0.02151570	      0.02822903	      0.06130797
      2.35000000	      0.02281356	      0.02906797	      0.06384190
      2.36666667	      0.02359463	      0.02956138	      0.06635709
      2.38333333	      0.02419812	      0.02993704	      0.06884311
      2.40000000	      0.02496523	      0.03040786	      0.07102929
      2.41666667	      0.02627621	      0.03119604	      0.07275867
      2.43333333	      0.02811843	      0.03227109	      0.07351378
      2.45000000	      0.03012995	      0.03340545	      0.07248201
      2.46666667	      0.03165730	      0.03424168	      0.07185054
      2.48333333	      0.03242876	      0.03465639	      0.07909217
      2.50000000	      0.03259981	      0.03474767	      0.08463000
      2.51666667	      0.03229356	      0.03458407	      0.08715380
      2.53333333	      0.03142884	      0.03411790	      0.08555317
      2.55000000	      0.03004730	      0.03335960	      0.07928187
      2.56666667	      0.02797705	      0.03218986	      0.06817292
      2.58333333	      0.02573752	      0.03087461	      0.06753808
      2.60000000	      0.02421196	      0.02994560	      0.06217157
      2.61666667	      0.02347448	      0.02948601	      0.06121131
      2.63333333	      0.02308903	      0.02924293	      0.06714909
      2.65000000	      0.02229248	      0.02873408	      0.07141509
      2.66666667	      0.02132829	      0.02810581	      0.07394276
      2.68333333	      0.02068423	      0.02767820	      0.07440351
      2.70000000	      0.02059167	      0.02761620	      0.07230486
      2.71666667	      0.02104985	      0.02792175	      0.06945991
      2.73333333	      0.02180797	      0.02842011	      0.06534707
      2.75000000	      0.02281074	      0.02906617	      0.06064202
      2.76666667	      0.02309022	      0.02924369	      0.05145596
      2.78333333	      0.02360419	      0.02956737	      0.05130634
      2.80000000	      0.02416103	      0.02991409	      0.05085347
      2.81666667	      0.02389006	      0.02974587	      0.05036748
      2.83333333	      0.02300544	      0.02918995	      0.05110715
      2.85000000	      0.02213384	      0.02863166	      0.05365228
      2.86666667	      0.02156798	      0.02826330	      0.05618407
      2.88333333	      0.02119453	      0.02801754	      0.05718597
      2.90000000	      0.02084609	      0.02778628	      0.06156261
      2.91666667	      0.02067166	      0.02766979	      0.06546600
      2.93333333	      0.02102311	      0.02790401	      0.06931662
      2.95000000	      0.02189244	      0.02847509	      0.07304676
      2.96666667	      0.02301138	      0.02919372	      0.07657271
      2.98333333	      0.02399905	      0.02981365	      0.07966644
      3.00000000	      0.02484076	      0.03033197	      0.08201823
      3.01666667	      0.02554280	      0.03075759	      0.08345909
      3.03333333	      0.02578148	      0.03090096	      0.08229282
      3.05000000	      0.02537553	      0.03065672	      0.07871417
      3.06666667	      0.02459142	      0.03017935	      0.07264935
      3.08333333	      0.02401385	      0.02982284	      0.06629394
      3.10000000	      0.02405444	      0.02984803	      0.06156154
      3.11666667	      0.02458219	      0.03017369	      0.05836205
      3.13333333	      0.02549386	      0.03072811	      0.05936747
      3.15000000	      0.02598809	      0.03102454	      0.06455338
      3.16666667	      0.02589891	      0.03097126	      0.06741339
      3.18333333	      0.02534372	      0.03063750	      0.06761553
      3.20000000	      0.02506750	      0.03047008	      0.06616995
      3.21666667	      0.02576454	      0.03089081	      0.06524187
      3.23333333	      0.02753852	      0.03193658	      0.07078075
      3.25000000	      0.02998897	      0.03332720	      0.07747895
      3.26666667	      0.03258061	      0.03473743	      0.08344417
      3.28333333	      0.03512588	      0.03606880	      0.08826107
      3.30000000	      0.03769850	      0.03736630	      0.09347883
      3.31666667	      0.04063991	      0.03879667	      0.10012632
      3.33333333	      0.04471376	      0.04069478	      0.10914799
      3.35000000	      0.05075556	      0.04335707	      0.12028246
      3.36666667	      0.05929265	      0.04686175	      0.13325286
      3.38333333	      0.07083402	      0.05121994	      0.14702012
      3.40000000	      0.08573096	      0.05634910	      0.15954068
      3.41666667	      0.10346370	      0.06190306	      0.16891166
      3.43333333	      0.12235080	      0.06731650	      0.17511447
      3.45000000	      0.14053999	      0.07214697	      0.18112439
      3.46666667	      0.15513220	      0.07579998	      0.19420962
      3.48333333	      0.16373505	      0.07787337	      0.20044470
      3.50000000	      0.16568704	      0.07833618	      0.19926070
      3.51666667	      0.16220143	      0.07750781	      0.19220329
      3.53333333	      0.15634882	      0.07609663	      0.18216607
      3.55000000	      0.15130535	      0.07485921	      0.17193723
      3.56666667	      0.14841073	      0.07413969	      0.16961513
      3.58333333	      0.14707738	      0.07380590	      0.16748866
      3.60000000	      0.14618142	      0.07358075	      0.16576932
      3.61666667	      0.14499717	      0.07328210	      0.16500801
      3.63333333	      0.14348967	      0.07290015	      0.16521587
      3.65000000	      0.14183123	      0.07247764	      0.16631741
      3.66666667	      0.14061229	      0.07216552	      0.16770229
      3.68333333	      0.14008307	      0.07202959	      0.16870415
      3.70000000	      0.14020960	      0.07206211	      0.16915253
      3.71666667	      0.14087660	      0.07223332	      0.16942603
      3.73333333	      0.14170689	      0.07244586	      0.16948231
      3.75000000	      0.14218765	      0.07256865	      0.16929681
      3.76666667	      0.14199745	      0.07252010	      0.16877927
      3.78333333	      0.14121761	      0.07232069	      0.16812818
      3.80000000	      0.14013390	      0.07204266	      0.16765783
      3.81666667	      0.13893972	      0.07173504	      0.16759986
      3.83333333	      0.13766010	      0.07140394	      0.16798507
      3.85000000	      0.13619598	      0.07102321	      0.16870108
      3.86666667	      0.13447505	      0.07057306	      0.16943582
      3.88333333	      0.13268093	      0.07010070	      0.16993032
      3.90000000	      0.13128334	      0.06973052	      0.16992857
      3.91666667	      0.13054722	      0.06953475	      0.16938503
      3.93333333	      0.13040782	      0.06949762	      0.16842355
      3.95000000	      0.13054416	      0.06953394	      0.16734146
      3.96666667	      0.13060701	      0.06955068	      0.16647885
      3.98333333	      0.13021107	      0.06944517	      0.16595137
      4.00000000	      0.12912969	      0.06915621	      0.16580646
      4.01666667	      0.12758989	      0.06874265	      0.16523912
      4.03333333	      0.12627550	      0.06838765	      0.16370576
      4.05000000	      0.12593475	      0.06829532	      0.16114562
      4.06666667	      0.12669207	      0.06850036	      0.15764812
      4.08333333	      0.12867572	      0.06903454	      0.16271647
      4.10000000	      0.13146413	      0.06977852	      0.16995244
      4.11666667	      0.13475936	      0.07064763	      0.17515421
      4.13333333	      0.13787424	      0.07145945	      0.17776152
      4.15000000	      0.13993615	      0.07199181	      0.17768211
      4.16666667	      0.14011537	      0.07203789	      0.17660923
      4.18333333	      0.13859283	      0.07164543	      0.17540284
      4.20000000	      0.13621911	      0.07102923	      0.17560580
      4.21666667	      0.13384670	      0.07040799	      0.17707268
      4.23333333	      0.13196998	      0.06991264	      0.17949420
      4.25000000	      0.13062608	      0.06955575	      0.18198241
      4.26666667	      0.12949508	      0.06925398	      0.18352289
      4.28333333	      0.12851093	      0.06899032	      0.18377706
      4.30000000	      0.12776478	      0.06878975	      0.18291688
      4.31666667	      0.12740667	      0.06869327	      0.18186614
      4.33333333	      0.12729956	      0.06866439	      0.18075194
      4.35000000	      0.12720097	      0.06863779	      0.17976775
      4.36666667	      0.12690051	      0.06855668	      0.17884159
      4.38333333	      0.12626903	      0.06838590	      0.17774609
      4.40000000	      0.12530667	      0.06812479	      0.17601641
      4.41666667	      0.12426099	      0.06783995	      0.17390775
      4.43333333	      0.12363175	      0.06766797	      0.17090862
      4.45000000	      0.12349740	      0.06763119	      0.16852236
      4.46666667	      0.12392924	      0.06774933	      0.16694505
      4.48333333	      0.12470579	      0.06796126	      0.16651558
      4.50000000	      0.12591124	      0.06828894	      0.16701984
      4.51666667	      0.12751335	      0.06872202	      0.16829455
      4.53333333	      0.12929901	      0.06920153	      0.16997795
      4.55000000	      0.13092010	      0.06963399	      0.17157646
      4.56666667	      0.13191393	      0.06989779	      0.17257903
      4.58333333	      0.13213070	      0.06995520	      0.17251976
      4.60000000	      0.13165945	      0.06983034	      0.17174270
      4.61666667	      0.13085559	      0.06961683	      0.17045710
      4.63333333	      0.13005858	      0.06940450	      0.16900314
      4.65000000	      0.12944763	      0.06924129	      0.16758644
      4.66666667	      0.12918742	      0.06917166	      0.16601466
      4.68333333	      0.12945004	      0.06924194	      0.16604196
      4.70000000	      0.13046786	      0.06951362	      0.16695488
      4.71666667	      0.13204858	      0.06993346	      0.16852702
      4.73333333	      0.13355149	      0.07033030	      0.17039874
      4.75000000	      0.13453701	      0.07058932	      0.17256252
      4.76666667	      0.13486950	      0.07067649	      0.17507218
      4.78333333	      0.13450457	      0.07058081	      0.17796469
      4.80000000	      0.13314518	      0.07022324	      0.18084291
      4.81666667	      0.13039382	      0.06949389	      0.18297985
      4.83333333	      0.12605716	      0.06832850	      0.18336278
      4.85000000	      0.12028629	      0.06674614	      0.18095584
      4.86666667	      0.11346334	      0.06482550	      0.17513654
      4.88333333	      0.10626354	      0.06273505	      0.16655841
      4.90000000	      0.09949395	      0.06070388	      0.15672740
      4.91666667	      0.09362897	      0.05888752	      0.14739696
      4.93333333	      0.08839737	      0.05721868	      0.14013455
      4.95000000	      0.08302983	      0.05545429	      0.13549445
      4.96666667	      0.07717480	      0.05346331	      0.13345069
      4.98333333	      0.07137863	      0.05141647	      0.13316934
      5.00000000	      0.06667625	      0.04969397	      0.13375234
      5.01666667	      0.06358807	      0.04852951	      0.13445398
      5.03333333	      0.06201948	      0.04792721	      0.13516764
      5.05000000	      0.06182202	      0.04785085	      0.13673817
      5.06666667	      0.06320112	      0.04838163	      0.14023642
      5.08333333	      0.06633295	      0.04956588	      0.14600208
      5.10000000	      0.07099472	      0.05127801	      0.15315500
      5.11666667	      0.07644241	      0.05320902	      0.15998845
      5.13333333	      0.08184771	      0.05505812	      0.16478836
      5.15000000	      0.08685642	      0.05671776	      0.16825386
      5.16666667	      0.09161438	      0.05825054	      0.16942350
      5.18333333	      0.09610354	      0.05966063	      0.16838829
      5.20000000	      0.09955828	      0.06072350	      0.16491589
      5.21666667	      0.10075048	      0.06108600	      0.15851761
      5.23333333	      0.09911438	      0.06058798	      0.14970001
      5.25000000	      0.09511981	      0.05935449	      0.14025203
      5.26666667	      0.08988820	      0.05769916	      0.13526354
      5.28333333	      0.08437029	      0.05590014	      0.12897162
      5.30000000	      0.07909729	      0.05412512	      0.12251972
      5.31666667	      0.07484864	      0.05265142	      0.11796154
      5.33333333	      0.07267075	      0.05187976	      0.11895135
      5.35000000	      0.07270030	      0.05189031	      0.12148262
      5.36666667	      0.07314112	      0.05204739	      0.12444843
      5.38333333	      0.07195357	      0.05162313	      0.12704549
      5.40000000	      0.06891563	      0.05052159	      0.12933287
      5.41666667	      0.06556368	      0.04927763	      0.13237157
      5.43333333	      0.06368438	      0.04856625	      0.13688904
      5.45000000	      0.06406238	      0.04871017	      0.14261075
      5.46666667	      0.06598422	      0.04943541	      0.14827212
      5.48333333	      0.06787381	      0.05013826	      0.15136832
      5.50000000	      0.06898189	      0.05054587	      0.14993305
      5.51666667	      0.06984688	      0.05086179	      0.14432935
      5.53333333	      0.07114495	      0.05133223	      0.13603523
      5.55000000	      0.07307563	      0.05202408	      0.12801642
      5.56666667	      0.07580289	      0.05298598	      0.12155680
      5.58333333	      0.08035887	      0.05455506	      0.13684146
      5.60000000	      0.08790119	      0.05705786	      0.16541155
      5.61666667	      0.09755636	      0.06010989	      0.19194621
      5.63333333	      0.10160849	      0.06134556	      0.21004701
      5.65000000	      0.10218762	      0.06152013	      0.21574804
      5.66666667	      0.09451212	      0.05916459	      0.20754382
      5.68333333	      0.08071385	      0.05467542	      0.18646652
      5.70000000	      0.06569433	      0.04932670	      0.15592138
      5.71666667	      0.05417764	      0.04479486	      0.12205264
      5.73333333	      0.04794572	      0.04213986	      0.10786413
      5.75000000	      0.04269825	      0.03976703	      0.10438620
      5.76666667	      0.04367240	      0.04021811	      0.11855325
      5.78333333	      0.04578917	      0.04118125	      0.13032050
      5.80000000	      0.04738792	      0.04189401	      0.13657237
      5.81666667	      0.04802568	      0.04217498	      0.13651965
      5.83333333	      0.04809583	      0.04220577	      0.13113761
      5.85000000	      0.04828918	      0.04229052	      0.12337791
      5.86666667	      0.04938123	      0.04276604	      0.11697162
      5.88333333	      0.05186138	      0.04382684	      0.11434377
      5.90000000	      0.05534588	      0.04527524	      0.11643808
      5.91666667	      0.05730229	      0.04606850	      0.13799565
      5.93333333	      0.05985309	      0.04708271	      0.14780182
      5.95000000	      0.06193677	      0.04789525	      0.15807341
      5.96666667	      0.06333838	      0.04843414	      0.16626275
      5.98333333	      0.06388207	      0.04864157	      0.17077488
      6.00000000	      0.06345607	      0.04847912	      0.17121767
      6.01666667	      0.06208893	      0.04795404	      0.16860523
      6.03333333	      0.06001999	      0.04714831	      0.16486887
      6.05000000	      0.05754358	      0.04616540	      0.16131385
      6.06666667	      0.05492167	      0.04510140	      0.15838474
      6.08333333	      0.05255964	      0.04412090	      0.15646756
      6.10000000	      0.05068980	      0.04332897	      0.15514534
      6.11666667	      0.04884671	      0.04253395	      0.15268086
      6.13333333	      0.04673059	      0.04160243	      0.14833931
      6.15000000	      0.04425724	      0.04048651	      0.14124508
      6.16666667	      0.04159308	      0.03924901	      0.13182828
      6.18333333	      0.03897061	      0.03799153	      0.12104756
      6.20000000	      0.02888892	      0.03271024	      0.06186843
      6.21666667	      0.02856211	      0.03252470	      0.05869975
      6.23333333	      0.02780451	      0.03209045	      0.05576436
      6.25000000	      0.02678087	      0.03149419	      0.05389743
      6.26666667	      0.02553441	      0.03075254	      0.05269996
      6.28333333	      0.02420888	      0.02994370	      0.05080054
      6.30000000	      0.02308992	      0.02924350	      0.04932184
      6.31666667	      0.02246961	      0.02884801	      0.04688506
      6.33333333	      0.02238012	      0.02879051	      0.04800334
      6.35000000	      0.02257284	      0.02891420	      0.05011012
      6.36666667	      0.02255022	      0.02889971	      0.04794573
      6.38333333	      0.02266784	      0.02897498	      0.04768825
      6.40000000	      0.02274875	      0.02902665	      0.04772892
      6.41666667	      0.02272601	      0.02901214	      0.04781966
      6.43333333	      0.02272387	      0.02901077	      0.04860878
      6.45000000	      0.02262238	      0.02894592	      0.04778259
      6.46666667	      0.02244225	      0.02883044	      0.04812023
      6.48333333	      0.02250212	      0.02886888	      0.04630797
      6.50000000	      0.02270298	      0.02899744	      0.04447674
      6.51666667	      0.02322248	      0.02932732	      0.04437475
      6.53333333	      0.02415087	      0.02990780	      0.04461750
