Model Marker Errors from IK
version=1
nRows=186
nColumns=4
inDegrees=no
endheader
time	total_squared_error	marker_error_RMS	marker_error_max
      0.00000000	      0.02132545	      0.02810394	      0.04738050
      0.01694915	      0.02115196	      0.02798939	      0.05046165
      0.03389831	      0.02164682	      0.02831491	      0.05327330
      0.05084746	      0.02226707	      0.02871770	      0.05433912
      0.06779661	      0.02282100	      0.02907271	      0.05447957
      0.08474576	      0.02330247	      0.02937779	      0.05444195
      0.10169492	      0.02374295	      0.02965415	      0.05386893
      0.11864407	      0.02404793	      0.02984400	      0.05348137
      0.13559322	      0.02439528	      0.03005876	      0.05347816
      0.15254237	      0.02426539	      0.02997863	      0.05244163
      0.16949153	      0.02423367	      0.02995903	      0.05342614
      0.18644068	      0.02418993	      0.02993198	      0.05444276
      0.20338983	      0.02409588	      0.02987374	      0.05608737
      0.22033898	      0.02398956	      0.02980775	      0.05752542
      0.23728814	      0.02386450	      0.02972996	      0.05909349
      0.25423729	      0.02373509	      0.02964924	      0.05835784
      0.27118644	      0.02359695	      0.02956284	      0.05855815
      0.28813559	      0.02335416	      0.02941036	      0.05619265
      0.30508475	      0.02325134	      0.02934554	      0.05520284
      0.32203390	      0.02329180	      0.02937106	      0.05444825
      0.33898305	      0.02340198	      0.02944045	      0.05340104
      0.35593220	      0.02359315	      0.02956045	      0.05326765
      0.37288136	      0.02369023	      0.02962121	      0.05283772
      0.38983051	      0.02361636	      0.02957499	      0.05200970
      0.40677966	      0.02325517	      0.02934796	      0.05148738
      0.42372881	      0.02284953	      0.02909087	      0.05181979
      0.44067797	      0.02243490	      0.02882572	      0.05208928
      0.45762712	      0.02202736	      0.02856271	      0.05227344
      0.47457627	      0.02170903	      0.02835557	      0.05223649
      0.49152542	      0.02145285	      0.02818776	      0.05201039
      0.50847458	      0.02142779	      0.02817130	      0.05179197
      0.52542373	      0.02109868	      0.02795412	      0.05212494
      0.54237288	      0.02105320	      0.02792397	      0.05281816
      0.55932203	      0.02108356	      0.02794410	      0.05338756
      0.57627119	      0.02117558	      0.02800501	      0.05406837
      0.59322034	      0.02148051	      0.02820593	      0.05482994
      0.61016949	      0.02194967	      0.02851229	      0.05547017
      0.62711864	      0.02258027	      0.02891896	      0.05606461
      0.64406780	      0.02323058	      0.02933244	      0.05654965
      0.66101695	      0.02365375	      0.02959839	      0.05665804
      0.67796610	      0.02396144	      0.02979028	      0.05611351
      0.69491525	      0.02430370	      0.03000228	      0.05510470
      0.71186441	      0.02444070	      0.03008672	      0.05421526
      0.72881356	      0.02472968	      0.03026407	      0.05334037
      0.74576271	      0.02500764	      0.03043368	      0.05270757
      0.76271186	      0.02524560	      0.03057814	      0.05232214
      0.77966102	      0.02549557	      0.03072915	      0.05223419
      0.79661017	      0.02581121	      0.03091877	      0.05278261
      0.81355932	      0.02582800	      0.03092883	      0.05426552
      0.83050847	      0.02624637	      0.03117832	      0.05494815
      0.84745763	      0.02630543	      0.03121338	      0.05490107
      0.86440678	      0.02663172	      0.03140637	      0.05541769
      0.88135593	      0.02715843	      0.03171542	      0.05622506
      0.89830508	      0.02785941	      0.03212211	      0.05727586
      0.91525424	      0.02856312	      0.03252527	      0.05904009
      0.93220339	      0.02927756	      0.03292953	      0.05994877
      0.94915254	      0.02988555	      0.03326969	      0.06080341
      0.96610169	      0.03037851	      0.03354296	      0.06120427
      0.98305085	      0.03062512	      0.03367883	      0.06135874
      1.00000000	      0.03068981	      0.03371438	      0.06125876
      1.01694915	      0.03057449	      0.03365098	      0.06129257
      1.03389831	      0.03031160	      0.03350600	      0.06083604
      1.05084746	      0.03002204	      0.03334557	      0.05959969
      1.06779661	      0.02986591	      0.03325876	      0.05950657
      1.08474576	      0.02980452	      0.03322456	      0.05900609
      1.10169492	      0.02991337	      0.03328517	      0.05907495
      1.11864407	      0.03011555	      0.03339747	      0.05923944
      1.13559322	      0.03031410	      0.03350738	      0.05988605
      1.15254237	      0.03043519	      0.03357423	      0.06029859
      1.16949153	      0.03047866	      0.03359821	      0.06060418
      1.18644068	      0.03047672	      0.03359713	      0.06060140
      1.20338983	      0.03039691	      0.03355312	      0.06088556
      1.22033898	      0.03019149	      0.03343955	      0.06015453
      1.23728814	      0.02984449	      0.03324683	      0.05854973
      1.25423729	      0.02946234	      0.03303328	      0.05656891
      1.27118644	      0.02917859	      0.03287383	      0.05506927
      1.28813559	      0.02905879	      0.03280627	      0.05443995
      1.30508475	      0.02909945	      0.03282922	      0.05510173
      1.32203390	      0.02917200	      0.03287012	      0.05680383
      1.33898305	      0.02973160	      0.03318389	      0.05910537
      1.35593220	      0.02986255	      0.03325689	      0.06164025
      1.37288136	      0.03008857	      0.03338250	      0.06278274
      1.38983051	      0.02994458	      0.03330253	      0.06216146
      1.40677966	      0.02943945	      0.03302045	      0.06015520
      1.42372881	      0.02846765	      0.03247087	      0.05872390
      1.44067797	      0.02766559	      0.03201018	      0.05550503
      1.45762712	      0.02683574	      0.03152644	      0.05323852
      1.47457627	      0.02604051	      0.03105581	      0.05321989
      1.49152542	      0.02542029	      0.03068374	      0.05321250
      1.50847458	      0.02498333	      0.03041888	      0.05353340
      1.52542373	      0.02494182	      0.03039360	      0.05368302
      1.54237288	      0.02499726	      0.03042736	      0.05379663
      1.55932203	      0.02498870	      0.03042215	      0.05373048
      1.57627119	      0.02481513	      0.03031631	      0.05324765
      1.59322034	      0.02443562	      0.03008360	      0.05253064
      1.61016949	      0.02393587	      0.02977438	      0.05179560
      1.62711864	      0.02342757	      0.02945654	      0.05088144
      1.64406780	      0.02307497	      0.02923403	      0.05203687
      1.66101695	      0.02300284	      0.02918830	      0.05290214
      1.67796610	      0.02324891	      0.02934400	      0.05399307
      1.69491525	      0.02374577	      0.02965591	      0.05458904
      1.71186441	      0.02431854	      0.03001144	      0.05499619
      1.72881356	      0.02471286	      0.03025378	      0.05481634
      1.74576271	      0.02480906	      0.03031261	      0.05379247
      1.76271186	      0.02465869	      0.03022060	      0.05347922
      1.77966102	      0.02433543	      0.03002186	      0.05341895
      1.79661017	      0.02399716	      0.02981247	      0.05336829
      1.81355932	      0.02373073	      0.02964652	      0.05342006
      1.83050847	      0.02360099	      0.02956536	      0.05343110
      1.84745763	      0.02354769	      0.02953196	      0.05360608
      1.86440678	      0.02351393	      0.02951078	      0.05378089
      1.88135593	      0.02341458	      0.02944838	      0.05363593
      1.89830508	      0.02322874	      0.02933127	      0.05339198
      1.91525424	      0.02302016	      0.02919929	      0.05306560
      1.93220339	      0.02294980	      0.02915464	      0.05288562
      1.94915254	      0.02300817	      0.02919169	      0.05294957
      1.96610169	      0.02344772	      0.02946920	      0.05299643
      1.98305085	      0.02404947	      0.02984495	      0.05298431
      2.00000000	      0.02484473	      0.03033439	      0.05315004
      2.01694915	      0.02565889	      0.03082741	      0.05543840
      2.03389831	      0.02638430	      0.03126014	      0.05975610
      2.05084746	      0.02677693	      0.03149187	      0.06169965
      2.06779661	      0.02686606	      0.03154424	      0.06099004
      2.08474576	      0.02674288	      0.03147185	      0.05858714
      2.10169492	      0.02663109	      0.03140600	      0.05596484
      2.11864407	      0.02662241	      0.03140088	      0.05458142
      2.13559322	      0.02671053	      0.03145280	      0.05458807
      2.15254237	      0.02679465	      0.03150229	      0.05461039
      2.16949153	      0.02676663	      0.03148582	      0.05463086
      2.18644068	      0.02657780	      0.03137456	      0.05461272
      2.20338983	      0.02635861	      0.03124492	      0.05477714
      2.22033898	      0.02619898	      0.03115016	      0.05540350
      2.23728814	      0.02613768	      0.03111370	      0.05577073
      2.25423729	      0.02622383	      0.03116493	      0.05592743
      2.27118644	      0.02641722	      0.03127964	      0.05693718
      2.28813559	      0.02669409	      0.03144312	      0.05767589
      2.30508475	      0.02699282	      0.03161857	      0.05809798
      2.32203390	      0.02724970	      0.03176867	      0.05836128
      2.33898305	      0.02754947	      0.03194293	      0.05866192
      2.35593220	      0.02778122	      0.03207700	      0.05897579
      2.37288136	      0.02802456	      0.03221718	      0.05922961
      2.38983051	      0.02823681	      0.03233895	      0.05964582
      2.40677966	      0.02837198	      0.03241626	      0.06008458
      2.42372881	      0.02841468	      0.03244065	      0.06064102
      2.44067797	      0.02828564	      0.03236690	      0.06092761
      2.45762712	      0.02812377	      0.03227416	      0.06101716
      2.47457627	      0.02797085	      0.03218629	      0.06105558
      2.49152542	      0.02776863	      0.03206973	      0.06115635
      2.50847458	      0.02743202	      0.03187477	      0.06131009
      2.52542373	      0.02699588	      0.03162036	      0.06121880
      2.54237288	      0.02663693	      0.03140944	      0.06127966
      2.55932203	      0.02648958	      0.03132244	      0.06114108
      2.57627119	      0.02651397	      0.03133686	      0.06099176
      2.59322034	      0.02653262	      0.03134788	      0.06076908
      2.61016949	      0.02638641	      0.03126139	      0.06040354
      2.62711864	      0.02615952	      0.03112670	      0.05983793
      2.64406780	      0.02597964	      0.03101949	      0.05938587
      2.66101695	      0.02592403	      0.03098627	      0.05900254
      2.67796610	      0.02583428	      0.03093259	      0.05865627
      2.69491525	      0.02584182	      0.03093711	      0.05841053
      2.71186441	      0.02596775	      0.03101239	      0.05827045
      2.72881356	      0.02627981	      0.03119818	      0.05804975
      2.74576271	      0.02681038	      0.03151154	      0.05838559
      2.76271186	      0.02743341	      0.03187558	      0.05868686
      2.77966102	      0.02816996	      0.03230065	      0.05927672
      2.79661017	      0.02829619	      0.03237293	      0.05988286
      2.81355932	      0.02827739	      0.03236218	      0.05863253
      2.83050847	      0.02788732	      0.03213820	      0.05812281
      2.84745763	      0.02724831	      0.03176786	      0.05739822
      2.86440678	      0.02661841	      0.03139852	      0.05675357
      2.88135593	      0.02617377	      0.03113517	      0.05613137
      2.89830508	      0.02596047	      0.03100805	      0.05619690
      2.91525424	      0.02605347	      0.03106354	      0.05607617
      2.93220339	      0.02632780	      0.03122665	      0.05616466
      2.94915254	      0.02673798	      0.03146896	      0.05640048
      2.96610169	      0.02713487	      0.03170166	      0.05670398
      2.98305085	      0.02737584	      0.03184211	      0.05664709
      3.00000000	      0.02728060	      0.03178668	      0.05760814
      3.01694915	      0.02695095	      0.03159404	      0.05735080
      3.03389831	      0.02642518	      0.03128435	      0.05682480
      3.05084746	      0.02558488	      0.03078292	      0.05631915
      3.06779661	      0.02489914	      0.03036759	      0.05597554
      3.08474576	      0.02434651	      0.03002870	      0.05595342
      3.10169492	      0.02398094	      0.02980240	      0.05676453
      3.11864407	      0.02390442	      0.02975481	      0.05873405
      3.13559322	      0.02432419	      0.03001493	      0.06187542
