Model Marker Errors from IK
version=1
nRows=435
nColumns=4
inDegrees=no
endheader
time	total_squared_error	marker_error_RMS	marker_error_max
      0.00000000	      0.02450897	      0.03012872	      0.05077248
      0.01666667	      0.02521391	      0.03055893	      0.04973804
      0.03333333	      0.02589092	      0.03096648	      0.04937262
      0.05000000	      0.02639557	      0.03126681	      0.04952795
      0.06666667	      0.02668963	      0.03144049	      0.05025578
      0.08333333	      0.02670027	      0.03144676	      0.05124722
      0.10000000	      0.02635093	      0.03124036	      0.05260798
      0.11666667	      0.02563157	      0.03081099	      0.05410484
      0.13333333	      0.02492908	      0.03038584	      0.05558418
      0.15000000	      0.02426471	      0.02997821	      0.05709170
      0.16666667	      0.02377652	      0.02967511	      0.05872545
      0.18333333	      0.02339946	      0.02943886	      0.06028307
      0.20000000	      0.02317145	      0.02929508	      0.06190147
      0.21666667	      0.02290134	      0.02912383	      0.06340161
      0.23333333	      0.02271619	      0.02900587	      0.06463663
      0.25000000	      0.02261833	      0.02894332	      0.06607858
      0.26666667	      0.02250365	      0.02886986	      0.06709998
      0.28333333	      0.02246671	      0.02884615	      0.06782876
      0.30000000	      0.02247903	      0.02885406	      0.06827147
      0.31666667	      0.02246788	      0.02884690	      0.06816526
      0.33333333	      0.02250945	      0.02887357	      0.06790037
      0.35000000	      0.02259117	      0.02892594	      0.06739038
      0.36666667	      0.02268220	      0.02898416	      0.06673222
      0.38333333	      0.02266716	      0.02897455	      0.06603488
      0.40000000	      0.02244784	      0.02883403	      0.06522026
      0.41666667	      0.02205119	      0.02857815	      0.06438925
      0.43333333	      0.02160638	      0.02828845	      0.06343199
      0.45000000	      0.02118582	      0.02801178	      0.06237323
      0.46666667	      0.02081612	      0.02776630	      0.06113147
      0.48333333	      0.02050028	      0.02755485	      0.06001099
      0.50000000	      0.02021376	      0.02736161	      0.05897446
      0.51666667	      0.02000754	      0.02722168	      0.05802798
      0.53333333	      0.01987365	      0.02713045	      0.05702219
      0.55000000	      0.01975775	      0.02705122	      0.05584847
      0.56666667	      0.01957193	      0.02692371	      0.05456668
      0.58333333	      0.01933832	      0.02676255	      0.05330246
      0.60000000	      0.01917530	      0.02664951	      0.05213481
      0.61666667	      0.01919124	      0.02666058	      0.05113929
      0.63333333	      0.01940641	      0.02680963	      0.05024044
      0.65000000	      0.01973053	      0.02703258	      0.04967658
      0.66666667	      0.02000442	      0.02721956	      0.04918660
      0.68333333	      0.02014585	      0.02731561	      0.04883632
      0.70000000	      0.02016468	      0.02732837	      0.04884944
      0.71666667	      0.02011503	      0.02729471	      0.04906962
      0.73333333	      0.02002093	      0.02723079	      0.04958592
      0.75000000	      0.01987070	      0.02712843	      0.05035847
      0.76666667	      0.01968860	      0.02700384	      0.05121130
      0.78333333	      0.01953032	      0.02689508	      0.05226451
      0.80000000	      0.01942445	      0.02682208	      0.05335628
      0.81666667	      0.01934476	      0.02676700	      0.05436730
      0.83333333	      0.01926132	      0.02670921	      0.05522363
      0.85000000	      0.01914802	      0.02663054	      0.05611561
      0.86666667	      0.01903329	      0.02655064	      0.05707409
      0.88333333	      0.01893521	      0.02648214	      0.05780399
      0.90000000	      0.01890599	      0.02646171	      0.05891297
      0.91666667	      0.01896287	      0.02650148	      0.05980720
      0.93333333	      0.01908131	      0.02658412	      0.06059267
      0.95000000	      0.01929082	      0.02672966	      0.06099139
      0.96666667	      0.01961301	      0.02695195	      0.06084696
      0.98333333	      0.01998752	      0.02720806	      0.06038967
      1.00000000	      0.02040503	      0.02749076	      0.05952694
      1.01666667	      0.02074872	      0.02772131	      0.05831278
      1.03333333	      0.02098045	      0.02787568	      0.05698539
      1.05000000	      0.02109739	      0.02795326	      0.05574882
      1.06666667	      0.02112354	      0.02797058	      0.05445989
      1.08333333	      0.02116962	      0.02800107	      0.05334426
      1.10000000	      0.02130018	      0.02808728	      0.05257982
      1.11666667	      0.02148066	      0.02820603	      0.05214907
      1.13333333	      0.02160227	      0.02828576	      0.05242543
      1.15000000	      0.02155704	      0.02825613	      0.05319946
      1.16666667	      0.02137301	      0.02813526	      0.05425683
      1.18333333	      0.02113056	      0.02797523	      0.05535060
      1.20000000	      0.02095293	      0.02785740	      0.05640054
      1.21666667	      0.02085837	      0.02779446	      0.05721956
      1.23333333	      0.02084580	      0.02778609	      0.05757319
      1.25000000	      0.02093469	      0.02784527	      0.05746153
      1.26666667	      0.02111703	      0.02796627	      0.05704647
      1.28333333	      0.02135954	      0.02812639	      0.05660744
      1.30000000	      0.02159500	      0.02828099	      0.05644132
      1.31666667	      0.02174598	      0.02837969	      0.05590552
      1.33333333	      0.02192075	      0.02849350	      0.05514036
      1.35000000	      0.02220937	      0.02868047	      0.05409013
      1.36666667	      0.02264180	      0.02895834	      0.05294713
      1.38333333	      0.02321216	      0.02932081	      0.05198033
      1.40000000	      0.02375484	      0.02966157	      0.05121177
      1.41666667	      0.02417219	      0.02992100	      0.05057083
      1.43333333	      0.02431786	      0.03001102	      0.05070723
      1.45000000	      0.02421470	      0.02994730	      0.05067235
      1.46666667	      0.02406041	      0.02985174	      0.04940276
      1.48333333	      0.02385079	      0.02972142	      0.04811394
      1.50000000	      0.02349913	      0.02950149	      0.04775354
      1.51666667	      0.02305257	      0.02921983	      0.04797124
      1.53333333	      0.02276593	      0.02903761	      0.04860418
      1.55000000	      0.02279127	      0.02905376	      0.04980105
      1.56666667	      0.02317966	      0.02930027	      0.05102667
      1.58333333	      0.02389101	      0.02974647	      0.05203303
      1.60000000	      0.02486395	      0.03034612	      0.05240122
      1.61666667	      0.02587147	      0.03095485	      0.05192276
      1.63333333	      0.02650117	      0.03132930	      0.05170216
      1.65000000	      0.02660593	      0.03139116	      0.05121216
      1.66666667	      0.02592053	      0.03098418	      0.05114000
      1.68333333	      0.02486170	      0.03034475	      0.05231655
      1.70000000	      0.02405036	      0.02984550	      0.05293290
      1.71666667	      0.02388278	      0.02974134	      0.05354892
      1.73333333	      0.02446985	      0.03010466	      0.05423702
      1.75000000	      0.02553720	      0.03075423	      0.05502420
      1.76666667	      0.02686076	      0.03154113	      0.05625493
      1.78333333	      0.02794686	      0.03217249	      0.05730844
      1.80000000	      0.02853025	      0.03250655	      0.05805163
      1.81666667	      0.02840972	      0.03243782	      0.05822739
      1.83333333	      0.02774537	      0.03205630	      0.05783972
      1.85000000	      0.02692045	      0.03157616	      0.05727244
      1.86666667	      0.02619561	      0.03114816	      0.05671787
      1.88333333	      0.02571255	      0.03085963	      0.05610083
      1.90000000	      0.02547523	      0.03071689	      0.05582600
      1.91666667	      0.02546939	      0.03071336	      0.05578494
      1.93333333	      0.02549067	      0.03072619	      0.05595605
      1.95000000	      0.02555188	      0.03076306	      0.05603825
      1.96666667	      0.02555502	      0.03076495	      0.05605761
      1.98333333	      0.02547806	      0.03071859	      0.05606170
      2.00000000	      0.02533505	      0.03063225	      0.05601956
      2.01666667	      0.02519223	      0.03054579	      0.05599616
      2.03333333	      0.02508185	      0.03047880	      0.05559834
      2.05000000	      0.02515885	      0.03052555	      0.05595739
      2.06666667	      0.02539269	      0.03066708	      0.05746175
      2.08333333	      0.02564099	      0.03081666	      0.05867484
      2.10000000	      0.02573891	      0.03087544	      0.05940885
      2.11666667	      0.02573147	      0.03087098	      0.05972989
      2.13333333	      0.02551358	      0.03074000	      0.05958380
      2.15000000	      0.02525112	      0.03058148	      0.05885902
      2.16666667	      0.02488054	      0.03035624	      0.05804181
      2.18333333	      0.02454959	      0.03015368	      0.05652972
      2.20000000	      0.02432099	      0.03001296	      0.05637824
      2.21666667	      0.02427635	      0.02998540	      0.05779287
      2.23333333	      0.02448430	      0.03011355	      0.05934593
      2.25000000	      0.02484462	      0.03033432	      0.06080849
      2.26666667	      0.02522167	      0.03056364	      0.06157552
      2.28333333	      0.02548622	      0.03072351	      0.06169586
      2.30000000	      0.02557486	      0.03077689	      0.06133235
      2.31666667	      0.02548534	      0.03072298	      0.06058013
      2.33333333	      0.02519902	      0.03054991	      0.05977120
      2.35000000	      0.02462375	      0.03019919	      0.05748387
      2.36666667	      0.02421953	      0.02995029	      0.05730659
      2.38333333	      0.02397123	      0.02979636	      0.05763239
      2.40000000	      0.02381455	      0.02969883	      0.05814579
      2.41666667	      0.02366507	      0.02960547	      0.05876710
      2.43333333	      0.02341174	      0.02944659	      0.05915569
      2.45000000	      0.02310335	      0.02925200	      0.05954077
      2.46666667	      0.02273464	      0.02901765	      0.05983326
      2.48333333	      0.02235784	      0.02877617	      0.06013459
      2.50000000	      0.02204332	      0.02857305	      0.06037332
      2.51666667	      0.02186536	      0.02845748	      0.06051738
      2.53333333	      0.02187336	      0.02846269	      0.06067340
      2.55000000	      0.02204136	      0.02857178	      0.06085340
      2.56666667	      0.02232121	      0.02875259	      0.06117499
      2.58333333	      0.02266670	      0.02897425	      0.06134977
      2.60000000	      0.02299757	      0.02918496	      0.06159936
      2.61666667	      0.02327705	      0.02936176	      0.06176373
      2.63333333	      0.02345761	      0.02947542	      0.06191026
      2.65000000	      0.02350493	      0.02950514	      0.06179630
      2.66666667	      0.02349100	      0.02949639	      0.06180980
      2.68333333	      0.02338646	      0.02943069	      0.06148149
      2.70000000	      0.02327083	      0.02935784	      0.06111764
      2.71666667	      0.02318469	      0.02930345	      0.06076017
      2.73333333	      0.02317194	      0.02929539	      0.06054430
      2.75000000	      0.02323129	      0.02933289	      0.06044876
      2.76666667	      0.02342243	      0.02945331	      0.06081053
      2.78333333	      0.02373806	      0.02965110	      0.06109920
      2.80000000	      0.02417360	      0.02992187	      0.06132406
      2.81666667	      0.02460810	      0.03018959	      0.06165652
      2.83333333	      0.02497500	      0.03041381	      0.06206753
      2.85000000	      0.02520996	      0.03055654	      0.06222822
      2.86666667	      0.02537019	      0.03065350	      0.06219216
      2.88333333	      0.02548558	      0.03072313	      0.06203660
      2.90000000	      0.02553691	      0.03075405	      0.06179928
      2.91666667	      0.02547547	      0.03071703	      0.06167433
      2.93333333	      0.02543665	      0.03069362	      0.06150435
      2.95000000	      0.02532405	      0.03062561	      0.06132211
      2.96666667	      0.02501183	      0.03043623	      0.06098910
      2.98333333	      0.02442139	      0.03007484	      0.06082992
      3.00000000	      0.02372654	      0.02964390	      0.06054557
      3.01666667	      0.02300852	      0.02919191	      0.06043428
      3.03333333	      0.02246177	      0.02884298	      0.06031254
      3.05000000	      0.02210800	      0.02861494	      0.06015367
      3.06666667	      0.02191636	      0.02849065	      0.05973500
      3.08333333	      0.02184073	      0.02844144	      0.05921433
      3.10000000	      0.02192410	      0.02849568	      0.05856246
      3.11666667	      0.02221381	      0.02868334	      0.05791943
      3.13333333	      0.02276345	      0.02903602	      0.05720990
      3.15000000	      0.02357286	      0.02954774	      0.05654235
      3.16666667	      0.02452008	      0.03013554	      0.05578995
      3.18333333	      0.02541533	      0.03068075	      0.05542416
      3.20000000	      0.02613219	      0.03111043	      0.05636746
      3.21666667	      0.02665838	      0.03142208	      0.05735612
      3.23333333	      0.02703331	      0.03164228	      0.05833594
      3.25000000	      0.02727718	      0.03178468	      0.05882967
      3.26666667	      0.02735543	      0.03183024	      0.05887224
      3.28333333	      0.02726943	      0.03178017	      0.05842705
      3.30000000	      0.02704082	      0.03164667	      0.05751102
      3.31666667	      0.02667956	      0.03143456	      0.05635566
      3.33333333	      0.02569791	      0.03085084	      0.05598660
      3.35000000	      0.02534781	      0.03063997	      0.05549308
      3.36666667	      0.02524285	      0.03057647	      0.05551090
      3.38333333	      0.02531760	      0.03062171	      0.05610482
      3.40000000	      0.02560510	      0.03079508	      0.05675023
      3.41666667	      0.02600793	      0.03103638	      0.05737443
      3.43333333	      0.02634843	      0.03123889	      0.05781286
      3.45000000	      0.02657054	      0.03137027	      0.05803719
      3.46666667	      0.02668419	      0.03143729	      0.05815202
      3.48333333	      0.02671102	      0.03145310	      0.05808596
      3.50000000	      0.02667734	      0.03143325	      0.05794511
      3.51666667	      0.02658356	      0.03137796	      0.05730581
      3.53333333	      0.02657488	      0.03137284	      0.05656054
      3.55000000	      0.02668110	      0.03143547	      0.05568028
      3.56666667	      0.02693524	      0.03158483	      0.05471678
      3.58333333	      0.02730358	      0.03180006	      0.05403289
      3.60000000	      0.02776258	      0.03206624	      0.05402323
      3.61666667	      0.02835355	      0.03240573	      0.05430134
      3.63333333	      0.02892342	      0.03272977	      0.05582102
      3.65000000	      0.02703228	      0.03164167	      0.05559308
      3.66666667	      0.02726541	      0.03177782	      0.05581493
      3.68333333	      0.02745402	      0.03188755	      0.05602889
      3.70000000	      0.02763573	      0.03199290	      0.05633229
      3.71666667	      0.02781766	      0.03209803	      0.05666834
      3.73333333	      0.02800154	      0.03220394	      0.05728432
      3.75000000	      0.02817130	      0.03230142	      0.05766119
      3.76666667	      0.02831342	      0.03238279	      0.05829322
      3.78333333	      0.02844232	      0.03245642	      0.05895637
      3.80000000	      0.02857552	      0.03253233	      0.05958152
      3.81666667	      0.02877335	      0.03264475	      0.06003809
      3.83333333	      0.02905566	      0.03280451	      0.06030981
      3.85000000	      0.02942693	      0.03301343	      0.06048972
      3.86666667	      0.02979173	      0.03321743	      0.06058884
      3.88333333	      0.03006615	      0.03337007	      0.06067563
      3.90000000	      0.03018980	      0.03343861	      0.06061481
      3.91666667	      0.03016412	      0.03342438	      0.06049520
      3.93333333	      0.03006030	      0.03336682	      0.06029959
      3.95000000	      0.02994915	      0.03330507	      0.06010365
      3.96666667	      0.02991848	      0.03328801	      0.05973144
      3.98333333	      0.02997486	      0.03331936	      0.05921833
      4.00000000	      0.03005911	      0.03336616	      0.05838291
      4.01666667	      0.03014584	      0.03341426	      0.05747285
      4.03333333	      0.03022031	      0.03345550	      0.05710207
      4.05000000	      0.03028284	      0.03349010	      0.05680098
      4.06666667	      0.03031996	      0.03351062	      0.05629271
      4.08333333	      0.03034359	      0.03352367	      0.05571609
      4.10000000	      0.03033455	      0.03351868	      0.05503500
      4.11666667	      0.03036960	      0.03353804	      0.05478632
      4.13333333	      0.03044204	      0.03357801	      0.05537733
      4.15000000	      0.03054810	      0.03363645	      0.05607850
      4.16666667	      0.03070878	      0.03372480	      0.05673428
      4.18333333	      0.03088506	      0.03382146	      0.05721329
      4.20000000	      0.03100357	      0.03388629	      0.05756836
      4.21666667	      0.03094491	      0.03385421	      0.05771477
      4.23333333	      0.03079422	      0.03377168	      0.05777639
      4.25000000	      0.03059818	      0.03366402	      0.05780251
      4.26666667	      0.03047263	      0.03359488	      0.05788570
      4.28333333	      0.03016179	      0.03342310	      0.05783569
      4.30000000	      0.02976023	      0.03319986	      0.05778486
      4.31666667	      0.02926829	      0.03292432	      0.05766092
      4.33333333	      0.02875863	      0.03263640	      0.05753423
      4.35000000	      0.02822684	      0.03233324	      0.05733877
      4.36666667	      0.02763135	      0.03199036	      0.05703809
      4.38333333	      0.02701966	      0.03163429	      0.05654168
      4.40000000	      0.02650695	      0.03133271	      0.05598865
      4.41666667	      0.02614635	      0.03111886	      0.05545291
      4.43333333	      0.02598361	      0.03102186	      0.05503964
      4.45000000	      0.02583350	      0.03093213	      0.05472122
      4.46666667	      0.02580629	      0.03091583	      0.05455658
      4.48333333	      0.02584664	      0.03093999	      0.05457990
      4.50000000	      0.02598896	      0.03102506	      0.05475790
      4.51666667	      0.02617773	      0.03113753	      0.05480315
      4.53333333	      0.02640755	      0.03127391	      0.05482922
      4.55000000	      0.02677964	      0.03149347	      0.05470988
      4.56666667	      0.02715886	      0.03171567	      0.05446579
      4.58333333	      0.02744762	      0.03188383	      0.05428543
      4.60000000	      0.02756621	      0.03195263	      0.05413297
      4.61666667	      0.02747803	      0.03190148	      0.05422424
      4.63333333	      0.02720483	      0.03174250	      0.05455840
      4.65000000	      0.02681123	      0.03151204	      0.05502214
      4.66666667	      0.02637604	      0.03125525	      0.05535193
      4.68333333	      0.02604652	      0.03105939	      0.05576205
      4.70000000	      0.02588385	      0.03096225	      0.05617515
      4.71666667	      0.02584216	      0.03093731	      0.05644751
      4.73333333	      0.02584949	      0.03094170	      0.05664605
      4.75000000	      0.02588524	      0.03096308	      0.05672488
      4.76666667	      0.02587879	      0.03095922	      0.05736806
      4.78333333	      0.02593311	      0.03099170	      0.05723407
      4.80000000	      0.02598570	      0.03102311	      0.05709260
      4.81666667	      0.02592614	      0.03098754	      0.05695878
      4.83333333	      0.02597002	      0.03101375	      0.05691420
      4.85000000	      0.02612676	      0.03110720	      0.05703145
      4.86666667	      0.02634918	      0.03123933	      0.05709280
      4.88333333	      0.02664398	      0.03141360	      0.05724102
      4.90000000	      0.02691141	      0.03157086	      0.05740469
      4.91666667	      0.02713903	      0.03170409	      0.05740475
      4.93333333	      0.02720386	      0.03174193	      0.05737529
      4.95000000	      0.02713373	      0.03170099	      0.05743623
      4.96666667	      0.02700555	      0.03162603	      0.05747556
      4.98333333	      0.02700408	      0.03162517	      0.05773004
      5.00000000	      0.02721292	      0.03174722	      0.05831885
      5.01666667	      0.02756790	      0.03195362	      0.05918148
      5.03333333	      0.02797203	      0.03218697	      0.06011626
      5.05000000	      0.02828736	      0.03236789	      0.06086300
      5.06666667	      0.02844509	      0.03245800	      0.06145331
      5.08333333	      0.02841373	      0.03244011	      0.06183911
      5.10000000	      0.02831687	      0.03238477	      0.06205828
      5.11666667	      0.02811949	      0.03227170	      0.06187934
      5.13333333	      0.02800007	      0.03220310	      0.06161379
      5.15000000	      0.02786264	      0.03212397	      0.06108453
      5.16666667	      0.02784549	      0.03211409	      0.06053314
      5.18333333	      0.02776340	      0.03206671	      0.05992939
      5.20000000	      0.02766826	      0.03201172	      0.05955690
      5.21666667	      0.02755305	      0.03194501	      0.05937683
      5.23333333	      0.02737176	      0.03183974	      0.05943995
      5.25000000	      0.02719990	      0.03173962	      0.05963899
      5.26666667	      0.02701107	      0.03162926	      0.05982738
      5.28333333	      0.02684866	      0.03153403	      0.05989735
      5.30000000	      0.02673396	      0.03146660	      0.05992762
      5.31666667	      0.02666607	      0.03142662	      0.05992588
      5.33333333	      0.02663198	      0.03140652	      0.05994671
      5.35000000	      0.02666694	      0.03142713	      0.06005678
      5.36666667	      0.02665667	      0.03142108	      0.06013465
      5.38333333	      0.02674736	      0.03147448	      0.06033464
      5.40000000	      0.02684078	      0.03152940	      0.06055331
      5.41666667	      0.02693082	      0.03158224	      0.06069221
      5.43333333	      0.02706590	      0.03166135	      0.06065450
      5.45000000	      0.02724670	      0.03176692	      0.06056318
      5.46666667	      0.02753472	      0.03193438	      0.06035206
      5.48333333	      0.02781912	      0.03209888	      0.06013680
      5.50000000	      0.02811509	      0.03226917	      0.05983800
      5.51666667	      0.02827595	      0.03236136	      0.05955619
      5.53333333	      0.02831287	      0.03238248	      0.05936652
      5.55000000	      0.02817005	      0.03230070	      0.05931920
      5.56666667	      0.02784088	      0.03211143	      0.05951016
      5.58333333	      0.02750624	      0.03191786	      0.06008579
      5.60000000	      0.02724106	      0.03176363	      0.06079419
      5.61666667	      0.02712718	      0.03169717	      0.06138276
      5.63333333	      0.02711775	      0.03169165	      0.06168909
      5.65000000	      0.02728107	      0.03178695	      0.06167927
      5.66666667	      0.02763815	      0.03199430	      0.06137629
      5.68333333	      0.02819278	      0.03231373	      0.06098190
      5.70000000	      0.02894100	      0.03273972	      0.06062569
      5.71666667	      0.02966151	      0.03314475	      0.06033504
      5.73333333	      0.03025515	      0.03347478	      0.05993387
      5.75000000	      0.03063063	      0.03368186	      0.05931829
      5.76666667	      0.03074739	      0.03374599	      0.05865592
      5.78333333	      0.03071758	      0.03372963	      0.05788450
      5.80000000	      0.03051088	      0.03361596	      0.05704049
      5.81666667	      0.03019081	      0.03343917	      0.05643086
      5.83333333	      0.02972622	      0.03318089	      0.05586314
      5.85000000	      0.02927693	      0.03292918	      0.05539034
      5.86666667	      0.02891443	      0.03272468	      0.05490086
      5.88333333	      0.02875685	      0.03263539	      0.05449320
      5.90000000	      0.02872044	      0.03261472	      0.05410877
      5.91666667	      0.02872119	      0.03261514	      0.05390132
      5.93333333	      0.02868332	      0.03259364	      0.05382278
      5.95000000	      0.02864232	      0.03257034	      0.05385446
      5.96666667	      0.02862189	      0.03255871	      0.05410283
      5.98333333	      0.02857988	      0.03253481	      0.05445458
      6.00000000	      0.02837857	      0.03242003	      0.05472258
      6.01666667	      0.02804334	      0.03222798	      0.05525098
      6.03333333	      0.02752427	      0.03192832	      0.05552353
      6.05000000	      0.02684164	      0.03152990	      0.05611183
      6.06666667	      0.02615693	      0.03112515	      0.05654525
      6.08333333	      0.02577358	      0.03089623	      0.05695526
      6.10000000	      0.02583575	      0.03093347	      0.05737995
      6.11666667	      0.02640840	      0.03127441	      0.05771629
      6.13333333	      0.02739653	      0.03185414	      0.05791795
      6.15000000	      0.02851425	      0.03249744	      0.05795509
      6.16666667	      0.02919171	      0.03288122	      0.05801731
      6.18333333	      0.02906467	      0.03280959	      0.05837774
      6.20000000	      0.02824591	      0.03234416	      0.05925002
      6.21666667	      0.02701343	      0.03163064	      0.06013577
      6.23333333	      0.02592802	      0.03098866	      0.06114347
      6.25000000	      0.02518922	      0.03054397	      0.06201034
      6.26666667	      0.02501135	      0.03043594	      0.06249412
      6.28333333	      0.02311457	      0.02925911	      0.05971039
      6.30000000	      0.02305708	      0.02922269	      0.05935750
      6.31666667	      0.02358674	      0.02955643	      0.05865100
      6.33333333	      0.02468472	      0.03023655	      0.05780651
      6.35000000	      0.02601113	      0.03103829	      0.05673542
      6.36666667	      0.02705141	      0.03165287	      0.05583431
      6.38333333	      0.02732717	      0.03181380	      0.05484777
      6.40000000	      0.02669135	      0.03144151	      0.05477350
      6.41666667	      0.02563634	      0.03081386	      0.05482188
      6.43333333	      0.02467283	      0.03022926	      0.05520680
      6.45000000	      0.02394234	      0.02977840	      0.05560491
      6.46666667	      0.02341518	      0.02944875	      0.05603665
      6.48333333	      0.02320895	      0.02931878	      0.05645564
      6.50000000	      0.02329658	      0.02937407	      0.05695669
      6.51666667	      0.02350861	      0.02950744	      0.05709153
      6.53333333	      0.02379716	      0.02968798	      0.05743936
      6.55000000	      0.02398002	      0.02980183	      0.05742662
      6.56666667	      0.02418343	      0.02992796	      0.05787742
      6.58333333	      0.02425085	      0.02996965	      0.05844835
      6.60000000	      0.02432862	      0.03001766	      0.05931287
      6.61666667	      0.02425992	      0.02997525	      0.06012196
      6.63333333	      0.02414104	      0.02990172	      0.06073322
      6.65000000	      0.02398256	      0.02980341	      0.06097512
      6.66666667	      0.02381332	      0.02969806	      0.06100907
      6.68333333	      0.02367605	      0.02961234	      0.06100051
      6.70000000	      0.02359425	      0.02956114	      0.06099533
      6.71666667	      0.02357417	      0.02954856	      0.06097833
      6.73333333	      0.02356312	      0.02954163	      0.06091429
      6.75000000	      0.02346218	      0.02947829	      0.06096602
      6.76666667	      0.02321807	      0.02932454	      0.06118850
      6.78333333	      0.02284793	      0.02908985	      0.06147932
      6.80000000	      0.02245634	      0.02883949	      0.06180219
      6.81666667	      0.02216409	      0.02865121	      0.06225683
      6.83333333	      0.02201924	      0.02855744	      0.06268243
      6.85000000	      0.02199650	      0.02854269	      0.06301735
      6.86666667	      0.02204082	      0.02857143	      0.06324640
      6.88333333	      0.02211387	      0.02861874	      0.06333266
      6.90000000	      0.02222681	      0.02869173	      0.06327526
      6.91666667	      0.02224528	      0.02870364	      0.06290190
      6.93333333	      0.02228833	      0.02873141	      0.06270005
      6.95000000	      0.02227881	      0.02872527	      0.06243423
      6.96666667	      0.02227920	      0.02872552	      0.06219075
      6.98333333	      0.02229167	      0.02873356	      0.06201742
      7.00000000	      0.02232047	      0.02875212	      0.06181282
      7.01666667	      0.02237614	      0.02878795	      0.06134251
      7.03333333	      0.02246360	      0.02884415	      0.06103144
      7.05000000	      0.02258897	      0.02892453	      0.06060765
      7.06666667	      0.02278975	      0.02905280	      0.06015366
      7.08333333	      0.02305659	      0.02922238	      0.05977832
      7.10000000	      0.02337528	      0.02942365	      0.05938286
      7.11666667	      0.02371769	      0.02963837	      0.05904324
      7.13333333	      0.02405314	      0.02984723	      0.05872254
      7.15000000	      0.02431001	      0.03000618	      0.05812579
      7.16666667	      0.02449865	      0.03012237	      0.05757861
      7.18333333	      0.02468379	      0.03023598	      0.05706632
      7.20000000	      0.02490023	      0.03036825	      0.05642963
      7.21666667	      0.02522769	      0.03056728	      0.05567766
      7.23333333	      0.02584545	      0.03093928	      0.05502182
