Model Marker Errors from IK
version=1
nRows=306
nColumns=4
inDegrees=no
endheader
time	total_squared_error	marker_error_RMS	marker_error_max
      0.00000000	      0.01352725	      0.02238324	      0.04853349
      0.01694915	      0.01267227	      0.02166433	      0.04678756
      0.03389831	      0.01235248	      0.02138923	      0.04542329
      0.05084746	      0.01224057	      0.02129212	      0.04424559
      0.06779661	      0.01229865	      0.02134258	      0.04337730
      0.08474576	      0.01242475	      0.02145171	      0.04278214
      0.10169492	      0.01255722	      0.02156577	      0.04245776
      0.11864407	      0.01262402	      0.02162305	      0.04235682
      0.13559322	      0.01259589	      0.02159895	      0.04235717
      0.15254237	      0.01249965	      0.02151627	      0.04243582
      0.16949153	      0.01230165	      0.02134518	      0.04249352
      0.18644068	      0.01212802	      0.02119400	      0.04261025
      0.20338983	      0.01199824	      0.02108031	      0.04274605
      0.22033898	      0.01192491	      0.02101578	      0.04267901
      0.23728814	      0.01190376	      0.02099714	      0.04263391
      0.25423729	      0.01193213	      0.02102215	      0.04264063
      0.27118644	      0.01200054	      0.02108233	      0.04266422
      0.28813559	      0.01209319	      0.02116355	      0.04253869
      0.30508475	      0.01217718	      0.02123692	      0.04245819
      0.32203390	      0.01227045	      0.02131809	      0.04228796
      0.33898305	      0.01232571	      0.02136604	      0.04251821
      0.35593220	      0.01233516	      0.02137423	      0.04286468
      0.37288136	      0.01229571	      0.02134003	      0.04321000
      0.38983051	      0.01228214	      0.02132825	      0.04342680
      0.40677966	      0.01233035	      0.02137006	      0.04375439
      0.42372881	      0.01246063	      0.02148266	      0.04395514
      0.44067797	      0.01268903	      0.02167865	      0.04403893
      0.45762712	      0.01297627	      0.02192265	      0.04409081
      0.47457627	      0.01322407	      0.02213098	      0.04373141
      0.49152542	      0.01335647	      0.02224149	      0.04400129
      0.50847458	      0.01335546	      0.02224065	      0.04405751
      0.52542373	      0.01324538	      0.02214881	      0.04391442
      0.54237288	      0.01305725	      0.02199095	      0.04408504
      0.55932203	      0.01281776	      0.02178834	      0.04413585
      0.57627119	      0.01253441	      0.02154617	      0.04401113
      0.59322034	      0.01224676	      0.02129751	      0.04368401
      0.61016949	      0.01203591	      0.02111337	      0.04367613
      0.62711864	      0.01188909	      0.02098420	      0.04377540
      0.64406780	      0.01179522	      0.02090120	      0.04377472
      0.66101695	      0.01177505	      0.02088331	      0.04380264
      0.67796610	      0.01185920	      0.02095781	      0.04423241
      0.69491525	      0.01198827	      0.02107155	      0.04431207
      0.71186441	      0.01213147	      0.02119702	      0.04436686
      0.72881356	      0.01219896	      0.02125590	      0.04439477
      0.74576271	      0.01213708	      0.02120192	      0.04418408
      0.76271186	      0.01196372	      0.02104995	      0.04361888
      0.77966102	      0.01167965	      0.02079855	      0.04309049
      0.79661017	      0.01140855	      0.02055575	      0.04265379
      0.81355932	      0.01114037	      0.02031271	      0.04204977
      0.83050847	      0.01091164	      0.02010310	      0.04149541
      0.84745763	      0.01074649	      0.01995039	      0.04126741
      0.86440678	      0.01061374	      0.01982679	      0.04102044
      0.88135593	      0.01059384	      0.01980819	      0.04144328
      0.89830508	      0.01058245	      0.01979754	      0.04164090
      0.91525424	      0.01056147	      0.01977791	      0.04150553
      0.93220339	      0.01064396	      0.01985500	      0.04158099
      0.94915254	      0.01073139	      0.01993637	      0.04149199
      0.96610169	      0.01087550	      0.02006978	      0.04134839
      0.98305085	      0.01106420	      0.02024315	      0.04131151
      1.00000000	      0.01121741	      0.02038283	      0.04122511
      1.01694915	      0.01134394	      0.02049746	      0.04102441
      1.03389831	      0.01140280	      0.02055057	      0.04096566
      1.05084746	      0.01138365	      0.02053330	      0.04103619
      1.06779661	      0.01135297	      0.02050562	      0.04110649
      1.08474576	      0.01135969	      0.02051169	      0.04117407
      1.10169492	      0.01142306	      0.02056882	      0.04111703
      1.11864407	      0.01150910	      0.02064613	      0.04112025
      1.13559322	      0.01157614	      0.02070618	      0.04106283
      1.15254237	      0.01157062	      0.02070125	      0.04110802
      1.16949153	      0.01152417	      0.02065965	      0.04102785
      1.18644068	      0.01142271	      0.02056850	      0.04111509
      1.20338983	      0.01128519	      0.02044431	      0.04135204
      1.22033898	      0.01117159	      0.02034115	      0.04148370
      1.23728814	      0.01110463	      0.02028010	      0.04167198
      1.25423729	      0.01107223	      0.02025050	      0.04178460
      1.27118644	      0.01108111	      0.02025861	      0.04201260
      1.28813559	      0.01110863	      0.02028376	      0.04229614
      1.30508475	      0.01112425	      0.02029801	      0.04228256
      1.32203390	      0.01111786	      0.02029218	      0.04207193
      1.33898305	      0.01110524	      0.02028066	      0.04182912
      1.35593220	      0.01110471	      0.02028018	      0.04127384
      1.37288136	      0.01111974	      0.02029390	      0.04119014
      1.38983051	      0.01118836	      0.02035641	      0.04097389
      1.40677966	      0.01120900	      0.02037518	      0.04073008
      1.42372881	      0.01118219	      0.02035080	      0.04077780
      1.44067797	      0.01111722	      0.02029159	      0.04116012
      1.45762712	      0.01104508	      0.02022565	      0.04141034
      1.47457627	      0.01103608	      0.02021742	      0.04174359
      1.49152542	      0.01110351	      0.02027908	      0.04193323
      1.50847458	      0.01127078	      0.02043126	      0.04194936
      1.52542373	      0.01153760	      0.02067168	      0.04179200
      1.54237288	      0.01181348	      0.02091737	      0.04174483
      1.55932203	      0.01194434	      0.02103290	      0.04149970
      1.57627119	      0.01185435	      0.02095352	      0.04143065
      1.59322034	      0.01152933	      0.02066427	      0.04117619
      1.61016949	      0.01115267	      0.02032393	      0.04114721
      1.62711864	      0.01088268	      0.02007641	      0.04113747
      1.64406780	      0.01077873	      0.01998030	      0.04115385
      1.66101695	      0.01084861	      0.02004496	      0.04091363
      1.67796610	      0.01105671	      0.02023630	      0.04094917
      1.69491525	      0.01129696	      0.02045497	      0.04066295
      1.71186441	      0.01152396	      0.02065946	      0.04061568
      1.72881356	      0.01168765	      0.02080567	      0.04068240
      1.74576271	      0.01172066	      0.02083503	      0.04051558
      1.76271186	      0.01168585	      0.02080407	      0.04047784
      1.77966102	      0.01156509	      0.02069629	      0.04026455
      1.79661017	      0.01149036	      0.02062932	      0.04012562
      1.81355932	      0.01148551	      0.02062497	      0.03996788
      1.83050847	      0.01148560	      0.02062505	      0.03979842
      1.84745763	      0.01153233	      0.02066696	      0.03971209
      1.86440678	      0.01157886	      0.02070862	      0.03976132
      1.88135593	      0.01159521	      0.02072323	      0.03971462
      1.89830508	      0.01157591	      0.02070598	      0.03987700
      1.91525424	      0.01152197	      0.02065768	      0.03995198
      1.93220339	      0.01146463	      0.02060621	      0.04007613
      1.94915254	      0.01143228	      0.02057712	      0.04017497
      1.96610169	      0.01147023	      0.02061125	      0.04031754
      1.98305085	      0.01155343	      0.02068586	      0.04052565
      2.00000000	      0.01161038	      0.02073678	      0.04074165
      2.01694915	      0.01157073	      0.02070134	      0.04098915
      2.03389831	      0.01149427	      0.02063283	      0.04129803
      2.05084746	      0.01145991	      0.02060197	      0.04153019
      2.06779661	      0.01149154	      0.02063038	      0.04179294
      2.08474576	      0.01157065	      0.02070127	      0.04202723
      2.10169492	      0.01169597	      0.02081307	      0.04216690
      2.11864407	      0.01179632	      0.02090217	      0.04229329
      2.13559322	      0.01193976	      0.02102887	      0.04239912
      2.15254237	      0.01200733	      0.02108829	      0.04228244
      2.16949153	      0.01201789	      0.02109756	      0.04221658
      2.18644068	      0.01194101	      0.02102997	      0.04210950
      2.20338983	      0.01186643	      0.02096419	      0.04212750
      2.22033898	      0.01182854	      0.02093070	      0.04225852
      2.23728814	      0.01182653	      0.02092892	      0.04257683
      2.25423729	      0.01182582	      0.02092829	      0.04276901
      2.27118644	      0.01185421	      0.02095340	      0.04313006
      2.28813559	      0.01190688	      0.02099990	      0.04329668
      2.30508475	      0.01194864	      0.02103669	      0.04342768
      2.32203390	      0.01194930	      0.02103727	      0.04337564
      2.33898305	      0.01192700	      0.02101763	      0.04328364
      2.35593220	      0.01193555	      0.02102516	      0.04326414
      2.37288136	      0.01203733	      0.02111462	      0.04311398
      2.38983051	      0.01229603	      0.02134031	      0.04315188
      2.40677966	      0.01257279	      0.02157913	      0.04353633
      2.42372881	      0.01303798	      0.02197472	      0.04338805
      2.44067797	      0.01353438	      0.02238914	      0.04362126
      2.45762712	      0.01397407	      0.02274991	      0.04360336
      2.47457627	      0.01425865	      0.02298039	      0.04373193
      2.49152542	      0.01430010	      0.02301377	      0.04370697
      2.50847458	      0.01418372	      0.02291992	      0.04371421
      2.52542373	      0.01399788	      0.02276928	      0.04369036
      2.54237288	      0.01383633	      0.02263750	      0.04382797
      2.55932203	      0.01369697	      0.02252321	      0.04393144
      2.57627119	      0.01358949	      0.02243467	      0.04378735
      2.59322034	      0.01353536	      0.02238995	      0.04404269
      2.61016949	      0.01349547	      0.02235693	      0.04394506
      2.62711864	      0.01349427	      0.02235593	      0.04424314
      2.64406780	      0.01354690	      0.02239948	      0.04454528
      2.66101695	      0.01362277	      0.02246212	      0.04441525
      2.67796610	      0.01372218	      0.02254393	      0.04453790
      2.69491525	      0.01377592	      0.02258804	      0.04484206
      2.71186441	      0.01376225	      0.02257682	      0.04499148
      2.72881356	      0.01360473	      0.02244725	      0.04474211
      2.74576271	      0.01343728	      0.02230868	      0.04469241
      2.76271186	      0.01329068	      0.02218665	      0.04469437
      2.77966102	      0.01319429	      0.02210605	      0.04474100
      2.79661017	      0.01315190	      0.02207051	      0.04483435
      2.81355932	      0.01315881	      0.02207631	      0.04494429
      2.83050847	      0.01323324	      0.02213865	      0.04496292
      2.84745763	      0.01337787	      0.02225930	      0.04472959
      2.86440678	      0.01356716	      0.02241623	      0.04529034
      2.88135593	      0.01378407	      0.02259472	      0.04549533
      2.89830508	      0.01394912	      0.02272958	      0.04558186
      2.91525424	      0.01403704	      0.02280110	      0.04568148
      2.93220339	      0.01404746	      0.02280956	      0.04568260
      2.94915254	      0.01399399	      0.02276611	      0.04581641
      2.96610169	      0.01386612	      0.02266186	      0.04560028
      2.98305085	      0.01372087	      0.02254285	      0.04551311
      3.00000000	      0.01362836	      0.02246673	      0.04539641
      3.01694915	      0.01368458	      0.02251302	      0.04570957
      3.03389831	      0.01371549	      0.02253843	      0.04537639
      3.05084746	      0.01387445	      0.02266867	      0.04534460
      3.06779661	      0.01401853	      0.02278607	      0.04530008
      3.08474576	      0.01409861	      0.02285106	      0.04528456
      3.10169492	      0.01409924	      0.02285157	      0.04511670
      3.11864407	      0.01402560	      0.02279181	      0.04502027
      3.13559322	      0.01393573	      0.02271867	      0.04504618
      3.15254237	      0.01379947	      0.02260733	      0.04482313
      3.16949153	      0.01372675	      0.02254769	      0.04464087
      3.18644068	      0.01371043	      0.02253428	      0.04448204
      3.20338983	      0.01376127	      0.02257602	      0.04453245
      3.22033898	      0.01384926	      0.02264808	      0.04425612
      3.23728814	      0.01397677	      0.02275210	      0.04418200
      3.25423729	      0.01417217	      0.02291059	      0.04415631
      3.27118644	      0.01440886	      0.02310111	      0.04410411
      3.28813559	      0.01462257	      0.02327180	      0.04419186
      3.30508475	      0.01474318	      0.02336757	      0.04411772
      3.32203390	      0.01472480	      0.02335301	      0.04433100
      3.33898305	      0.01456266	      0.02322408	      0.04432346
      3.35593220	      0.01440336	      0.02309670	      0.04442751
      3.37288136	      0.01419919	      0.02293242	      0.04434731
      3.38983051	      0.01411914	      0.02286769	      0.04423792
      3.40677966	      0.01406922	      0.02282722	      0.04428851
      3.42372881	      0.01402854	      0.02279420	      0.04417727
      3.44067797	      0.01397684	      0.02275216	      0.04414546
      3.45762712	      0.01395187	      0.02273183	      0.04414708
      3.47457627	      0.01398117	      0.02275568	      0.04409446
      3.49152542	      0.01406981	      0.02282770	      0.04406324
      3.50847458	      0.01417935	      0.02291640	      0.04410220
      3.52542373	      0.01426660	      0.02298679	      0.04422124
      3.54237288	      0.01426560	      0.02298599	      0.04412788
      3.55932203	      0.01414161	      0.02288588	      0.04408285
      3.57627119	      0.01391590	      0.02270251	      0.04394769
      3.59322034	      0.01362157	      0.02246114	      0.04391422
      3.61016949	      0.01330560	      0.02219910	      0.04391079
      3.62711864	      0.01302278	      0.02196190	      0.04393089
      3.64406780	      0.01283662	      0.02180436	      0.04403264
      3.66101695	      0.01282484	      0.02179436	      0.04443953
      3.67796610	      0.01292753	      0.02188144	      0.04441724
      3.69491525	      0.01313130	      0.02205322	      0.04474972
      3.71186441	      0.01333014	      0.02221956	      0.04503433
      3.72881356	      0.01346340	      0.02233035	      0.04539354
      3.74576271	      0.01352869	      0.02238443	      0.04562448
      3.76271186	      0.01355529	      0.02240642	      0.04584837
      3.77966102	      0.01355361	      0.02240503	      0.04596380
      3.79661017	      0.01349357	      0.02235535	      0.04602493
      3.81355932	      0.01339893	      0.02227682	      0.04605120
      3.83050847	      0.01326434	      0.02216465	      0.04557903
      3.84745763	      0.01321040	      0.02211954	      0.04515563
      3.86440678	      0.01324485	      0.02214836	      0.04481427
      3.88135593	      0.01336012	      0.02224454	      0.04455607
      3.89830508	      0.01352259	      0.02237938	      0.04448191
      3.91525424	      0.01370905	      0.02253314	      0.04419367
      3.93220339	      0.01391258	      0.02269980	      0.04389437
      3.94915254	      0.01410608	      0.02285711	      0.04348259
      3.96610169	      0.01425320	      0.02297600	      0.04325271
      3.98305085	      0.01434037	      0.02304615	      0.04333009
      4.00000000	      0.01431336	      0.02302443	      0.04357266
      4.01694915	      0.01423852	      0.02296416	      0.04387166
      4.03389831	      0.01410372	      0.02285520	      0.04407329
      4.05084746	      0.01398598	      0.02275960	      0.04461282
      4.06779661	      0.01389911	      0.02268880	      0.04526691
      4.08474576	      0.01381645	      0.02262124	      0.04598517
      4.10169492	      0.01371065	      0.02253446	      0.04666630
      4.11864407	      0.01355060	      0.02240254	      0.04718923
      4.13559322	      0.01336512	      0.02224869	      0.04750941
      4.15254237	      0.01320817	      0.02211767	      0.04756004
      4.16949153	      0.01313460	      0.02205599	      0.04751069
      4.18644068	      0.01311596	      0.02204034	      0.04744135
      4.20338983	      0.01315902	      0.02207648	      0.04741351
      4.22033898	      0.01320953	      0.02211881	      0.04742632
      4.23728814	      0.01310882	      0.02203434	      0.04754900
      4.25423729	      0.01290798	      0.02186488	      0.04780036
      4.27118644	      0.01262007	      0.02161967	      0.04818905
      4.28813559	      0.01236805	      0.02140271	      0.04860061
      4.30508475	      0.01220865	      0.02126434	      0.04906057
      4.32203390	      0.01210510	      0.02117397	      0.04928526
      4.33898305	      0.01200803	      0.02108890	      0.04934032
      4.35593220	      0.01190287	      0.02099636	      0.04914926
      4.37288136	      0.01186002	      0.02095853	      0.04886869
      4.38983051	      0.01193249	      0.02102246	      0.04851748
      4.40677966	      0.01204415	      0.02112060	      0.04809588
      4.42372881	      0.01213723	      0.02120205	      0.04790324
      4.44067797	      0.01210969	      0.02117799	      0.04795960
      4.45762712	      0.01198383	      0.02106764	      0.04823216
      4.47457627	      0.01183431	      0.02093580	      0.04848614
      4.49152542	      0.01169981	      0.02081649	      0.04904421
      4.50847458	      0.01161161	      0.02073788	      0.04960158
      4.52542373	      0.01156939	      0.02070015	      0.04995121
      4.54237288	      0.01160157	      0.02072891	      0.05013751
      4.55932203	      0.01175526	      0.02086576	      0.05017801
      4.57627119	      0.01203321	      0.02111100	      0.05019094
      4.59322034	      0.01237361	      0.02140752	      0.05025739
      4.61016949	      0.01271039	      0.02169690	      0.05034158
      4.62711864	      0.01296497	      0.02191310	      0.05030542
      4.64406780	      0.01309762	      0.02202492	      0.05029457
      4.66101695	      0.01314356	      0.02206351	      0.05007828
      4.67796610	      0.01320047	      0.02211123	      0.04966572
      4.69491525	      0.01338480	      0.02226507	      0.04870845
      4.71186441	      0.01366258	      0.02249492	      0.04747208
      4.72881356	      0.01401837	      0.02278594	      0.04575951
      4.74576271	      0.01429614	      0.02301058	      0.04389913
      4.76271186	      0.01451138	      0.02318315	      0.04379244
      4.77966102	      0.01509135	      0.02364188	      0.04448799
      4.79661017	      0.01651608	      0.02473270	      0.04442014
      4.81355932	      0.01861383	      0.02625645	      0.04920109
      4.83050847	      0.02076379	      0.02773138	      0.05211225
      4.84745763	      0.02229698	      0.02873698	      0.05291152
      4.86440678	      0.02283222	      0.02907985	      0.05241785
      4.88135593	      0.02248288	      0.02885653	      0.05217801
      4.89830508	      0.02161631	      0.02829495	      0.05403894
      4.91525424	      0.02096051	      0.02786244	      0.05576149
      4.93220339	      0.02064632	      0.02765282	      0.05700675
      4.94915254	      0.02066401	      0.02766467	      0.05834261
      4.96610169	      0.02089610	      0.02781959	      0.06016058
      4.98305085	      0.02103644	      0.02791286	      0.06199723
      5.00000000	      0.02109330	      0.02795055	      0.06365037
      5.01694915	      0.02091328	      0.02783103	      0.06271499
      5.03389831	      0.02067690	      0.02767329	      0.06242646
      5.05084746	      0.02031394	      0.02742933	      0.05907071
      5.06779661	      0.01986530	      0.02712474	      0.05566818
      5.08474576	      0.01953463	      0.02689804	      0.05323053
      5.10169492	      0.01943764	      0.02683118	      0.05197105
      5.11864407	      0.01928655	      0.02672670	      0.05064067
      5.13559322	      0.01928066	      0.02672262	      0.04759697
      5.15254237	      0.01955227	      0.02691019	      0.04656029
      5.16949153	      0.02057066	      0.02760210	      0.04910054
