Model Marker Errors from IK
version=1
nRows=317
nColumns=4
inDegrees=no
endheader
time	total_squared_error	marker_error_RMS	marker_error_max
      0.00000000	      0.02735589	      0.03183051	      0.06291052
      0.01666667	      0.02600327	      0.03103360	      0.06020897
      0.03333333	      0.02534367	      0.03063747	      0.05852389
      0.05000000	      0.02508540	      0.03048096	      0.05736432
      0.06666667	      0.02500100	      0.03042964	      0.05707437
      0.08333333	      0.02508196	      0.03047887	      0.05717835
      0.10000000	      0.02527270	      0.03059454	      0.05738792
      0.11666667	      0.02540085	      0.03067201	      0.05761448
      0.13333333	      0.02548797	      0.03072457	      0.05783389
      0.15000000	      0.02554825	      0.03076088	      0.05815665
      0.16666667	      0.02562675	      0.03080810	      0.05867187
      0.18333333	      0.02572856	      0.03086923	      0.05932490
      0.20000000	      0.02581066	      0.03091845	      0.05985161
      0.21666667	      0.02589374	      0.03096817	      0.06033640
      0.23333333	      0.02596901	      0.03101314	      0.06070959
      0.25000000	      0.02604846	      0.03106055	      0.06103393
      0.26666667	      0.02611825	      0.03110213	      0.06133312
      0.28333333	      0.02620288	      0.03115248	      0.06153987
      0.30000000	      0.02621503	      0.03115970	      0.06202051
      0.31666667	      0.02619187	      0.03114594	      0.06251710
      0.33333333	      0.02614436	      0.03111767	      0.06309424
      0.35000000	      0.02610593	      0.03109479	      0.06345144
      0.36666667	      0.02615621	      0.03112473	      0.06359076
      0.38333333	      0.02618021	      0.03113900	      0.06353311
      0.40000000	      0.02632658	      0.03122593	      0.06340737
      0.41666667	      0.02655283	      0.03135982	      0.06348789
      0.43333333	      0.02682490	      0.03152007	      0.06329314
      0.45000000	      0.02709547	      0.03167864	      0.06317448
      0.46666667	      0.02734197	      0.03182241	      0.06308852
      0.48333333	      0.02752910	      0.03193112	      0.06306933
      0.50000000	      0.02768821	      0.03202326	      0.06314510
      0.51666667	      0.02779957	      0.03208760	      0.06306445
      0.53333333	      0.02782243	      0.03210078	      0.06296055
      0.55000000	      0.02772267	      0.03204318	      0.06301583
      0.56666667	      0.02755577	      0.03194658	      0.06318290
      0.58333333	      0.02739987	      0.03185608	      0.06337646
      0.60000000	      0.02728511	      0.03178930	      0.06349604
      0.61666667	      0.02720292	      0.03174139	      0.06339211
      0.63333333	      0.02713154	      0.03169971	      0.06309846
      0.65000000	      0.02705974	      0.03165774	      0.06266259
      0.66666667	      0.02704741	      0.03165053	      0.06219176
      0.68333333	      0.02712531	      0.03169608	      0.06159313
      0.70000000	      0.02736009	      0.03183295	      0.06113881
      0.71666667	      0.02764332	      0.03199729	      0.06107066
      0.73333333	      0.02781032	      0.03209380	      0.06117782
      0.75000000	      0.02770659	      0.03203389	      0.06166680
      0.76666667	      0.02734137	      0.03182206	      0.06240369
      0.78333333	      0.02688390	      0.03155471	      0.06322721
      0.80000000	      0.02645719	      0.03130329	      0.06384158
      0.81666667	      0.02615510	      0.03112406	      0.06328647
      0.83333333	      0.02588684	      0.03096404	      0.06054970
      0.85000000	      0.02549816	      0.03073071	      0.05672242
      0.86666667	      0.02505918	      0.03046502	      0.05399173
      0.88333333	      0.02493459	      0.03038920	      0.05819530
      0.90000000	      0.02033753	      0.02744525	      0.04911537
      0.91666667	      0.01979387	      0.02707594	      0.05155321
      0.93333333	      0.01963725	      0.02696860	      0.05306442
      0.95000000	      0.01987325	      0.02713017	      0.05414400
      0.96666667	      0.02048015	      0.02754132	      0.05664756
      0.98333333	      0.02149016	      0.02821227	      0.05968025
      1.00000000	      0.02283569	      0.02908206	      0.06250307
      1.01666667	      0.02455760	      0.03015859	      0.06696411
      1.03333333	      0.02663759	      0.03140983	      0.07111346
      1.05000000	      0.02914289	      0.03285371	      0.07572181
      1.06666667	      0.03130410	      0.03405013	      0.07667906
      1.08333333	      0.03200251	      0.03442787	      0.07123246
      1.10000000	      0.03094177	      0.03385249	      0.06924270
      1.11666667	      0.02867843	      0.03259086	      0.06985445
      1.13333333	      0.02575511	      0.03088516	      0.06765151
      1.15000000	      0.02273352	      0.02901693	      0.06343520
      1.16666667	      0.02032919	      0.02743962	      0.05999678
      1.18333333	      0.01885157	      0.02642359	      0.05946945
      1.20000000	      0.01813981	      0.02591997	      0.05879965
      1.21666667	      0.01800289	      0.02582196	      0.05771594
      1.23333333	      0.01835283	      0.02607172	      0.05631759
      1.25000000	      0.01897184	      0.02650775	      0.05500346
      1.26666667	      0.01951328	      0.02688334	      0.05412305
      1.28333333	      0.01972734	      0.02703040	      0.05364586
      1.30000000	      0.01975593	      0.02704997	      0.05334738
      1.31666667	      0.01986121	      0.02712195	      0.05312725
      1.33333333	      0.01991172	      0.02715642	      0.05342525
      1.35000000	      0.02032427	      0.02743631	      0.05577690
      1.36666667	      0.02097572	      0.02787254	      0.05732617
      1.38333333	      0.02174417	      0.02837851	      0.05770765
      1.40000000	      0.02245995	      0.02884181	      0.05698127
      1.41666667	      0.02288940	      0.02911624	      0.05566451
      1.43333333	      0.02322089	      0.02932632	      0.05583841
      1.45000000	      0.02356861	      0.02954507	      0.05541513
      1.46666667	      0.02383438	      0.02971119	      0.05489503
      1.48333333	      0.02374320	      0.02965430	      0.05407155
      1.50000000	      0.02311072	      0.02925667	      0.05340256
      1.51666667	      0.02225843	      0.02871213	      0.05253361
      1.53333333	      0.02148784	      0.02821074	      0.05138430
      1.55000000	      0.02106571	      0.02793227	      0.04997197
      1.56666667	      0.02131262	      0.02809549	      0.04849727
      1.58333333	      0.02222608	      0.02869125	      0.04739984
      1.60000000	      0.02359273	      0.02956019	      0.05152093
      1.61666667	      0.02487678	      0.03035395	      0.05748082
      1.63333333	      0.02559338	      0.03078803	      0.06037434
      1.65000000	      0.02558340	      0.03078203	      0.06029476
      1.66666667	      0.02504349	      0.03045549	      0.05777364
      1.68333333	      0.02416420	      0.02991605	      0.05320209
      1.70000000	      0.02311277	      0.02925796	      0.04812365
      1.71666667	      0.02233362	      0.02876058	      0.04827885
      1.73333333	      0.02232139	      0.02875271	      0.04744062
      1.75000000	      0.02290554	      0.02912650	      0.04731918
      1.76666667	      0.02347172	      0.02948429	      0.05363517
      1.78333333	      0.02355714	      0.02953789	      0.05323805
      1.80000000	      0.02348022	      0.02948962	      0.05301045
      1.81666667	      0.02421402	      0.02994688	      0.05654058
      1.83333333	      0.02618933	      0.03114442	      0.05934245
      1.85000000	      0.02873713	      0.03262420	      0.06146651
      1.86666667	      0.03033128	      0.03351687	      0.06435754
      1.88333333	      0.03050948	      0.03361519	      0.06472482
      1.90000000	      0.03019013	      0.03343880	      0.06605201
      1.91666667	      0.03077418	      0.03376069	      0.06742010
      1.93333333	      0.03339129	      0.03516695	      0.06844596
      1.95000000	      0.03910134	      0.03805519	      0.07694007
      1.96666667	      0.04840285	      0.04234026	      0.09639771
      1.98333333	      0.06161106	      0.04776914	      0.12060106
      2.00000000	      0.07756479	      0.05359823	      0.14434955
      2.01666667	      0.09262098	      0.05856967	      0.16342412
      2.03333333	      0.10245913	      0.06160181	      0.17442124
      2.05000000	      0.10552837	      0.06251766	      0.17732037
      2.06666667	      0.10415986	      0.06211097	      0.17472098
      2.08333333	      0.10073907	      0.06108254	      0.16974582
      2.10000000	      0.09613797	      0.05967131	      0.16450438
      2.11666667	      0.09004746	      0.05775025	      0.15940208
      2.13333333	      0.08167461	      0.05499987	      0.15280148
      2.15000000	      0.07085699	      0.05122824	      0.14256744
      2.16666667	      0.05908018	      0.04677772	      0.12866796
      2.18333333	      0.04874039	      0.04248764	      0.11258520
      2.20000000	      0.04122557	      0.03907522	      0.09588981
      2.21666667	      0.03612418	      0.03657776	      0.07972514
      2.23333333	      0.03304701	      0.03498519	      0.06905334
      2.25000000	      0.03147008	      0.03414028	      0.07105284
      2.26666667	      0.03066325	      0.03369979	      0.07060609
      2.28333333	      0.02991189	      0.03328435	      0.06834363
      2.30000000	      0.02891553	      0.03272531	      0.06539757
      2.31666667	      0.02777190	      0.03207162	      0.06257994
      2.33333333	      0.02655763	      0.03136265	      0.06026823
      2.35000000	      0.02522116	      0.03056333	      0.05827121
      2.36666667	      0.02423032	      0.02995696	      0.05683308
      2.38333333	      0.02346708	      0.02948137	      0.05598734
      2.40000000	      0.02281463	      0.02906865	      0.05526548
      2.41666667	      0.02217056	      0.02865540	      0.05383977
      2.43333333	      0.02148295	      0.02820753	      0.05332882
      2.45000000	      0.02095300	      0.02785744	      0.05289552
      2.46666667	      0.02065623	      0.02765946	      0.05237774
      2.48333333	      0.02063046	      0.02764220	      0.05182859
      2.50000000	      0.02089028	      0.02781571	      0.05119619
      2.51666667	      0.02126961	      0.02806712	      0.05081216
      2.53333333	      0.02142836	      0.02817167	      0.05143673
      2.55000000	      0.02166860	      0.02832915	      0.05209842
      2.56666667	      0.02195869	      0.02851815	      0.05272576
      2.58333333	      0.02191724	      0.02849122	      0.05533276
      2.60000000	      0.02175652	      0.02838657	      0.05676197
      2.61666667	      0.02144634	      0.02818349	      0.05545691
      2.63333333	      0.02109761	      0.02795341	      0.05306064
      2.65000000	      0.02078952	      0.02774856	      0.05008152
      2.66666667	      0.02054576	      0.02758540	      0.04873868
      2.68333333	      0.02065693	      0.02765992	      0.04716166
      2.70000000	      0.02134985	      0.02812001	      0.04751794
      2.71666667	      0.02236920	      0.02878348	      0.05198389
      2.73333333	      0.02319048	      0.02930711	      0.05179160
      2.75000000	      0.02384809	      0.02971974	      0.05173377
      2.76666667	      0.02435647	      0.03003484	      0.05219832
      2.78333333	      0.02476746	      0.03028718	      0.05333381
      2.80000000	      0.02549146	      0.03072667	      0.05756554
      2.81666667	      0.02647598	      0.03131440	      0.06396221
      2.83333333	      0.02752335	      0.03192779	      0.06899772
      2.85000000	      0.02769696	      0.03202832	      0.07082085
      2.86666667	      0.02666334	      0.03142501	      0.06907024
      2.88333333	      0.02494207	      0.03039375	      0.06547848
      2.90000000	      0.02327732	      0.02936193	      0.06186588
      2.91666667	      0.02201204	      0.02855277	      0.05936571
      2.93333333	      0.02144612	      0.02818334	      0.05860227
      2.95000000	      0.02173792	      0.02837443	      0.05909549
      2.96666667	      0.02264649	      0.02896134	      0.06019212
      2.98333333	      0.02392071	      0.02976495	      0.06030074
      3.00000000	      0.02512866	      0.03050723	      0.05974225
      3.01666667	      0.02730280	      0.03179961	      0.05838955
      3.03333333	      0.02993951	      0.03329971	      0.07230728
      3.05000000	      0.03169128	      0.03426005	      0.08691726
      3.06666667	      0.03136292	      0.03408210	      0.09138756
      3.08333333	      0.02951274	      0.03306153	      0.08765069
      3.10000000	      0.02759411	      0.03196880	      0.07893633
      3.11666667	      0.02648250	      0.03131826	      0.07006765
      3.13333333	      0.02588097	      0.03096053	      0.06287178
      3.15000000	      0.02560928	      0.03079760	      0.05730427
      3.16666667	      0.02584666	      0.03094000	      0.05868761
      3.18333333	      0.02665966	      0.03142284	      0.06127084
      3.20000000	      0.02780871	      0.03209287	      0.06221262
      3.21666667	      0.02895792	      0.03274928	      0.05930675
      3.23333333	      0.02992993	      0.03329439	      0.05566879
      3.25000000	      0.03052591	      0.03362424	      0.05943886
      3.26666667	      0.03079628	      0.03377281	      0.06351716
      3.28333333	      0.03085576	      0.03380542	      0.06806032
      3.30000000	      0.03079839	      0.03377397	      0.07045311
      3.31666667	      0.03080991	      0.03378029	      0.07276229
      3.33333333	      0.03093340	      0.03384792	      0.07439528
      3.35000000	      0.03089988	      0.03382957	      0.07466820
      3.36666667	      0.03045541	      0.03358539	      0.07389907
      3.38333333	      0.02956868	      0.03309284	      0.07099346
      3.40000000	      0.02859932	      0.03254588	      0.06893356
      3.41666667	      0.02778667	      0.03208015	      0.06712735
      3.43333333	      0.02709604	      0.03167897	      0.06564427
      3.45000000	      0.02272688	      0.02901269	      0.05878424
      3.46666667	      0.02270666	      0.02899978	      0.05897176
      3.48333333	      0.02301905	      0.02919858	      0.06007167
      3.50000000	      0.02350308	      0.02950398	      0.06127567
      3.51666667	      0.02385449	      0.02972372	      0.06185260
      3.53333333	      0.02394656	      0.02978103	      0.06159115
      3.55000000	      0.02371556	      0.02963704	      0.05989536
      3.56666667	      0.02345170	      0.02947171	      0.05871732
      3.58333333	      0.02305051	      0.02921853	      0.05649665
      3.60000000	      0.02278671	      0.02905085	      0.05468543
      3.61666667	      0.02264029	      0.02895737	      0.05272932
      3.63333333	      0.02254930	      0.02889912	      0.05114535
      3.65000000	      0.02228494	      0.02872922	      0.04971414
      3.66666667	      0.02168240	      0.02833817	      0.04901987
      3.68333333	      0.02087280	      0.02780408	      0.04872298
      3.70000000	      0.02023056	      0.02737298	      0.04865228
      3.71666667	      0.01989967	      0.02714820	      0.04801138
      3.73333333	      0.01977533	      0.02706325	      0.04823454
      3.75000000	      0.01998961	      0.02720948	      0.04799920
      3.76666667	      0.02058846	      0.02761405	      0.04804865
      3.78333333	      0.02147315	      0.02820110	      0.04838329
      3.80000000	      0.02202614	      0.02856191	      0.04972522
      3.81666667	      0.02311918	      0.02926202	      0.05291867
      3.83333333	      0.02460674	      0.03018875	      0.05594836
      3.85000000	      0.02636530	      0.03124888	      0.05733947
      3.86666667	      0.02787496	      0.03213107	      0.05766279
      3.88333333	      0.02901811	      0.03278330	      0.05782566
      3.90000000	      0.03013440	      0.03340791	      0.05859819
      3.91666667	      0.03136600	      0.03408378	      0.06052282
      3.93333333	      0.03218263	      0.03452462	      0.06356394
      3.95000000	      0.03230738	      0.03459147	      0.06721708
      3.96666667	      0.03184694	      0.03434409	      0.07067821
      3.98333333	      0.03134669	      0.03407328	      0.07337134
      4.00000000	      0.03117668	      0.03398076	      0.07505856
      4.01666667	      0.03131978	      0.03405865	      0.07570884
      4.03333333	      0.03171279	      0.03427167	      0.07543765
      4.05000000	      0.03232432	      0.03460054	      0.07453356
      4.06666667	      0.03302722	      0.03497471	      0.07274521
      4.08333333	      0.03372523	      0.03534236	      0.07013748
      4.10000000	      0.03395364	      0.03546184	      0.06840720
      4.11666667	      0.03272077	      0.03481207	      0.06880147
      4.13333333	      0.03182193	      0.03433060	      0.06983013
      4.15000000	      0.03215272	      0.03450857	      0.07208206
      4.16666667	      0.03402699	      0.03550012	      0.07468347
      4.18333333	      0.03655679	      0.03679613	      0.07708699
      4.20000000	      0.03922414	      0.03811490	      0.07832684
      4.21666667	      0.04200069	      0.03944086	      0.07839811
      4.23333333	      0.04446058	      0.04057941	      0.08691232
      4.25000000	      0.04619985	      0.04136551	      0.10118269
      4.26666667	      0.04671476	      0.04159539	      0.11476882
      4.28333333	      0.04736443	      0.04188363	      0.12480102
      4.30000000	      0.04837297	      0.04232720	      0.12941966
      4.31666667	      0.04886313	      0.04254110	      0.12787049
      4.33333333	      0.04803166	      0.04217761	      0.12097266
      4.35000000	      0.04616590	      0.04135031	      0.11055253
      4.36666667	      0.04366557	      0.04021496	      0.09929844
      4.38333333	      0.04100450	      0.03897031	      0.08935373
      4.40000000	      0.03854486	      0.03778343	      0.08091838
      4.41666667	      0.03636006	      0.03669699	      0.07328594
      4.43333333	      0.03424154	      0.03561187	      0.06498255
      4.45000000	      0.03216327	      0.03451423	      0.06410673
      4.46666667	      0.03022813	      0.03345983	      0.06463309
      4.48333333	      0.02831394	      0.03238309	      0.06512341
      4.50000000	      0.02633106	      0.03122858	      0.06548626
      4.51666667	      0.02465921	      0.03022092	      0.06541206
      4.53333333	      0.02360937	      0.02957061	      0.06488814
      4.55000000	      0.02333658	      0.02939928	      0.06400870
      4.56666667	      0.02396252	      0.02979095	      0.06288914
      4.58333333	      0.02560959	      0.03079778	      0.06497454
      4.60000000	      0.02819708	      0.03231619	      0.08008647
      4.61666667	      0.03112772	      0.03395407	      0.09064779
      4.63333333	      0.03372416	      0.03534180	      0.09502213
      4.65000000	      0.03575165	      0.03638867	      0.09487969
      4.66666667	      0.03707453	      0.03705578	      0.09149719
      4.68333333	      0.03742234	      0.03722919	      0.09412887
      4.70000000	      0.03680539	      0.03692103	      0.10118289
      4.71666667	      0.03579929	      0.03641291	      0.10815097
      4.73333333	      0.03483034	      0.03591675	      0.11224856
      4.75000000	      0.03425628	      0.03561953	      0.11326374
      4.76666667	      0.03409217	      0.03553411	      0.11073014
      4.78333333	      0.03396129	      0.03546583	      0.10499571
      4.80000000	      0.03335039	      0.03514541	      0.09695348
      4.81666667	      0.03204197	      0.03444909	      0.08881556
      4.83333333	      0.03030761	      0.03350379	      0.08141933
      4.85000000	      0.02873811	      0.03262475	      0.07568890
      4.86666667	      0.02773756	      0.03205178	      0.07188977
      4.88333333	      0.02736333	      0.03183483	      0.06960577
      4.90000000	      0.02317097	      0.02929478	      0.06223927
      4.91666667	      0.02291138	      0.02913022	      0.06120901
      4.93333333	      0.02273492	      0.02901783	      0.06033316
      4.95000000	      0.02292126	      0.02913650	      0.05930995
      4.96666667	      0.02346704	      0.02948134	      0.06012445
      4.98333333	      0.02458053	      0.03017267	      0.06196391
      5.00000000	      0.02695096	      0.03159405	      0.06456959
      5.01666667	      0.03095114	      0.03385762	      0.06743638
      5.03333333	      0.03567364	      0.03634895	      0.07470810
      5.05000000	      0.03066894	      0.03370292	      0.07145174
      5.06666667	      0.03131279	      0.03405485	      0.07382197
      5.08333333	      0.03150463	      0.03415902	      0.07471964
      5.10000000	      0.03083357	      0.03379326	      0.07444350
      5.11666667	      0.02953872	      0.03307607	      0.07325308
      5.13333333	      0.02817003	      0.03230069	      0.07155282
      5.15000000	      0.02705609	      0.03165561	      0.06962279
      5.16666667	      0.02620468	      0.03115355	      0.06776827
      5.18333333	      0.02547068	      0.03071414	      0.06590892
      5.20000000	      0.02508000	      0.03047768	      0.06438072
      5.21666667	      0.02372457	      0.02964267	      0.06170630
      5.23333333	      0.02264128	      0.02895800	      0.05921024
      5.25000000	      0.02145958	      0.02819218	      0.05618997
      5.26666667	      0.02060766	      0.02762692	      0.05287608
