Model Marker Errors from IK
version=1
nRows=202
nColumns=4
inDegrees=no
endheader
time	total_squared_error	marker_error_RMS	marker_error_max
      0.00000000	      0.02570404	      0.03085452	      0.06011730
      0.01923077	      0.02370220	      0.02962869	      0.05757638
      0.03846154	      0.02281468	      0.02906868	      0.05663393
      0.05769231	      0.02237653	      0.02878820	      0.05624746
      0.07692308	      0.02215707	      0.02864668	      0.05598081
      0.09615385	      0.02209881	      0.02860899	      0.05611800
      0.11538462	      0.02211309	      0.02861823	      0.05625339
      0.13461538	      0.02200574	      0.02854868	      0.05594060
      0.15384615	      0.02181466	      0.02842447	      0.05513048
      0.17307692	      0.02174344	      0.02837803	      0.05437824
      0.19230769	      0.02174893	      0.02838161	      0.05330061
      0.21153846	      0.02206428	      0.02858663	      0.05276896
      0.23076923	      0.02238762	      0.02879533	      0.05164665
      0.25000000	      0.02241833	      0.02881507	      0.05146946
      0.26923077	      0.02218891	      0.02866726	      0.05196067
      0.28846154	      0.02162150	      0.02829835	      0.05295473
      0.30769231	      0.02088362	      0.02781128	      0.05271477
      0.32692308	      0.02017857	      0.02733778	      0.05194663
      0.34615385	      0.01957450	      0.02692548	      0.05011156
      0.36538462	      0.01918906	      0.02665907	      0.04912109
      0.38461538	      0.01907389	      0.02657894	      0.04908241
      0.40384615	      0.01938041	      0.02679166	      0.04916919
      0.42307692	      0.01988757	      0.02713995	      0.04915605
      0.44230769	      0.01994957	      0.02718222	      0.04825340
      0.46153846	      0.01917613	      0.02665009	      0.04627851
      0.48076923	      0.01791527	      0.02575905	      0.04575110
      0.50000000	      0.01684996	      0.02498144	      0.04606258
      0.51923077	      0.01641695	      0.02465837	      0.04578673
      0.53846154	      0.01654807	      0.02475665	      0.04565576
      0.55769231	      0.01692144	      0.02503438	      0.04570193
      0.57692308	      0.01727921	      0.02529764	      0.04561516
      0.59615385	      0.01754675	      0.02549274	      0.04535674
      0.61538462	      0.01767116	      0.02558295	      0.04517032
      0.63461538	      0.01763224	      0.02555476	      0.04579213
      0.65384615	      0.01755708	      0.02550024	      0.04567264
      0.67307692	      0.01759243	      0.02552590	      0.04666187
      0.69230769	      0.01785767	      0.02571760	      0.04725755
      0.71153846	      0.01845486	      0.02614409	      0.04843217
      0.73076923	      0.01938476	      0.02679466	      0.05073342
      0.75000000	      0.02050670	      0.02755916	      0.05327523
      0.76923077	      0.02152556	      0.02823549	      0.05666601
      0.78846154	      0.02227467	      0.02872260	      0.05889913
      0.80769231	      0.02289014	      0.02911671	      0.06042549
      0.82692308	      0.02343444	      0.02946086	      0.06216326
      0.84615385	      0.02373858	      0.02965142	      0.06393668
      0.86538462	      0.02372772	      0.02964464	      0.06376535
      0.88461538	      0.02374690	      0.02965661	      0.06364462
      0.90384615	      0.02388306	      0.02974152	      0.06282654
      0.92307692	      0.02380577	      0.02969335	      0.05815547
      0.94230769	      0.02307462	      0.02923381	      0.04770540
      0.96153846	      0.02223235	      0.02869530	      0.04293640
      0.98076923	      0.02164175	      0.02831159	      0.04328508
      1.00000000	      0.02145097	      0.02818653	      0.04398063
      1.01923077	      0.02164030	      0.02831064	      0.04932272
      1.03846154	      0.02200519	      0.02854833	      0.05435312
      1.05769231	      0.02238108	      0.02879113	      0.05856692
      1.07692308	      0.02248738	      0.02885941	      0.06122935
      1.09615385	      0.02217683	      0.02865945	      0.06174347
      1.11538462	      0.02158870	      0.02827687	      0.05958279
      1.13461538	      0.02107716	      0.02793986	      0.05603905
      1.15384615	      0.02080664	      0.02775998	      0.05418512
      1.17307692	      0.02079821	      0.02775435	      0.05401045
      1.19230769	      0.02092908	      0.02784153	      0.05369432
      1.21153846	      0.02106481	      0.02793167	      0.05330232
      1.23076923	      0.02117215	      0.02800274	      0.05269444
      1.25000000	      0.02128125	      0.02807480	      0.05197089
      1.26923077	      0.02151980	      0.02823172	      0.05469809
      1.28846154	      0.02207685	      0.02859477	      0.05756777
      1.30769231	      0.02305900	      0.02922391	      0.06006331
      1.32692308	      0.02428624	      0.02999151	      0.06284353
      1.34615385	      0.02524812	      0.03057966	      0.06495758
      1.36538462	      0.02559968	      0.03079182	      0.06618190
      1.38461538	      0.02537627	      0.03065717	      0.06637782
      1.40384615	      0.02484920	      0.03033712	      0.06573168
      1.42307692	      0.02426046	      0.02997558	      0.06484137
      1.44230769	      0.02370663	      0.02963146	      0.06431796
      1.46153846	      0.02312087	      0.02926309	      0.06347075
      1.48076923	      0.02258674	      0.02892310	      0.06255939
      1.50000000	      0.02205981	      0.02858373	      0.06117570
      1.51923077	      0.02150365	      0.02822112	      0.05954107
      1.53846154	      0.02092693	      0.02784010	      0.05852827
      1.55769231	      0.02018585	      0.02734271	      0.05620363
      1.57692308	      0.01977792	      0.02706502	      0.05539547
      1.59615385	      0.01987653	      0.02713241	      0.05608464
      1.61538462	      0.02033946	      0.02744656	      0.05695123
      1.63461538	      0.02083634	      0.02777978	      0.05829786
      1.65384615	      0.02113369	      0.02797730	      0.05903633
      1.67307692	      0.02123155	      0.02804200	      0.05914872
      1.69230769	      0.02125826	      0.02805963	      0.05790423
      1.71153846	      0.02118902	      0.02801390	      0.05505096
      1.73076923	      0.02077559	      0.02773926	      0.05035834
      1.75000000	      0.01991312	      0.02715737	      0.04499020
      1.76923077	      0.01894193	      0.02648684	      0.04366936
      1.78846154	      0.01839017	      0.02609823	      0.04244818
      1.80769231	      0.01860898	      0.02625303	      0.04252224
      1.82692308	      0.01947194	      0.02685485	      0.04581566
      1.84615385	      0.02068266	      0.02767714	      0.04911877
      1.86538462	      0.02212220	      0.02862413	      0.05285815
      1.88461538	      0.02356467	      0.02954260	      0.05570142
      1.90384615	      0.02464320	      0.03021111	      0.05717986
      1.92307692	      0.02467986	      0.03023357	      0.05583703
      1.94230769	      0.02344875	      0.02946985	      0.05100793
      1.96153846	      0.02163791	      0.02830908	      0.04479673
      1.98076923	      0.02016685	      0.02732985	      0.04242574
      2.00000000	      0.01955762	      0.02691387	      0.04204076
      2.01923077	      0.01977933	      0.02706599	      0.04254864
      2.03846154	      0.02053981	      0.02758140	      0.04878788
      2.05769231	      0.02165458	      0.02831998	      0.05545936
      2.07692308	      0.02243979	      0.02882886	      0.05951182
      2.09615385	      0.02267413	      0.02897900	      0.05933230
      2.11538462	      0.02241567	      0.02881336	      0.05709695
      2.13461538	      0.02211506	      0.02861951	      0.05279067
      2.15384615	      0.02170288	      0.02835155	      0.04909661
      2.17307692	      0.02114031	      0.02798168	      0.04841184
      2.19230769	      0.02056329	      0.02759716	      0.04644557
      2.21153846	      0.02024490	      0.02738268	      0.04629437
      2.23076923	      0.01975566	      0.02704979	      0.04533536
      2.25000000	      0.01924996	      0.02670134	      0.04628558
      2.26923077	      0.01851588	      0.02618727	      0.04842973
      2.28846154	      0.01777066	      0.02565487	      0.05213933
      2.30769231	      0.01736285	      0.02535879	      0.05642674
      2.32692308	      0.01740275	      0.02538792	      0.06172868
      2.34615385	      0.01781081	      0.02568384	      0.06802951
      2.36538462	      0.01848227	      0.02616350	      0.07380753
      2.38461538	      0.01954224	      0.02690329	      0.07963484
      2.40384615	      0.02094583	      0.02785267	      0.08479022
      2.42307692	      0.02256241	      0.02890752	      0.08929670
      2.44230769	      0.02413354	      0.02989707	      0.09255799
      2.46153846	      0.02542741	      0.03068804	      0.09464889
      2.48076923	      0.02645071	      0.03129946	      0.09627961
      2.50000000	      0.02748277	      0.03190424	      0.09763531
      2.51923077	      0.02871083	      0.03260926	      0.10009291
      2.53846154	      0.02992239	      0.03329019	      0.10225423
      2.55769231	      0.03090096	      0.03383016	      0.10508655
      2.57692308	      0.03163816	      0.03423132	      0.10780029
      2.59615385	      0.03226821	      0.03457049	      0.11115797
      2.61538462	      0.03276288	      0.03483446	      0.11305105
      2.63461538	      0.03282448	      0.03486720	      0.11199707
      2.65384615	      0.03246219	      0.03467424	      0.10905331
      2.67307692	      0.03168063	      0.03425430	      0.10408027
      2.69230769	      0.03076697	      0.03375674	      0.09897837
      2.71153846	      0.02983581	      0.03324199	      0.09433184
      2.73076923	      0.02890249	      0.03271792	      0.09033775
      2.75000000	      0.02812329	      0.03227388	      0.08681711
      2.76923077	      0.02759854	      0.03197136	      0.08391498
      2.78846154	      0.02738902	      0.03184978	      0.08188838
      2.80769231	      0.02731351	      0.03180584	      0.08018972
      2.82692308	      0.02705272	      0.03165363	      0.07880676
      2.84615385	      0.02660202	      0.03138885	      0.07709074
      2.86538462	      0.02612947	      0.03110881	      0.07600177
      2.88461538	      0.02570925	      0.03085765	      0.07562880
      2.90384615	      0.02531384	      0.03061943	      0.07631936
      2.92307692	      0.02490052	      0.03036843	      0.07741727
      2.94230769	      0.02456033	      0.03016027	      0.07846065
      2.96153846	      0.02433675	      0.03002267	      0.07888694
      2.98076923	      0.02439423	      0.03005811	      0.07812738
      3.00000000	      0.02326411	      0.02935360	      0.07636708
      3.01923077	      0.02365840	      0.02960130	      0.07388773
      3.03846154	      0.02409083	      0.02987060	      0.07036810
      3.05769231	      0.02442010	      0.03007404	      0.06712163
      3.07692308	      0.02455594	      0.03015757	      0.06460334
      3.09615385	      0.02447195	      0.03010595	      0.06211915
      3.11538462	      0.02433472	      0.03002142	      0.06017628
      3.13461538	      0.02428006	      0.02998769	      0.05834508
      3.15384615	      0.02428802	      0.02999260	      0.05700697
      3.17307692	      0.02403127	      0.02983366	      0.05619199
      3.19230769	      0.02329717	      0.02937445	      0.05637602
      3.21153846	      0.02207331	      0.02859248	      0.05762013
      3.23076923	      0.02067873	      0.02767452	      0.05916842
      3.25000000	      0.01951955	      0.02688766	      0.06025774
      3.26923077	      0.01877837	      0.02637224	      0.06023162
      3.28846154	      0.01844030	      0.02613377	      0.06001450
      3.30769231	      0.01842904	      0.02612579	      0.05967703
      3.32692308	      0.01879810	      0.02638609	      0.06035096
      3.34615385	      0.01710483	      0.02516967	      0.04562654
      3.36538462	      0.01712422	      0.02518393	      0.04480550
      3.38461538	      0.01733792	      0.02534058	      0.04639739
      3.40384615	      0.01785735	      0.02571738	      0.04803180
      3.42307692	      0.01858749	      0.02623787	      0.04920975
      3.44230769	      0.01918560	      0.02665666	      0.04890234
      3.46153846	      0.01930378	      0.02673864	      0.04876881
      3.48076923	      0.01915566	      0.02663586	      0.04715249
      3.50000000	      0.01892036	      0.02647176	      0.04460427
      3.51923077	      0.01877831	      0.02637220	      0.04326665
      3.53846154	      0.01880557	      0.02639133	      0.04454979
      3.55769231	      0.01913297	      0.02662008	      0.04707450
      3.57692308	      0.01970459	      0.02701481	      0.05097403
      3.59615385	      0.02061648	      0.02763283	      0.05641280
      3.61538462	      0.02158361	      0.02827354	      0.06118783
      3.63461538	      0.02228637	      0.02873014	      0.06395474
      3.65384615	      0.02250269	      0.02886924	      0.06499753
      3.67307692	      0.02211557	      0.02861984	      0.06297194
      3.69230769	      0.02141216	      0.02816102	      0.05994010
      3.71153846	      0.02076200	      0.02773018	      0.05666174
      3.73076923	      0.02039298	      0.02748264	      0.05386330
      3.75000000	      0.02063181	      0.02764310	      0.05268926
      3.76923077	      0.02137600	      0.02813723	      0.05231350
      3.78846154	      0.02240931	      0.02880928	      0.05451586
      3.80769231	      0.02362694	      0.02958161	      0.05701597
      3.82692308	      0.02484918	      0.03033711	      0.06098220
      3.84615385	      0.02592062	      0.03098424	      0.06607162
      3.86538462	      0.02687980	      0.03155231	      0.07203863
