Model Marker Errors from IK
version=1
nRows=294
nColumns=4
inDegrees=no
endheader
time	total_squared_error	marker_error_RMS	marker_error_max
      0.00000000	      0.02603474	      0.03105237	      0.04968100
      0.01666667	      0.02471264	      0.03025364	      0.04843653
      0.03333333	      0.02462218	      0.03019822	      0.04904249
      0.05000000	      0.02500626	      0.03043284	      0.04947868
      0.06666667	      0.02539258	      0.03066702	      0.04984086
      0.08333333	      0.02584097	      0.03093660	      0.05017720
      0.10000000	      0.02614903	      0.03112045	      0.05052696
      0.11666667	      0.02650856	      0.03133366	      0.05100320
      0.13333333	      0.02677810	      0.03149256	      0.05158461
      0.15000000	      0.02697653	      0.03160903	      0.05227436
      0.16666667	      0.02707459	      0.03166643	      0.05303030
      0.18333333	      0.02704059	      0.03164654	      0.05371779
      0.20000000	      0.02703509	      0.03164332	      0.05431344
      0.21666667	      0.02703027	      0.03164050	      0.05481425
      0.23333333	      0.02701493	      0.03163152	      0.05521329
      0.25000000	      0.02705439	      0.03165461	      0.05540172
      0.26666667	      0.02706916	      0.03166325	      0.05539615
      0.28333333	      0.02694638	      0.03159136	      0.05512941
      0.30000000	      0.02676148	      0.03148279	      0.05466467
      0.31666667	      0.02654668	      0.03135619	      0.05406425
      0.33333333	      0.02628186	      0.03119939	      0.05350778
      0.35000000	      0.02605870	      0.03106666	      0.05297924
      0.36666667	      0.02585753	      0.03094651	      0.05253289
      0.38333333	      0.02565438	      0.03082470	      0.05222725
      0.40000000	      0.02540246	      0.03067298	      0.05199620
      0.41666667	      0.02510027	      0.03048999	      0.05186660
      0.43333333	      0.02478563	      0.03029829	      0.05169970
      0.45000000	      0.02457402	      0.03016868	      0.05150269
      0.46666667	      0.02450975	      0.03012919	      0.05130855
      0.48333333	      0.02456595	      0.03016372	      0.05121459
      0.50000000	      0.02478846	      0.03030002	      0.05132575
      0.51666667	      0.02510835	      0.03049490	      0.05161680
      0.53333333	      0.02540287	      0.03067323	      0.05204847
      0.55000000	      0.02544749	      0.03070016	      0.05248464
      0.56666667	      0.02523249	      0.03057019	      0.05297606
      0.58333333	      0.02479275	      0.03030264	      0.05336910
      0.60000000	      0.02434746	      0.03002928	      0.05347179
      0.61666667	      0.02405683	      0.02984952	      0.05324575
      0.63333333	      0.02402079	      0.02982715	      0.05278654
      0.65000000	      0.02410759	      0.02988100	      0.05222483
      0.66666667	      0.02421646	      0.02994839	      0.05171871
      0.68333333	      0.02435649	      0.03003485	      0.05130602
      0.70000000	      0.02448757	      0.03011556	      0.05101663
      0.71666667	      0.02458553	      0.03017574	      0.05087787
      0.73333333	      0.02448946	      0.03011673	      0.05074607
      0.75000000	      0.02425526	      0.02997237	      0.05062067
      0.76666667	      0.02406753	      0.02985616	      0.05036994
      0.78333333	      0.02420710	      0.02994260	      0.05011134
      0.80000000	      0.02501504	      0.03043818	      0.05004739
      0.81666667	      0.02660014	      0.03138774	      0.05282008
      0.83333333	      0.02849152	      0.03248448	      0.05515794
      0.85000000	      0.03026980	      0.03348289	      0.05761708
      0.86666667	      0.03146912	      0.03413976	      0.05892260
      0.88333333	      0.03209292	      0.03447647	      0.05944799
      0.90000000	      0.03232701	      0.03460197	      0.05954108
      0.91666667	      0.03243926	      0.03466200	      0.05994865
      0.93333333	      0.03265566	      0.03477742	      0.05967202
      0.95000000	      0.03338261	      0.03516238	      0.06021452
      0.96666667	      0.03455647	      0.03577526	      0.06098036
      0.98333333	      0.03606692	      0.03654876	      0.06127152
      1.00000000	      0.03725347	      0.03714510	      0.06480748
      1.01666667	      0.03765595	      0.03734521	      0.07089572
      1.03333333	      0.03979753	      0.03839248	      0.07586791
      1.05000000	      0.04185882	      0.03937419	      0.07916160
      1.06666667	      0.04341569	      0.04009973	      0.08136570
      1.08333333	      0.04443653	      0.04056843	      0.08272421
      1.10000000	      0.04509746	      0.04086901	      0.08337368
      1.11666667	      0.04560374	      0.04109778	      0.08298474
      1.13333333	      0.04598358	      0.04126858	      0.08335938
      1.15000000	      0.04650126	      0.04150023	      0.08337446
      1.16666667	      0.04731343	      0.04186107	      0.08334034
      1.18333333	      0.04841424	      0.04234525	      0.08322797
      1.20000000	      0.04928636	      0.04272494	      0.08262372
      1.21666667	      0.04945685	      0.04279878	      0.08181563
      1.23333333	      0.04913379	      0.04265876	      0.08054383
      1.25000000	      0.04846419	      0.04236709	      0.07933081
      1.26666667	      0.04761240	      0.04199312	      0.07895752
      1.28333333	      0.04680648	      0.04163620	      0.07904510
      1.30000000	      0.04611356	      0.04132686	      0.07963606
      1.31666667	      0.04564254	      0.04111526	      0.08029893
      1.33333333	      0.04546379	      0.04103467	      0.08078734
      1.35000000	      0.04545122	      0.04102900	      0.08029369
      1.36666667	      0.04529700	      0.04095933	      0.08179819
      1.38333333	      0.04513837	      0.04088755	      0.08969396
      1.40000000	      0.04540213	      0.04100683	      0.09629416
      1.41666667	      0.04681281	      0.04163902	      0.09957774
      1.43333333	      0.04966460	      0.04288857	      0.10336649
      1.45000000	      0.05407064	      0.04475060	      0.10971792
      1.46666667	      0.06071356	      0.04741994	      0.11708882
      1.48333333	      0.07190178	      0.05160454	      0.12613017
      1.50000000	      0.08630990	      0.05653904	      0.13684139
      1.51666667	      0.10306766	      0.06178447	      0.14875325
      1.53333333	      0.12090092	      0.06691645	      0.16499350
      1.55000000	      0.13940482	      0.07185500	      0.18298087
      1.56666667	      0.15869114	      0.07666453	      0.19832376
      1.58333333	      0.17880156	      0.08137739	      0.21109560
      1.60000000	      0.19898578	      0.08584779	      0.22157775
      1.61666667	      0.21825280	      0.08990794	      0.23005194
      1.63333333	      0.23614242	      0.09352014	      0.23744806
      1.65000000	      0.25263398	      0.09673063	      0.24427626
      1.66666667	      0.26747409	      0.09953114	      0.25040974
      1.68333333	      0.28066087	      0.10195512	      0.25567356
      1.70000000	      0.29299166	      0.10417074	      0.25993805
      1.71666667	      0.30532640	      0.10634089	      0.26358822
      1.73333333	      0.31729711	      0.10840547	      0.26631410
      1.75000000	      0.32726389	      0.11009489	      0.26760361
      1.76666667	      0.33388490	      0.11120300	      0.26740434
      1.78333333	      0.33752192	      0.11180703	      0.26580540
      1.80000000	      0.33970513	      0.11216805	      0.26366082
      1.81666667	      0.34166165	      0.11249060	      0.26151903
      1.83333333	      0.34336975	      0.11277144	      0.25939882
      1.85000000	      0.34494878	      0.11303044	      0.25722431
      1.86666667	      0.34667956	      0.11331365	      0.25537164
      1.88333333	      0.34851872	      0.11361382	      0.25391322
      1.90000000	      0.34994572	      0.11384618	      0.25273234
      1.91666667	      0.35061426	      0.11395487	      0.25172793
      1.93333333	      0.35039021	      0.11391846	      0.25157850
      1.95000000	      0.34953506	      0.11377936	      0.25108747
      1.96666667	      0.34832770	      0.11358268	      0.25066342
      1.98333333	      0.34722023	      0.11340198	      0.25054388
      2.00000000	      0.34635942	      0.11326132	      0.24996772
      2.01666667	      0.34606629	      0.11321338	      0.24941870
      2.03333333	      0.34617033	      0.11323040	      0.24842416
      2.05000000	      0.34642175	      0.11327151	      0.24692214
      2.06666667	      0.34663150	      0.11330580	      0.24532025
      2.08333333	      0.34698759	      0.11336398	      0.24420964
      2.10000000	      0.34750159	      0.11344791	      0.24457508
      2.11666667	      0.34817052	      0.11355705	      0.24501746
      2.13333333	      0.34905019	      0.11370042	      0.24525586
      2.15000000	      0.35017242	      0.11388305	      0.24687082
      2.16666667	      0.35134332	      0.11407329	      0.24841800
      2.18333333	      0.35229178	      0.11422716	      0.24951856
      2.20000000	      0.02098002	      0.02787540	      0.04809742
      2.21666667	      0.02086788	      0.02780080	      0.04764864
      2.23333333	      0.02087746	      0.02780718	      0.04762328
      2.25000000	      0.02097041	      0.02786901	      0.04810141
      2.26666667	      0.02111911	      0.02796765	      0.04905854
      2.28333333	      0.02128638	      0.02807819	      0.05008111
      2.30000000	      0.02150067	      0.02821916	      0.05116570
      2.31666667	      0.02178461	      0.02840488	      0.05276723
      2.33333333	      0.02198323	      0.02853408	      0.05252916
      2.35000000	      0.02221467	      0.02868389	      0.05310835
      2.36666667	      0.02239205	      0.02879818	      0.05353733
      2.38333333	      0.02237281	      0.02878580	      0.05217443
      2.40000000	      0.02224754	      0.02870510	      0.05146583
      2.41666667	      0.02202827	      0.02856329	      0.05128279
      2.43333333	      0.02184877	      0.02844668	      0.05059683
      2.45000000	      0.02183352	      0.02843675	      0.04983543
      2.46666667	      0.02195611	      0.02851648	      0.04904131
      2.48333333	      0.02230539	      0.02874240	      0.04907452
      2.50000000	      0.02274930	      0.02902700	      0.04926786
      2.51666667	      0.02331245	      0.02938408	      0.04969575
      2.53333333	      0.02383032	      0.02970866	      0.04942003
      2.55000000	      0.02418409	      0.02992836	      0.04975790
      2.56666667	      0.02431839	      0.03001135	      0.05052141
      2.58333333	      0.02432793	      0.03001724	      0.05125175
      2.60000000	      0.02428604	      0.02999138	      0.05200278
      2.61666667	      0.02421915	      0.02995005	      0.05276536
      2.63333333	      0.02419198	      0.02993325	      0.05341143
      2.65000000	      0.02429697	      0.02999813	      0.05370954
      2.66666667	      0.02446256	      0.03010018	      0.05328062
      2.68333333	      0.02455395	      0.03015635	      0.05267328
      2.70000000	      0.02448927	      0.03011661	      0.05168779
      2.71666667	      0.02430131	      0.03000081	      0.05078502
      2.73333333	      0.02410570	      0.02987982	      0.05046360
      2.75000000	      0.02398955	      0.02980775	      0.05094294
      2.76666667	      0.02374592	      0.02965600	      0.05112240
      2.78333333	      0.02347258	      0.02948482	      0.05127026
      2.80000000	      0.02314282	      0.02927698	      0.05127953
      2.81666667	      0.02280402	      0.02906189	      0.05110905
      2.83333333	      0.02243104	      0.02882324	      0.05074309
      2.85000000	      0.02196498	      0.02852224	      0.05051611
      2.86666667	      0.02139847	      0.02815202	      0.05059907
      2.88333333	      0.02082211	      0.02777029	      0.05068537
      2.90000000	      0.02033867	      0.02744602	      0.05034196
      2.91666667	      0.01996163	      0.02719044	      0.04951083
      2.93333333	      0.01971273	      0.02702038	      0.04849087
      2.95000000	      0.01957708	      0.02692725	      0.04745020
      2.96666667	      0.01952902	      0.02689418	      0.04630827
      2.98333333	      0.01959394	      0.02693885	      0.04627386
      3.00000000	      0.01959451	      0.02693924	      0.04623294
      3.01666667	      0.01962863	      0.02696269	      0.04633217
      3.03333333	      0.01964900	      0.02697667	      0.04636929
      3.05000000	      0.01967896	      0.02699723	      0.04640484
      3.06666667	      0.01972989	      0.02703214	      0.04640708
      3.08333333	      0.01979803	      0.02707878	      0.04641584
      3.10000000	      0.01990155	      0.02714948	      0.04642306
      3.11666667	      0.02007048	      0.02726447	      0.04652988
      3.13333333	      0.02032279	      0.02743531	      0.04651473
      3.15000000	      0.02057616	      0.02760580	      0.04675208
      3.16666667	      0.02075969	      0.02772864	      0.04687479
      3.18333333	      0.02089208	      0.02781691	      0.04704442
      3.20000000	      0.02102526	      0.02790543	      0.04714616
      3.21666667	      0.02127923	      0.02807347	      0.04710237
      3.23333333	      0.02164208	      0.02831181	      0.04717071
      3.25000000	      0.02204747	      0.02857574	      0.04759674
      3.26666667	      0.02239529	      0.02880026	      0.04822644
      3.28333333	      0.02268311	      0.02898474	      0.04886005
      3.30000000	      0.02296237	      0.02916262	      0.04921328
      3.31666667	      0.02303725	      0.02921012	      0.05007177
      3.33333333	      0.02297049	      0.02916777	      0.05006265
      3.35000000	      0.02272039	      0.02900855	      0.04960473
      3.36666667	      0.02252453	      0.02888325	      0.04879297
      3.38333333	      0.02250849	      0.02887296	      0.04773574
      3.40000000	      0.02269805	      0.02899428	      0.04765776
      3.41666667	      0.02292318	      0.02913772	      0.04755225
      3.43333333	      0.02301442	      0.02919565	      0.04752663
      3.45000000	      0.02289282	      0.02911842	      0.04767112
      3.46666667	      0.02256087	      0.02890654	      0.04768092
      3.48333333	      0.02211464	      0.02861924	      0.04786183
      3.50000000	      0.02170155	      0.02835068	      0.04789089
      3.51666667	      0.02139668	      0.02815084	      0.04786374
      3.53333333	      0.02121662	      0.02803214	      0.04803745
      3.55000000	      0.02113009	      0.02797491	      0.04781831
      3.56666667	      0.02115174	      0.02798925	      0.04758485
      3.58333333	      0.02130498	      0.02809045	      0.04911463
      3.60000000	      0.02157566	      0.02826833	      0.04881068
      3.61666667	      0.02186156	      0.02845501	      0.04857786
      3.63333333	      0.02199801	      0.02854367	      0.04939407
      3.65000000	      0.02189126	      0.02847433	      0.04947618
      3.66666667	      0.02163931	      0.02831000	      0.04960201
      3.68333333	      0.02137628	      0.02813741	      0.04976111
      3.70000000	      0.02128249	      0.02807562	      0.04970652
      3.71666667	      0.02134025	      0.02811369	      0.04945337
      3.73333333	      0.02153953	      0.02824465	      0.05050664
      3.75000000	      0.02169842	      0.02834864	      0.05152917
      3.76666667	      0.02180158	      0.02841594	      0.05277947
      3.78333333	      0.02181924	      0.02842745	      0.05391571
      3.80000000	      0.02185137	      0.02844837	      0.05484126
      3.81666667	      0.02194642	      0.02851018	      0.05567513
      3.83333333	      0.02207607	      0.02859427	      0.05560622
      3.85000000	      0.02220459	      0.02867738	      0.05575596
      3.86666667	      0.02228592	      0.02872985	      0.05589362
      3.88333333	      0.02233131	      0.02875910	      0.05576000
      3.90000000	      0.02239367	      0.02879922	      0.05560704
      3.91666667	      0.02253550	      0.02889028	      0.05559835
      3.93333333	      0.02267185	      0.02897755	      0.05557749
      3.95000000	      0.02275276	      0.02902920	      0.05531347
      3.96666667	      0.02265139	      0.02896447	      0.05483269
      3.98333333	      0.02236575	      0.02878126	      0.05423076
      4.00000000	      0.02199232	      0.02853998	      0.05367865
      4.01666667	      0.02168901	      0.02834249	      0.05318854
      4.03333333	      0.02156582	      0.02826189	      0.05298892
      4.05000000	      0.02169437	      0.02834599	      0.05303345
      4.06666667	      0.02208347	      0.02859906	      0.05329169
      4.08333333	      0.02266271	      0.02897170	      0.05333912
      4.10000000	      0.02317694	      0.02929855	      0.05409185
      4.11666667	      0.02348142	      0.02949037	      0.05422671
      4.13333333	      0.02339477	      0.02943591	      0.05416400
      4.15000000	      0.02303254	      0.02920714	      0.05403781
      4.16666667	      0.02256835	      0.02891133	      0.05362991
      4.18333333	      0.02220140	      0.02867532	      0.05367928
      4.20000000	      0.02200239	      0.02854651	      0.05505513
      4.21666667	      0.02187053	      0.02846084	      0.05574621
      4.23333333	      0.02188547	      0.02847056	      0.05642259
      4.25000000	      0.02212945	      0.02862882	      0.05674533
      4.26666667	      0.02258408	      0.02892140	      0.05672554
      4.28333333	      0.02314104	      0.02927585	      0.05670267
      4.30000000	      0.02358136	      0.02955307	      0.05690776
      4.31666667	      0.02383055	      0.02970881	      0.05809340
      4.33333333	      0.02394379	      0.02977931	      0.05931810
      4.35000000	      0.02421178	      0.02994550	      0.06006249
      4.36666667	      0.02479939	      0.03030670	      0.06077925
      4.38333333	      0.02548655	      0.03072371	      0.06171871
      4.40000000	      0.02571468	      0.03086091	      0.06241916
      4.41666667	      0.02547025	      0.03071388	      0.06400083
      4.43333333	      0.02514267	      0.03051573	      0.06636923
      4.45000000	      0.02528142	      0.03059982	      0.06987106
      4.46666667	      0.02426616	      0.02997911	      0.05430077
      4.48333333	      0.02495946	      0.03040435	      0.05518116
      4.50000000	      0.02604385	      0.03105780	      0.05593350
      4.51666667	      0.02738304	      0.03184630	      0.05648140
      4.53333333	      0.02877780	      0.03264727	      0.05700988
      4.55000000	      0.02995873	      0.03331040	      0.05742023
      4.56666667	      0.03055777	      0.03364178	      0.05769446
      4.58333333	      0.03071486	      0.03372814	      0.05782675
      4.60000000	      0.03060919	      0.03367007	      0.05790948
      4.61666667	      0.03037417	      0.03354056	      0.05797895
      4.63333333	      0.02999047	      0.03332804	      0.05811754
      4.65000000	      0.02969758	      0.03316490	      0.05828668
      4.66666667	      0.02951492	      0.03306275	      0.05833424
      4.68333333	      0.02955811	      0.03308693	      0.05838014
      4.70000000	      0.02956583	      0.03309125	      0.05832078
      4.71666667	      0.02949580	      0.03305204	      0.05829998
      4.73333333	      0.02929237	      0.03293786	      0.05841722
      4.75000000	      0.02902296	      0.03278604	      0.05866152
      4.76666667	      0.02881392	      0.03266776	      0.05874651
      4.78333333	      0.02873811	      0.03262475	      0.05895126
      4.80000000	      0.02875588	      0.03263484	      0.05908782
      4.81666667	      0.02866014	      0.03258047	      0.05910713
      4.83333333	      0.02837505	      0.03241802	      0.05900580
      4.85000000	      0.02785352	      0.03211872	      0.05873781
      4.86666667	      0.02718773	      0.03173252	      0.05834311
      4.88333333	      0.02689781	      0.03156288	      0.05776450
