Model Marker Errors from IK
version=1
nRows=1020
nColumns=4
inDegrees=no
endheader
time	total_squared_error	marker_error_RMS	marker_error_max
      0.00000000	      0.02724435	      0.03176555	      0.06189401
      0.01666667	      0.02768474	      0.03202125	      0.06088171
      0.03333333	      0.02814190	      0.03228455	      0.06062152
      0.05000000	      0.02844948	      0.03246051	      0.06049533
      0.06666667	      0.02861258	      0.03255342	      0.06032970
      0.08333333	      0.02862845	      0.03256245	      0.05990626
      0.10000000	      0.02871388	      0.03261100	      0.06019485
      0.11666667	      0.02888634	      0.03270878	      0.06143924
      0.13333333	      0.02911282	      0.03283676	      0.06212851
      0.15000000	      0.02931093	      0.03294829	      0.06311461
      0.16666667	      0.02934187	      0.03296568	      0.06401174
      0.18333333	      0.02920567	      0.03288908	      0.06455317
      0.20000000	      0.02897078	      0.03275656	      0.06466136
      0.21666667	      0.02879769	      0.03265855	      0.06445489
      0.23333333	      0.02879675	      0.03265802	      0.06425901
      0.25000000	      0.02891777	      0.03272657	      0.06475066
      0.26666667	      0.02922858	      0.03290198	      0.06510681
      0.28333333	      0.02960657	      0.03311404	      0.06573844
      0.30000000	      0.02995565	      0.03330868	      0.06727332
      0.31666667	      0.02999708	      0.03333171	      0.06699582
      0.33333333	      0.02978174	      0.03321186	      0.06729706
      0.35000000	      0.02913706	      0.03285043	      0.06738413
      0.36666667	      0.02813389	      0.03227996	      0.06694402
      0.38333333	      0.02651554	      0.03133779	      0.06502271
      0.40000000	      0.02454646	      0.03015175	      0.06297085
      0.41666667	      0.02254815	      0.02889838	      0.06017691
      0.43333333	      0.02092103	      0.02783618	      0.05651708
      0.45000000	      0.01989615	      0.02714580	      0.05444757
      0.46666667	      0.01948317	      0.02686260	      0.05655354
      0.48333333	      0.01981360	      0.02708943	      0.05825712
      0.50000000	      0.02068348	      0.02767770	      0.05960696
      0.51666667	      0.02170536	      0.02835317	      0.06058940
      0.53333333	      0.02275608	      0.02903132	      0.06118294
      0.55000000	      0.02371006	      0.02963360	      0.06119045
      0.56666667	      0.02451250	      0.03013089	      0.06088828
      0.58333333	      0.02514288	      0.03051586	      0.06063559
      0.60000000	      0.02557828	      0.03077895	      0.05961711
      0.61666667	      0.02578847	      0.03090515	      0.05918327
      0.63333333	      0.02571832	      0.03086309	      0.05887279
      0.65000000	      0.02517817	      0.03053727	      0.05943020
      0.66666667	      0.02409564	      0.02987359	      0.05952510
      0.68333333	      0.02280304	      0.02906126	      0.06006481
      0.70000000	      0.02174044	      0.02837607	      0.06041428
      0.71666667	      0.02122128	      0.02803522	      0.06010489
      0.73333333	      0.02120006	      0.02802120	      0.05929526
      0.75000000	      0.02148426	      0.02820839	      0.05816081
      0.76666667	      0.02185368	      0.02844988	      0.05733401
      0.78333333	      0.02219865	      0.02867354	      0.05724777
      0.80000000	      0.02219463	      0.02867095	      0.05554694
      0.81666667	      0.02208617	      0.02860081	      0.05522518
      0.83333333	      0.02188108	      0.02846771	      0.05531165
      0.85000000	      0.02176922	      0.02839485	      0.05567649
      0.86666667	      0.02186357	      0.02845631	      0.05588374
      0.88333333	      0.02204572	      0.02857461	      0.05642019
      0.90000000	      0.02229008	      0.02873253	      0.05694163
      0.91666667	      0.02241422	      0.02881243	      0.05691037
      0.93333333	      0.02238968	      0.02879666	      0.05674272
      0.95000000	      0.02221384	      0.02868335	      0.05650788
      0.96666667	      0.02198514	      0.02853532	      0.05649144
      0.98333333	      0.02184751	      0.02844586	      0.05620072
      1.00000000	      0.02180546	      0.02841847	      0.05627901
      1.01666667	      0.02186523	      0.02845739	      0.05581375
      1.03333333	      0.02176209	      0.02839020	      0.05616384
      1.05000000	      0.02157066	      0.02826506	      0.05603952
      1.06666667	      0.02140550	      0.02815664	      0.05570930
      1.08333333	      0.02123499	      0.02804427	      0.05565020
      1.10000000	      0.02124186	      0.02804880	      0.05611260
      1.11666667	      0.02127096	      0.02806801	      0.05597307
      1.13333333	      0.02146565	      0.02819617	      0.05630415
      1.15000000	      0.02184742	      0.02844580	      0.05675517
      1.16666667	      0.02229276	      0.02873426	      0.05713398
      1.18333333	      0.02246463	      0.02884482	      0.05741004
      1.20000000	      0.02223506	      0.02869705	      0.05802785
      1.21666667	      0.02170206	      0.02835101	      0.05699738
      1.23333333	      0.02119083	      0.02801510	      0.05634506
      1.25000000	      0.02062518	      0.02763866	      0.05535594
      1.26666667	      0.01989991	      0.02714837	      0.05458887
      1.28333333	      0.01914546	      0.02662876	      0.05387290
      1.30000000	      0.01870753	      0.02632245	      0.05313579
      1.31666667	      0.01892822	      0.02647726	      0.05283219
      1.33333333	      0.01979851	      0.02707911	      0.05327532
      1.35000000	      0.02078420	      0.02774500	      0.05817357
      1.36666667	      0.02127951	      0.02807365	      0.06027226
      1.38333333	      0.02102941	      0.02790819	      0.05726964
      1.40000000	      0.02035992	      0.02746035	      0.05445163
      1.41666667	      0.01964029	      0.02697069	      0.05438198
      1.43333333	      0.01907066	      0.02657670	      0.05390156
      1.45000000	      0.01872936	      0.02633781	      0.05328009
      1.46666667	      0.01858625	      0.02623699	      0.05253258
      1.48333333	      0.01843293	      0.02612855	      0.05268727
      1.50000000	      0.01837207	      0.02608538	      0.05170843
      1.51666667	      0.01845162	      0.02614179	      0.05210707
      1.53333333	      0.01877685	      0.02637118	      0.05238872
      1.55000000	      0.01935370	      0.02677319	      0.05310437
      1.56666667	      0.02003948	      0.02724341	      0.05384180
      1.58333333	      0.02059666	      0.02761954	      0.05437299
      1.60000000	      0.02090036	      0.02782243	      0.05449938
      1.61666667	      0.02093155	      0.02784318	      0.05458748
      1.63333333	      0.02074585	      0.02771940	      0.05434192
      1.65000000	      0.02048520	      0.02754471	      0.05417633
      1.66666667	      0.02022659	      0.02737029	      0.05389586
      1.68333333	      0.02001418	      0.02722620	      0.05368090
      1.70000000	      0.01985441	      0.02711731	      0.05360237
      1.71666667	      0.01971123	      0.02701936	      0.05354387
      1.73333333	      0.01953125	      0.02689571	      0.05338309
      1.75000000	      0.01930046	      0.02673634	      0.05306607
      1.76666667	      0.01905071	      0.02656279	      0.05293957
      1.78333333	      0.01885635	      0.02642694	      0.05256275
      1.80000000	      0.01874252	      0.02634705	      0.05254385
      1.81666667	      0.01872202	      0.02633264	      0.05258677
      1.83333333	      0.01873123	      0.02633912	      0.05264916
      1.85000000	      0.01870152	      0.02631822	      0.05268946
      1.86666667	      0.01857985	      0.02623248	      0.05254136
      1.88333333	      0.01833985	      0.02606250	      0.05201707
      1.90000000	      0.01794823	      0.02578273	      0.05179533
      1.91666667	      0.01747640	      0.02544158	      0.05132380
      1.93333333	      0.01704153	      0.02512306	      0.05189997
      1.95000000	      0.01685600	      0.02498592	      0.05198764
      1.96666667	      0.01688831	      0.02500985	      0.05236729
      1.98333333	      0.01711843	      0.02517967	      0.05252894
      2.00000000	      0.01743622	      0.02541232	      0.05235411
      2.01666667	      0.01779738	      0.02567415	      0.05228474
      2.03333333	      0.01814974	      0.02592706	      0.05226538
      2.05000000	      0.01840078	      0.02610576	      0.05224793
      2.06666667	      0.01839410	      0.02610101	      0.05212735
      2.08333333	      0.01811459	      0.02590195	      0.05156598
      2.10000000	      0.01765073	      0.02556816	      0.05067024
      2.11666667	      0.01716165	      0.02521144	      0.04968189
      2.13333333	      0.01674917	      0.02490662	      0.04878916
      2.15000000	      0.01641491	      0.02465683	      0.04816012
      2.16666667	      0.01612257	      0.02443629	      0.04809972
      2.18333333	      0.01589847	      0.02426586	      0.04838394
      2.20000000	      0.01578442	      0.02417867	      0.04910922
      2.21666667	      0.01581483	      0.02420195	      0.04975760
      2.23333333	      0.01598102	      0.02432878	      0.05027236
      2.25000000	      0.01620616	      0.02449956	      0.05029691
      2.26666667	      0.01646151	      0.02469181	      0.05010692
      2.28333333	      0.01675936	      0.02491419	      0.04969041
      2.30000000	      0.01712623	      0.02518541	      0.04972128
      2.31666667	      0.01741137	      0.02539420	      0.04963674
      2.33333333	      0.01770544	      0.02560775	      0.05044100
      2.35000000	      0.01793468	      0.02577300	      0.05080127
      2.36666667	      0.01822820	      0.02598304	      0.05206090
      2.38333333	      0.01859356	      0.02624215	      0.05270354
      2.40000000	      0.01904057	      0.02655572	      0.05348244
      2.41666667	      0.01954493	      0.02690513	      0.05434868
      2.43333333	      0.02003032	      0.02723717	      0.05519455
      2.45000000	      0.02042679	      0.02750542	      0.05481624
      2.46666667	      0.02064026	      0.02764876	      0.05446262
      2.48333333	      0.02065023	      0.02765544	      0.05346659
      2.50000000	      0.02052026	      0.02756827	      0.05223114
      2.51666667	      0.02023439	      0.02737557	      0.05099607
      2.53333333	      0.01992680	      0.02716670	      0.04980986
      2.55000000	      0.01972719	      0.02703029	      0.04951673
      2.56666667	      0.01978840	      0.02707219	      0.04974348
      2.58333333	      0.02010384	      0.02728711	      0.05052885
      2.60000000	      0.02052476	      0.02757129	      0.05196685
      2.61666667	      0.02091811	      0.02783424	      0.05329958
      2.63333333	      0.02120503	      0.02802448	      0.05449597
      2.65000000	      0.02137200	      0.02813460	      0.05538998
      2.66666667	      0.02145520	      0.02818930	      0.05592341
      2.68333333	      0.02153548	      0.02824200	      0.05639954
      2.70000000	      0.02167514	      0.02833343	      0.05669857
      2.71666667	      0.02186519	      0.02845737	      0.05701692
      2.73333333	      0.02198350	      0.02853426	      0.05738616
      2.75000000	      0.02191124	      0.02848732	      0.05754306
      2.76666667	      0.02167561	      0.02833373	      0.05759238
      2.78333333	      0.02138966	      0.02814622	      0.05801741
      2.80000000	      0.02118760	      0.02801296	      0.05835241
      2.81666667	      0.02110824	      0.02796045	      0.05885884
      2.83333333	      0.02108710	      0.02794644	      0.05898343
      2.85000000	      0.02104137	      0.02791612	      0.05878884
      2.86666667	      0.02104558	      0.02791892	      0.05847172
      2.88333333	      0.02111597	      0.02796557	      0.05726487
      2.90000000	      0.02122954	      0.02804067	      0.05688211
      2.91666667	      0.02139291	      0.02814836	      0.05624432
      2.93333333	      0.02148741	      0.02821046	      0.05663950
      2.95000000	      0.02149398	      0.02821477	      0.05787472
      2.96666667	      0.02133919	      0.02811299	      0.05815556
      2.98333333	      0.02099470	      0.02788514	      0.05754009
      3.00000000	      0.02057143	      0.02760262	      0.05812865
      3.01666667	      0.02015922	      0.02732467	      0.05789552
      3.03333333	      0.01996097	      0.02718998	      0.05772322
      3.05000000	      0.01986868	      0.02712705	      0.05757623
      3.06666667	      0.01997589	      0.02720014	      0.05663954
      3.08333333	      0.02013933	      0.02731119	      0.05665823
      3.10000000	      0.02029202	      0.02741453	      0.05629506
      3.11666667	      0.02036244	      0.02746206	      0.05588327
      3.13333333	      0.02037134	      0.02746806	      0.05663878
      3.15000000	      0.02015690	      0.02732310	      0.05514834
      3.16666667	      0.01996059	      0.02718973	      0.05470525
      3.18333333	      0.01974379	      0.02704166	      0.05469475
      3.20000000	      0.01942994	      0.02682587	      0.05479404
      3.21666667	      0.01877685	      0.02637118	      0.05313932
      3.23333333	      0.01802347	      0.02583672	      0.05290133
      3.25000000	      0.01742315	      0.02540279	      0.05250591
      3.26666667	      0.01725666	      0.02528113	      0.05234538
      3.28333333	      0.01746335	      0.02543208	      0.05189063
      3.30000000	      0.01778689	      0.02566659	      0.05245816
      3.31666667	      0.01801457	      0.02583033	      0.05239095
      3.33333333	      0.01810685	      0.02589641	      0.05214238
      3.35000000	      0.01809517	      0.02588805	      0.05195687
      3.36666667	      0.01786488	      0.02572279	      0.05109599
      3.38333333	      0.01738782	      0.02537702	      0.05060007
      3.40000000	      0.01682441	      0.02496250	      0.05015413
      3.41666667	      0.01637109	      0.02462390	      0.04836773
      3.43333333	      0.01628095	      0.02455602	      0.04830626
      3.45000000	      0.01648632	      0.02471041	      0.04797724
      3.46666667	      0.01692060	      0.02503376	      0.04812535
      3.48333333	      0.01736832	      0.02536279	      0.04859898
      3.50000000	      0.01767935	      0.02558888	      0.04926846
      3.51666667	      0.01780596	      0.02568034	      0.04838514
      3.53333333	      0.01762216	      0.02554746	      0.05046636
      3.55000000	      0.01738781	      0.02537702	      0.05080645
      3.56666667	      0.01718899	      0.02523152	      0.05086041
      3.58333333	      0.01712661	      0.02518569	      0.05066947
      3.60000000	      0.01712972	      0.02518798	      0.04983214
      3.61666667	      0.01697585	      0.02507459	      0.05009462
      3.63333333	      0.01646111	      0.02469151	      0.05043310
      3.65000000	      0.01564414	      0.02407099	      0.05048323
      3.66666667	      0.01487764	      0.02347390	      0.05110177
      3.68333333	      0.01444730	      0.02313190	      0.05154219
      3.70000000	      0.01457007	      0.02322999	      0.05170630
      3.71666667	      0.01507038	      0.02362546	      0.05111899
      3.73333333	      0.01565940	      0.02408273	      0.05061680
      3.75000000	      0.01607495	      0.02440017	      0.04950157
      3.76666667	      0.01617782	      0.02447812	      0.04829104
      3.78333333	      0.01609910	      0.02441850	      0.04694149
      3.80000000	      0.01601450	      0.02435426	      0.04600028
      3.81666667	      0.01601359	      0.02435356	      0.04464982
      3.83333333	      0.01608817	      0.02441020	      0.04370895
      3.85000000	      0.01620834	      0.02450120	      0.04261554
      3.86666667	      0.01661118	      0.02480381	      0.04338806
      3.88333333	      0.01713893	      0.02519475	      0.04560891
      3.90000000	      0.01800319	      0.02582218	      0.05451337
      3.91666667	      0.01892237	      0.02647316	      0.06122014
      3.93333333	      0.01998600	      0.02720702	      0.06531150
      3.95000000	      0.02152635	      0.02823601	      0.06770063
      3.96666667	      0.02351083	      0.02950884	      0.06966602
      3.98333333	      0.02534608	      0.03063892	      0.07180656
      4.00000000	      0.02648156	      0.03131770	      0.07472296
      4.01666667	      0.02690769	      0.03156867	      0.07885612
      4.03333333	      0.02699206	      0.03161812	      0.08401163
      4.05000000	      0.02731314	      0.03180563	      0.08951159
      4.06666667	      0.02800437	      0.03220557	      0.09421435
      4.08333333	      0.02885926	      0.03269345	      0.09706629
      4.10000000	      0.02970459	      0.03316881	      0.09805975
      4.11666667	      0.03053634	      0.03362998	      0.09810468
      4.13333333	      0.03129866	      0.03404717	      0.09803107
      4.15000000	      0.03171970	      0.03427541	      0.09814392
      4.16666667	      0.03168173	      0.03425489	      0.09810337
      4.18333333	      0.03117514	      0.03397992	      0.09754102
      4.20000000	      0.03021316	      0.03345155	      0.09588523
      4.21666667	      0.02884895	      0.03268760	      0.09299087
      4.23333333	      0.02708938	      0.03167508	      0.08836027
      4.25000000	      0.02482647	      0.03032324	      0.08064374
      4.26666667	      0.02224680	      0.02870462	      0.06949236
      4.28333333	      0.01977418	      0.02706247	      0.05726412
      4.30000000	      0.01790794	      0.02575378	      0.04739524
      4.31666667	      0.01650555	      0.02472482	      0.04548672
      4.33333333	      0.01549202	      0.02395367	      0.04467007
      4.35000000	      0.01508625	      0.02363790	      0.04405928
      4.36666667	      0.01556558	      0.02401048	      0.04322708
      4.38333333	      0.01711564	      0.02517762	      0.04697524
      4.40000000	      0.01909466	      0.02659341	      0.05147788
      4.41666667	      0.02017265	      0.02733377	      0.05409390
      4.43333333	      0.01978220	      0.02706795	      0.05509191
      4.45000000	      0.01841278	      0.02611427	      0.05406593
      4.46666667	      0.01700211	      0.02509398	      0.05267209
      4.48333333	      0.01606291	      0.02439104	      0.05113283
      4.50000000	      0.01557824	      0.02402024	      0.04921866
      4.51666667	      0.01537829	      0.02386559	      0.04649560
      4.53333333	      0.01536638	      0.02385634	      0.04260793
      4.55000000	      0.01536048	      0.02385177	      0.04095387
      4.56666667	      0.01522857	      0.02374913	      0.04093198
      4.58333333	      0.01454016	      0.02320613	      0.04134075
      4.60000000	      0.01338836	      0.02226803	      0.03969444
      4.61666667	      0.01209130	      0.02116190	      0.03849945
      4.63333333	      0.01108848	      0.02026535	      0.03912445
      4.65000000	      0.01050164	      0.01972180	      0.03900988
      4.66666667	      0.01025883	      0.01949248	      0.03820119
      4.68333333	      0.01033698	      0.01956658	      0.03680698
      4.70000000	      0.01073153	      0.01993650	      0.03519411
      4.71666667	      0.01133299	      0.02048757	      0.03485556
      4.73333333	      0.01204431	      0.02112074	      0.03513532
      4.75000000	      0.01296700	      0.02191482	      0.04085735
      4.76666667	      0.01415486	      0.02289659	      0.04799241
      4.78333333	      0.01543800	      0.02391187	      0.05269604
      4.80000000	      0.01657285	      0.02477517	      0.05455008
      4.81666667	      0.01741654	      0.02539797	      0.05399243
      4.83333333	      0.01817944	      0.02594827	      0.05262042
      4.85000000	      0.01925406	      0.02670418	      0.05164443
      4.86666667	      0.02084592	      0.02778616	      0.05167250
      4.88333333	      0.02280432	      0.02906208	      0.05324599
      4.90000000	      0.02463524	      0.03020623	      0.05667342
      4.91666667	      0.02584920	      0.03094152	      0.06104550
      4.93333333	      0.02607763	      0.03107794	      0.06081103
      4.95000000	      0.02514896	      0.03051955	      0.05801409
      4.96666667	      0.02317635	      0.02929818	      0.05487344
      4.98333333	      0.02056898	      0.02760098	      0.05160369
      5.00000000	      0.01782273	      0.02569244	      0.05079231
      5.01666667	      0.01537547	      0.02386340	      0.04901129
      5.03333333	      0.01349034	      0.02235268	      0.04638604
      5.05000000	      0.01233462	      0.02137376	      0.04308070
      5.06666667	      0.01197474	      0.02105965	      0.04289956
      5.08333333	      0.01235204	      0.02138885	      0.04787863
      5.10000000	      0.01343698	      0.02230843	      0.05417607
      5.11666667	      0.01532385	      0.02382331	      0.06175493
      5.13333333	      0.01841337	      0.02611468	      0.06976160
      5.15000000	      0.02306411	      0.02922715	      0.07687142
      5.16666667	      0.02891201	      0.03272331	      0.09120571
      5.18333333	      0.03426129	      0.03562214	      0.10338928
      5.20000000	      0.03689314	      0.03696502	      0.10773274
      5.21666667	      0.03576850	      0.03639724	      0.10322435
      5.23333333	      0.03179166	      0.03431427	      0.09059637
      5.25000000	      0.02718195	      0.03172915	      0.07430881
      5.26666667	      0.02398981	      0.02980791	      0.06312627
      5.28333333	      0.02293277	      0.02914382	      0.06162756
      5.30000000	      0.02297073	      0.02916793	      0.06047955
      5.31666667	      0.02261689	      0.02894240	      0.06488950
      5.33333333	      0.02128896	      0.02807989	      0.06669460
      5.35000000	      0.01928107	      0.02672291	      0.06573722
      5.36666667	      0.01709188	      0.02516014	      0.06210424
      5.38333333	      0.01514955	      0.02368743	      0.05668348
      5.40000000	      0.01374149	      0.02255979	      0.05016973
      5.41666667	      0.01295869	      0.02190780	      0.04373397
      5.43333333	      0.01259601	      0.02159905	      0.04398298
      5.45000000	      0.01270330	      0.02169084	      0.04462427
      5.46666667	      0.01262841	      0.02162681	      0.04489116
      5.48333333	      0.01211777	      0.02118505	      0.04450400
      5.50000000	      0.01125158	      0.02041385	      0.04366199
      5.51666667	      0.01034466	      0.01957385	      0.04260612
      5.53333333	      0.00977886	      0.01903103	      0.04145266
      5.55000000	      0.00981719	      0.01906829	      0.04075113
      5.56666667	      0.01054939	      0.01976660	      0.04012515
      5.58333333	      0.01177338	      0.02088183	      0.03951939
      5.60000000	      0.01298090	      0.02192656	      0.04109086
      5.61666667	      0.01366159	      0.02249410	      0.04228579
      5.63333333	      0.01375661	      0.02257219	      0.04124122
      5.65000000	      0.01346300	      0.02233001	      0.04192071
      5.66666667	      0.01299102	      0.02193510	      0.04170355
      5.68333333	      0.01262013	      0.02161972	      0.04020800
      5.70000000	      0.01261680	      0.02161686	      0.03871183
      5.71666667	      0.01319094	      0.02210325	      0.03910057
      5.73333333	      0.01456135	      0.02322303	      0.04969744
      5.75000000	      0.01667805	      0.02485368	      0.05997185
      5.76666667	      0.01897996	      0.02651342	      0.06850729
      5.78333333	      0.02070475	      0.02769192	      0.07409386
      5.80000000	      0.02158459	      0.02827418	      0.07652687
      5.81666667	      0.02185590	      0.02845132	      0.07637546
      5.83333333	      0.02189416	      0.02847621	      0.07470610
      5.85000000	      0.02218911	      0.02866739	      0.07315015
      5.86666667	      0.02313399	      0.02927139	      0.07289481
      5.88333333	      0.02461129	      0.03019154	      0.07364556
      5.90000000	      0.02584557	      0.03093935	      0.07359894
      5.91666667	      0.02583917	      0.03093552	      0.07136644
      5.93333333	      0.02415723	      0.02991174	      0.07141550
      5.95000000	      0.02148638	      0.02820978	      0.06682744
      5.96666667	      0.01901540	      0.02653816	      0.06036120
      5.98333333	      0.01738932	      0.02537812	      0.05456161
      6.00000000	      0.01662008	      0.02481045	      0.05130214
      6.01666667	      0.01645090	      0.02468385	      0.05038141
      6.03333333	      0.01695626	      0.02506012	      0.05244038
      6.05000000	      0.01797612	      0.02580276	      0.05588989
      6.06666667	      0.01915596	      0.02663606	      0.05875010
      6.08333333	      0.02001413	      0.02722617	      0.06183459
      6.10000000	      0.02020677	      0.02735688	      0.06135896
      6.11666667	      0.01975050	      0.02704626	      0.05802650
      6.13333333	      0.01899070	      0.02652092	      0.05356077
      6.15000000	      0.01837899	      0.02609029	      0.05009255
      6.16666667	      0.01816093	      0.02593505	      0.04872845
      6.18333333	      0.01830123	      0.02603504	      0.04999682
      6.20000000	      0.01859920	      0.02624613	      0.05370644
      6.21666667	      0.01880699	      0.02639233	      0.05787001
      6.23333333	      0.01869113	      0.02631091	      0.06079724
      6.25000000	      0.01810519	      0.02589522	      0.06156064
      6.26666667	      0.01706157	      0.02513782	      0.05931425
      6.28333333	      0.01573474	      0.02414060	      0.05488394
      6.30000000	      0.01439334	      0.02308867	      0.05088554
      6.31666667	      0.01324559	      0.02214898	      0.05023383
      6.33333333	      0.01231888	      0.02136012	      0.04934311
      6.35000000	      0.01153828	      0.02067229	      0.04844946
      6.36666667	      0.01086280	      0.02005807	      0.04714576
      6.38333333	      0.01034439	      0.01957359	      0.04579722
      6.40000000	      0.00996903	      0.01921518	      0.04426744
      6.41666667	      0.00958165	      0.01883815	      0.04274627
      6.43333333	      0.00908566	      0.01834410	      0.04149283
      6.45000000	      0.00855978	      0.01780530	      0.04053892
      6.46666667	      0.00815108	      0.01737503	      0.03958980
      6.48333333	      0.00795421	      0.01716393	      0.03917323
      6.50000000	      0.00804383	      0.01726035	      0.03906348
      6.51666667	      0.00843295	      0.01767291	      0.03949708
      6.53333333	      0.00897993	      0.01823706	      0.04019353
      6.55000000	      0.00993913	      0.01918635	      0.04147727
      6.56666667	      0.01139013	      0.02053915	      0.04269572
      6.58333333	      0.01321159	      0.02212053	      0.04338220
      6.60000000	      0.01527525	      0.02378550	      0.04313142
      6.61666667	      0.01767674	      0.02558699	      0.04212401
      6.63333333	      0.02049522	      0.02755145	      0.04939176
      6.65000000	      0.02353308	      0.02952280	      0.06257382
      6.66666667	      0.02642406	      0.03128368	      0.07255125
      6.68333333	      0.02871782	      0.03261323	      0.07844857
      6.70000000	      0.02997619	      0.03332010	      0.08003056
      6.71666667	      0.02987955	      0.03326635	      0.07785496
      6.73333333	      0.02858074	      0.03253530	      0.07325744
      6.75000000	      0.02653160	      0.03134728	      0.06793281
      6.76666667	      0.02430327	      0.03000202	      0.06345959
      6.78333333	      0.02243966	      0.02882878	      0.05977093
      6.80000000	      0.02119025	      0.02801471	      0.05697891
      6.81666667	      0.02041741	      0.02749910	      0.05471158
      6.83333333	      0.01984057	      0.02710786	      0.05286104
      6.85000000	      0.01923522	      0.02669111	      0.05083463
      6.86666667	      0.01869752	      0.02631541	      0.04787067
      6.88333333	      0.01832478	      0.02605178	      0.05097696
      6.90000000	      0.01824134	      0.02599240	      0.05400228
      6.91666667	      0.01831917	      0.02604780	      0.05490076
      6.93333333	      0.01846804	      0.02615343	      0.05421302
      6.95000000	      0.01865200	      0.02628336	      0.05160511
      6.96666667	      0.01888793	      0.02644907	      0.04904168
      6.98333333	      0.01905808	      0.02656793	      0.04583546
      7.00000000	      0.01915438	      0.02663497	      0.04440024
      7.01666667	      0.01923325	      0.02668975	      0.04431825
      7.03333333	      0.01945931	      0.02684614	      0.04436104
      7.05000000	      0.01989851	      0.02714741	      0.04476798
      7.06666667	      0.02070384	      0.02769132	      0.04519773
      7.08333333	      0.02199090	      0.02853906	      0.05020148
      7.10000000	      0.02376874	      0.02967025	      0.05736198
      7.11666667	      0.02591629	      0.03098165	      0.06363136
      7.13333333	      0.02797498	      0.03218867	      0.06648523
      7.15000000	      0.02964486	      0.03313544	      0.06889116
      7.16666667	      0.03057187	      0.03364954	      0.07595440
      7.18333333	      0.03007903	      0.03337721	      0.07841636
      7.20000000	      0.02807058	      0.03224362	      0.07615641
      7.21666667	      0.02514289	      0.03051587	      0.06969524
      7.23333333	      0.02213007	      0.02862922	      0.06066044
      7.25000000	      0.01967306	      0.02699318	      0.05148571
      7.26666667	      0.01806955	      0.02586972	      0.04919283
      7.28333333	      0.01739612	      0.02538308	      0.04963799
      7.30000000	      0.01750685	      0.02546374	      0.04986534
      7.31666667	      0.01814414	      0.02592306	      0.05002963
      7.33333333	      0.01887214	      0.02643801	      0.04992347
      7.35000000	      0.01937255	      0.02678622	      0.04903496
      7.36666667	      0.01948524	      0.02686402	      0.04822119
      7.38333333	      0.01913350	      0.02662045	      0.05218600
      7.40000000	      0.01860671	      0.02625143	      0.05465169
      7.41666667	      0.01804058	      0.02584898	      0.05539573
      7.43333333	      0.01750382	      0.02546153	      0.05515771
      7.45000000	      0.01694203	      0.02504960	      0.05333046
      7.46666667	      0.01655689	      0.02476324	      0.05186262
      7.48333333	      0.01643948	      0.02467528	      0.05129704
      7.50000000	      0.01640452	      0.02464904	      0.04937909
      7.51666667	      0.01670332	      0.02487250	      0.04860657
      7.53333333	      0.01713280	      0.02519024	      0.04860955
      7.55000000	      0.01769710	      0.02560172	      0.04980868
      7.56666667	      0.01825985	      0.02600559	      0.05152832
      7.58333333	      0.01869957	      0.02631685	      0.05336969
      7.60000000	      0.01895264	      0.02649433	      0.05505167
      7.61666667	      0.01911691	      0.02660890	      0.05799399
      7.63333333	      0.01917396	      0.02664858	      0.05880448
      7.65000000	      0.01922951	      0.02668715	      0.06137939
      7.66666667	      0.01903390	      0.02655107	      0.06111783
      7.68333333	      0.01875078	      0.02635286	      0.06004778
      7.70000000	      0.01859631	      0.02624409	      0.05978118
      7.71666667	      0.01865901	      0.02628829	      0.05890813
      7.73333333	      0.01883418	      0.02641140	      0.05771269
      7.75000000	      0.01899567	      0.02652439	      0.05726791
      7.76666667	      0.01912652	      0.02661559	      0.05800738
      7.78333333	      0.01913054	      0.02661839	      0.05841997
      7.80000000	      0.01893415	      0.02648141	      0.05906603
      7.81666667	      0.01849387	      0.02617171	      0.05828028
      7.83333333	      0.01815106	      0.02592801	      0.05790976
      7.85000000	      0.01805852	      0.02586183	      0.05828285
      7.86666667	      0.01795396	      0.02578685	      0.05662184
      7.88333333	      0.01779898	      0.02567531	      0.05727196
      7.90000000	      0.01740970	      0.02539298	      0.05392730
      7.91666667	      0.01716807	      0.02521616	      0.05341717
      7.93333333	      0.01678964	      0.02493669	      0.05055556
      7.95000000	      0.01649334	      0.02471567	      0.04894507
      7.96666667	      0.01640217	      0.02464727	      0.04905070
      7.98333333	      0.01640555	      0.02464980	      0.04612848
      8.00000000	      0.01681295	      0.02495399	      0.04616643
      8.01666667	      0.01728247	      0.02530003	      0.04902120
      8.03333333	      0.01776003	      0.02564720	      0.05075556
      8.05000000	      0.01822291	      0.02597928	      0.05143716
      8.06666667	      0.01877794	      0.02637194	      0.05147406
      8.08333333	      0.01960876	      0.02694903	      0.05133296
      8.10000000	      0.02073551	      0.02771248	      0.05146450
      8.11666667	      0.02198188	      0.02853320	      0.05293520
      8.13333333	      0.02303870	      0.02921105	      0.05488381
      8.15000000	      0.02399363	      0.02981029	      0.05787419
      8.16666667	      0.02508854	      0.03048286	      0.06147473
      8.18333333	      0.02699049	      0.03161721	      0.06665252
      8.20000000	      0.02962747	      0.03312573	      0.07254854
      8.21666667	      0.03219087	      0.03452904	      0.07743780
      8.23333333	      0.03360218	      0.03527783	      0.07902924
      8.25000000	      0.03329554	      0.03511649	      0.07605000
      8.26666667	      0.03168087	      0.03425442	      0.06903260
      8.28333333	      0.02950152	      0.03305524	      0.06050526
      8.30000000	      0.02740970	      0.03186180	      0.05682025
      8.31666667	      0.02565698	      0.03082626	      0.05246295
      8.33333333	      0.02427099	      0.02998208	      0.05289194
      8.35000000	      0.02331635	      0.02938654	      0.05326816
      8.36666667	      0.02280389	      0.02906180	      0.05436461
      8.38333333	      0.02266347	      0.02897219	      0.05610557
      8.40000000	      0.02264954	      0.02896328	      0.05761295
      8.41666667	      0.02233284	      0.02876008	      0.05919328
      8.43333333	      0.02163251	      0.02830555	      0.05905915
      8.45000000	      0.02055603	      0.02759229	      0.05775015
      8.46666667	      0.01974210	      0.02704051	      0.05547446
      8.48333333	      0.01954776	      0.02690708	      0.05241441
      8.50000000	      0.02012518	      0.02730159	      0.05033574
      8.51666667	      0.02097725	      0.02787356	      0.04848715
      8.53333333	      0.02177892	      0.02840117	      0.05140996
      8.55000000	      0.02246286	      0.02884368	      0.05816714
      8.56666667	      0.02311941	      0.02926217	      0.06368146
      8.58333333	      0.02391584	      0.02976192	      0.06807607
      8.60000000	      0.02508603	      0.03048134	      0.07221605
      8.61666667	      0.02670205	      0.03144781	      0.07610724
      8.63333333	      0.02856069	      0.03252389	      0.07947253
      8.65000000	      0.03034399	      0.03352389	      0.08190647
      8.66666667	      0.03168716	      0.03425783	      0.08275139
      8.68333333	      0.03240916	      0.03464591	      0.08219342
      8.70000000	      0.03254541	      0.03471866	      0.08031890
      8.71666667	      0.03222817	      0.03454904	      0.07786450
      8.73333333	      0.03152680	      0.03417103	      0.07518194
      8.75000000	      0.03054458	      0.03363451	      0.07256248
      8.76666667	      0.02964628	      0.03313624	      0.07050587
      8.78333333	      0.02908358	      0.03282026	      0.06906029
      8.80000000	      0.02900807	      0.03277763	      0.06849156
      8.81666667	      0.02922907	      0.03290225	      0.06873982
      8.83333333	      0.02952228	      0.03306687	      0.07073683
      8.85000000	      0.02982501	      0.03323597	      0.07381169
      8.86666667	      0.02999947	      0.03333304	      0.07733312
      8.88333333	      0.02987209	      0.03326220	      0.07931676
      8.90000000	      0.02930161	      0.03294305	      0.07897577
      8.91666667	      0.02848704	      0.03248193	      0.07622722
      8.93333333	      0.02790383	      0.03214771	      0.07168619
      8.95000000	      0.02789016	      0.03213983	      0.06583641
      8.96666667	      0.02840528	      0.03243528	      0.05878896
      8.98333333	      0.02910816	      0.03283413	      0.05936455
      9.00000000	      0.02954138	      0.03307757	      0.06145571
      9.01666667	      0.02946689	      0.03303584	      0.06368199
      9.03333333	      0.02895008	      0.03274485	      0.06612267
      9.05000000	      0.02798530	      0.03219461	      0.06909146
      9.06666667	      0.02691182	      0.03157109	      0.07089688
      9.08333333	      0.02585782	      0.03094668	      0.07196137
      9.10000000	      0.02506422	      0.03046809	      0.07184329
      9.11666667	      0.02452823	      0.03014055	      0.07159158
      9.13333333	      0.02419388	      0.02993442	      0.07125355
      9.15000000	      0.02410999	      0.02988248	      0.07163834
      9.16666667	      0.02433756	      0.03002318	      0.07239008
      9.18333333	      0.02497584	      0.03041432	      0.07362033
      9.20000000	      0.02593040	      0.03099008	      0.07494911
      9.21666667	      0.02697547	      0.03160841	      0.07612616
      9.23333333	      0.02771251	      0.03203731	      0.07615819
      9.25000000	      0.02787258	      0.03212970	      0.07502445
      9.26666667	      0.02750915	      0.03191955	      0.07230259
      9.28333333	      0.02684989	      0.03153475	      0.06858102
      9.30000000	      0.02605351	      0.03106356	      0.06476357
      9.31666667	      0.02512476	      0.03050486	      0.06433351
      9.33333333	      0.02438648	      0.03005334	      0.06407564
      9.35000000	      0.02412657	      0.02989275	      0.06414761
      9.36666667	      0.02443884	      0.03008558	      0.06477877
      9.38333333	      0.02520082	      0.03055100	      0.06469981
      9.40000000	      0.02605559	      0.03106480	      0.06456609
      9.41666667	      0.02691701	      0.03157414	      0.06429789
      9.43333333	      0.02789543	      0.03214287	      0.06384045
      9.45000000	      0.02895275	      0.03274636	      0.06342392
      9.46666667	      0.02983996	      0.03324430	      0.06283380
      9.48333333	      0.03022558	      0.03345842	      0.06234015
      9.50000000	      0.03011927	      0.03339953	      0.06182311
      9.51666667	      0.02962158	      0.03312243	      0.06171756
      9.53333333	      0.02889247	      0.03271225	      0.06187730
      9.55000000	      0.02804699	      0.03223007	      0.06243474
      9.56666667	      0.02720314	      0.03174152	      0.06311141
      9.58333333	      0.02654135	      0.03135304	      0.06381889
      9.60000000	      0.02616645	      0.03113082	      0.06493223
      9.61666667	      0.02617259	      0.03113447	      0.06570207
      9.63333333	      0.02629855	      0.03120930	      0.06596967
      9.65000000	      0.02618516	      0.03114194	      0.06564837
      9.66666667	      0.02567000	      0.03083408	      0.06483491
      9.68333333	      0.02496234	      0.03040610	      0.06356547
      9.70000000	      0.02434421	      0.03002728	      0.06243171
      9.71666667	      0.02390499	      0.02975516	      0.06097276
      9.73333333	      0.02344242	      0.02946587	      0.05938985
      9.75000000	      0.02279107	      0.02905363	      0.05673808
      9.76666667	      0.02206169	      0.02858496	      0.05391868
      9.78333333	      0.02149173	      0.02821330	      0.05105671
      9.80000000	      0.02129340	      0.02808281	      0.04961682
      9.81666667	      0.02148226	      0.02820708	      0.04929157
      9.83333333	      0.02201298	      0.02855338	      0.04862651
      9.85000000	      0.02281482	      0.02906877	      0.04763648
      9.86666667	      0.02366256	      0.02960390	      0.04707084
      9.88333333	      0.02418744	      0.02993044	      0.04883102
      9.90000000	      0.02405547	      0.02984868	      0.04864376
      9.91666667	      0.02330254	      0.02937783	      0.04681920
      9.93333333	      0.02231743	      0.02875015	      0.04801390
      9.95000000	      0.02152753	      0.02823678	      0.04907737
      9.96666667	      0.02118332	      0.02801013	      0.04950410
      9.98333333	      0.02129577	      0.02808438	      0.04915129
     10.00000000	      0.02182794	      0.02843312	      0.05088061
     10.01666667	      0.02258414	      0.02892144	      0.05218626
     10.03333333	      0.02348064	      0.02948988	      0.05424862
     10.05000000	      0.02422158	      0.02995155	      0.05811704
     10.06666667	      0.02451701	      0.03013366	      0.06142838
     10.08333333	      0.02402462	      0.02982953	      0.06272762
     10.10000000	      0.02270416	      0.02899819	      0.06291327
     10.11666667	      0.02090483	      0.02782540	      0.06217393
     10.13333333	      0.01924503	      0.02669792	      0.06172946
     10.15000000	      0.01801971	      0.02583402	      0.06167437
     10.16666667	      0.01719217	      0.02523385	      0.06125919
     10.18333333	      0.01676188	      0.02491607	      0.06033016
     10.20000000	      0.01691553	      0.02503000	      0.05897790
     10.21666667	      0.01795476	      0.02578742	      0.05778504
     10.23333333	      0.01996708	      0.02719414	      0.05725133
     10.25000000	      0.02263580	      0.02895450	      0.05764836
     10.26666667	      0.02533406	      0.03063166	      0.05885809
     10.28333333	      0.02756595	      0.03195248	      0.06022436
     10.30000000	      0.02910092	      0.03283004	      0.06398856
     10.31666667	      0.02981333	      0.03322947	      0.06703418
     10.33333333	      0.02954954	      0.03308213	      0.06925351
     10.35000000	      0.02822400	      0.03233162	      0.07030057
     10.36666667	      0.02625594	      0.03118400	      0.06973659
     10.38333333	      0.02429820	      0.02999889	      0.06750580
     10.40000000	      0.02281024	      0.02906585	      0.06381859
     10.41666667	      0.02170083	      0.02835021	      0.05903662
     10.43333333	      0.02064025	      0.02764876	      0.05321381
     10.45000000	      0.01953691	      0.02689962	      0.04674154
     10.46666667	      0.01872123	      0.02633209	      0.04949020
     10.48333333	      0.01845859	      0.02614673	      0.05736830
     10.50000000	      0.01908049	      0.02658354	      0.06380615
     10.51666667	      0.02046441	      0.02753073	      0.06792741
     10.53333333	      0.02246263	      0.02884353	      0.07860018
     10.55000000	      0.02444814	      0.03009130	      0.08669237
     10.56666667	      0.02554211	      0.03075718	      0.08886630
     10.58333333	      0.02517518	      0.03053545	      0.08432241
     10.60000000	      0.02343707	      0.02946252	      0.07419865
     10.61666667	      0.02098687	      0.02787995	      0.06132359
     10.63333333	      0.01861200	      0.02625516	      0.05348025
     10.65000000	      0.01674190	      0.02490121	      0.05163169
     10.66666667	      0.01542753	      0.02390376	      0.05025264
     10.68333333	      0.01455225	      0.02321578	      0.04932159
     10.70000000	      0.01408901	      0.02284327	      0.04872768
     10.71666667	      0.01392435	      0.02270939	      0.04829452
     10.73333333	      0.01384149	      0.02264173	      0.04786066
     10.75000000	      0.01361518	      0.02245586	      0.04730608
     10.76666667	      0.01329786	      0.02219265	      0.04686489
     10.78333333	      0.01305366	      0.02198792	      0.04696082
     10.80000000	      0.01295313	      0.02190309	      0.04714601
     10.81666667	      0.01298222	      0.02192767	      0.04905690
     10.83333333	      0.01296122	      0.02190993	      0.04837318
     10.85000000	      0.01287778	      0.02183930	      0.04867361
     10.86666667	      0.01260349	      0.02160546	      0.04893462
     10.88333333	      0.01218226	      0.02124135	      0.04901069
     10.90000000	      0.01171921	      0.02083374	      0.04941312
     10.91666667	      0.01130788	      0.02046486	      0.04973642
     10.93333333	      0.01107092	      0.02024929	      0.05011379
     10.95000000	      0.01095430	      0.02014236	      0.05110671
     10.96666667	      0.01104864	      0.02022891	      0.05227337
     10.98333333	      0.01127456	      0.02043468	      0.05357815
     11.00000000	      0.01163667	      0.02076025	      0.05359879
     11.01666667	      0.01244396	      0.02146829	      0.05468755
     11.03333333	      0.01368782	      0.02251569	      0.05642193
     11.05000000	      0.01513784	      0.02367827	      0.05872033
     11.06666667	      0.01659517	      0.02479186	      0.06062896
     11.08333333	      0.01777978	      0.02566145	      0.06319537
     11.10000000	      0.01848810	      0.02616762	      0.06492945
     11.11666667	      0.01874858	      0.02635131	      0.06613514
     11.13333333	      0.01887341	      0.02643889	      0.06697808
     11.15000000	      0.01899896	      0.02652669	      0.06667246
     11.16666667	      0.01919083	      0.02666030	      0.06584280
     11.18333333	      0.01936841	      0.02678336	      0.06449964
     11.20000000	      0.01942494	      0.02682242	      0.06280272
     11.21666667	      0.01944817	      0.02683845	      0.06082239
     11.23333333	      0.01972525	      0.02702896	      0.05864265
     11.25000000	      0.02036926	      0.02746665	      0.05677639
     11.26666667	      0.02114046	      0.02798178	      0.05542361
     11.28333333	      0.02161805	      0.02829608	      0.06150040
     11.30000000	      0.02155752	      0.02825644	      0.07049978
     11.31666667	      0.02110694	      0.02795959	      0.07469922
     11.33333333	      0.02058012	      0.02760845	      0.07409536
     11.35000000	      0.02004914	      0.02724997	      0.07007427
     11.36666667	      0.01952825	      0.02689365	      0.06377984
     11.38333333	      0.01924728	      0.02669948	      0.06768602
     11.40000000	      0.01936897	      0.02678375	      0.07069713
     11.41666667	      0.01970232	      0.02701325	      0.07126930
     11.43333333	      0.01982211	      0.02709524	      0.06843783
     11.45000000	      0.01917638	      0.02665026	      0.06270148
     11.46666667	      0.01761950	      0.02554553	      0.05600177
     11.48333333	      0.01578855	      0.02418183	      0.05017512
     11.50000000	      0.01440366	      0.02309694	      0.04658008
     11.51666667	      0.01359266	      0.02243729	      0.04338696
     11.53333333	      0.01341188	      0.02228758	      0.04225097
     11.55000000	      0.01353913	      0.02239307	      0.04157369
     11.56666667	      0.01369949	      0.02252529	      0.04108356
     11.58333333	      0.01374696	      0.02256428	      0.04013777
     11.60000000	      0.01371598	      0.02253884	      0.03849532
     11.61666667	      0.01365711	      0.02249042	      0.03928985
     11.63333333	      0.01379127	      0.02260062	      0.04067870
     11.65000000	      0.01396624	      0.02274353	      0.04075626
     11.66666667	      0.01400667	      0.02277643	      0.04622888
     11.68333333	      0.01381063	      0.02261647	      0.04927934
     11.70000000	      0.01354701	      0.02239958	      0.04936250
     11.71666667	      0.01336287	      0.02224682	      0.04774010
     11.73333333	      0.01359824	      0.02244190	      0.04389535
     11.75000000	      0.01445290	      0.02313639	      0.04177114
     11.76666667	      0.01583809	      0.02421974	      0.04489354
     11.78333333	      0.01743850	      0.02541398	      0.05047337
     11.80000000	      0.01924022	      0.02669458	      0.05491594
     11.81666667	      0.02115874	      0.02799388	      0.05728518
     11.83333333	      0.02318337	      0.02930261	      0.05758635
     11.85000000	      0.02515130	      0.03052097	      0.05599780
     11.86666667	      0.02453046	      0.03014192	      0.05507010
     11.88333333	      0.02501412	      0.03043763	      0.05739224
     11.90000000	      0.02537512	      0.03065647	      0.06241511
     11.91666667	      0.02585569	      0.03094541	      0.06721315
     11.93333333	      0.02688157	      0.03155334	      0.07151229
     11.95000000	      0.02848424	      0.03248033	      0.07466237
     11.96666667	      0.03015262	      0.03341801	      0.08484993
     11.98333333	      0.03150537	      0.03415941	      0.09308743
     12.00000000	      0.03245009	      0.03466778	      0.09929533
     12.01666667	      0.03317641	      0.03505361	      0.10290123
     12.03333333	      0.03403853	      0.03550614	      0.10430478
     12.05000000	      0.03530707	      0.03616171	      0.10394417
     12.06666667	      0.03695524	      0.03699611	      0.10317922
     12.08333333	      0.03845720	      0.03774044	      0.10363076
     12.10000000	      0.03941284	      0.03820647	      0.10562099
     12.11666667	      0.03988379	      0.03843407	      0.10860919
     12.13333333	      0.04032740	      0.03864722	      0.11180207
     12.15000000	      0.04098826	      0.03896259	      0.11428793
     12.16666667	      0.04197454	      0.03942858	      0.11597126
     12.18333333	      0.04341718	      0.04010042	      0.11727672
     12.20000000	      0.04569186	      0.04113747	      0.11922811
     12.21666667	      0.04897016	      0.04258767	      0.12212900
     12.23333333	      0.05324120	      0.04440604	      0.12610429
     12.25000000	      0.05843110	      0.04652005	      0.12952053
     12.26666667	      0.06466814	      0.04893992	      0.13444141
     12.28333333	      0.07141798	      0.05143064	      0.14151314
     12.30000000	      0.07761954	      0.05361714	      0.14935833
     12.31666667	      0.08282102	      0.05538452	      0.15659313
     12.33333333	      0.08760556	      0.05696183	      0.16275693
     12.35000000	      0.09327072	      0.05877475	      0.16811534
     12.36666667	      0.10098031	      0.06115563	      0.17233650
     12.38333333	      0.11126068	      0.06419319	      0.17459504
     12.40000000	      0.12413480	      0.06780549	      0.18066679
     12.41666667	      0.13884521	      0.07171063	      0.19378559
     12.43333333	      0.15434923	      0.07560845	      0.20560626
     12.45000000	      0.16894470	      0.07910253	      0.21494408
     12.46666667	      0.18080141	      0.08183122	      0.22123082
     12.48333333	      0.18913385	      0.08369562	      0.22474136
     12.50000000	      0.19466795	      0.08491127	      0.22688872
     12.51666667	      0.19887785	      0.08582451	      0.22925508
     12.53333333	      0.20309224	      0.08672909	      0.23280262
     12.55000000	      0.20778286	      0.08772492	      0.23712027
     12.56666667	      0.21301817	      0.08882320	      0.24107079
     12.58333333	      0.21907871	      0.09007789	      0.24411824
     12.60000000	      0.22630585	      0.09155162	      0.24695362
     12.61666667	      0.23403868	      0.09310263	      0.24878265
     12.63333333	      0.24096169	      0.09446961	      0.24982038
     12.65000000	      0.24569989	      0.09539390	      0.24925470
     12.66666667	      0.24786123	      0.09581255	      0.24859729
     12.68333333	      0.24780296	      0.09580129	      0.24790305
     12.70000000	      0.24637401	      0.09552467	      0.24722409
     12.71666667	      0.24458246	      0.09517673	      0.24717939
     12.73333333	      0.24292317	      0.09485333	      0.24695324
     12.75000000	      0.24238622	      0.09474844	      0.24850092
     12.76666667	      0.24275780	      0.09482104	      0.24995702
     12.78333333	      0.24391867	      0.09504749	      0.25152306
     12.80000000	      0.24528101	      0.09531255	      0.25214503
     12.81666667	      0.24603711	      0.09545934	      0.25058559
     12.83333333	      0.24640313	      0.09553032	      0.24871954
     12.85000000	      0.24604492	      0.09546086	      0.24523299
     12.86666667	      0.24580654	      0.09541460	      0.24121633
     12.88333333	      0.24614273	      0.09547983	      0.23814158
     12.90000000	      0.24720001	      0.09568467	      0.23560963
     12.91666667	      0.24916514	      0.09606424	      0.23496366
     12.93333333	      0.25062181	      0.09634464	      0.23525772
     12.95000000	      0.25039113	      0.09630029	      0.23496390
     12.96666667	      0.24748401	      0.09573962	      0.23127305
     12.98333333	      0.24238418	      0.09474804	      0.22754351
     13.00000000	      0.23632189	      0.09355567	      0.22212127
     13.01666667	      0.23111585	      0.09251944	      0.21979280
     13.03333333	      0.22801336	      0.09189635	      0.22644215
     13.05000000	      0.22746421	      0.09178562	      0.23408054
     13.06666667	      0.22941107	      0.09217758	      0.24241369
     13.08333333	      0.23360645	      0.09301662	      0.25065443
     13.10000000	      0.23877400	      0.09403979	      0.25782516
     13.11666667	      0.24442179	      0.09514546	      0.26292651
     13.13333333	      0.24910923	      0.09605346	      0.26510327
     13.15000000	      0.25190204	      0.09659040	      0.26412201
     13.16666667	      0.25336031	      0.09686958	      0.26032978
     13.18333333	      0.25455185	      0.09709710	      0.25579123
     13.20000000	      0.25645360	      0.09745913	      0.25307060
     13.21666667	      0.25887417	      0.09791799	      0.25387070
     13.23333333	      0.25967521	      0.09806936	      0.25667110
     13.25000000	      0.25612870	      0.09739737	      0.25809259
     13.26666667	      0.24751017	      0.09574468	      0.25593441
     13.28333333	      0.23564309	      0.09342121	      0.24988541
     13.30000000	      0.22460105	      0.09120613	      0.24120982
     13.31666667	      0.21904491	      0.09007094	      0.23198190
     13.33333333	      0.22234460	      0.09074682	      0.22429964
     13.35000000	      0.23563340	      0.09341929	      0.22037101
     13.36666667	      0.25735496	      0.09763025	      0.22191968
     13.38333333	      0.28294214	      0.10236864	      0.22771172
     13.40000000	      0.30531937	      0.10633967	      0.23264036
     13.41666667	      0.31841982	      0.10859708	      0.23254132
     13.43333333	      0.32184682	      0.10917991	      0.23056510
     13.45000000	      0.31940773	      0.10876542	      0.22954929
     13.46666667	      0.31582161	      0.10815312	      0.23032973
     13.48333333	      0.31497364	      0.10800783	      0.23197671
     13.50000000	      0.31803065	      0.10853070	      0.23387838
     13.51666667	      0.32364132	      0.10948386	      0.23491543
     13.53333333	      0.33007678	      0.11056702	      0.23487195
     13.55000000	      0.33637766	      0.11161735	      0.23268472
     13.56666667	      0.34169861	      0.11249668	      0.23505465
     13.58333333	      0.34538495	      0.11310188	      0.23805545
     13.60000000	      0.34738407	      0.11342873	      0.23936992
     13.61666667	      0.34820691	      0.11356299	      0.23625312
     13.63333333	      0.34773069	      0.11348530	      0.23428704
     13.65000000	      0.33804878	      0.11189426	      0.26192435
     13.66666667	      0.33200274	      0.11088912	      0.25845349
     13.68333333	      0.32640642	      0.10995057	      0.25641412
     13.70000000	      0.32156618	      0.10913230	      0.25604005
     13.71666667	      0.31777346	      0.10848681	      0.25692851
     13.73333333	      0.31540165	      0.10808119	      0.25797301
     13.75000000	      0.31431544	      0.10789491	      0.25844961
     13.76666667	      0.31328660	      0.10771819	      0.25764979
     13.78333333	      0.31091398	      0.10730952	      0.25503046
     13.80000000	      0.30647412	      0.10654057	      0.25050515
     13.81666667	      0.30071377	      0.10553458	      0.24465589
     13.83333333	      0.29542020	      0.10460157	      0.23875984
     13.85000000	      0.29210482	      0.10401297	      0.23409177
     13.86666667	      0.29146061	      0.10389821	      0.23120550
     13.88333333	      0.29360752	      0.10428016	      0.22962419
     13.90000000	      0.29850179	      0.10514572	      0.22875559
     13.91666667	      0.30558345	      0.10638564	      0.22879369
     13.93333333	      0.31300839	      0.10767035	      0.22926325
     13.95000000	      0.31837531	      0.10858949	      0.22945286
     13.96666667	      0.32018962	      0.10889846	      0.23210829
     13.98333333	      0.31882734	      0.10866655	      0.23467273
     14.00000000	      0.31594300	      0.10817390	      0.23644227
     14.01666667	      0.31363907	      0.10777876	      0.23709321
     14.03333333	      0.31301534	      0.10767154	      0.23728269
     14.05000000	      0.31522130	      0.10805028	      0.23888393
     14.06666667	      0.32103525	      0.10904217	      0.24402090
     14.08333333	      0.32922013	      0.11042345	      0.25200277
     14.10000000	      0.33684601	      0.11169502	      0.25945608
     14.11666667	      0.33977036	      0.11217882	      0.26293047
     14.13333333	      0.33542655	      0.11145943	      0.26114009
     14.15000000	      0.32342896	      0.10944793	      0.25653788
     14.16666667	      0.30489594	      0.10626590	      0.25787278
     14.18333333	      0.28174036	      0.10215101	      0.25540677
     14.20000000	      0.25725635	      0.09761154	      0.25030747
     14.21666667	      0.23483586	      0.09326105	      0.24187731
     14.23333333	      0.21847981	      0.08995468	      0.23402021
     14.25000000	      0.21008049	      0.08820861	      0.22817708
     14.26666667	      0.20977877	      0.08814524	      0.22646470
     14.28333333	      0.21662851	      0.08957275	      0.22828855
     14.30000000	      0.22862737	      0.09202000	      0.23338566
     14.31666667	      0.24233740	      0.09473890	      0.23974589
     14.33333333	      0.25395606	      0.09698340	      0.24568232
     14.35000000	      0.26090840	      0.09830195	      0.24999740
     14.36666667	      0.26253354	      0.09860763	      0.25184687
     14.38333333	      0.25979332	      0.09809166	      0.25122267
     14.40000000	      0.25464533	      0.09711492	      0.24895958
     14.41666667	      0.24951689	      0.09613203	      0.24615542
     14.43333333	      0.24613058	      0.09547747	      0.24270430
     14.45000000	      0.24545386	      0.09534613	      0.24003542
     14.46666667	      0.24665544	      0.09557922	      0.23785122
     14.48333333	      0.24819002	      0.09587608	      0.23545284
     14.50000000	      0.24887584	      0.09600846	      0.23321888
     14.51666667	      0.24803817	      0.09584675	      0.23065451
     14.53333333	      0.24604200	      0.09546029	      0.22778215
     14.55000000	      0.24365763	      0.09499661	      0.22510407
     14.56666667	      0.24154111	      0.09458312	      0.22292951
     14.58333333	      0.24018952	      0.09431812	      0.22212739
     14.60000000	      0.24004847	      0.09429042	      0.22253899
     14.61666667	      0.24108655	      0.09449408	      0.22412003
     14.63333333	      0.24308365	      0.09488466	      0.22601598
     14.65000000	      0.24522824	      0.09530229	      0.22760757
     14.66666667	      0.24731380	      0.09570669	      0.22872532
     14.68333333	      0.24907656	      0.09604716	      0.22924498
     14.70000000	      0.25021319	      0.09626606	      0.22930434
     14.71666667	      0.25027790	      0.09627851	      0.22925515
     14.73333333	      0.24876438	      0.09598696	      0.22938881
     14.75000000	      0.24597655	      0.09544759	      0.22989870
     14.76666667	      0.24185175	      0.09464392	      0.23079584
     14.78333333	      0.23694230	      0.09367839	      0.23124292
     14.80000000	      0.23169954	      0.09263619	      0.23119683
     14.81666667	      0.22680830	      0.09165319	      0.23041044
     14.83333333	      0.22321900	      0.09092508	      0.22921054
     14.85000000	      0.22154960	      0.09058444	      0.22847784
     14.86666667	      0.22161093	      0.09059698	      0.22773959
     14.88333333	      0.22249835	      0.09077819	      0.22716402
     14.90000000	      0.22354247	      0.09099094	      0.22732916
     14.91666667	      0.22454174	      0.09119408	      0.22765689
     14.93333333	      0.22602221	      0.09149422	      0.22814820
     14.95000000	      0.22798323	      0.09189028	      0.22855886
     14.96666667	      0.23024774	      0.09234552	      0.22890901
     14.98333333	      0.23201372	      0.09269898	      0.22909666
     15.00000000	      0.23284626	      0.09286515	      0.22877341
     15.01666667	      0.23274920	      0.09284579	      0.22821322
     15.03333333	      0.23166331	      0.09262895	      0.22708345
     15.05000000	      0.23005844	      0.09230755	      0.22562626
     15.06666667	      0.22813628	      0.09192112	      0.22363897
     15.08333333	      0.22601774	      0.09149332	      0.22095261
     15.10000000	      0.22403704	      0.09109154	      0.21791236
     15.11666667	      0.22290380	      0.09086086	      0.21532636
     15.13333333	      0.22323293	      0.09092792	      0.21394219
     15.15000000	      0.22506764	      0.09130081	      0.21363616
     15.16666667	      0.22773969	      0.09184119	      0.21445720
     15.18333333	      0.23034518	      0.09236505	      0.21608174
     15.20000000	      0.23235849	      0.09276783	      0.21812837
     15.21666667	      0.23356910	      0.09300918	      0.21974411
     15.23333333	      0.23454315	      0.09320292	      0.22204742
     15.25000000	      0.23486304	      0.09326645	      0.22384981
     15.26666667	      0.23473346	      0.09324072	      0.22560281
     15.28333333	      0.23474251	      0.09324252	      0.22814186
     15.30000000	      0.23531817	      0.09335678	      0.23110818
     15.31666667	      0.23695618	      0.09368113	      0.23450490
     15.33333333	      0.23949167	      0.09418101	      0.23717864
     15.35000000	      0.24287799	      0.09484451	      0.23896019
     15.36666667	      0.24688657	      0.09562399	      0.24031020
     15.38333333	      0.25098007	      0.09641347	      0.24053196
     15.40000000	      0.25414389	      0.09701926	      0.23946886
     15.41666667	      0.25521759	      0.09722399	      0.23739902
     15.43333333	      0.25388864	      0.09697053	      0.23376386
     15.45000000	      0.25194739	      0.09659909	      0.23148530
     15.46666667	      0.25058739	      0.09633802	      0.22943948
     15.48333333	      0.25011555	      0.09624728	      0.22825450
     15.50000000	      0.25029451	      0.09628171	      0.22709984
     15.51666667	      0.25046092	      0.09631371	      0.22667029
     15.53333333	      0.24931698	      0.09609351	      0.22635595
     15.55000000	      0.24596753	      0.09544584	      0.22634194
     15.56666667	      0.23988554	      0.09425842	      0.22561059
     15.58333333	      0.23195982	      0.09268821	      0.22457124
     15.60000000	      0.22396021	      0.09107592	      0.22345359
     15.61666667	      0.21723956	      0.08969899	      0.22380932
     15.63333333	      0.21194325	      0.08859881	      0.22532278
     15.65000000	      0.20697989	      0.08755525	      0.22746763
     15.66666667	      0.20134581	      0.08635538	      0.22962021
     15.68333333	      0.19559276	      0.08511273	      0.23121099
     15.70000000	      0.19047936	      0.08399280	      0.23214149
     15.71666667	      0.18625927	      0.08305716	      0.23170372
     15.73333333	      0.18328341	      0.08239099	      0.23032764
     15.75000000	      0.18098073	      0.08187179	      0.22789446
     15.76666667	      0.17878091	      0.08137269	      0.22472721
     15.78333333	      0.17581127	      0.08069404	      0.22098252
     15.80000000	      0.17116177	      0.07961988	      0.21694312
     15.81666667	      0.16450249	      0.07805565	      0.21291453
     15.83333333	      0.15684671	      0.07621770	      0.20946516
     15.85000000	      0.14966557	      0.07445246	      0.20718286
     15.86666667	      0.14354243	      0.07291355	      0.20570554
     15.88333333	      0.13837353	      0.07158872	      0.20498418
     15.90000000	      0.13327695	      0.07025798	      0.20295021
     15.91666667	      0.12749413	      0.06871685	      0.19935543
     15.93333333	      0.12011652	      0.06669902	      0.19315790
     15.95000000	      0.11087118	      0.06408073	      0.18418523
     15.96666667	      0.10028101	      0.06094351	      0.17230777
     15.98333333	      0.08932293	      0.05751745	      0.15778497
     16.00000000	      0.07912438	      0.05413439	      0.14149827
     16.01666667	      0.07015799	      0.05097494	      0.12440526
     16.03333333	      0.06238807	      0.04806942	      0.10825071
     16.05000000	      0.05317323	      0.04437768	      0.09987060
     16.06666667	      0.04726478	      0.04183954	      0.10186384
     16.08333333	      0.04265534	      0.03974704	      0.10349033
     16.10000000	      0.03922360	      0.03811464	      0.10495492
     16.11666667	      0.03659929	      0.03681751	      0.10740550
     16.13333333	      0.03479919	      0.03590068	      0.10808380
     16.15000000	      0.03334955	      0.03514496	      0.10510753
     16.16666667	      0.03201707	      0.03443570	      0.10066331
     16.18333333	      0.03072752	      0.03373509	      0.09348349
     16.20000000	      0.02958055	      0.03309949	      0.08501937
     16.21666667	      0.02853855	      0.03251128	      0.07673145
     16.23333333	      0.02749551	      0.03191163	      0.06857830
     16.25000000	      0.02653479	      0.03134916	      0.06231398
     16.26666667	      0.02582063	      0.03092442	      0.05817021
     16.28333333	      0.02541434	      0.03068015	      0.05729989
     16.30000000	      0.02522633	      0.03056646	      0.05691896
     16.31666667	      0.02507215	      0.03047291	      0.05617082
     16.33333333	      0.02489016	      0.03036211	      0.05576363
     16.35000000	      0.02469087	      0.03024031	      0.05569144
     16.36666667	      0.02448056	      0.03011125	      0.05610098
     16.38333333	      0.02443936	      0.03008590	      0.05731246
     16.40000000	      0.02463904	      0.03020856	      0.05905525
     16.41666667	      0.02504322	      0.03045532	      0.06043744
     16.43333333	      0.02572028	      0.03086427	      0.06246981
     16.45000000	      0.02633324	      0.03122988	      0.06323003
     16.46666667	      0.02704554	      0.03164943	      0.06490499
     16.48333333	      0.02767278	      0.03201434	      0.06607145
     16.50000000	      0.02813402	      0.03228004	      0.06720475
     16.51666667	      0.02845376	      0.03246295	      0.06857289
     16.53333333	      0.02486370	      0.03034597	      0.05725671
     16.55000000	      0.02421849	      0.02994965	      0.05727640
     16.56666667	      0.02365847	      0.02960134	      0.05699702
     16.58333333	      0.02324829	      0.02934362	      0.05648872
     16.60000000	      0.02299350	      0.02918238	      0.05602971
     16.61666667	      0.02282083	      0.02907260	      0.05591958
     16.63333333	      0.02271135	      0.02900278	      0.05539744
     16.65000000	      0.02260101	      0.02893224	      0.05532888
     16.66666667	      0.02237959	      0.02879016	      0.05547926
     16.68333333	      0.02214360	      0.02863797	      0.05521988
     16.70000000	      0.02190033	      0.02848023	      0.05520393
     16.71666667	      0.02173114	      0.02837000	      0.05524465
     16.73333333	      0.02168876	      0.02834233	      0.05552791
     16.75000000	      0.02172969	      0.02836905	      0.05545291
     16.76666667	      0.02186636	      0.02845813	      0.05552278
     16.78333333	      0.02208337	      0.02859900	      0.05547966
     16.80000000	      0.02226739	      0.02871791	      0.05547700
     16.81666667	      0.02246859	      0.02884735	      0.05525672
     16.83333333	      0.02269018	      0.02898926	      0.05488921
     16.85000000	      0.02293205	      0.02914336	      0.05492305
     16.86666667	      0.02323918	      0.02933787	      0.05474810
     16.88333333	      0.02359277	      0.02956021	      0.05479658
     16.90000000	      0.02392709	      0.02976892	      0.05541273
     16.91666667	      0.02426884	      0.02998076	      0.05569178
     16.93333333	      0.02462218	      0.03019822	      0.05595928
     16.95000000	      0.02497871	      0.03041607	      0.05642838
     16.96666667	      0.02533624	      0.03063298	      0.05690523
     16.98333333	      0.02584933	      0.03094160	      0.05741605
