Coordinates
version=1
nRows=143
nColumns=63
inDegrees=yes

Units are S.I. units (second, meters, Newtons, ...)
If the header above contains a line with 'inDegrees', this indicates whether rotational values are in degrees (yes) or radians (no).

endheader
time	pelvis_tilt	pelvis_list	pelvis_rotation	pelvis_tx	pelvis_ty	pelvis_tz	hip_flexion_r	hip_adduction_r	hip_rotation_r	knee_angle_r	knee_angle_r_beta	ankle_angle_r	subtalar_angle_r	mtp_angle_r	hip_flexion_l	hip_adduction_l	hip_rotation_l	knee_angle_l	knee_angle_l_beta	ankle_angle_l	subtalar_angle_l	mtp_angle_l	L5_S1_Flex_Ext	L5_S1_Lat_Bending	L5_S1_axial_rotation	L4_L5_Flex_Ext	L4_L5_Lat_Bending	L4_L5_axial_rotation	L3_L4_Flex_Ext	L3_L4_Lat_Bending	L3_L4_axial_rotation	L2_L3_Flex_Ext	L2_L3_Lat_Bending	L2_L3_axial_rotation	L1_L2_Flex_Ext	L1_L2_Lat_Bending	L1_L2_axial_rotation	L1_T12_Flex_Ext	L1_T12_Lat_Bending	L1_T12_axial_rotation	Abs_r3	Abs_r2	Abs_r1	Abs_t1	Abs_t2	neck_flexion	neck_bending	neck_rotation	arm_flex_r	arm_add_r	arm_rot_r	elbow_flex_r	pro_sup_r	wrist_flex_r	wrist_dev_r	arm_flex_l	arm_add_l	arm_rot_l	elbow_flex_l	pro_sup_l	wrist_flex_l	wrist_dev_l
0.000000	-2.597633	-4.842044	89.287505	0.442273	0.750520	0.981831	1.288186	-2.132796	2.254165	6.812846	0.118907	28.497834	4.425032	0.000000	0.118379	1.133311	-14.943653	8.135532	0.141992	29.669877	11.523937	0.000000	-0.011762	-0.216368	3.022596	-0.021844	-0.287769	3.211509	-0.019324	-0.526077	3.211509	-0.013443	-0.526077	2.644772	-0.010922	-0.441217	2.455860	-0.006721	-0.335154	2.266947	-0.084017	-2.447597	16.810775	0.000000	0.000000	24.447877	0.223301	-8.687983	2.223675	-12.770114	34.615895	62.972244	47.766166	-3.529069	27.152588	24.127369	-7.186677	67.907632	56.613516	76.028947	12.578021	23.837031
0.016667	-2.265890	-4.937202	90.986610	0.439256	0.749715	0.982924	1.047993	-1.812636	1.566453	6.582690	0.114890	28.235948	2.785675	0.000000	0.624213	0.864261	-13.465361	8.504818	0.148437	30.558496	11.914812	0.000000	-0.008595	-0.162457	2.736893	-0.015961	-0.216068	2.907949	-0.014120	-0.394999	2.907949	-0.009823	-0.394999	2.394781	-0.007981	-0.331283	2.223725	-0.004911	-0.251647	2.052670	-0.061390	-1.837751	15.221776	0.000000	0.000000	24.659057	-0.038247	-8.134942	0.996938	-12.984042	32.200202	64.760400	52.973379	1.111076	26.410815	23.357988	-8.564192	67.615862	58.998127	77.380075	10.098741	19.027245
0.033333	-2.026083	-5.040038	92.342769	0.436877	0.749016	0.983957	0.905846	-1.586747	0.935124	6.431161	0.112245	28.081115	1.600248	0.000000	1.080732	0.667586	-12.320135	8.841554	0.154314	31.281465	12.272728	0.000000	-0.005109	-0.123370	2.506638	-0.009489	-0.164082	2.663303	-0.008394	-0.299962	2.663303	-0.005840	-0.299962	2.193308	-0.004745	-0.251576	2.036643	-0.002920	-0.191100	1.879979	-0.036497	-1.395587	13.941169	0.000000	0.000000	24.846293	-0.252952	-7.738956	0.055078	-13.163172	30.313502	66.186312	57.304112	4.903283	25.899154	22.697836	-9.618103	67.293976	60.876132	78.045339	8.143904	15.560001
0.050000	-1.867299	-5.148661	93.390764	0.435074	0.748418	0.984931	0.851325	-1.443853	0.354774	6.351314	0.110851	28.021694	0.822349	0.000000	1.491327	0.534229	-11.473585	9.148249	0.159667	31.853963	12.599142	0.000000	-0.001406	-0.097429	2.326314	-0.002612	-0.129581	2.471709	-0.002310	-0.236890	2.471709	-0.001607	-0.236890	2.035525	-0.001306	-0.198678	1.890130	-0.000804	-0.150918	1.744736	-0.010045	-1.102141	12.938263	0.000000	0.000000	25.011266	-0.424605	-7.482287	-0.628502	-13.306465	28.902145	67.275833	60.811143	7.912082	25.587426	22.136663	-10.379283	66.934216	62.289669	78.124011	6.667419	13.282359
0.066667	-1.778626	-5.261181	94.165376	0.433785	0.747912	0.985847	0.874009	-1.372678	-0.180001	6.336202	0.110588	28.046041	0.405579	0.000000	1.859391	0.455134	-10.891317	9.427411	0.164539	32.291168	12.895510	0.000000	0.002416	-0.082959	2.190403	0.004487	-0.110335	2.327304	0.003969	-0.201706	2.327304	0.002761	-0.201706	1.916603	0.002243	-0.169169	1.779703	0.001380	-0.128503	1.642803	0.017256	-0.938445	12.182367	0.000000	0.000000	25.155659	-0.556995	-7.347198	-1.080399	-13.412886	27.912486	68.054813	63.547247	10.202001	25.445457	21.664216	-10.878605	66.528823	63.280875	77.715360	5.623197	12.041377
0.083333	-1.749153	-5.375709	94.701388	0.432950	0.747494	0.986704	0.963475	-1.361947	-0.674604	6.378879	0.111332	28.142516	0.303536	0.000000	2.188316	0.421244	-10.538939	9.681549	0.168975	32.608256	13.163286	0.000000	0.006258	-0.078281	2.093387	0.011622	-0.104114	2.224224	0.010281	-0.190333	2.224224	0.007152	-0.190333	1.831714	0.005811	-0.159631	1.700877	0.003576	-0.121258	1.570040	0.044701	-0.885533	11.642790	0.000000	0.000000	25.281152	-0.653913	-7.315950	-1.327207	-13.481398	27.290876	68.549105	65.565202	11.837569	25.443068	21.270242	-11.146943	66.070039	63.891890	76.918658	4.965149	11.684115
0.100000	-1.767966	-5.490354	95.033582	0.432506	0.747155	0.987503	1.109303	-1.400382	-1.134438	6.472399	0.112965	28.299475	0.469819	0.000000	2.481496	0.423503	-10.382058	9.913174	0.173018	32.820407	13.403927	0.000000	0.010021	-0.081720	2.029747	0.018610	-0.108688	2.156606	0.016464	-0.198695	2.156606	0.011453	-0.198695	1.776029	0.009306	-0.166644	1.649169	0.005726	-0.126585	1.522310	0.071579	-0.924438	11.288843	0.000000	0.000000	25.389427	-0.719147	-7.370806	-1.395522	-13.510964	26.983668	68.784561	66.917786	12.883316	25.550082	20.944491	-11.215169	65.550105	64.164852	75.833175	4.647185	12.057632
0.116667	-1.824154	-5.603228	95.196740	0.432393	0.746890	0.988245	1.301070	-1.476710	-1.564907	6.609817	0.115363	28.505277	0.858027	0.000000	2.742321	0.452854	-10.386281	10.124793	0.176711	32.942798	13.618889	0.000000	0.013606	-0.091600	1.993965	0.025267	-0.121827	2.118588	0.022353	-0.222715	2.118588	0.015550	-0.222715	1.744719	0.012634	-0.186790	1.620097	0.007774	-0.141888	1.495474	0.097185	-1.036192	11.089835	0.000000	0.000000	25.482167	-0.756489	-7.494029	-1.311942	-13.500548	26.937215	68.787034	67.657774	13.403771	25.736324	20.676710	-11.114158	64.961263	64.141899	74.558182	4.623215	13.008989
0.133333	-1.906804	-5.712439	95.225642	0.432549	0.746693	0.988930	1.528355	-1.579654	-1.971415	6.784186	0.118406	28.748279	1.421761	0.000000	2.974184	0.500240	-10.517216	10.318916	0.180099	32.990606	13.809626	0.000000	0.016913	-0.106242	1.980523	0.031409	-0.141302	2.104306	0.027787	-0.258317	2.104306	0.019330	-0.258317	1.732958	0.015706	-0.216649	1.609175	0.009664	-0.164569	1.485392	0.120809	-1.201831	11.015075	0.000000	0.000000	25.561052	-0.769728	-7.667881	-1.103061	-13.449113	27.097868	68.582375	67.837945	13.463463	25.971617	20.456646	-10.874781	64.295754	63.865171	73.192950	4.847150	14.385243
0.150000	-2.005005	-5.816098	95.155072	0.432913	0.746555	0.989560	1.780737	-1.697938	-2.359364	6.988562	0.121973	29.016839	2.114618	0.000000	3.180479	0.556605	-10.740470	10.498052	0.183226	32.979011	13.977595	0.000000	0.019844	-0.123971	1.983903	0.036852	-0.164882	2.107897	0.032602	-0.301423	2.107897	0.022680	-0.301423	1.735915	0.018427	-0.252802	1.611921	0.011339	-0.192031	1.487927	0.141743	-1.402386	11.033874	0.000000	0.000000	25.627764	-0.762653	-7.874623	-0.795476	-13.355623	27.411980	68.196436	67.511076	13.126921	26.225783	20.274049	-10.527914	63.545819	63.376804	71.836748	5.272900	16.033456
0.166667	-2.107843	-5.912315	95.019810	0.433423	0.746472	0.990133	2.047793	-1.820286	-2.734158	7.215997	0.125943	29.299314	2.890199	0.000000	3.364596	0.612893	-11.021651	10.664710	0.186134	32.923189	14.124251	0.000000	0.022299	-0.143110	1.998587	0.041412	-0.190337	2.123498	0.036635	-0.347958	2.123498	0.025486	-0.347958	1.748763	0.020707	-0.291830	1.623852	0.012742	-0.221678	1.498940	0.159281	-1.618891	11.115540	0.000000	0.000000	25.683985	-0.739056	-8.096520	-0.415782	-13.219040	27.825903	67.655070	66.729942	12.458675	26.468646	20.118664	-10.104428	62.703700	62.718939	70.588848	5.854375	17.800686
0.183333	-2.174885	-5.987172	94.929199	0.433875	0.746435	0.990660	2.292703	-1.904203	-3.081249	7.461002	0.130219	29.500731	3.542253	0.000000	3.541327	0.635606	-11.227202	10.862763	0.189591	32.835591	14.193465	0.000000	0.022546	-0.156982	2.009150	0.041871	-0.208786	2.134722	0.037041	-0.381686	2.134722	0.025768	-0.381686	1.758006	0.020936	-0.320117	1.632434	0.012883	-0.243165	1.506863	0.161045	-1.775810	11.174290	0.000000	0.000000	25.742073	-0.689734	-8.226262	-0.097690	-13.007947	28.055425	67.157957	65.335709	11.453800	26.419958	19.985134	-9.741378	61.879744	62.025180	69.303795	6.254200	18.905817
0.200000	-2.207573	-6.053720	94.873574	0.434287	0.746453	0.991118	2.533979	-1.954376	-3.445442	7.719282	0.134727	29.725861	4.175985	0.000000	3.710398	0.619945	-11.429917	11.049847	0.192856	32.783317	14.310704	0.000000	0.023265	-0.166116	2.016541	0.043206	-0.220934	2.142575	0.038222	-0.403894	2.142575	0.026590	-0.403894	1.764473	0.021604	-0.338743	1.638440	0.013294	-0.257313	1.512406	0.166181	-1.879133	11.215396	0.000000	0.000000	25.777819	-0.670385	-8.329642	0.230587	-12.726334	28.228318	66.543030	63.469862	10.280975	26.418278	19.816779	-9.341894	60.745904	61.255300	68.928762	7.172440	19.906197
0.216667	-2.194734	-6.108163	94.904074	0.434605	0.746514	0.991549	2.760311	-1.959164	-3.847687	7.980829	0.139292	29.957822	4.745557	0.000000	3.882818	0.558051	-11.562007	11.238987	0.196157	32.767937	14.442258	0.000000	0.023455	-0.169105	2.012035	0.043559	-0.224910	2.137788	0.038535	-0.411162	2.137788	0.026807	-0.411162	1.760531	0.021781	-0.344839	1.634779	0.013402	-0.261944	1.509026	0.167539	-1.912952	11.190337	0.000000	0.000000	25.807760	-0.648589	-8.357009	0.566530	-12.385415	28.327267	65.799796	61.384615	9.158587	26.311986	19.658756	-8.938884	59.431886	60.433723	69.387242	8.312051	20.499406
0.233333	-2.150661	-6.137856	94.958983	0.434894	0.746606	0.991904	2.959991	-1.932944	-4.253128	8.246670	0.143932	30.197921	5.291625	0.000000	4.012883	0.468888	-11.676298	11.382198	0.198657	32.765572	14.576096	0.000000	0.021758	-0.168252	2.004682	0.040408	-0.223776	2.129975	0.035747	-0.409089	2.129975	0.024868	-0.409089	1.754097	0.020205	-0.343100	1.628804	0.012433	-0.260623	1.503512	0.155418	-1.903304	11.149440	0.000000	0.000000	25.826011	-0.638533	-8.408111	0.931201	-12.051186	28.556314	64.981212	58.569020	7.831318	26.195729	19.495668	-8.551432	57.940037	59.601099	70.465528	9.421888	20.597553
0.250000	-2.058267	-6.159358	95.167826	0.435010	0.746702	0.992211	3.118575	-1.852693	-4.709439	8.474622	0.147910	30.391999	5.685572	0.000000	4.150336	0.334449	-11.648989	11.525664	0.201161	32.780413	14.710902	0.000000	0.020342	-0.161732	1.970899	0.037777	-0.215104	2.094080	0.033420	-0.393236	2.094080	0.023249	-0.393236	1.724537	0.018889	-0.329804	1.601355	0.011623	-0.250523	1.478174	0.145300	-1.829548	10.961549	0.000000	0.000000	25.851798	-0.629883	-8.409983	1.265085	-11.658690	28.645412	64.027167	56.154965	6.861950	25.970867	19.323772	-8.219311	56.374228	58.787973	72.083364	10.027812	20.025416
0.266667	-1.931171	-6.168646	95.493521	0.434991	0.746785	0.992432	3.231547	-1.734986	-5.250695	8.667535	0.151277	30.555515	6.022206	0.000000	4.271857	0.174464	-11.475395	11.645568	0.203254	32.792546	14.791187	0.000000	0.018938	-0.151478	1.913048	0.035170	-0.201466	2.032613	0.031114	-0.368304	2.032613	0.021644	-0.368304	1.673917	0.017586	-0.308894	1.554351	0.010821	-0.234640	1.434786	0.135274	-1.713550	10.639799	0.000000	0.000000	25.883568	-0.602863	-8.371697	1.569926	-11.259341	28.716262	62.980461	54.065381	5.973049	25.654728	19.119361	-7.966782	54.739444	58.035054	74.005516	10.039092	18.904469
0.283333	-1.782995	-6.158554	95.914796	0.434876	0.746854	0.992567	3.287586	-1.590449	-5.851184	8.816885	0.153884	30.670988	6.279229	0.000000	4.359512	0.006815	-11.120400	11.725983	0.204657	32.784253	14.758675	0.000000	0.015585	-0.139597	1.834380	0.028943	-0.185665	1.949028	0.025605	-0.339417	1.949028	0.017812	-0.339417	1.605082	0.014472	-0.284667	1.490434	0.008905	-0.216236	1.375785	0.111322	-1.579154	10.202270	0.000000	0.000000	25.931179	-0.543440	-8.306274	1.841383	-10.871716	28.765854	61.834616	52.515893	5.177047	25.195355	18.866178	-7.806199	53.044556	57.363811	76.059287	9.452354	17.313754
0.300000	-1.631213	-6.153919	96.346231	0.434781	0.746872	0.992607	3.320839	-1.430521	-6.310090	8.924390	0.155760	30.695742	6.294908	0.000000	4.425430	-0.160468	-10.762469	11.760772	0.205264	32.769354	14.745520	0.000000	0.013813	-0.128867	1.752614	0.025653	-0.171393	1.862152	0.022694	-0.313328	1.862152	0.015787	-0.313328	1.533537	0.012827	-0.262786	1.423999	0.007893	-0.199615	1.314461	0.098666	-1.457772	9.747514	0.000000	0.000000	25.991670	-0.446555	-8.243417	2.033103	-10.472791	28.637329	60.573426	52.157699	4.761932	24.366999	18.571425	-7.758249	51.401511	56.775798	77.993651	8.217897	15.274857
0.316667	-1.458320	-6.149953	96.825173	0.434650	0.746844	0.992645	3.325827	-1.242373	-6.740473	8.981915	0.156764	30.658177	6.176854	0.000000	4.486005	-0.338185	-10.288674	11.767186	0.205376	32.758454	14.670154	0.000000	0.012045	-0.117050	1.652935	0.022369	-0.155676	1.756243	0.019789	-0.284595	1.756243	0.013767	-0.284595	1.446318	0.011185	-0.238688	1.343009	0.006883	-0.181310	1.239701	0.086039	-1.324093	9.193126	0.000000	0.000000	26.081073	-0.301279	-8.149312	2.230110	-10.136118	28.491110	59.212889	52.480499	4.489990	23.304010	18.197631	-7.827498	49.751251	56.282205	79.721300	6.501416	13.014633
0.333333	-1.299442	-6.160119	97.266318	0.434573	0.746761	0.992686	3.334833	-1.064007	-7.095170	9.013752	0.157320	30.581606	5.981910	0.000000	4.538157	-0.493865	-9.808061	11.727102	0.204677	32.743317	14.576878	0.000000	0.011631	-0.107771	1.553731	0.021601	-0.143335	1.650839	0.019109	-0.262034	1.650839	0.013293	-0.262034	1.359515	0.010801	-0.219766	1.262407	0.006646	-0.166937	1.165298	0.083081	-1.219123	8.641386	0.000000	0.000000	26.184417	-0.128865	-8.042723	2.397792	-9.811632	28.147627	57.764168	53.895476	4.445664	21.926682	17.715251	-8.020679	48.056596	55.850605	81.308510	4.585149	10.690423
0.350000	-1.168137	-6.183813	97.609971	0.434620	0.746615	0.992761	3.361512	-0.911199	-7.382325	9.031388	0.157627	30.494556	5.816698	0.000000	4.574320	-0.614050	-9.337104	11.630233	0.202986	32.726135	14.428324	0.000000	0.012020	-0.102044	1.469610	0.022322	-0.135719	1.561461	0.019748	-0.248110	1.561461	0.013738	-0.248110	1.285909	0.011162	-0.208088	1.194058	0.006868	-0.158066	1.102208	0.085857	-1.154342	8.173531	0.000000	0.000000	26.299097	0.051415	-7.940292	2.541733	-9.525163	27.592204	56.274141	56.105436	4.494934	20.296396	17.173971	-8.352681	46.454725	55.443048	82.720298	2.541024	8.353274
0.366667	-1.068125	-6.221590	97.812053	0.434816	0.746403	0.992880	3.421298	-0.793485	-7.642725	9.053790	0.158018	30.423559	5.795280	0.000000	4.591065	-0.689723	-8.845499	11.470075	0.200191	32.698804	14.129622	0.000000	0.013551	-0.099632	1.412224	0.025166	-0.132510	1.500488	0.022263	-0.242245	1.500488	0.015488	-0.242245	1.235696	0.012584	-0.203169	1.147432	0.007743	-0.154330	1.059168	0.096794	-1.127057	7.854365	0.000000	0.000000	26.421530	0.200269	-7.891369	2.670252	-9.293387	26.808192	54.769383	58.952457	4.625370	18.494303	16.601560	-8.808619	45.033027	54.994686	83.940313	0.497984	6.146352
0.383333	-1.018668	-6.268467	97.829958	0.435200	0.746132	0.993039	3.511309	-0.731159	-7.856509	9.077257	0.158428	30.375128	5.960805	0.000000	4.574516	-0.707398	-8.432825	11.240311	0.196180	32.661827	13.754750	0.000000	0.015596	-0.101984	1.389446	0.028964	-0.135639	1.476287	0.025623	-0.247964	1.476287	0.017825	-0.247964	1.215766	0.014483	-0.207966	1.128925	0.008912	-0.157973	1.042085	0.111402	-1.153663	7.727684	0.000000	0.000000	26.541840	0.338651	-7.858409	2.797301	-9.122314	25.839271	53.242645	62.186376	4.784170	16.616651	16.035719	-9.376116	43.881164	54.446368	84.998694	-1.533125	4.069040
0.400000	-1.022171	-6.313280	97.654839	0.435779	0.745823	0.993244	3.614740	-0.724929	-8.011376	9.089521	0.158642	30.344970	6.312455	0.000000	4.521580	-0.667342	-8.099749	10.962014	0.191323	32.620580	13.289278	0.000000	0.016528	-0.108759	1.402986	0.030694	-0.144650	1.490673	0.027154	-0.264438	1.490673	0.018890	-0.264438	1.227613	0.015348	-0.221782	1.139926	0.009444	-0.168468	1.052240	0.118058	-1.230308	7.802987	0.000000	0.000000	26.652280	0.434992	-7.840371	2.934580	-9.020644	24.758369	51.684742	65.579462	4.882015	14.812105	15.517650	-10.028947	43.085958	53.754402	85.871126	-3.601564	2.182883
0.416667	-1.083904	-6.360239	97.296524	0.436520	0.745480	0.993480	3.726441	-0.775984	-8.039534	9.077686	0.158436	30.313607	6.744826	0.000000	4.432572	-0.560987	-7.829973	10.627544	0.185486	32.554718	12.714367	0.000000	0.017301	-0.120810	1.457258	0.032129	-0.160678	1.548337	0.028424	-0.293738	1.548337	0.019773	-0.293738	1.275101	0.016066	-0.246356	1.184022	0.009886	-0.187135	1.092944	0.123578	-1.366630	8.104834	0.000000	0.000000	26.746103	0.503187	-7.873624	3.048694	-8.972927	23.603118	50.051603	69.267503	4.975726	13.029729	15.132024	-10.735166	42.878260	52.859409	86.461581	-5.946077	0.431046
0.433333	-1.200561	-6.401263	96.772774	0.437365	0.745093	0.993733	3.839319	-0.886521	-7.976597	9.060751	0.158140	30.307554	7.284782	0.000000	4.314185	-0.395711	-7.648402	10.274230	0.179319	32.488030	12.072921	0.000000	0.016410	-0.137092	1.545243	0.030475	-0.182332	1.641821	0.026960	-0.333325	1.641821	0.018755	-0.333325	1.352088	0.015238	-0.279557	1.255510	0.009377	-0.212355	1.158932	0.117214	-1.550808	8.594178	0.000000	0.000000	26.829426	0.522588	-7.939820	3.153297	-8.998918	22.536717	48.357575	72.507322	4.656445	11.480907	14.793658	-11.445337	42.961370	51.785901	87.049467	-8.209682	-1.001726
0.450000	-1.365917	-6.433539	96.106682	0.438281	0.744657	0.993988	3.947111	-1.054893	-7.883671	9.045377	0.157872	30.342450	7.983189	0.000000	4.172638	-0.181549	-7.566160	9.922018	0.173172	32.431589	11.397574	0.000000	0.013244	-0.156520	1.668246	0.024595	-0.208171	1.772511	0.021758	-0.380562	1.772511	0.015136	-0.380562	1.459715	0.012298	-0.319175	1.355450	0.007568	-0.242449	1.251184	0.094599	-1.770581	9.278282	0.000000	0.000000	26.904372	0.496928	-8.023087	3.183343	-9.025902	21.265283	46.556743	76.104118	4.150932	10.078273	14.572091	-12.164938	43.474225	50.561882	87.367114	-10.434501	-2.044996
0.466667	-1.565977	-6.464313	95.354329	0.439158	0.744163	0.994229	4.038786	-1.253305	-7.557701	9.004127	0.157152	30.358520	8.491859	0.000000	4.022085	0.074552	-7.504604	9.575947	0.167132	32.372504	10.646153	0.000000	0.009190	-0.176844	1.814545	0.017066	-0.235203	1.927954	0.015097	-0.429980	1.927954	0.010503	-0.429980	1.587727	0.008533	-0.360621	1.474318	0.005251	-0.273932	1.360909	0.065640	-2.000500	10.091957	0.000000	0.000000	26.971680	0.417082	-8.087019	3.204665	-9.121494	20.532359	44.631610	78.951477	3.208979	8.652652	14.430168	-12.871314	44.330123	49.185726	87.646191	-12.474864	-2.851137
0.483333	-1.772980	-6.488935	94.581577	0.439913	0.743607	0.994442	4.098923	-1.446916	-6.945554	8.929634	0.155852	30.340663	8.654607	0.000000	3.884167	0.339966	-7.443903	9.283953	0.162036	32.337978	9.857330	0.000000	0.003690	-0.193544	1.970979	0.006853	-0.257414	2.094165	0.006063	-0.470583	2.094165	0.004218	-0.470583	1.724607	0.003427	-0.394675	1.601420	0.002109	-0.299800	1.478234	0.026359	-2.189411	10.961994	0.000000	0.000000	27.036585	0.293544	-8.026958	3.171274	-9.235851	20.033966	42.615090	81.400709	2.008950	7.187160	14.355193	-13.591042	45.353922	47.741216	87.788790	-14.151354	-3.394987
0.500000	-1.957074	-6.501921	93.857847	0.440408	0.743038	0.994704	4.139833	-1.627664	-6.315925	8.867017	0.154759	30.343049	8.735390	0.000000	3.777425	0.586886	-7.358257	9.072574	0.158346	32.326906	9.071503	0.000000	-0.004223	-0.201883	2.135293	-0.007843	-0.268505	2.268749	-0.006938	-0.490859	2.268749	-0.004827	-0.490859	1.868382	-0.003922	-0.411681	1.734926	-0.002413	-0.312717	1.601470	-0.030165	-2.283745	11.875861	0.000000	0.000000	27.096127	0.070747	-7.863380	3.095043	-9.406843	20.013587	40.530225	82.832870	0.661331	5.597962	14.513563	-14.181381	47.207005	46.028511	87.855792	-15.562589	-3.805910
0.516667	-2.127047	-6.497826	93.152937	0.440731	0.742448	0.994917	4.147841	-1.788651	-5.518036	8.798466	0.153562	30.353177	8.592786	0.000000	3.671990	0.822348	-7.276398	8.908262	0.155479	32.339526	8.266996	0.000000	-0.014675	-0.204029	2.305863	-0.027252	-0.271358	2.449979	-0.024109	-0.496076	2.449979	-0.016772	-0.496076	2.017630	-0.013627	-0.416055	1.873514	-0.008385	-0.316041	1.729397	-0.104819	-2.308014	12.824518	0.000000	0.000000	27.154834	-0.264616	-7.665202	2.993376	-9.605651	20.512082	38.395594	83.356611	-0.809198	3.890437	14.848198	-14.666012	49.830005	44.102830	87.972787	-16.893687	-4.280466
0.533333	-2.249999	-6.485414	92.571633	0.440751	0.741850	0.995150	4.140400	-1.913527	-4.800406	8.756257	0.152826	30.390084	8.395230	0.000000	3.610454	1.011589	-7.169669	8.833124	0.154167	32.385355	7.528690	0.000000	-0.025980	-0.196324	2.463854	-0.048248	-0.261111	2.617844	-0.042683	-0.477343	2.617844	-0.029693	-0.477343	2.155872	-0.024125	-0.400345	2.001881	-0.014845	-0.304106	1.847890	-0.185576	-2.220860	13.703214	0.000000	0.000000	27.212670	-0.706493	-7.396634	2.860674	-9.854234	21.428972	36.272587	82.794244	-2.251509	2.171912	15.401628	-14.966469	53.425244	41.907991	88.132087	-18.146628	-4.794827
0.550000	-2.325267	-6.467464	92.153435	0.440474	0.741223	0.995382	4.117645	-2.004670	-4.257124	8.749966	0.152716	30.459776	8.202718	0.000000	3.596732	1.152341	-7.012555	8.847036	0.154410	32.474843	6.875124	0.000000	-0.037544	-0.180153	2.597025	-0.069723	-0.239603	2.759340	-0.061681	-0.438024	2.759340	-0.042909	-0.438024	2.272397	-0.034863	-0.367368	2.110083	-0.021453	-0.279057	1.947769	-0.268174	-2.037926	14.443877	0.000000	0.000000	27.275484	-1.204208	-7.041407	2.704702	-10.142976	22.731991	34.183657	81.340781	-3.566804	0.521555	16.094986	-15.134899	57.622399	39.578543	88.376396	-19.394802	-5.292931
0.566667	-2.358655	-6.447512	91.916187	0.439919	0.740549	0.995538	4.075606	-2.069746	-3.944434	8.782864	0.153290	30.564046	8.059193	0.000000	3.617527	1.251380	-6.797622	8.924980	0.155770	32.592827	6.315106	0.000000	-0.047799	-0.158498	2.690449	-0.088768	-0.210803	2.858602	-0.078529	-0.385373	2.858602	-0.054630	-0.385373	2.354143	-0.044386	-0.323210	2.185990	-0.027312	-0.245514	2.017837	-0.341424	-1.792967	14.963471	0.000000	0.000000	27.340455	-1.713216	-6.649512	2.536884	-10.460253	24.375839	32.155693	79.163603	-4.733129	-0.892279	16.736093	-15.212316	61.707230	37.289443	88.787652	-20.508326	-5.612545
0.583333	-2.345247	-6.429236	91.882432	0.439114	0.739827	0.995627	4.014503	-2.098800	-3.860674	8.846789	0.154406	30.687822	7.922386	0.000000	3.683862	1.299841	-6.516142	9.076191	0.158409	32.753907	5.886606	0.000000	-0.055946	-0.132060	2.736543	-0.103897	-0.175639	2.907577	-0.091914	-0.321090	2.907577	-0.063941	-0.321090	2.394475	-0.051951	-0.269296	2.223441	-0.031968	-0.204560	2.052407	-0.399616	-1.493885	15.219830	0.000000	0.000000	27.410039	-2.177786	-6.174768	2.368146	-10.798537	26.417162	30.165282	76.792819	-5.580318	-2.212212	17.298549	-15.223364	65.664778	35.077511	89.040667	-21.531500	-5.748956
0.600000	-2.295655	-6.416990	92.037615	0.438091	0.739055	0.995628	3.944499	-2.106397	-4.029773	8.952565	0.156252	30.837727	7.836185	0.000000	3.778272	1.315559	-6.124437	9.261143	0.161637	32.928289	5.520206	0.000000	-0.061175	-0.103510	2.728792	-0.113608	-0.137668	2.899341	-0.100504	-0.251674	2.899341	-0.069917	-0.251674	2.387693	-0.056807	-0.211077	2.217143	-0.034955	-0.160337	2.046594	-0.436966	-1.170923	15.176721	0.000000	0.000000	27.483476	-2.557494	-5.641496	2.192161	-11.155091	28.659091	28.274087	74.399068	-6.199393	-3.296812	17.603764	-15.163815	68.818635	33.065845	89.277881	-22.266595	-5.557230
0.616667	-2.211443	-6.415942	92.358860	0.436915	0.738239	0.995561	3.876172	-2.087524	-4.392803	9.089064	0.158634	31.001685	7.757632	0.000000	3.900725	1.297683	-5.647830	9.467894	0.165246	33.116608	5.236801	0.000000	-0.062862	-0.074078	2.670444	-0.116741	-0.098524	2.837346	-0.103276	-0.180114	2.837346	-0.071845	-0.180114	2.336638	-0.058374	-0.151061	2.169736	-0.035919	-0.114748	2.002833	-0.449016	-0.837990	14.852207	0.000000	0.000000	27.560915	-2.828449	-5.070346	1.967307	-11.498811	30.714048	26.564010	72.398761	-6.589642	-4.100464	17.606146	-15.034328	71.055342	31.263643	89.299167	-22.620834	-5.100416
0.633333	-2.088938	-6.429070	92.782161	0.435671	0.737389	0.995455	3.831736	-2.036586	-4.898610	9.262915	0.161668	31.186947	7.720296	0.000000	4.042967	1.240189	-5.134861	9.676441	0.168886	33.318551	5.027864	0.000000	-0.060687	-0.043419	2.571053	-0.112701	-0.057747	2.731743	-0.099702	-0.105569	2.731743	-0.069359	-0.105569	2.249671	-0.056354	-0.088540	2.088980	-0.034676	-0.067256	1.928289	-0.433480	-0.491165	14.299423	0.000000	0.000000	27.641873	-2.990897	-4.473908	1.692044	-11.833997	32.484725	25.109077	70.758370	-6.879465	-4.667153	17.277362	-14.841222	72.283061	29.675764	89.014765	-22.523267	-4.462532
0.650000	-1.928529	-6.459476	93.338168	0.434355	0.736527	0.995375	3.811628	-1.953978	-5.587685	9.450947	0.164950	31.396728	7.750161	0.000000	4.224777	1.140168	-4.576639	9.905654	0.172886	33.544357	4.936803	0.000000	-0.054658	-0.011848	2.421343	-0.101505	-0.015757	2.572677	-0.089798	-0.028806	2.572677	-0.062469	-0.028806	2.118675	-0.050755	-0.024160	1.967341	-0.031232	-0.018352	1.816007	-0.390417	-0.134023	13.466783	0.000000	0.000000	27.726158	-3.040092	-3.834037	1.407779	-12.160053	33.901156	23.959414	69.426989	-6.992703	-4.905047	16.591332	-14.609919	72.373202	28.345940	88.542972	-22.008724	-3.621795
0.666667	-1.775264	-6.500709	93.882035	0.433193	0.735641	0.995268	3.838564	-1.871157	-6.278293	9.682102	0.168985	31.642968	7.809935	0.000000	4.391438	1.046951	-3.974167	10.086447	0.176042	33.750076	4.781435	0.000000	-0.046116	0.014577	2.253679	-0.085643	0.019387	2.394534	-0.075764	0.035442	2.394534	-0.052706	0.035442	1.971969	-0.042824	0.029725	1.831114	-0.026351	0.022580	1.690259	-0.329404	0.164897	12.534287	0.000000	0.000000	27.806562	-2.965507	-3.212936	1.104800	-12.488432	35.106285	23.163713	68.176109	-7.167391	-5.073969	15.314304	-14.604884	67.196871	27.934958	91.924601	-21.376088	-2.353024
0.683333	-1.596665	-6.548656	94.392721	0.432138	0.734812	0.995205	3.912632	-1.766407	-7.054837	9.938823	0.173465	31.910760	8.056720	0.000000	4.552346	0.919007	-3.450004	10.239005	0.178704	33.971226	4.706117	0.000000	-0.035610	0.042102	2.082373	-0.066131	0.055995	2.212521	-0.058504	0.102366	2.212521	-0.040699	0.102366	1.822076	-0.033067	0.085854	1.691928	-0.020348	0.065215	1.561779	-0.254359	0.476262	11.581532	0.000000	0.000000	27.876551	-2.854554	-2.610314	0.709463	-12.785332	35.569358	22.808669	67.426848	-7.253036	-4.968348	14.018266	-14.440643	63.865063	27.174460	92.833462	-20.185548	-1.621905
0.700000	-1.402933	-6.598503	94.831859	0.431255	0.734052	0.995200	4.029349	-1.640906	-7.827099	10.209273	0.178185	32.182006	8.420416	0.000000	4.691731	0.770270	-2.981904	10.343674	0.180531	34.185501	4.619633	0.000000	-0.023946	0.069274	1.918768	-0.044470	0.092134	2.038691	-0.039341	0.168432	2.038691	-0.027368	0.168432	1.678922	-0.022236	0.141263	1.558999	-0.013683	0.107305	1.439076	-0.171042	0.783640	10.671612	0.000000	0.000000	27.931812	-2.723383	-2.067789	0.242102	-13.062401	35.416447	22.860907	67.059145	-7.259487	-4.626719	12.760480	-14.161816	62.236207	26.131306	91.591611	-18.692290	-1.463602
0.716667	-1.221272	-6.645175	95.151217	0.430633	0.733366	0.995246	4.177441	-1.521323	-8.581135	10.478857	0.182891	32.458805	8.956471	0.000000	4.799867	0.616652	-2.701490	10.407530	0.181646	34.406998	4.635744	0.000000	-0.012395	0.092731	1.774486	-0.023018	0.123333	1.885391	-0.020363	0.225467	1.885391	-0.014166	0.225467	1.552675	-0.011510	0.189098	1.441770	-0.007082	0.143641	1.330864	-0.088533	1.048996	9.869157	0.000000	0.000000	27.971865	-2.561163	-1.571410	-0.286194	-13.302026	34.685383	23.256514	67.154451	-7.179074	-4.096738	11.589094	-13.784706	62.350113	24.829584	88.331715	-16.968369	-1.829126
0.733333	-1.061547	-6.685596	95.330173	0.430312	0.732755	0.995346	4.349506	-1.414614	-9.280069	10.741354	0.187472	32.740110	9.640041	0.000000	4.870451	0.469317	-2.578079	10.427122	0.181988	34.619917	4.691018	0.000000	-0.001727	0.110952	1.659112	-0.003208	0.147566	1.762807	-0.002838	0.269769	1.762807	-0.001974	0.269769	1.451723	-0.001604	0.226254	1.348029	-0.000987	0.171865	1.244334	-0.012337	1.255112	9.227484	0.000000	0.000000	27.996346	-2.402553	-1.180012	-0.875201	-13.473070	33.337560	23.923640	67.910105	-7.014790	-3.371906	10.557222	-13.343827	63.743943	23.388419	83.606485	-15.228449	-2.579314
0.750000	-0.939982	-6.722774	95.362128	0.430287	0.732215	0.995477	4.538307	-1.331979	-9.835655	10.983625	0.191700	33.011625	10.361811	0.000000	4.901472	0.349375	-2.579247	10.394988	0.181427	34.799104	4.735828	0.000000	0.008219	0.121832	1.579783	0.015263	0.162037	1.678519	0.013502	0.296223	1.678519	0.009393	0.296223	1.382310	0.007632	0.248440	1.283574	0.004696	0.188718	1.184837	0.058704	1.378190	8.786279	0.000000	0.000000	28.009589	-2.215535	-0.905270	-1.507168	-13.577050	31.559279	24.762068	69.219226	-6.869163	-2.561223	9.703216	-12.844783	66.212893	21.857504	77.715511	-13.559397	-3.574823
0.766667	-0.853149	-6.749056	95.229579	0.430554	0.731757	0.995632	4.735503	-1.265470	-10.177668	11.208382	0.195623	33.266608	11.044660	0.000000	4.885387	0.252956	-2.718018	10.314962	0.180030	34.939288	4.760575	0.000000	0.015535	0.127317	1.541262	0.028850	0.169331	1.637591	0.025522	0.309558	1.637591	0.017755	0.309558	1.348604	0.014426	0.259624	1.252275	0.008877	0.197213	1.155946	0.110964	1.440231	8.572036	0.000000	0.000000	28.019133	-2.059217	-0.706635	-2.143546	-13.625688	29.508488	25.670268	71.021691	-6.719790	-1.729738	9.037196	-12.305294	69.467425	20.331928	70.976790	-11.886628	-4.662252
0.783333	-0.805578	-6.767571	94.974299	0.431049	0.731383	0.995783	4.925341	-1.214639	-10.245628	11.394328	0.198869	33.481229	11.547893	0.000000	4.836952	0.185300	-2.962662	10.209691	0.178193	35.043665	4.778924	0.000000	0.020311	0.127100	1.539345	0.037719	0.169043	1.635554	0.033368	0.309032	1.635554	0.023213	0.309032	1.346927	0.018860	0.259183	1.250718	0.011605	0.196878	1.154509	0.145076	1.437783	8.561375	0.000000	0.000000	28.026673	-1.904720	-0.569819	-2.763840	-13.624457	27.398317	26.562835	73.158855	-6.685753	-1.053285	8.599071	-11.742152	73.416253	18.830243	63.694444	-10.223034	-5.712367
0.800000	-0.788451	-6.774733	94.618062	0.431681	0.731115	0.995930	5.092985	-1.169200	-9.947258	11.528969	0.201218	33.620434	11.713613	0.000000	4.751071	0.148167	-3.232180	10.066864	0.175700	35.078960	4.704686	0.000000	0.021447	0.124140	1.571836	0.039829	0.165107	1.670076	0.035235	0.301835	1.670076	0.024512	0.301835	1.375356	0.019916	0.253147	1.277117	0.012255	0.192294	1.178877	0.153194	1.404302	8.742080	0.000000	0.000000	28.031304	-1.805003	-0.468683	-3.324154	-13.613481	25.630159	27.403209	74.999826	-6.762399	-0.599810	8.424720	-11.146484	78.068546	17.348128	56.117471	-8.616996	-6.661383
0.816667	-0.780181	-6.765146	94.243511	0.432314	0.730964	0.996067	5.217441	-1.115789	-9.431522	11.607584	0.202591	33.696238	11.624085	0.000000	4.654248	0.118302	-3.499283	9.942638	0.173532	35.076872	4.597542	0.000000	0.018306	0.122138	1.626375	0.033996	0.162443	1.728023	0.030075	0.296966	1.728023	0.020922	0.296966	1.423078	0.016999	0.249063	1.321429	0.010460	0.189192	1.219781	0.130759	1.381648	9.045408	0.000000	0.000000	28.026804	-1.769895	-0.363731	-3.880469	-13.565385	23.809647	28.208518	76.843007	-6.863938	-0.360026	8.546066	-10.520063	83.366497	15.891034	48.624507	-7.020916	-7.431591
0.833333	-0.778156	-6.746575	93.829959	0.432924	0.730935	0.996268	5.337363	-1.070664	-8.870254	11.689455	0.204019	33.759466	11.529822	0.000000	4.555719	0.096079	-3.795238	9.827727	0.171526	35.030811	4.462845	0.000000	0.010605	0.122209	1.713059	0.019695	0.162538	1.820125	0.017423	0.297138	1.820125	0.012121	0.297138	1.498926	0.009848	0.249208	1.391860	0.006060	0.189301	1.284794	0.075751	1.382450	9.527518	0.000000	0.000000	28.025196	-1.848251	-0.288767	-4.389354	-13.541386	22.301148	28.960418	78.116108	-6.990655	-0.422655	9.076347	-9.793343	89.735046	14.327622	41.379259	-5.652842	-8.021874
0.850000	-0.796420	-6.707348	93.370254	0.433558	0.731010	0.996398	5.414974	-1.033512	-8.127134	11.738559	0.204877	33.779132	11.265416	0.000000	4.429071	0.093313	-4.128838	9.712761	0.169520	34.958465	4.291537	0.000000	-0.001768	0.121600	1.820677	-0.003284	0.161729	1.934469	-0.002905	0.295659	1.934469	-0.002021	0.295659	1.593092	-0.001642	0.247968	1.479300	-0.001010	0.188359	1.365507	-0.012629	1.375568	10.126057	0.000000	0.000000	28.001511	-2.000660	-0.262835	-4.840176	-13.497467	20.966115	29.645066	79.126355	-7.153639	-0.708753	9.846436	-9.087351	96.601654	12.819955	34.624040	-4.506972	-8.440745
0.866667	-0.807496	-6.665358	92.975591	0.434049	0.731172	0.996547	5.475314	-1.005429	-7.543666	11.789399	0.205764	33.793000	11.120996	0.000000	4.331149	0.086471	-4.416707	9.643553	0.168312	34.874306	4.132913	0.000000	-0.016011	0.123441	1.931851	-0.029733	0.164177	2.052592	-0.026304	0.300134	2.052592	-0.018299	0.300134	1.690370	-0.014867	0.251721	1.569629	-0.009148	0.191210	1.448889	-0.114362	1.396389	10.744378	0.000000	0.000000	27.956466	-2.183944	-0.225391	-5.242423	-13.447720	19.702225	30.273266	79.702800	-7.237721	-1.114603	10.827667	-8.386117	103.707860	11.369111	28.544772	-3.418430	-8.561016
0.883333	-0.827830	-6.615714	92.670200	0.434405	0.731395	0.996622	5.489072	-0.993412	-7.039768	11.808196	0.206092	33.784370	10.968124	0.000000	4.244076	0.092550	-4.638473	9.603380	0.167611	34.783782	3.997877	0.000000	-0.031433	0.124081	2.031221	-0.058373	0.165028	2.158172	-0.051640	0.301691	2.158172	-0.035924	0.301691	1.777318	-0.029188	0.253027	1.650367	-0.017961	0.192202	1.523415	-0.224519	1.403632	11.297039	0.000000	0.000000	27.888119	-2.386697	-0.243932	-5.543861	-13.380201	18.675356	30.786603	79.940921	-7.282324	-1.580590	11.822938	-7.813122	110.282966	10.163927	23.375254	-2.471464	-8.494945
0.900000	-0.845310	-6.555573	92.472317	0.434605	0.731649	0.996622	5.467401	-0.988644	-6.636949	11.825337	0.206391	33.787114	10.815785	0.000000	4.162766	0.102148	-4.762251	9.582595	0.167248	34.692182	3.865223	0.000000	-0.047509	0.125033	2.109856	-0.088229	0.166294	2.241722	-0.078053	0.304005	2.241722	-0.054298	0.304005	1.846124	-0.044117	0.254967	1.714258	-0.027147	0.193676	1.582392	-0.339353	1.414396	11.734387	0.000000	0.000000	27.792721	-2.584941	-0.253081	-5.755166	-13.312329	17.888786	31.222688	79.891134	-7.284374	-2.067589	12.731044	-7.376984	115.835897	9.271231	19.276984	-1.630557	-8.245611
0.916667	-0.857036	-6.493559	92.377299	0.434618	0.731936	0.996575	5.419460	-1.000087	-6.469150	11.826469	0.206411	33.810290	10.847062	0.000000	4.098658	0.116077	-4.764546	9.584051	0.167273	34.589327	3.712508	0.000000	-0.062689	0.126659	2.170498	-0.116419	0.168457	2.306154	-0.102991	0.307959	2.306154	-0.071647	0.307959	1.899185	-0.058213	0.258283	1.763529	-0.035820	0.196195	1.627873	-0.447778	1.432793	12.071657	0.000000	0.000000	27.689907	-2.767061	-0.275658	-5.883675	-13.218779	17.176677	31.566351	79.768071	-7.208071	-2.424408	13.527560	-7.053008	120.051147	8.654262	16.351166	-0.957367	-7.882156
0.933333	-0.865586	-6.426616	92.403247	0.434477	0.732253	0.996429	5.319611	-0.997984	-6.202331	11.758610	0.205226	33.777096	10.592071	0.000000	4.037524	0.135493	-4.632286	9.590129	0.167379	34.469016	3.536494	0.000000	-0.076343	0.127322	2.203772	-0.141777	0.169338	2.341508	-0.125424	0.309571	2.341508	-0.087253	0.309571	1.928300	-0.070892	0.259635	1.790565	-0.043623	0.197222	1.652829	-0.545313	1.440293	12.256718	0.000000	0.000000	27.573634	-2.915440	-0.347406	-5.920564	-13.109028	16.558689	31.794657	79.699056	-7.073569	-2.673103	14.109171	-6.867154	122.149728	8.420259	15.212957	-0.504726	-7.449682
0.950000	-0.872257	-6.359173	92.529849	0.434222	0.732604	0.996195	5.181248	-0.991447	-5.957204	11.628320	0.202952	33.722536	10.248337	0.000000	3.984848	0.154941	-4.428429	9.605841	0.167654	34.346348	3.399224	0.000000	-0.088434	0.126922	2.213310	-0.164230	0.168807	2.351642	-0.145288	0.308599	2.351642	-0.101071	0.308599	1.936646	-0.082120	0.258820	1.798314	-0.050531	0.196603	1.659982	-0.631674	1.435771	12.309766	0.000000	0.000000	27.449562	-3.048267	-0.476853	-5.865333	-12.994480	16.119972	31.909987	79.601634	-6.914547	-2.854917	14.516271	-6.787408	122.992992	8.448391	15.058326	-0.249186	-7.054072
0.966667	-0.874838	-6.296754	92.740226	0.433897	0.732990	0.995865	5.013573	-0.977984	-5.747344	11.439769	0.199662	33.646581	9.854748	0.000000	3.941991	0.170651	-4.160615	9.625250	0.167992	34.222470	3.286262	0.000000	-0.098461	0.125101	2.201085	-0.182851	0.166385	2.338653	-0.161761	0.304171	2.338653	-0.112531	0.304171	1.925949	-0.091431	0.255106	1.788381	-0.056260	0.193782	1.650814	-0.703294	1.415171	12.241774	0.000000	0.000000	27.319927	-3.142631	-0.682749	-5.709445	-12.889334	16.030333	31.905056	79.301994	-6.789496	-3.035749	14.705975	-6.811393	122.216699	8.731853	16.127044	-0.210033	-6.698514
0.983333	-0.891142	-6.253949	93.032649	0.433508	0.733392	0.995487	4.836777	-0.979283	-5.604330	11.204134	0.195549	33.555808	9.434850	0.000000	3.923673	0.203525	-3.835673	9.641994	0.168285	34.095814	3.200717	0.000000	-0.105964	0.119760	2.167687	-0.196786	0.159281	2.303168	-0.174088	0.291185	2.303168	-0.121106	0.291185	1.896726	-0.098398	0.244215	1.761246	-0.060548	0.185509	1.625766	-0.756890	1.354752	12.056027	0.000000	0.000000	27.189864	-3.184739	-0.943693	-5.452276	-12.794638	16.314569	31.773517	78.824420	-6.699435	-3.281181	14.676676	-6.939641	119.736645	9.245119	18.728802	-0.420891	-6.369608
1.000000	-0.914887	-6.219160	93.350580	0.433169	0.733820	0.995071	4.648906	-0.977640	-5.442706	10.933792	0.190831	33.427596	8.945040	0.000000	3.915324	0.232534	-3.575282	9.662271	0.168638	33.999616	3.234519	0.000000	-0.113257	0.110872	2.123438	-0.210329	0.147460	2.256153	-0.186070	0.269575	2.256153	-0.129441	0.269575	1.858008	-0.105170	0.226091	1.725293	-0.064715	0.171741	1.592578	-0.808982	1.254209	11.809924	0.000000	0.000000	27.057087	-3.137108	-1.282335	-5.097531	-12.698504	16.957774	31.522879	78.191920	-6.713811	-3.593365	14.432000	-7.169477	115.110397	9.918727	23.339522	-0.854845	-6.161065
1.016667	-0.931025	-6.205353	93.671673	0.432818	0.734297	0.994672	4.474319	-0.976938	-5.393641	10.649752	0.185873	33.267102	8.574655	0.000000	3.931526	0.252685	-3.347853	9.684536	0.169027	33.916062	3.309847	0.000000	-0.118419	0.102248	2.082276	-0.219916	0.135990	2.212419	-0.194551	0.248606	2.212419	-0.135341	0.248606	1.821992	-0.109964	0.208504	1.691850	-0.067665	0.158382	1.561707	-0.845855	1.156651	11.580996	0.000000	0.000000	26.920097	-3.054934	-1.681490	-4.739136	-12.579125	17.521789	31.228957	77.811980	-6.758090	-3.869392	14.487801	-7.101891	116.066990	9.527420	23.032344	-0.922384	-6.727355
1.033333	-0.967398	-6.211714	93.978781	0.432566	0.734766	0.994299	4.318271	-1.002993	-5.503272	10.372113	0.181028	33.108952	8.401747	0.000000	3.967121	0.275749	-3.307436	9.709366	0.169460	33.882658	3.626282	0.000000	-0.121769	0.088895	2.043111	-0.226138	0.118231	2.170805	-0.200055	0.216140	2.170805	-0.139170	0.216140	1.787722	-0.113075	0.181275	1.660027	-0.069579	0.137699	1.532333	-0.869786	1.005600	11.363168	0.000000	0.000000	26.778141	-2.929433	-2.168777	-4.315726	-12.471957	18.430343	30.857626	77.177036	-6.902057	-4.222222	14.540343	-7.020896	117.864833	8.958004	22.104883	-1.070504	-7.447251
1.050000	-1.026991	-6.230785	94.247844	0.432433	0.735209	0.993947	4.167819	-1.048699	-5.619705	10.086925	0.176050	32.921017	8.246851	0.000000	4.004366	0.320307	-3.263447	9.723948	0.169715	33.837671	3.895770	0.000000	-0.123365	0.071072	2.013327	-0.229100	0.094525	2.139160	-0.202676	0.172804	2.139160	-0.140993	0.172804	1.761661	-0.114556	0.144929	1.635828	-0.070491	0.110090	1.509995	-0.881181	0.803977	11.197518	0.000000	0.000000	26.629670	-2.768379	-2.723694	-3.888179	-12.338076	19.328930	30.463948	76.628860	-7.069104	-4.530143	14.620909	-6.918158	120.434477	8.240038	20.859951	-1.343198	-8.195025
1.066667	-1.104409	-6.254604	94.444702	0.432457	0.735616	0.993663	4.037379	-1.113737	-5.797578	9.828772	0.171544	32.741086	8.226820	0.000000	4.037257	0.376803	-3.282009	9.736195	0.169929	33.791598	4.171627	0.000000	-0.123987	0.050145	1.998411	-0.230256	0.066693	2.123312	-0.203698	0.121922	2.123312	-0.141705	0.121922	1.748610	-0.115134	0.102255	1.623709	-0.070846	0.077674	1.498808	-0.885627	0.567249	11.114562	0.000000	0.000000	26.479918	-2.586478	-3.314286	-3.450086	-12.190865	20.230859	30.056193	76.154638	-7.243293	-4.791770	14.749041	-6.813948	123.422625	7.465966	19.669743	-1.849222	-8.865157
1.083333	-1.192253	-6.277821	94.562366	0.432624	0.735982	0.993447	3.907665	-1.168477	-5.727994	9.559121	0.166838	32.486182	7.930131	0.000000	4.045337	0.461384	-3.089006	9.716654	0.169588	33.641489	4.064946	0.000000	-0.123658	0.027830	1.998515	-0.229645	0.037014	2.123423	-0.203158	0.067666	2.123423	-0.141329	0.067666	1.748701	-0.114829	0.056751	1.623794	-0.070658	0.043109	1.498887	-0.883277	0.314819	11.115143	0.000000	0.000000	26.334692	-2.405499	-3.909385	-3.007676	-12.059983	21.182615	29.658136	75.664735	-7.434794	-5.008257	14.931674	-6.693803	126.827359	6.645795	18.606325	-2.526175	-9.351383
1.100000	-1.278016	-6.303942	94.570741	0.432950	0.736290	0.993337	3.806380	-1.209803	-5.507690	9.316403	0.162602	32.205028	7.529766	0.000000	4.040589	0.547034	-2.887248	9.686505	0.169061	33.435715	3.809739	0.000000	-0.122371	0.006659	2.018987	-0.227256	0.008857	2.145173	-0.201044	0.016191	2.145173	-0.139858	0.016191	1.766613	-0.113634	0.013580	1.640427	-0.069923	0.010315	1.514240	-0.874086	0.075331	11.228999	0.000000	0.000000	26.211018	-2.288610	-4.486796	-2.572786	-11.962553	22.160773	29.285186	75.100995	-7.600277	-5.215884	15.166216	-6.560607	130.358964	5.849039	17.905870	-3.505509	-9.655189
1.116667	-1.363833	-6.337533	94.508390	0.433374	0.736537	0.993365	3.742095	-1.252303	-5.267000	9.114996	0.159087	31.928329	7.157605	0.000000	4.043147	0.636638	-2.668458	9.666856	0.168718	33.183803	3.441426	0.000000	-0.120318	-0.013338	2.049905	-0.223442	-0.017740	2.178024	-0.197670	-0.032431	2.178024	-0.137511	-0.032431	1.793667	-0.111727	-0.027200	1.665548	-0.068750	-0.020661	1.537429	-0.859419	-0.150886	11.400958	0.000000	0.000000	26.118671	-2.201917	-4.988838	-2.141123	-11.887297	23.142557	28.926942	74.537339	-7.732597	-5.422413	15.442420	-6.420250	133.990419	5.086231	17.550198	-4.691673	-9.748554
1.133333	-1.436395	-6.373819	94.378707	0.433862	0.736730	0.993519	3.705172	-1.281992	-4.972173	8.943734	0.156098	31.643520	6.773317	0.000000	4.042710	0.719363	-2.417170	9.638934	0.168231	32.887504	2.945520	0.000000	-0.118361	-0.029955	2.091676	-0.219808	-0.039840	2.222406	-0.194455	-0.072832	2.222406	-0.135274	-0.072832	1.830217	-0.109910	-0.061084	1.699487	-0.067631	-0.046400	1.568757	-0.845439	-0.338854	11.633275	0.000000	0.000000	26.056305	-2.167734	-5.409305	-1.736682	-11.828008	24.028285	28.605081	74.045568	-7.800267	-5.582166	15.749319	-6.265679	137.473650	4.373824	17.590602	-5.944325	-9.646422
1.150000	-1.491987	-6.414171	94.204878	0.434404	0.736874	0.993788	3.697597	-1.289120	-4.595354	8.804787	0.153673	31.353436	6.315507	0.000000	4.048833	0.789140	-2.137338	9.609274	0.167713	32.563654	2.342935	0.000000	-0.116498	-0.043202	2.138015	-0.216348	-0.057458	2.271641	-0.191395	-0.105041	2.271641	-0.133146	-0.105041	1.870763	-0.108180	-0.088097	1.737137	-0.066567	-0.066920	1.603511	-0.832133	-0.488708	11.890997	0.000000	0.000000	26.020552	-2.162649	-5.729030	-1.336189	-11.800469	24.959893	28.288557	73.483716	-7.840788	-5.754618	16.068026	-6.114755	140.670208	3.735142	18.118324	-7.305933	-9.397877
1.166667	-1.536872	-6.465191	93.972865	0.434999	0.736968	0.994171	3.739261	-1.284795	-4.158964	8.718564	0.152168	31.081627	5.842389	0.000000	4.065231	0.852421	-1.858768	9.566315	0.166964	32.231531	1.652359	0.000000	-0.114312	-0.053747	2.192041	-0.212290	-0.071484	2.329043	-0.187804	-0.130681	2.329043	-0.130648	-0.130681	1.918036	-0.106151	-0.109602	1.781033	-0.065318	-0.083255	1.644031	-0.816522	-0.608001	12.191474	0.000000	0.000000	26.006553	-2.167504	-5.922347	-0.940469	-11.799920	25.937139	27.974127	72.871910	-7.846080	-5.932715	16.391496	-5.965158	143.531782	3.171080	19.054978	-8.717343	-9.016919
1.183333	-1.566853	-6.506267	93.724250	0.435611	0.737047	0.994603	3.800980	-1.277114	-3.885193	8.681242	0.151516	30.887881	5.626110	0.000000	4.076760	0.898492	-1.607143	9.522077	0.166192	31.925350	0.969271	0.000000	-0.113550	-0.061846	2.246609	-0.210874	-0.082255	2.387022	-0.186552	-0.150371	2.387022	-0.129777	-0.150371	1.965783	-0.105443	-0.126115	1.825370	-0.064883	-0.095799	1.684957	-0.811078	-0.699609	12.494966	0.000000	0.000000	25.988423	-2.176611	-6.039895	-0.569421	-11.792530	26.773006	27.656324	72.409895	-7.818447	-6.048150	16.711828	-5.820495	145.775624	2.689764	20.771808	-10.232601	-8.560003
1.200000	-1.584771	-6.537883	93.490356	0.436224	0.737119	0.995051	3.857908	-1.246052	-3.490598	8.637294	0.150749	30.683577	5.242975	0.000000	4.083276	0.931444	-1.346035	9.469126	0.165267	31.646957	0.284385	0.000000	-0.113773	-0.068471	2.297820	-0.211288	-0.091067	2.441433	-0.186918	-0.166481	2.441433	-0.130031	-0.166481	2.010592	-0.105650	-0.139627	1.866978	-0.065010	-0.106062	1.723365	-0.812670	-0.774561	12.779784	0.000000	0.000000	25.973395	-2.180729	-6.094408	-0.187025	-11.795643	27.755289	27.315657	71.786099	-7.783667	-6.139644	17.037311	-5.678586	147.963735	2.270184	22.710856	-11.675406	-7.977184
1.216667	-1.588967	-6.554732	93.287511	0.436832	0.737187	0.995480	3.906416	-1.193795	-3.045555	8.594413	0.150001	30.509452	4.782748	0.000000	4.087661	0.937620	-1.194701	9.429750	0.164580	31.441338	-0.222383	0.000000	-0.114812	-0.073822	2.341409	-0.213217	-0.098183	2.487747	-0.188624	-0.179491	2.487747	-0.131218	-0.179491	2.048733	-0.106614	-0.150538	1.902395	-0.065603	-0.114351	1.756057	-0.820088	-0.835091	13.022213	0.000000	0.000000	25.964364	-2.184408	-6.094385	0.201346	-11.797453	28.829464	26.956719	71.075793	-7.729692	-6.182141	17.358074	-5.551280	149.883067	1.924219	25.057222	-13.005746	-7.367960
1.233333	-1.577042	-6.559835	93.105412	0.437401	0.737238	0.995861	3.963447	-1.134338	-2.713108	8.583726	0.149814	30.412752	4.481472	0.000000	4.083494	0.916903	-1.170456	9.389860	0.163884	31.312487	-0.532675	0.000000	-0.115818	-0.076826	2.381542	-0.215085	-0.102178	2.530389	-0.190277	-0.186794	2.530389	-0.132368	-0.186794	2.083849	-0.107548	-0.156663	1.935003	-0.066178	-0.119003	1.786157	-0.827275	-0.869069	13.245423	0.000000	0.000000	25.975226	-2.185314	-6.007921	0.538709	-11.795150	29.756008	26.646091	70.463951	-7.655171	-6.158172	17.676531	-5.425276	151.432513	1.691578	27.826554	-14.171466	-6.660171
1.250000	-1.555888	-6.555887	92.952663	0.437939	0.737292	0.996145	3.998748	-1.061188	-2.333154	8.543905	0.149119	30.305707	4.104672	0.000000	4.072133	0.879770	-1.206128	9.352663	0.163235	31.233673	-0.724724	0.000000	-0.116015	-0.079524	2.414517	-0.215452	-0.105767	2.565424	-0.190601	-0.193355	2.565424	-0.132594	-0.193355	2.112702	-0.107732	-0.162166	1.961795	-0.066291	-0.123183	1.810888	-0.828686	-0.899594	13.428819	0.000000	0.000000	26.022680	-2.155555	-5.902216	0.879498	-11.765461	30.703900	26.300737	69.791575	-7.551393	-6.073137	17.962688	-5.313933	152.417890	1.561582	30.886155	-15.072556	-5.948163
1.266667	-1.530147	-6.533824	92.840800	0.438497	0.737349	0.996247	3.981019	-0.953307	-1.655925	8.446083	0.147412	30.127472	3.301437	0.000000	4.033947	0.821338	-1.352057	9.308062	0.162456	31.222749	-0.715816	0.000000	-0.115985	-0.083811	2.434530	-0.215395	-0.111469	2.586688	-0.190551	-0.203779	2.586688	-0.132559	-0.203779	2.130214	-0.107703	-0.170908	1.978056	-0.066274	-0.129824	1.825898	-0.828468	-0.948089	13.540127	0.000000	0.000000	26.095801	-2.110975	-5.839078	1.258284	-11.747663	32.001703	25.890479	68.684068	-7.469588	-6.097032	18.218841	-5.244715	153.049199	1.572210	33.809366	-15.717132	-5.332619
1.283333	-1.509217	-6.508759	92.769363	0.439014	0.737391	0.996152	3.935814	-0.856055	-1.053810	8.333500	0.145447	29.962145	2.571466	0.000000	3.978525	0.759712	-1.562432	9.245182	0.161359	31.266203	-0.552913	0.000000	-0.113876	-0.089870	2.441134	-0.211479	-0.119527	2.593704	-0.187086	-0.218510	2.593704	-0.130149	-0.218510	2.135992	-0.105745	-0.183263	1.983421	-0.065069	-0.139209	1.830850	-0.813403	-1.016628	13.576852	0.000000	0.000000	26.198448	-2.021443	-5.768668	1.642707	-11.722625	33.480257	25.440343	67.323249	-7.353217	-6.216366	18.425638	-5.194045	153.685636	1.645406	35.820856	-15.860089	-4.848066
1.300000	-1.485398	-6.470694	92.735721	0.439531	0.737436	0.995875	3.851896	-0.753315	-0.492106	8.207285	0.143244	29.786669	1.858230	0.000000	3.910090	0.681532	-1.861809	9.194656	0.160477	31.382248	-0.221350	0.000000	-0.111902	-0.097790	2.438024	-0.207814	-0.130061	2.590401	-0.183844	-0.237767	2.590401	-0.127893	-0.237767	2.133271	-0.103912	-0.199413	1.980895	-0.063941	-0.151477	1.828518	-0.799306	-1.106220	13.559561	0.000000	0.000000	26.329666	-1.834701	-5.748351	2.017347	-11.650523	34.946132	24.950439	65.822612	-7.224792	-6.339363	18.586339	-5.171348	153.903789	1.841080	37.470296	-15.719108	-4.389956
1.316667	-1.471111	-6.431632	92.733335	0.439991	0.737458	0.995384	3.739146	-0.666522	-0.006301	8.072394	0.140890	29.620337	1.208931	0.000000	3.817332	0.608633	-2.218947	9.110776	0.159013	31.548273	0.247428	0.000000	-0.108005	-0.107583	2.423629	-0.200577	-0.143085	2.575105	-0.177442	-0.261576	2.575105	-0.123439	-0.261576	2.120675	-0.100294	-0.219382	1.969198	-0.061714	-0.166645	1.817722	-0.771471	-1.216995	13.479496	0.000000	0.000000	26.475169	-1.584989	-5.739738	2.371686	-11.558595	36.452773	24.441743	64.235956	-7.089441	-6.567417	18.673052	-5.187966	153.716790	2.098223	38.659388	-15.162893	-4.116925
1.333333	-1.460845	-6.368325	92.763782	0.440442	0.737500	0.994708	3.574444	-0.587920	0.359113	7.931100	0.138424	29.468828	0.684536	0.000000	3.703116	0.526091	-2.647981	9.055366	0.158046	31.787084	0.862674	0.000000	-0.106225	-0.119434	2.399628	-0.197271	-0.158847	2.549605	-0.174517	-0.290392	2.549605	-0.121405	-0.290392	2.099675	-0.098641	-0.243550	1.949698	-0.060697	-0.185003	1.799721	-0.758755	-1.351062	13.346013	0.000000	0.000000	26.625104	-1.220846	-5.788214	2.704978	-11.418620	37.891491	23.913508	62.570873	-6.935739	-6.782180	18.698447	-5.232318	153.232522	2.399254	39.407868	-14.335022	-3.913194
1.350000	-1.448947	-6.288256	92.819482	0.440821	0.737539	0.993818	3.366048	-0.518618	0.602362	7.785879	0.135889	29.344695	0.296941	0.000000	3.540717	0.447766	-3.002597	8.958370	0.156353	32.027709	1.437438	0.000000	-0.104194	-0.130376	2.371063	-0.193499	-0.173400	2.519255	-0.171181	-0.316995	2.519255	-0.119084	-0.316995	2.074680	-0.096755	-0.265862	1.926489	-0.059537	-0.201952	1.778297	-0.744250	-1.474836	13.187142	0.000000	0.000000	26.765022	-0.868431	-5.883911	2.980780	-11.277727	39.315532	23.411773	60.800004	-6.823052	-7.065930	18.685106	-5.292961	153.254861	2.742031	39.107062	-13.293763	-3.765829
1.366667	-1.437928	-6.193778	92.880868	0.441142	0.737570	0.992755	3.123728	-0.464301	0.685267	7.641195	0.133364	29.271468	0.127680	0.000000	3.346587	0.363228	-3.452329	8.857154	0.154586	32.307589	2.177465	0.000000	-0.101818	-0.140305	2.338981	-0.189086	-0.186606	2.485168	-0.167277	-0.341138	2.485168	-0.116368	-0.341138	2.046609	-0.094548	-0.286110	1.900422	-0.058179	-0.217333	1.754236	-0.727275	-1.587161	13.008712	0.000000	0.000000	26.890209	-0.543092	-6.027919	3.191778	-11.141993	40.672768	22.966307	59.033255	-6.760484	-7.358756	18.611313	-5.376043	152.939791	3.124708	38.492634	-12.107941	-3.756753
1.383333	-1.419825	-6.079019	92.925462	0.441430	0.737594	0.991550	2.845486	-0.405411	0.733922	7.489987	0.130725	29.229119	0.041785	0.000000	3.108625	0.279107	-3.870827	8.741202	0.152563	32.573636	2.871454	0.000000	-0.099926	-0.147610	2.309585	-0.185572	-0.196321	2.453934	-0.164168	-0.358899	2.453934	-0.114205	-0.358899	2.020887	-0.092791	-0.301006	1.876538	-0.057097	-0.228648	1.732189	-0.713758	-1.669794	12.845220	0.000000	0.000000	26.999016	-0.288141	-6.225279	3.322073	-11.005770	41.871996	22.599401	57.405602	-6.743958	-7.628784	18.500489	-5.476526	152.310163	3.564211	37.913450	-10.945131	-3.783048
1.400000	-1.397980	-5.952997	92.919912	0.441700	0.737590	0.990233	2.549375	-0.348831	0.810412	7.340341	0.128113	29.210060	-0.003267	0.000000	2.825523	0.207997	-4.137012	8.590770	0.149937	32.766583	3.310867	0.000000	-0.097556	-0.151814	2.286636	-0.181171	-0.201913	2.429550	-0.160274	-0.369121	2.429550	-0.111496	-0.369121	2.000806	-0.090590	-0.309580	1.857891	-0.055743	-0.235160	1.714977	-0.696830	-1.717353	12.717581	0.000000	0.000000	27.099399	-0.134771	-6.444078	3.364125	-10.886350	42.855656	22.332190	56.059282	-6.823509	-7.851284	18.339900	-5.593945	151.471513	4.034261	37.053574	-9.754140	-3.857500
1.416667	-1.376119	-5.816074	92.879631	0.441924	0.737571	0.988847	2.228504	-0.291053	0.965407	7.171750	0.125171	29.185201	-0.093867	0.000000	2.499476	0.170343	-4.060189	8.399747	0.146603	32.818771	3.241529	0.000000	-0.095617	-0.153466	2.272707	-0.177570	-0.204110	2.414751	-0.157089	-0.373138	2.414751	-0.109280	-0.373138	1.988618	-0.088790	-0.312949	1.846574	-0.054635	-0.237720	1.704530	-0.682981	-1.736043	12.640112	0.000000	0.000000	27.196526	-0.117722	-6.734166	3.314319	-10.782979	43.616111	22.171073	54.927812	-6.988392	-8.011233	18.159315	-5.714932	150.456581	4.555520	36.091921	-8.680674	-3.897757
1.433333	-1.354577	-5.681196	92.786334	0.442138	0.737531	0.987488	1.928434	-0.248222	0.997424	7.037270	0.122824	29.226677	0.071651	0.000000	2.181172	0.129810	-4.160780	8.240180	0.143818	32.894026	3.349739	0.000000	-0.094232	-0.152630	2.270195	-0.174999	-0.202998	2.412082	-0.154815	-0.371106	2.412082	-0.107698	-0.371106	1.986420	-0.087504	-0.311244	1.844533	-0.053844	-0.236425	1.702646	-0.673093	-1.726586	12.626141	0.000000	0.000000	27.301020	-0.227084	-7.047034	3.187629	-10.700808	44.127574	22.105931	54.091444	-7.243107	-8.141372	17.947864	-5.857202	148.945298	5.127245	35.067043	-7.725727	-3.956181
1.450000	-1.335785	-5.551610	92.669923	0.442304	0.737486	0.986192	1.645111	-0.216388	0.993843	6.919025	0.120760	29.297271	0.334860	0.000000	1.863308	0.110375	-4.130325	8.067412	0.140803	32.900221	3.249668	0.000000	-0.093438	-0.149896	2.274401	-0.173524	-0.199362	2.416551	-0.153509	-0.364457	2.416551	-0.106790	-0.364457	1.990101	-0.086767	-0.305668	1.847951	-0.053391	-0.232189	1.705801	-0.667419	-1.695654	12.649535	0.000000	0.000000	27.405128	-0.400279	-7.338247	2.994584	-10.631572	44.340584	22.115038	53.656425	-7.570809	-8.212844	17.710575	-6.016682	146.985608	5.715166	34.038958	-6.836393	-4.013129
1.466667	-1.316001	-5.420942	92.532517	0.442421	0.737460	0.984997	1.364833	-0.179652	1.143958	6.789062	0.118491	29.331583	0.432866	0.000000	1.540501	0.111659	-3.885826	7.870891	0.137373	32.820238	2.825011	0.000000	-0.094472	-0.144889	2.285353	-0.175443	-0.192702	2.428188	-0.155207	-0.352283	2.428188	-0.107972	-0.352283	1.999684	-0.087726	-0.295457	1.856850	-0.053981	-0.224433	1.714015	-0.674801	-1.639011	12.710449	0.000000	0.000000	27.489003	-0.614880	-7.592551	2.767020	-10.585772	44.389711	22.175573	53.478941	-7.947510	-8.241645	17.459284	-6.174916	144.672422	6.273802	33.010780	-5.994715	-4.106448
1.483333	-1.292089	-5.294772	92.395038	0.442459	0.737458	0.983957	1.121456	-0.152374	1.121806	6.702241	0.116976	29.445719	0.784708	0.000000	1.233454	0.125522	-3.518524	7.666103	0.133799	32.692633	2.220064	0.000000	-0.096852	-0.137356	2.300142	-0.179863	-0.182683	2.443901	-0.159117	-0.333967	2.443901	-0.110692	-0.333967	2.012625	-0.089936	-0.280096	1.868866	-0.055341	-0.212764	1.725107	-0.691801	-1.553795	12.792702	0.000000	0.000000	27.537405	-0.843818	-7.780153	2.505414	-10.554833	44.192394	22.267155	53.671594	-8.344483	-8.238716	17.212238	-6.319643	142.265681	6.782976	32.122856	-5.376494	-4.254084
1.500000	-1.262376	-5.169637	92.292405	0.442381	0.737492	0.983097	0.890745	-0.121569	1.155662	6.612388	0.115408	29.538471	1.017142	0.000000	0.953877	0.144344	-3.060456	7.474516	0.130455	32.551236	1.526486	0.000000	-0.100817	-0.127360	2.310648	-0.187227	-0.169389	2.455063	-0.165632	-0.309664	2.455063	-0.115223	-0.309664	2.021817	-0.093618	-0.259713	1.877401	-0.057607	-0.197281	1.732986	-0.720124	-1.440726	12.851128	0.000000	0.000000	27.534003	-1.042882	-7.870465	2.249931	-10.543908	43.935190	22.355977	54.078621	-8.758040	-8.235430	16.975262	-6.439866	139.829166	7.203784	31.533254	-4.945933	-4.461238
1.516667	-1.224323	-5.040730	92.239083	0.442180	0.737565	0.982399	0.656219	-0.081651	1.336563	6.497482	0.113402	29.565476	0.978648	0.000000	0.695708	0.166932	-2.445232	7.293923	0.127303	32.377093	0.667440	0.000000	-0.106589	-0.114844	2.312918	-0.197946	-0.152742	2.457476	-0.175115	-0.279231	2.457476	-0.121821	-0.279231	2.023804	-0.098979	-0.234189	1.879246	-0.060905	-0.177893	1.734689	-0.761354	-1.299136	12.863758	0.000000	0.000000	27.484457	-1.192678	-7.843827	2.016860	-10.551119	43.711743	22.427088	54.597135	-9.176956	-8.250207	16.756438	-6.524660	137.564193	7.515236	31.226478	-4.680497	-4.699858
1.533333	-1.181360	-4.915171	92.259093	0.441842	0.737669	0.981849	0.422141	-0.027715	1.625033	6.354413	0.110905	29.550057	0.695071	0.000000	0.473743	0.185927	-1.823320	7.139249	0.124603	32.222693	-0.117758	0.000000	-0.112635	-0.100750	2.301195	-0.209175	-0.133998	2.445019	-0.185048	-0.244964	2.445019	-0.128731	-0.244964	2.013545	-0.104593	-0.205450	1.869721	-0.064360	-0.156062	1.725896	-0.804542	-1.139708	12.798554	0.000000	0.000000	27.397587	-1.277254	-7.704081	1.846194	-10.588233	43.786653	22.451801	54.942114	-9.613984	-8.344157	16.560824	-6.573831	135.945170	7.703966	30.841138	-4.455069	-4.909104
1.550000	-1.136906	-4.802990	92.354781	0.441372	0.737776	0.981437	0.196166	0.027726	2.012828	6.181074	0.107880	29.469065	0.163961	0.000000	0.299776	0.206076	-1.134530	7.019096	0.122506	32.071445	-0.907170	0.000000	-0.117401	-0.085944	2.270463	-0.218026	-0.114305	2.412367	-0.192878	-0.208963	2.412367	-0.134178	-0.208963	1.986655	-0.109019	-0.175256	1.844751	-0.067083	-0.133127	1.702847	-0.838584	-0.972211	12.627634	0.000000	0.000000	27.304185	-1.264918	-7.421695	1.719486	-10.632695	43.943431	22.453714	55.369183	-10.029534	-8.448220	16.367593	-6.593783	134.520518	7.777878	30.690867	-4.239479	-5.129101
1.566667	-1.093219	-4.711094	92.529611	0.440767	0.737876	0.981130	-0.013760	0.081761	2.456627	5.985817	0.104472	29.331286	-0.561835	0.000000	0.170601	0.231432	-0.389895	6.917434	0.120732	31.918079	-1.669900	0.000000	-0.119275	-0.071051	2.219997	-0.221506	-0.094498	2.358747	-0.195958	-0.172754	2.358747	-0.136320	-0.172754	1.942498	-0.110759	-0.144888	1.803748	-0.068154	-0.110058	1.664998	-0.851972	-0.803746	12.346959	0.000000	0.000000	27.220444	-1.186534	-7.046288	1.628931	-10.684589	44.152539	22.440309	55.849132	-10.400170	-8.573633	16.178370	-6.595839	133.329940	7.793466	30.626903	-4.017384	-5.321185
1.583333	-1.057380	-4.638087	92.768904	0.440099	0.737960	0.980918	-0.215098	0.137006	3.027523	5.757831	0.100493	29.129761	-1.551943	0.000000	0.092658	0.263159	0.367561	6.860260	0.119734	31.782413	-2.377450	0.000000	-0.118399	-0.057871	2.151578	-0.219878	-0.076968	2.286051	-0.194517	-0.140707	2.286051	-0.135318	-0.140707	1.882631	-0.109945	-0.118010	1.748157	-0.067653	-0.089642	1.613683	-0.845711	-0.654645	11.966430	0.000000	0.000000	27.155207	-1.019756	-6.599486	1.607149	-10.745100	44.586410	22.397080	56.130224	-10.722897	-8.726543	15.989468	-6.604093	132.198402	7.792279	30.529919	-3.766288	-5.450535
1.600000	-1.031769	-4.592825	93.088009	0.439382	0.738010	0.980795	-0.390085	0.182912	3.545085	5.523288	0.096400	28.916362	-2.584012	0.000000	0.075964	0.297233	1.091314	6.851087	0.119574	31.677793	-2.940155	0.000000	-0.113011	-0.047566	2.064355	-0.209872	-0.063263	2.193378	-0.185665	-0.115652	2.193378	-0.129160	-0.115652	1.806311	-0.104942	-0.096996	1.677289	-0.064574	-0.073680	1.548267	-0.807224	-0.538075	11.481326	0.000000	0.000000	27.115799	-0.798706	-6.144229	1.628836	-10.797905	45.073881	22.331769	56.288586	-10.910788	-8.863180	15.802382	-6.644444	131.031439	7.835353	30.318395	-3.478941	-5.506440
1.616667	-1.021439	-4.579462	93.482555	0.438644	0.738020	0.980780	-0.527649	0.209903	3.939539	5.297314	0.092456	28.724074	-3.551956	0.000000	0.130023	0.335502	1.744282	6.900894	0.120443	31.616252	-3.316667	0.000000	-0.102814	-0.041174	1.958839	-0.190936	-0.054762	2.081266	-0.168914	-0.100112	2.081266	-0.117506	-0.100112	1.713984	-0.095473	-0.083963	1.591557	-0.058748	-0.063779	1.469129	-0.734392	-0.465773	10.894474	0.000000	0.000000	27.098888	-0.522304	-5.715370	1.707452	-10.835876	45.633319	22.226151	56.241063	-10.921252	-8.954327	15.607747	-6.733134	129.695483	7.938303	30.021778	-3.150309	-5.479237
1.633333	-1.025370	-4.586261	93.918129	0.437964	0.738025	0.980919	-0.616546	0.209844	4.013440	5.120948	0.089377	28.622591	-4.145952	0.000000	0.246645	0.369860	2.262930	7.019764	0.122518	31.604742	-3.479701	0.000000	-0.090286	-0.039528	1.840646	-0.167670	-0.052572	1.955687	-0.148331	-0.096108	1.955687	-0.103188	-0.096108	1.610565	-0.083839	-0.080606	1.495525	-0.051589	-0.061229	1.380485	-0.644902	-0.447149	10.237122	0.000000	0.000000	27.101310	-0.193370	-5.395928	1.955275	-10.908059	46.918599	21.998574	55.180044	-10.798384	-9.116317	15.393234	-6.897504	127.549411	8.170413	30.460566	-2.950494	-5.283238
1.650000	-1.045351	-4.625209	94.392582	0.437315	0.737978	0.981135	-0.671051	0.195843	4.119639	4.947913	0.086357	28.508004	-4.854532	0.000000	0.420173	0.408548	2.686935	7.179110	0.125299	31.631929	-3.469480	0.000000	-0.073161	-0.041595	1.716051	-0.135867	-0.055322	1.823305	-0.120196	-0.101135	1.823305	-0.083615	-0.101135	1.501545	-0.067937	-0.084821	1.394292	-0.041804	-0.064431	1.287039	-0.522579	-0.470533	9.544163	0.000000	0.000000	27.117843	0.098470	-5.203475	2.152855	-10.937728	47.706946	21.814381	54.397439	-10.435658	-9.126882	15.180332	-7.087416	125.745444	8.392411	30.380654	-2.635971	-5.111857
1.666667	-1.063597	-4.677623	94.899416	0.436731	0.737924	0.981470	-0.705279	0.187989	4.192976	4.783782	0.083493	28.387048	-5.584890	0.000000	0.644994	0.423939	2.954719	7.403668	0.129218	31.719934	-3.217030	0.000000	-0.055213	-0.046125	1.586564	-0.102537	-0.061346	1.685724	-0.090710	-0.112148	1.685724	-0.063103	-0.112148	1.388243	-0.051271	-0.094058	1.289083	-0.031549	-0.071447	1.189923	-0.394383	-0.521773	8.823991	0.000000	0.000000	27.148764	0.345232	-5.214599	2.389989	-10.992010	48.558227	21.610599	53.144001	-9.968283	-9.084677	14.975307	-7.298215	123.780823	8.642384	30.514392	-2.419152	-4.898392
1.683333	-1.080580	-4.761239	95.396632	0.436205	0.737820	0.981854	-0.689236	0.174089	4.145445	4.660322	0.081338	28.313978	-6.154351	0.000000	0.902925	0.426160	3.070884	7.630117	0.133171	31.839623	-2.761437	0.000000	-0.033514	-0.051666	1.461837	-0.062239	-0.068715	1.553202	-0.055061	-0.125620	1.553202	-0.038303	-0.125620	1.279107	-0.031121	-0.105357	1.187742	-0.019150	-0.080030	1.096378	-0.239389	-0.584452	8.130298	0.000000	0.000000	27.192255	0.469052	-5.418352	2.536037	-11.031516	48.867468	21.528994	52.266446	-9.405523	-8.937618	14.759862	-7.501555	122.301278	8.818519	30.269473	-2.210682	-4.801834
1.700000	-1.100398	-4.887232	95.839699	0.435793	0.737644	0.982303	-0.594504	0.142030	3.860910	4.604963	0.080372	28.335945	-6.348565	0.000000	1.211198	0.417228	2.979235	7.877140	0.137482	32.006926	-2.089069	0.000000	-0.007772	-0.058766	1.350093	-0.014434	-0.078159	1.434474	-0.012769	-0.142884	1.434474	-0.008883	-0.142884	1.181332	-0.007217	-0.119836	1.096951	-0.004441	-0.091029	1.012570	-0.055517	-0.664775	7.508814	0.000000	0.000000	27.257122	0.491894	-5.788075	2.550579	-11.026229	48.403623	21.629849	52.036120	-8.750402	-8.601967	14.519187	-7.691791	121.309702	8.884246	29.776532	-2.170320	-4.799029
1.716667	-1.098899	-5.035113	96.205914	0.435505	0.737417	0.982818	-0.453209	0.135813	3.614368	4.582368	0.079977	28.377292	-6.491126	0.000000	1.540972	0.376552	2.722493	8.130353	0.141901	32.211781	-1.287739	0.000000	0.018578	-0.063591	1.254689	0.034501	-0.084575	1.333107	0.030522	-0.154614	1.333107	0.021233	-0.154614	1.097853	0.017252	-0.129674	1.019434	0.010615	-0.098502	0.941016	0.132701	-0.719349	6.978202	0.000000	0.000000	27.341383	0.355853	-6.320898	2.451562	-11.030396	47.352981	21.931708	52.340408	-8.084239	-8.114425	14.257577	-7.864335	120.646263	8.823297	29.381710	-2.327258	-4.946966
1.733333	-1.097815	-5.214365	96.437235	0.435363	0.737115	0.983405	-0.228980	0.111905	3.204658	4.644915	0.081069	28.506310	-6.240584	0.000000	1.873436	0.344155	2.485228	8.335002	0.145473	32.374560	-0.676435	0.000000	0.046363	-0.067499	1.185288	0.086101	-0.089773	1.259368	0.076170	-0.164116	1.259368	0.052989	-0.164116	1.037127	0.043053	-0.137643	0.963046	0.026492	-0.104555	0.888966	0.331168	-0.763558	6.592214	0.000000	0.000000	27.445219	0.116856	-6.902732	2.201425	-11.047431	45.527383	22.480402	53.501960	-7.414913	-7.378986	13.970367	-8.020616	120.787591	8.607667	28.471322	-2.795102	-5.295738
1.750000	-1.081581	-5.407043	96.548547	0.435371	0.736769	0.984142	0.066221	0.086320	2.537441	4.794910	0.083687	28.733887	-5.475058	0.000000	2.222386	0.289348	2.091312	8.547879	0.149189	32.565723	-0.006574	0.000000	0.071750	-0.068803	1.148555	0.133246	-0.091508	1.220340	0.117877	-0.167288	1.220340	0.082003	-0.167288	1.004986	0.066627	-0.140304	0.933201	0.040998	-0.106576	0.861416	0.512500	-0.778317	6.387920	0.000000	0.000000	27.563059	-0.251587	-7.567106	1.797106	-11.071809	42.892219	23.247542	55.326939	-6.713885	-6.331983	13.724030	-8.153524	121.626211	8.277404	27.527528	-3.817781	-5.776847
1.766667	-1.060607	-5.606701	96.504086	0.435573	0.736384	0.985055	0.430281	0.055301	1.756299	5.027879	0.087753	29.027810	-4.343009	0.000000	2.574639	0.218505	1.456639	8.758097	0.152858	32.793793	0.791163	0.000000	0.093712	-0.068159	1.145200	0.174033	-0.090651	1.216775	0.153960	-0.165722	1.216775	0.107104	-0.165722	1.002050	0.087021	-0.138990	0.930475	0.053547	-0.105578	0.858900	0.669378	-0.771028	6.369261	0.000000	0.000000	27.687303	-0.649563	-8.169820	1.302475	-11.142580	39.695301	24.144098	57.887482	-6.038338	-5.037307	13.501038	-8.299909	122.840064	7.827906	26.306248	-5.158250	-6.579852
1.783333	-1.014582	-5.792936	96.299352	0.435884	0.735960	0.986138	0.840748	0.037372	0.913063	5.337592	0.093159	29.364187	-2.916908	0.000000	2.895777	0.134860	0.903355	8.931327	0.155881	32.975771	1.271081	0.000000	0.109810	-0.061551	1.190280	0.203928	-0.081863	1.264673	0.180407	-0.149655	1.264673	0.125502	-0.149655	1.041495	0.101970	-0.125515	0.967103	0.062745	-0.095342	0.892710	0.784362	-0.696276	6.619981	0.000000	0.000000	27.803737	-1.160318	-8.764670	0.547552	-11.339249	35.187735	25.375839	61.067590	-5.139860	-3.077633	13.360574	-8.409001	124.557911	7.275699	24.852709	-6.768428	-7.642166
1.800000	-0.959468	-5.938155	95.982033	0.436278	0.735566	0.987422	1.258174	0.016076	-0.029547	5.705909	0.099587	29.738074	-1.211001	0.000000	3.175061	0.044771	0.342257	9.095089	0.158739	33.135210	1.604641	0.000000	0.117279	-0.050894	1.257557	0.217799	-0.067689	1.336155	0.192678	-0.123744	1.336155	0.134038	-0.123744	1.100363	0.108905	-0.103784	1.021765	0.067013	-0.078835	0.943168	0.837713	-0.575726	6.994157	0.000000	0.000000	27.890860	-1.645681	-9.213347	-0.183453	-11.956341	26.424739	27.366528	68.258914	-4.482330	-0.474625	13.287458	-8.517793	126.695494	6.619882	22.997900	-8.457890	-8.955379
1.816667	-0.904161	-6.050236	95.591944	0.436784	0.735241	0.988798	1.670085	-0.005683	-1.039292	6.107159	0.106590	30.133872	0.677299	0.000000	3.418975	-0.055665	-0.344769	9.252922	0.161494	33.298972	2.008447	0.000000	0.118265	-0.039274	1.352244	0.219630	-0.052235	1.436759	0.194298	-0.095491	1.436759	0.135165	-0.095491	1.183213	0.109821	-0.080088	1.098698	0.067577	-0.060836	1.014183	0.844757	-0.444277	7.520773	0.000000	0.000000	27.940939	-2.114077	-9.596292	-0.631487	-12.472733	21.348107	28.505112	73.552673	-3.732901	1.705160	13.327435	-8.629897	129.082492	5.884950	20.945852	-9.992133	-10.391204
1.833333	-0.846344	-6.122125	95.173035	0.437334	0.734996	0.990177	2.028050	-0.010761	-1.813379	6.471407	0.112947	30.413133	2.254524	0.000000	3.613276	-0.161341	-1.029142	9.391958	0.163921	33.441984	2.366998	0.000000	0.113155	-0.026232	1.466457	0.210140	-0.034889	1.558110	0.185902	-0.063781	1.558110	0.129325	-0.063781	1.283150	0.105075	-0.053493	1.191496	0.064657	-0.040634	1.099843	0.808253	-0.296744	8.155993	0.000000	0.000000	27.956067	-2.551525	-9.895762	-0.788708	-12.908650	19.985293	28.842629	77.070431	-3.008426	3.416642	13.495313	-8.731040	131.558240	5.090552	18.731031	-11.166342	-11.795029
1.850000	-0.788549	-6.160443	94.735075	0.437884	0.734838	0.991485	2.338532	-0.008820	-2.469702	6.807862	0.118820	30.610669	3.667477	0.000000	3.749289	-0.261220	-1.646207	9.487362	0.165586	33.537461	2.598872	0.000000	0.103812	-0.011821	1.598553	0.192790	-0.015721	1.698462	0.170553	-0.028741	1.698462	0.118647	-0.028741	1.398734	0.096400	-0.024105	1.298824	0.059318	-0.018310	1.198914	0.741520	-0.133717	8.890670	0.000000	0.000000	27.948945	-2.964439	-10.114227	-0.678397	-13.271213	22.018936	28.446582	79.052556	-2.377202	4.668742	13.808276	-8.793645	134.145828	4.264492	16.311816	-11.867030	-13.032683
1.866667	-0.731901	-6.178530	94.297542	0.438437	0.734765	0.992691	2.621961	-0.004369	-3.185429	7.134825	0.124526	30.786735	5.136077	0.000000	3.842169	-0.360686	-2.295732	9.539751	0.166500	33.613923	2.873605	0.000000	0.092089	0.003106	1.746349	0.171018	0.004130	1.855496	0.151292	0.007551	1.855496	0.105248	0.007551	1.528056	0.085514	0.006333	1.418909	0.052619	0.004810	1.309762	0.657780	0.035130	9.712671	0.000000	0.000000	27.933660	-3.364651	-10.276999	-0.327903	-13.562333	27.009323	27.394226	79.676253	-1.868044	5.481512	14.282127	-8.800412	136.837529	3.454479	13.830230	-12.156241	-14.048031
1.883333	-0.693811	-6.188061	93.874409	0.439004	0.734779	0.993736	2.865149	-0.006452	-3.723868	7.406052	0.129260	30.840475	6.307682	0.000000	3.896614	-0.434271	-2.851437	9.541703	0.166534	33.623176	3.031759	0.000000	0.079834	0.015544	1.904226	0.148259	0.020674	2.023241	0.131159	0.037794	2.023241	0.091242	0.037794	1.666198	0.074134	0.031698	1.547184	0.045617	0.024078	1.428170	0.570245	0.175839	10.590736	0.000000	0.000000	27.918533	-3.722770	-10.385551	0.243529	-13.778206	34.390583	25.768732	79.116538	-1.496988	5.869820	14.901277	-8.744092	139.650865	2.674717	11.412399	-12.155702	-14.863430
1.900000	-0.672314	-6.186794	93.468552	0.439617	0.734900	0.994594	3.073944	-0.010388	-4.193236	7.639222	0.133330	30.838707	7.346823	0.000000	3.906508	-0.488986	-3.384676	9.488285	0.165602	33.581227	3.179439	0.000000	0.066857	0.024855	2.071929	0.124160	0.033057	2.201425	0.109839	0.060433	2.201425	0.076411	0.060433	1.812938	0.062083	0.050685	1.683442	0.038202	0.038501	1.553947	0.477552	0.281168	11.523448	0.000000	0.000000	27.903711	-4.055716	-10.494319	1.023857	-13.923000	44.151068	23.644258	76.930827	-1.228455	5.870733	15.672400	-8.619344	142.842164	1.984215	9.204418	-12.156869	-15.390069
1.916667	-0.680514	-6.179884	93.109371	0.440268	0.735138	0.995253	3.244424	-0.033144	-4.665447	7.823764	0.136550	30.799724	8.325774	0.000000	3.887244	-0.512108	-3.884083	9.402947	0.164112	33.485344	3.329092	0.000000	0.053755	0.028391	2.241282	0.099829	0.037760	2.381362	0.088315	0.069029	2.381362	0.061437	0.069029	1.961122	0.049917	0.057894	1.821042	0.030716	0.043977	1.680962	0.383969	0.321161	12.465339	0.000000	0.000000	27.889225	-4.318831	-10.619805	1.993524	-13.987463	55.890945	21.119787	73.044244	-1.089054	5.505391	16.577335	-8.426567	146.303325	1.414257	7.467871	-12.353759	-15.623092
1.933333	-0.710431	-6.184631	92.842057	0.440938	0.735480	0.995700	3.390758	-0.066523	-5.160755	7.963141	0.138983	30.731593	9.211908	0.000000	3.863349	-0.512666	-4.300783	9.295489	0.162237	33.338993	3.490481	0.000000	0.044175	0.025878	2.396211	0.082038	0.034418	2.545974	0.072575	0.062920	2.545974	0.050488	0.062920	2.096684	0.041021	0.052771	1.946921	0.025242	0.040085	1.797158	0.315538	0.292739	13.327004	0.000000	0.000000	27.872364	-4.484337	-10.748268	3.148759	-13.949876	69.211807	18.257466	67.440149	-0.975370	4.801106	17.564900	-8.175910	149.924678	0.981049	6.203695	-12.853226	-15.628784
1.950000	-0.768810	-6.185508	92.669365	0.441619	0.735961	0.995962	3.495931	-0.113101	-5.581025	8.058293	0.140644	30.629364	9.868145	0.000000	3.826937	-0.482533	-4.633955	9.183815	0.160288	33.138406	3.644213	0.000000	0.035102	0.016321	2.531424	0.065189	0.021707	2.689639	0.057670	0.039683	2.689639	0.040119	0.039683	2.214996	0.032596	0.033282	2.056782	0.020058	0.025281	1.898568	0.250733	0.184627	14.079023	0.000000	0.000000	27.847841	-4.542789	-10.922657	4.478203	-13.799068	83.533946	15.151247	60.252181	-0.888612	3.806386	18.604381	-7.852240	153.416874	0.695892	5.422656	-13.579695	-15.459439
1.966667	-0.842720	-6.184938	92.597983	0.442273	0.736578	0.996037	3.555270	-0.157249	-5.838744	8.097062	0.141320	30.468908	10.171435	0.000000	3.780553	-0.431786	-4.838750	9.068219	0.158270	32.889048	3.754524	0.000000	0.027987	0.001589	2.640274	0.051975	0.002113	2.805291	0.045980	0.003863	2.805291	0.031987	0.003863	2.310240	0.025989	0.003240	2.145223	0.015992	0.002461	1.980206	0.199911	0.017972	14.684413	0.000000	0.000000	27.810614	-4.486990	-11.116177	5.945328	-13.533581	98.381599	11.878818	51.644989	-0.851157	2.517621	19.654402	-7.440278	156.367802	0.570408	5.192034	-14.354207	-15.224380
1.983333	-0.973367	-6.189866	92.666914	0.443019	0.737396	0.995947	3.550644	-0.215220	-5.623428	8.034358	0.140226	30.139895	9.632889	0.000000	3.750619	-0.334680	-5.007526	8.986609	0.156846	32.618636	4.000431	0.000000	0.023788	-0.024639	2.700401	0.044177	-0.032769	2.869176	0.039082	-0.059906	2.869176	0.027188	-0.059906	2.362851	0.022090	-0.050243	2.194076	0.013593	-0.038165	2.025301	0.169917	-0.278717	15.018821	0.000000	0.000000	27.737887	-4.254145	-11.234804	7.951216	-12.595354	116.970623	7.134925	39.611040	0.058050	0.119038	20.734994	-6.954020	159.599877	0.500197	4.500785	-14.880582	-15.036202
2.000000	-1.065445	-6.190640	92.839772	0.443520	0.738257	0.995703	3.494681	-0.222711	-5.148613	7.903790	0.137947	29.735637	8.615087	0.000000	3.710140	-0.252390	-4.912238	8.897671	0.155294	32.314988	4.029473	0.000000	0.022703	-0.045923	2.733711	0.042161	-0.061077	2.904568	0.037298	-0.111656	2.904568	0.025947	-0.111656	2.391997	0.021082	-0.093646	2.221140	0.012972	-0.071134	2.050283	0.162162	-0.519487	15.204082	0.000000	0.000000	27.665792	-3.989052	-11.299098	9.697967	-11.781991	131.603722	3.382858	29.294918	0.579613	-1.948317	21.794053	-6.275381	162.056504	0.533378	4.288345	-15.195219	-14.909769
2.016667	-1.118772	-6.190587	93.073019	0.443786	0.739118	0.995290	3.406998	-0.191517	-4.520210	7.735908	0.135017	29.316397	7.329422	0.000000	3.650401	-0.181555	-4.528958	8.789773	0.153410	31.972972	3.758371	0.000000	0.025833	-0.060967	2.750101	0.047974	-0.081086	2.921982	0.042441	-0.148234	2.921982	0.029524	-0.148234	2.406338	0.023988	-0.124323	2.234457	0.014761	-0.094437	2.062575	0.184521	-0.689668	15.295234	0.000000	0.000000	27.603465	-3.706121	-11.253249	11.077859	-11.013165	141.590251	0.761419	21.448145	0.794928	-3.543998	22.832768	-5.368455	164.572822	0.570416	3.871882	-15.306666	-14.892568
2.033333	-1.136516	-6.185886	93.325882	0.443856	0.739966	0.994742	3.281928	-0.115346	-3.572730	7.513045	0.131127	28.843733	5.609765	0.000000	3.563442	-0.122999	-3.916532	8.657755	0.151106	31.606049	3.216285	0.000000	0.032682	-0.070023	2.757780	0.060694	-0.093131	2.930141	0.053693	-0.170255	2.930141	0.037352	-0.170255	2.413057	0.030349	-0.142792	2.240696	0.018675	-0.108466	2.068335	0.233445	-0.792118	15.337944	0.000000	0.000000	27.553417	-3.430270	-11.095578	12.102683	-10.333472	147.153810	-0.700979	15.863611	0.812761	-4.707190	23.838335	-4.250420	166.891016	0.623262	3.705496	-15.497609	-15.034879
2.050000	-1.108466	-6.163727	93.568884	0.443719	0.740830	0.994177	3.138821	-0.001567	-2.527824	7.286253	0.127169	28.385203	3.801760	0.000000	3.448316	-0.088316	-3.119423	8.516163	0.148635	31.220496	2.415693	0.000000	0.040710	-0.070933	2.758800	0.075602	-0.094341	2.931225	0.066882	-0.172467	2.931225	0.046527	-0.172467	2.413950	0.037803	-0.144647	2.241525	0.023261	-0.109876	2.069100	0.290785	-0.802412	15.343619	0.000000	0.000000	27.516201	-3.193153	-10.808543	12.841533	-9.854792	148.647459	-0.958850	12.246547	0.661507	-5.524334	24.793843	-2.933761	168.923695	0.647331	3.855431	-15.784608	-15.427844
2.066667	-1.058364	-6.126488	93.746229	0.443413	0.741713	0.993668	3.015100	0.095410	-1.739806	7.122628	0.124313	28.046556	2.454913	0.000000	3.303962	-0.057760	-2.259661	8.357051	0.145858	30.820430	1.452281	0.000000	0.049279	-0.065966	2.771764	0.091516	-0.087735	2.944999	0.080960	-0.160390	2.944999	0.056321	-0.160390	2.425293	0.045760	-0.134518	2.252058	0.028158	-0.102181	2.078823	0.351995	-0.746221	15.415718	0.000000	0.000000	27.492171	-3.019323	-10.414215	13.222449	-9.599050	145.854002	0.085131	10.740210	0.508159	-5.869853	25.717824	-1.419799	171.141217	0.667117	3.897547	-16.352797	-16.059223
2.083333	-0.997592	-6.067142	93.860085	0.442980	0.742610	0.993275	2.900794	0.178165	-1.049468	7.007001	0.122295	27.790225	1.349766	0.000000	3.142663	-0.022907	-1.327630	8.209780	0.143288	30.408876	0.302846	0.000000	0.055593	-0.057770	2.798232	0.103241	-0.076834	2.973122	0.091333	-0.140463	2.973122	0.063537	-0.140463	2.448453	0.051623	-0.117805	2.273564	0.031766	-0.089486	2.098674	0.397092	-0.653509	15.562928	0.000000	0.000000	27.480423	-2.930888	-9.996685	13.235633	-9.572932	138.772531	2.462634	11.314022	0.380345	-5.538113	26.624753	0.247231	172.999780	0.682246	4.065249	-16.630210	-16.942942
2.100000	-0.906733	-5.982657	93.874026	0.442431	0.743504	0.992989	2.797958	0.261071	-0.510372	6.951215	0.121322	27.634327	0.603801	0.000000	2.951075	-0.008544	-0.420016	8.059858	0.140671	30.009979	-0.940931	0.000000	0.059438	-0.042126	2.841581	0.110382	-0.056028	3.019180	0.097651	-0.102425	3.019180	0.067932	-0.102425	2.486383	0.055194	-0.085904	2.308784	0.033963	-0.065253	2.131186	0.424559	-0.476539	15.804020	0.000000	0.000000	27.480544	-2.974531	-9.461583	12.890481	-9.872657	127.764270	6.187055	13.985796	0.336907	-4.549263	27.474742	2.039750	174.344560	0.690266	3.979301	-16.126040	-18.130090
2.116667	-0.718193	-5.814638	93.765696	0.441504	0.744549	0.993007	2.666754	0.393591	-0.162135	6.971360	0.121673	27.551704	0.287972	0.000000	2.688180	-0.065462	0.468549	7.920701	0.138242	29.620076	-2.341377	0.000000	0.051900	-0.009361	2.936969	0.096383	-0.012451	3.120530	0.085266	-0.022761	3.120530	0.059316	-0.022761	2.569848	0.048194	-0.019090	2.386288	0.029656	-0.014501	2.202727	0.370715	-0.105897	16.334542	0.000000	0.000000	27.480607	-3.285297	-9.129477	12.076378	-10.593296	112.667533	11.341204	18.878489	0.460081	-2.652580	28.641163	5.093364	180.395617	-1.973555	0.276385	-12.085639	-21.689977
2.133333	-0.619041	-5.674199	93.611830	0.440742	0.745457	0.992939	2.568155	0.422963	0.009063	7.031126	0.122716	27.613383	0.304980	0.000000	2.440401	-0.047305	1.248004	7.771441	0.135637	29.246789	-3.638825	0.000000	0.047835	0.011889	3.016228	0.088834	0.015812	3.204742	0.078588	0.028906	3.204742	0.054670	0.028906	2.639199	0.044419	0.024243	2.450685	0.027333	0.018416	2.262171	0.341678	0.134487	16.775355	0.000000	0.000000	27.493892	-3.605156	-8.591088	11.210890	-11.421232	95.370542	17.351436	25.992851	0.180346	-0.248517	29.510928	7.515988	182.611651	-3.211688	-1.630459	-7.781358	-24.010976
2.150000	-0.591552	-5.572508	93.433100	0.440120	0.746226	0.992765	2.507677	0.373598	0.041760	7.122957	0.124319	27.777761	0.554484	0.000000	2.235262	0.021247	1.763347	7.647697	0.133477	28.963287	-4.593339	0.000000	0.047827	0.022749	3.095704	0.088820	0.030257	3.289186	0.078575	0.055313	3.289186	0.054662	0.055313	2.708741	0.044412	0.046390	2.515260	0.027328	0.035239	2.321778	0.341625	0.257345	17.217379	0.000000	0.000000	27.520993	-4.028286	-8.046941	10.339576	-11.924450	83.153676	22.814592	29.380002	-0.050301	1.853405	30.137095	9.347724	181.500519	-3.152129	-1.768460	-3.203095	-25.140431
2.166667	-0.630961	-5.507088	93.194949	0.439646	0.746813	0.992479	2.489786	0.246923	-0.081913	7.250284	0.126541	28.044339	1.113720	0.000000	2.040957	0.147661	2.206364	7.486408	0.130662	28.680229	-5.509713	0.000000	0.052024	0.024591	3.185930	0.096615	0.032706	3.385051	0.085471	0.059791	3.385051	0.059459	0.059791	2.787689	0.048310	0.050146	2.588568	0.029727	0.038092	2.389448	0.371605	0.278180	17.719189	0.000000	0.000000	27.562857	-4.553106	-7.519347	9.235186	-12.376173	71.165478	28.618382	33.011575	-0.602301	4.385011	30.554398	10.627390	177.599873	-1.916387	-0.526831	1.564760	-24.903066
2.183333	-0.740291	-5.481626	92.890867	0.439317	0.747214	0.992087	2.521339	0.038698	-0.394969	7.412241	0.129368	28.402490	2.025302	0.000000	1.857769	0.335566	2.543908	7.280802	0.127074	28.400657	-6.352917	0.000000	0.060767	0.017020	3.289230	0.112851	0.022637	3.494807	0.099835	0.041382	3.494807	0.069451	0.041382	2.878077	0.056429	0.034707	2.672500	0.034722	0.026364	2.466923	0.434055	0.192533	18.293712	0.000000	0.000000	27.619484	-5.152382	-7.033753	7.922343	-12.786861	59.704660	34.582489	36.655085	-1.466290	7.299125	30.774027	11.372418	171.507393	0.365655	1.918707	6.311215	-23.362848
2.200000	-0.909692	-5.495645	92.550459	0.439154	0.747454	0.991625	2.588496	-0.224785	-0.755725	7.573832	0.132188	28.778435	3.052685	0.000000	1.688782	0.572847	2.834532	7.026732	0.122640	28.084147	-7.175128	0.000000	0.073364	0.000532	3.396645	0.136245	0.000708	3.608935	0.120530	0.001294	3.608935	0.083848	0.001294	2.972064	0.068126	0.001085	2.759774	0.041920	0.000824	2.547484	0.524033	0.006019	18.891120	0.000000	0.000000	27.689576	-5.761666	-6.564598	6.465477	-13.146328	49.096021	40.440272	40.326988	-2.306670	10.448753	30.796625	11.572454	163.790429	3.582675	5.567161	10.674628	-20.724724
2.216667	-1.110642	-5.537166	92.113841	0.439142	0.747598	0.991128	2.708584	-0.541095	-1.449956	7.778268	0.135756	29.271300	4.665413	0.000000	1.519780	0.827485	2.890623	6.717533	0.117243	27.780894	-7.786248	0.000000	0.087481	-0.021281	3.517145	0.162461	-0.028304	3.736967	0.143722	-0.051743	3.736967	0.099982	-0.051743	3.077502	0.081235	-0.043397	2.857681	0.049987	-0.032965	2.637859	0.624867	-0.240738	19.561307	0.000000	0.000000	27.780299	-6.530130	-6.274089	4.824464	-13.553036	39.907896	46.566608	42.954293	-3.141237	13.830978	30.727513	11.605406	156.623421	6.891872	9.590228	15.199495	-17.898946
2.233333	-1.345477	-5.602062	91.672512	0.439260	0.747606	0.990552	2.835331	-0.878453	-2.104626	7.954755	0.138837	29.743060	6.219122	0.000000	1.355706	1.104865	2.923484	6.374075	0.111249	27.470717	-8.348874	0.000000	0.104821	-0.047376	3.615376	0.194664	-0.063010	3.841337	0.172211	-0.115189	3.841337	0.119800	-0.115189	3.163454	0.097337	-0.096608	2.937493	0.059895	-0.073385	2.711532	0.748729	-0.535923	20.107635	0.000000	0.000000	27.873299	-7.233025	-5.916003	3.199701	-13.844247	32.004114	52.280636	45.139331	-3.870588	17.101758	30.445203	11.126315	148.348403	10.898513	14.356000	19.095098	-14.538638
2.250000	-1.609994	-5.688663	91.243178	0.439510	0.747475	0.989890	2.958852	-1.225486	-2.655118	8.086239	0.141131	30.162469	7.597302	0.000000	1.195512	1.400346	2.962571	5.996396	0.104657	27.150520	-8.878199	0.000000	0.125548	-0.076988	3.682438	0.233156	-0.102394	3.912591	0.206263	-0.187189	3.912591	0.143489	-0.187189	3.222133	0.116584	-0.156994	2.991981	0.071738	-0.119255	2.761829	0.896779	-0.870905	20.480616	0.000000	0.000000	27.964871	-7.825761	-5.456238	1.648640	-13.989362	25.588766	57.391856	46.833103	-4.437580	20.140395	29.932534	10.086961	138.995478	15.620741	19.830046	22.141796	-10.701957
2.266667	-1.899989	-5.795303	90.842546	0.439895	0.747201	0.989135	3.069263	-1.570824	-3.036818	8.155666	0.142343	30.498277	8.683445	0.000000	1.038149	1.709289	3.037335	5.584529	0.097468	26.817209	-9.389416	0.000000	0.149824	-0.109356	3.709435	0.278238	-0.145443	3.941275	0.246146	-0.265888	3.941275	0.171234	-0.265888	3.245756	0.139127	-0.222999	3.013916	0.085609	-0.169392	2.782076	1.070178	-1.237056	20.630765	0.000000	0.000000	28.051311	-8.263752	-4.860694	0.228732	-13.957784	20.865944	61.709770	47.986613	-4.785073	22.826195	29.172348	8.439125	128.594750	21.076699	25.977934	24.119950	-6.447057
2.283333	-2.211259	-5.920314	90.487324	0.440415	0.746781	0.988282	3.156680	-1.903097	-3.185107	8.145984	0.142174	30.719236	9.361042	0.000000	0.882569	2.027052	3.177233	5.138510	0.089684	26.467688	-9.897718	0.000000	0.177811	-0.143716	3.687468	0.330213	-0.191143	3.917935	0.292126	-0.349432	3.917935	0.203220	-0.349432	3.226535	0.165115	-0.293067	2.996068	0.101601	-0.222617	2.765601	1.270086	-1.625749	20.508593	0.000000	0.000000	28.128914	-8.502409	-4.095268	-1.002574	-13.718913	18.039739	65.043878	48.550864	-4.855925	25.038464	28.147485	6.134588	117.176324	27.284527	32.765232	24.809919	-1.832097
2.300000	-2.539600	-6.062029	90.194219	0.441074	0.746210	0.987323	3.211218	-2.210932	-3.035371	8.040139	0.140327	30.794098	9.513584	0.000000	0.727724	2.348994	3.411718	4.658376	0.081304	26.098864	-10.418297	0.000000	0.209672	-0.179307	3.607641	0.389382	-0.238478	3.833118	0.344470	-0.435966	3.833118	0.239634	-0.435966	3.156686	0.194701	-0.365642	2.931208	0.119807	-0.277746	2.705731	1.497665	-2.028353	20.064615	0.000000	0.000000	28.193974	-8.497145	-3.125860	-1.987825	-13.242152	17.314243	67.203682	48.476858	-4.592997	26.656507	26.840786	3.125129	104.770303	34.262369	40.157509	23.992062	3.084768
2.316667	-2.880809	-6.218780	89.979939	0.441872	0.745486	0.986254	3.222993	-2.482958	-2.522992	7.821077	0.136504	30.691615	9.024562	0.000000	0.572563	2.670476	3.770243	4.144161	0.072329	25.707640	-10.966347	0.000000	0.245569	-0.215364	3.461054	0.456046	-0.286434	3.677370	0.403446	-0.523636	3.677370	0.280661	-0.523636	3.028422	0.228036	-0.439170	2.812106	0.140318	-0.333599	2.595790	1.754076	-2.436241	19.249344	0.000000	0.000000	28.242788	-8.203371	-1.918367	-2.669571	-12.496903	18.893548	67.998682	47.715599	-3.939146	27.559627	25.235091	-0.637471	91.406791	42.028367	48.120333	21.446741	8.245380
2.333333	-3.230681	-6.388898	89.861191	0.442812	0.744605	0.985066	3.182122	-2.707805	-1.583355	7.471745	0.130407	30.380538	7.777466	0.000000	0.416040	2.986856	4.282263	3.595901	0.062760	25.290923	-11.557060	0.000000	0.285665	-0.251126	3.238810	0.530509	-0.333997	3.441236	0.469320	-0.610587	3.441236	0.326487	-0.610587	2.833959	0.265269	-0.512096	2.631533	0.163229	-0.388994	2.429108	2.040479	-2.840784	18.013291	0.000000	0.000000	28.271651	-7.576499	-0.438689	-2.990360	-11.452566	22.981744	67.238381	46.218089	-2.837232	27.627131	23.313241	-5.201432	77.115892	50.600662	56.619271	16.954314	13.591584
2.350000	-3.585013	-6.570718	89.854682	0.443896	0.743562	0.983755	3.078719	-2.874102	-0.151843	6.975089	0.121738	29.829619	5.655788	0.000000	0.257104	3.293495	4.977233	3.013631	0.052598	24.845617	-12.205629	0.000000	0.330123	-0.285829	2.932012	0.613071	-0.380152	3.115263	0.542359	-0.694964	3.115263	0.377297	-0.694964	2.565511	0.306552	-0.582862	2.382260	0.188632	-0.442749	2.199009	2.358035	-3.233353	16.306972	0.000000	0.000000	28.276857	-6.571942	1.347277	-2.892743	-10.078545	29.782924	64.732278	43.935330	-1.230114	26.738324	21.058077	-10.614973	61.927710	59.997396	65.619893	10.295142	19.065222
2.366667	-3.939602	-6.762570	89.977121	0.445126	0.742356	0.982313	2.902900	-2.970477	1.836160	6.314056	0.110201	29.007610	2.543019	0.000000	0.094708	3.585751	5.884605	2.397387	0.041842	24.368627	-12.927246	0.000000	0.379104	-0.318711	2.531762	0.704035	-0.423885	2.689997	0.622831	-0.774913	2.689997	0.433278	-0.774913	2.215291	0.352036	-0.649915	2.057056	0.216620	-0.493683	1.898821	2.707905	-3.605320	14.080898	0.000000	0.000000	28.254702	-5.145111	3.473632	-2.319269	-8.344240	39.501179	60.289875	40.818327	0.939349	24.772510	18.452439	-16.926313	45.872349	70.236712	75.087767	1.249583	24.608138
