Model Marker Errors from IK
version=1
nRows=132
nColumns=4
inDegrees=no
endheader
time	total_squared_error	marker_error_RMS	marker_error_max
      0.00000000	      0.01649943	      0.02472024	      0.04545322
      0.02500000	      0.01651310	      0.02473047	      0.04541293
      0.05000000	      0.01693211	      0.02504227	      0.04554415
      0.07500000	      0.01744534	      0.02541896	      0.04586437
      0.10000000	      0.01790777	      0.02575365	      0.04624607
      0.12500000	      0.01825555	      0.02600253	      0.04661790
      0.15000000	      0.01840419	      0.02610817	      0.04694053
      0.17500000	      0.01832165	      0.02604956	      0.04710639
      0.20000000	      0.01815203	      0.02592870	      0.04731790
      0.22500000	      0.01794621	      0.02578128	      0.04760314
      0.25000000	      0.01762356	      0.02554847	      0.04811879
      0.27500000	      0.01745842	      0.02542849	      0.04865058
      0.30000000	      0.01749430	      0.02545461	      0.04920323
      0.32500000	      0.01760213	      0.02553294	      0.04984033
      0.35000000	      0.01784200	      0.02570632	      0.05044808
      0.37500000	      0.01816577	      0.02593851	      0.05088102
      0.40000000	      0.01847180	      0.02615608	      0.05099554
      0.42500000	      0.01862374	      0.02626344	      0.05097497
      0.45000000	      0.01843320	      0.02612874	      0.05086728
      0.47500000	      0.01808206	      0.02587868	      0.05070579
      0.50000000	      0.01777250	      0.02565620	      0.05049431
      0.52500000	      0.01765250	      0.02556944	      0.05026783
      0.55000000	      0.01776351	      0.02564971	      0.05002316
      0.57500000	      0.01810478	      0.02589493	      0.04971637
      0.60000000	      0.01846993	      0.02615476	      0.04940679
      0.62500000	      0.01897727	      0.02651154	      0.04915222
      0.65000000	      0.01932846	      0.02675573	      0.04905645
      0.67500000	      0.01947804	      0.02685906	      0.04904767
      0.70000000	      0.01943527	      0.02682955	      0.04911155
      0.72500000	      0.01940035	      0.02680544	      0.04873212
      0.75000000	      0.01951091	      0.02688171	      0.04831680
      0.77500000	      0.01963208	      0.02696505	      0.04791954
      0.80000000	      0.01966505	      0.02698768	      0.04732064
      0.82500000	      0.01959838	      0.02694190	      0.04665897
      0.85000000	      0.01950525	      0.02687781	      0.04600300
      0.87500000	      0.01935525	      0.02677426	      0.04581909
      0.90000000	      0.01911337	      0.02660644	      0.04629847
      0.92500000	      0.01899373	      0.02652304	      0.04721844
      0.95000000	      0.01904278	      0.02655726	      0.04827835
      0.97500000	      0.01927564	      0.02671914	      0.04923646
      1.00000000	      0.01958355	      0.02693171	      0.05047359
      1.02500000	      0.02008368	      0.02727343	      0.05146512
      1.05000000	      0.02068072	      0.02767585	      0.05208415
      1.07500000	      0.02115657	      0.02799244	      0.05234466
      1.10000000	      0.02134964	      0.02811987	      0.05244612
      1.12500000	      0.02114354	      0.02798381	      0.05251025
      1.15000000	      0.02060710	      0.02762654	      0.05218801
      1.17500000	      0.01993303	      0.02717095	      0.05159685
      1.20000000	      0.01929137	      0.02673004	      0.05078806
      1.22500000	      0.01866348	      0.02629145	      0.04991316
      1.25000000	      0.01792383	      0.02576520	      0.04918586
      1.27500000	      0.01729609	      0.02531000	      0.04825685
      1.30000000	      0.01691247	      0.02502774	      0.04751182
      1.32500000	      0.01674570	      0.02490404	      0.04686208
      1.35000000	      0.01673138	      0.02489339	      0.04648183
      1.37500000	      0.01684537	      0.02497804	      0.04616324
      1.40000000	      0.01699267	      0.02508701	      0.04570890
      1.42500000	      0.01707351	      0.02514662	      0.04505781
      1.45000000	      0.01707801	      0.02514993	      0.04430804
      1.47500000	      0.01702401	      0.02511014	      0.04376570
      1.50000000	      0.01694451	      0.02505144	      0.04329035
      1.52500000	      0.01694695	      0.02505324	      0.04291937
      1.55000000	      0.01686472	      0.02499238	      0.04293848
      1.57500000	      0.01669706	      0.02486784	      0.04469564
      1.60000000	      0.01655867	      0.02476457	      0.04498831
      1.62500000	      0.01647578	      0.02470251	      0.04403703
      1.65000000	      0.01639927	      0.02464509	      0.04262553
      1.67500000	      0.01621824	      0.02450868	      0.04297757
      1.70000000	      0.01628250	      0.02455719	      0.04348350
      1.72500000	      0.01634488	      0.02460418	      0.04375233
      1.75000000	      0.01628021	      0.02455546	      0.04366321
      1.77500000	      0.01609203	      0.02441314	      0.04354272
      1.80000000	      0.01586554	      0.02424072	      0.04364525
      1.82500000	      0.01566982	      0.02409074	      0.04420936
      1.85000000	      0.01563833	      0.02406652	      0.04491545
      1.87500000	      0.01571145	      0.02412272	      0.04569472
      1.90000000	      0.01586147	      0.02423761	      0.04664467
      1.92500000	      0.01611285	      0.02442892	      0.04759862
      1.95000000	      0.01633350	      0.02459562	      0.04840174
      1.97500000	      0.01643212	      0.02466976	      0.04879056
      2.00000000	      0.01645609	      0.02468775	      0.04887184
      2.02500000	      0.01653635	      0.02474788	      0.04900798
      2.05000000	      0.01684784	      0.02497987	      0.04929934
      2.07500000	      0.01712188	      0.02518221	      0.04971848
      2.10000000	      0.01738715	      0.02537653	      0.05002671
      2.12500000	      0.01755152	      0.02549620	      0.05021326
      2.15000000	      0.01761294	      0.02554077	      0.05033410
      2.17500000	      0.01762058	      0.02554631	      0.05027817
      2.20000000	      0.01759150	      0.02552522	      0.05012738
      2.22500000	      0.01770458	      0.02560713	      0.04999183
      2.25000000	      0.01773442	      0.02562870	      0.04991688
      2.27500000	      0.01756151	      0.02550345	      0.04984227
      2.30000000	      0.01737059	      0.02536445	      0.04965598
      2.32500000	      0.01742228	      0.02540216	      0.04927746
      2.35000000	      0.01763745	      0.02555854	      0.04906593
      2.37500000	      0.01759027	      0.02552433	      0.04864214
      2.40000000	      0.01718215	      0.02522649	      0.04829868
      2.42500000	      0.01687554	      0.02500040	      0.04799751
      2.45000000	      0.01688373	      0.02500647	      0.04770065
      2.47500000	      0.01731820	      0.02532617	      0.04745717
      2.50000000	      0.01847463	      0.02615809	      0.04709608
      2.52500000	      0.02004579	      0.02724769	      0.04662584
      2.55000000	      0.02163356	      0.02830623	      0.04608914
      2.57500000	      0.02316415	      0.02929047	      0.05326148
      2.60000000	      0.02428631	      0.02999155	      0.05739328
      2.62500000	      0.02425791	      0.02997401	      0.05755490
      2.65000000	      0.02300965	      0.02919262	      0.05384787
      2.67500000	      0.02134324	      0.02811566	      0.04686290
      2.70000000	      0.01974725	      0.02704403	      0.04847115
      2.72500000	      0.01837378	      0.02608659	      0.05047000
      2.75000000	      0.01777054	      0.02565479	      0.05261955
      2.77500000	      0.01820972	      0.02596987	      0.05491346
      2.80000000	      0.01945668	      0.02684432	      0.05699468
      2.82500000	      0.02102933	      0.02790814	      0.05857701
      2.85000000	      0.02203206	      0.02856575	      0.05915801
      2.87500000	      0.02174399	      0.02837839	      0.05881961
      2.90000000	      0.02069006	      0.02768210	      0.05794793
      2.92500000	      0.02018884	      0.02734474	      0.05699050
      2.95000000	      0.02032111	      0.02743417	      0.05639514
      2.97500000	      0.02066301	      0.02766399	      0.05556159
      3.00000000	      0.02083593	      0.02777951	      0.05495622
      3.02500000	      0.02078493	      0.02774549	      0.05463448
      3.05000000	      0.02038627	      0.02747812	      0.05471275
      3.07500000	      0.01979734	      0.02707831	      0.05500435
      3.10000000	      0.01942490	      0.02682239	      0.05527893
      3.12500000	      0.01944693	      0.02683760	      0.05562435
      3.15000000	      0.01970253	      0.02701339	      0.05606053
      3.17500000	      0.02019303	      0.02734758	      0.05644397
      3.20000000	      0.02060919	      0.02762794	      0.05706628
      3.22500000	      0.02100214	      0.02789009	      0.05768177
      3.25000000	      0.02115640	      0.02799233	      0.05847520
      3.27500000	      0.02089632	      0.02781974	      0.05952155
