Model Marker Errors from IK
version=1
nRows=687
nColumns=4
inDegrees=no
endheader
time	total_squared_error	marker_error_RMS	marker_error_max
      0.00000000	      0.02490656	      0.03037211	      0.05065023
      0.01694915	      0.02323227	      0.02933350	      0.04902216
      0.03389831	      0.02277917	      0.02904605	      0.04850638
      0.05084746	      0.02282573	      0.02907572	      0.04845901
      0.06779661	      0.02312038	      0.02926278	      0.04864403
      0.08474576	      0.02360435	      0.02956747	      0.04905933
      0.10169492	      0.02401478	      0.02982342	      0.04954707
      0.11864407	      0.02430842	      0.03000520	      0.04989482
      0.13559322	      0.02432440	      0.03001506	      0.04977744
      0.15254237	      0.02411998	      0.02988867	      0.04940259
      0.16949153	      0.02382850	      0.02970753	      0.04875120
      0.18644068	      0.02347804	      0.02948826	      0.04795740
      0.20338983	      0.02293756	      0.02914686	      0.04705172
      0.22033898	      0.02265093	      0.02896418	      0.04578057
      0.23728814	      0.02220317	      0.02867647	      0.04535055
      0.25423729	      0.02194200	      0.02850731	      0.04553112
      0.27118644	      0.02168742	      0.02834145	      0.04591777
      0.28813559	      0.02139802	      0.02815172	      0.04642222
      0.30508475	      0.02116820	      0.02800013	      0.04673157
      0.32203390	      0.02076987	      0.02773544	      0.04673974
      0.33898305	      0.02043380	      0.02751013	      0.04633826
      0.35593220	      0.02009319	      0.02727989	      0.04526223
      0.37288136	      0.01954899	      0.02690793	      0.04324577
      0.38983051	      0.01903755	      0.02655362	      0.04347270
      0.40677966	      0.01861115	      0.02625456	      0.04434948
      0.42372881	      0.01836858	      0.02608290	      0.04524405
      0.44067797	      0.01832393	      0.02605118	      0.04591041
      0.45762712	      0.01841908	      0.02611873	      0.04640729
      0.47457627	      0.01856628	      0.02622289	      0.04663784
      0.49152542	      0.01873268	      0.02634014	      0.04654508
      0.50847458	      0.01892970	      0.02647829	      0.04643540
      0.52542373	      0.01913264	      0.02661985	      0.04635198
      0.54237288	      0.01928082	      0.02672274	      0.04635269
      0.55932203	      0.01931439	      0.02674599	      0.04629161
      0.57627119	      0.01922224	      0.02668211	      0.04639554
      0.59322034	      0.01905132	      0.02656322	      0.04637100
      0.61016949	      0.01883476	      0.02641181	      0.04655800
      0.62711864	      0.01857526	      0.02622923	      0.04656640
      0.64406780	      0.01833238	      0.02605719	      0.04667779
      0.66101695	      0.01818810	      0.02595445	      0.04645357
      0.67796610	      0.01810964	      0.02589841	      0.04626182
      0.69491525	      0.01812325	      0.02590813	      0.04568584
      0.71186441	      0.01814710	      0.02592518	      0.04486839
      0.72881356	      0.01822533	      0.02598100	      0.04578131
      0.74576271	      0.01825913	      0.02600507	      0.04647841
      0.76271186	      0.01822064	      0.02597765	      0.04667509
      0.77966102	      0.01809170	      0.02588557	      0.04627158
      0.79661017	      0.01784284	      0.02570693	      0.04555371
      0.81355932	      0.01753188	      0.02548193	      0.04454573
      0.83050847	      0.01720939	      0.02524648	      0.04541735
      0.84745763	      0.01685469	      0.02498495	      0.04595268
      0.86440678	      0.01642828	      0.02466688	      0.04607703
      0.88135593	      0.01594783	      0.02430351	      0.04562395
      0.89830508	      0.01520647	      0.02373189	      0.04445410
      0.91525424	      0.01438376	      0.02308098	      0.04278364
      0.93220339	      0.01363994	      0.02247627	      0.04089416
      0.94915254	      0.01329956	      0.02219406	      0.04122579
      0.96610169	      0.01347331	      0.02233857	      0.04359325
      0.98305085	      0.01398115	      0.02275567	      0.04592944
      1.00000000	      0.01466899	      0.02330871	      0.04796875
      1.01694915	      0.01563807	      0.02406632	      0.04971027
      1.03389831	      0.01695122	      0.02505639	      0.05093572
      1.05084746	      0.01827492	      0.02601632	      0.05197571
      1.06779661	      0.01910132	      0.02659805	      0.05283053
      1.08474576	      0.01923238	      0.02668915	      0.05342352
      1.10169492	      0.01906102	      0.02656998	      0.05391997
      1.11864407	      0.01895669	      0.02649716	      0.05449206
      1.13559322	      0.01883298	      0.02641056	      0.05532796
      1.15254237	      0.01857342	      0.02622793	      0.05632143
      1.16949153	      0.01827622	      0.02601724	      0.05764000
      1.18644068	      0.01819674	      0.02596061	      0.05909000
      1.20338983	      0.01827177	      0.02601408	      0.06002319
      1.22033898	      0.01861620	      0.02625812	      0.06070823
      1.23728814	      0.01900400	      0.02653021	      0.06107125
      1.25423729	      0.01922457	      0.02668372	      0.06127435
      1.27118644	      0.01917872	      0.02665189	      0.06145143
      1.28813559	      0.01898295	      0.02651551	      0.06158917
      1.30508475	      0.01871107	      0.02632495	      0.06169139
      1.32203390	      0.01858275	      0.02623452	      0.06177161
      1.33898305	      0.01862960	      0.02626757	      0.06200650
      1.35593220	      0.01879954	      0.02638710	      0.06172967
      1.37288136	      0.01917493	      0.02664925	      0.06179179
      1.38983051	      0.01957136	      0.02692332	      0.06127408
      1.40677966	      0.01995253	      0.02718423	      0.06108784
      1.42372881	      0.02013856	      0.02731067	      0.06106208
      1.44067797	      0.02005946	      0.02725698	      0.06123805
      1.45762712	      0.01981723	      0.02709191	      0.06154354
      1.47457627	      0.01957813	      0.02692797	      0.06170810
      1.49152542	      0.01923060	      0.02668791	      0.06219761
      1.50847458	      0.01889781	      0.02645598	      0.06199839
      1.52542373	      0.01837781	      0.02608945	      0.06167463
      1.54237288	      0.01776405	      0.02565010	      0.06171277
      1.55932203	      0.01735226	      0.02535106	      0.06185761
      1.57627119	      0.01741030	      0.02539342	      0.06227031
      1.59322034	      0.01786511	      0.02572296	      0.06292682
      1.61016949	      0.01839595	      0.02610233	      0.06320009
      1.62711864	      0.01865068	      0.02628243	      0.06330293
      1.64406780	      0.01857548	      0.02622939	      0.06303071
      1.66101695	      0.01834930	      0.02606921	      0.06230092
      1.67796610	      0.01808422	      0.02588022	      0.06143875
      1.69491525	      0.01782064	      0.02569093	      0.06027198
      1.71186441	      0.01749780	      0.02545715	      0.05930253
      1.72881356	      0.01698084	      0.02507828	      0.05840004
      1.74576271	      0.01644726	      0.02468112	      0.05768901
      1.76271186	      0.01614400	      0.02445253	      0.05726110
      1.77966102	      0.01627194	      0.02454922	      0.05637753
      1.79661017	      0.01697391	      0.02507316	      0.05609494
      1.81355932	      0.01817303	      0.02594369	      0.05624538
      1.83050847	      0.01971319	      0.02702070	      0.05684623
      1.84745763	      0.02128994	      0.02808053	      0.05779672
      1.86440678	      0.02249456	      0.02886402	      0.05909238
      1.88135593	      0.02312062	      0.02926293	      0.06026852
      1.89830508	      0.02320696	      0.02931752	      0.06114540
      1.91525424	      0.02315325	      0.02928358	      0.06170898
      1.93220339	      0.02342589	      0.02945549	      0.06183582
      1.94915254	      0.02416567	      0.02991697	      0.06177857
      1.96610169	      0.02496977	      0.03041063	      0.06199556
      1.98305085	      0.02528548	      0.03060228	      0.06216172
      2.00000000	      0.02473549	      0.03026763	      0.06242222
      2.01694915	      0.02327954	      0.02936333	      0.06216300
      2.03389831	      0.02113981	      0.02798135	      0.06140074
      2.05084746	      0.01883491	      0.02641191	      0.05967648
      2.06779661	      0.01696514	      0.02506668	      0.05743234
      2.08474576	      0.01580761	      0.02419643	      0.05525349
      2.10169492	      0.01523190	      0.02375172	      0.05363534
      2.11864407	      0.01506972	      0.02362494	      0.05268409
      2.13559322	      0.01508326	      0.02363555	      0.05199866
      2.15254237	      0.01501319	      0.02358059	      0.05140987
      2.16949153	      0.01480207	      0.02341420	      0.05091390
      2.18644068	      0.01455980	      0.02322179	      0.05041401
      2.20338983	      0.01442732	      0.02311591	      0.05023013
      2.22033898	      0.01450314	      0.02317657	      0.05042293
      2.23728814	      0.01482187	      0.02342986	      0.05096359
      2.25423729	      0.01534162	      0.02383712	      0.05195824
      2.27118644	      0.01597435	      0.02432371	      0.05307355
      2.28813559	      0.01667697	      0.02485288	      0.05428699
      2.30508475	      0.01748517	      0.02544797	      0.05540297
      2.32203390	      0.01851294	      0.02618520	      0.05654601
      2.33898305	      0.01966306	      0.02698632	      0.05788905
      2.35593220	      0.02086511	      0.02779895	      0.05917399
      2.37288136	      0.02202386	      0.02856044	      0.06063314
      2.38983051	      0.02298618	      0.02917773	      0.06209029
      2.40677966	      0.02343099	      0.02945869	      0.06336941
      2.42372881	      0.02313789	      0.02927386	      0.06394181
      2.44067797	      0.02224899	      0.02870604	      0.06360066
      2.45762712	      0.02124525	      0.02805104	      0.06260764
      2.47457627	      0.02062337	      0.02763745	      0.06130400
      2.49152542	      0.02069183	      0.02768328	      0.06014491
      2.50847458	      0.02156558	      0.02826172	      0.05905756
      2.52542373	      0.02300559	      0.02919005	      0.05810568
      2.54237288	      0.02447197	      0.03010596	      0.05690253
      2.55932203	      0.02542036	      0.03068379	      0.05557580
      2.57627119	      0.02563345	      0.03081213	      0.05695287
      2.59322034	      0.02527103	      0.03059353	      0.05911472
      2.61016949	      0.02459415	      0.03018103	      0.06107454
      2.62711864	      0.02380504	      0.02969289	      0.06262762
      2.64406780	      0.02296921	      0.02916696	      0.06379316
      2.66101695	      0.02225210	      0.02870804	      0.06449477
      2.67796610	      0.02161569	      0.02829454	      0.06477869
      2.69491525	      0.02098965	      0.02788179	      0.06482724
      2.71186441	      0.02028932	      0.02741270	      0.06469277
      2.72881356	      0.01944005	      0.02683285	      0.06414015
      2.74576271	      0.01845945	      0.02614734	      0.06308948
      2.76271186	      0.01750778	      0.02546441	      0.06153472
      2.77966102	      0.01681380	      0.02495462	      0.05972280
      2.79661017	      0.01654908	      0.02475740	      0.05774056
      2.81355932	      0.01662897	      0.02481709	      0.05578572
      2.83050847	      0.01691027	      0.02502611	      0.05393558
      2.84745763	      0.01733960	      0.02534181	      0.05243992
      2.86440678	      0.01798138	      0.02580653	      0.05158527
      2.88135593	      0.01877906	      0.02637273	      0.05270157
      2.89830508	      0.01964709	      0.02697536	      0.05687313
      2.91525424	      0.02041957	      0.02750056	      0.06174468
      2.93220339	      0.02131041	      0.02809403	      0.06707902
      2.94915254	      0.02244097	      0.02882962	      0.07311285
      2.96610169	      0.02381637	      0.02969996	      0.07905231
      2.98305085	      0.02526429	      0.03058945	      0.08425116
      3.00000000	      0.02664062	      0.03141161	      0.08822829
      3.01694915	      0.02786662	      0.03212627	      0.09102289
      3.03389831	      0.02887360	      0.03270157	      0.09261112
      3.05084746	      0.02957405	      0.03309585	      0.09307527
      3.06779661	      0.03002167	      0.03334537	      0.09245899
      3.08474576	      0.03039139	      0.03355007	      0.09130892
      3.10169492	      0.03079524	      0.03377225	      0.09037331
      3.11864407	      0.03142536	      0.03411601	      0.08979117
      3.13559322	      0.03247291	      0.03467997	      0.09020761
      3.15254237	      0.03395022	      0.03546006	      0.09105511
      3.16949153	      0.03565394	      0.03633891	      0.09202923
      3.18644068	      0.03748282	      0.03725926	      0.09323327
      3.20338983	      0.03950030	      0.03824884	      0.09446848
      3.22033898	      0.04149983	      0.03920498	      0.09547811
      3.23728814	      0.04277047	      0.03980065	      0.09633772
      3.25423729	      0.04273037	      0.03978198	      0.09689198
      3.27118644	      0.04162987	      0.03926636	      0.09688556
      3.28813559	      0.04009290	      0.03853469	      0.09686769
      3.30508475	      0.03869602	      0.03785744	      0.09629282
      3.32203390	      0.03756494	      0.03730006	      0.09453205
      3.33898305	      0.03654662	      0.03679101	      0.09128824
      3.35593220	      0.03569611	      0.03636039	      0.08720633
      3.37288136	      0.03517337	      0.03609318	      0.08316594
      3.38983051	      0.03499106	      0.03599951	      0.07992240
      3.40677966	      0.03500368	      0.03600601	      0.07794446
      3.42372881	      0.03507409	      0.03604220	      0.07854160
      3.44067797	      0.03517990	      0.03609653	      0.07981856
      3.45762712	      0.03531675	      0.03616667	      0.08055729
      3.47457627	      0.03554618	      0.03628395	      0.08104502
      3.49152542	      0.03587218	      0.03644995	      0.08346378
      3.50847458	      0.03632277	      0.03667817	      0.08594539
      3.52542373	      0.03693566	      0.03698631	      0.08850223
      3.54237288	      0.03762607	      0.03733039	      0.09064282
      3.55932203	      0.03824401	      0.03763569	      0.09201469
      3.57627119	      0.03862696	      0.03782365	      0.09214021
      3.59322034	      0.03862949	      0.03782489	      0.09096764
      3.61016949	      0.03816453	      0.03759656	      0.08900587
      3.62711864	      0.03732948	      0.03718297	      0.08639985
      3.64406780	      0.03638614	      0.03671015	      0.08391806
      3.66101695	      0.03567873	      0.03635154	      0.08229226
      3.67796610	      0.03536757	      0.03619268	      0.08209769
      3.69491525	      0.03539324	      0.03620581	      0.08249161
      3.71186441	      0.03548569	      0.03625307	      0.08317536
      3.72881356	      0.03523504	      0.03612481	      0.08261329
      3.74576271	      0.03442327	      0.03570624	      0.08060482
      3.76271186	      0.03303105	      0.03497674	      0.07750896
      3.77966102	      0.03150420	      0.03415878	      0.07429480
      3.79661017	      0.03031971	      0.03351048	      0.07283210
      3.81355932	      0.02967610	      0.03315290	      0.07211868
      3.83050847	      0.02986027	      0.03325561	      0.07361531
      3.84745763	      0.03068968	      0.03371431	      0.07708636
      3.86440678	      0.03190001	      0.03437269	      0.08105535
      3.88135593	      0.03302010	      0.03497094	      0.08388161
      3.89830508	      0.03355237	      0.03525167	      0.08435338
      3.91525424	      0.03320460	      0.03506851	      0.08263509
      3.93220339	      0.03205290	      0.03445496	      0.07978891
      3.94915254	      0.03042497	      0.03356860	      0.07734180
      3.96610169	      0.02861726	      0.03255608	      0.07533742
      3.98305085	      0.02713854	      0.03170380	      0.07497103
      4.00000000	      0.02635267	      0.03124140	      0.07572985
      4.01694915	      0.02642489	      0.03128417	      0.07687774
      4.03389831	      0.02699212	      0.03161816	      0.07740192
      4.05084746	      0.02726423	      0.03177714	      0.07588443
      4.06779661	      0.02662940	      0.03140500	      0.07375767
      4.08474576	      0.02530789	      0.03061583	      0.07077781
      4.10169492	      0.02397831	      0.02980076	      0.06886474
      4.11864407	      0.02318748	      0.02930521	      0.06794121
      4.13559322	      0.02298352	      0.02917604	      0.06796399
      4.15254237	      0.02305630	      0.02922220	      0.06793743
      4.16949153	      0.02306966	      0.02923067	      0.06759803
      4.18644068	      0.02294276	      0.02915016	      0.06638504
      4.20338983	      0.02270389	      0.02899802	      0.06518260
      4.22033898	      0.02240170	      0.02880438	      0.06185742
      4.23728814	      0.02186054	      0.02845435	      0.05873304
      4.25423729	      0.02106028	      0.02792867	      0.05616348
      4.27118644	      0.01994307	      0.02717779	      0.05350824
      4.28813559	      0.01867409	      0.02629892	      0.05113528
      4.30508475	      0.01739030	      0.02537883	      0.04908155
      4.32203390	      0.01645642	      0.02468800	      0.04707068
      4.33898305	      0.01583045	      0.02421390	      0.04637569
      4.35593220	      0.01568376	      0.02410145	      0.04573489
      4.37288136	      0.01582260	      0.02420789	      0.04541056
      4.38983051	      0.01602034	      0.02435869	      0.04571165
      4.40677966	      0.01626506	      0.02454404	      0.04594587
      4.42372881	      0.01631780	      0.02458380	      0.04684247
      4.44067797	      0.01625112	      0.02453351	      0.04768130
      4.45762712	      0.01609531	      0.02441562	      0.04857082
      4.47457627	      0.01595025	      0.02430535	      0.04992275
      4.49152542	      0.01582475	      0.02420954	      0.05135683
      4.50847458	      0.01574098	      0.02414538	      0.05289225
      4.52542373	      0.01564996	      0.02407547	      0.05391852
      4.54237288	      0.01558632	      0.02402647	      0.05407018
      4.55932203	      0.01547579	      0.02394113	      0.05387425
      4.57627119	      0.01533317	      0.02383055	      0.05291518
      4.59322034	      0.01508777	      0.02363908	      0.05187448
      4.61016949	      0.01477188	      0.02339031	      0.05046421
      4.62711864	      0.01442491	      0.02311398	      0.04892475
      4.64406780	      0.01403031	      0.02279564	      0.04727425
      4.66101695	      0.01371948	      0.02254172	      0.04624594
      4.67796610	      0.01341371	      0.02228911	      0.04578118
      4.69491525	      0.01301243	      0.02195318	      0.04572948
      4.71186441	      0.01263959	      0.02163638	      0.04595314
      4.72881356	      0.01243408	      0.02145977	      0.04654239
      4.74576271	      0.01249919	      0.02151588	      0.04727511
      4.76271186	      0.01271926	      0.02170447	      0.04821961
      4.77966102	      0.01299820	      0.02194117	      0.04914952
      4.79661017	      0.01317791	      0.02209232	      0.05013414
      4.81355932	      0.01327827	      0.02217629	      0.05146158
      4.83050847	      0.01337046	      0.02225314	      0.05291732
      4.84745763	      0.01367361	      0.02250400	      0.05484761
      4.86440678	      0.01416797	      0.02290720	      0.05711545
      4.88135593	      0.01477764	      0.02339487	      0.05939693
      4.89830508	      0.01526979	      0.02378125	      0.06140676
      4.91525424	      0.01548049	      0.02394476	      0.06263481
      4.93220339	      0.01539923	      0.02388183	      0.06334502
      4.94915254	      0.01521738	      0.02374040	      0.06377577
      4.96610169	      0.01515135	      0.02368884	      0.06440519
      4.98305085	      0.01539345	      0.02387735	      0.06528328
      5.00000000	      0.01592659	      0.02428731	      0.06616665
      5.01694915	      0.01667700	      0.02485290	      0.06694334
      5.03389831	      0.01741826	      0.02539923	      0.06711003
      5.05084746	      0.01800184	      0.02582121	      0.06671014
      5.06779661	      0.01822534	      0.02598100	      0.06628904
      5.08474576	      0.01818511	      0.02595231	      0.06511025
      5.10169492	      0.01792399	      0.02576531	      0.06368766
      5.11864407	      0.01750104	      0.02545951	      0.06193753
      5.13559322	      0.01715554	      0.02520695	      0.06047176
      5.15254237	      0.01699177	      0.02508635	      0.05948212
      5.16949153	      0.01703938	      0.02512146	      0.05859505
      5.18644068	      0.01723393	      0.02526448	      0.05831467
      5.20338983	      0.01743412	      0.02541079	      0.05842730
      5.22033898	      0.01751609	      0.02547045	      0.05886104
      5.23728814	      0.01754471	      0.02549125	      0.05929152
      5.25423729	      0.01762057	      0.02554630	      0.05958339
      5.27118644	      0.01783207	      0.02569916	      0.05972684
      5.28813559	      0.01821361	      0.02597265	      0.05963754
      5.30508475	      0.01864346	      0.02627734	      0.05987616
      5.32203390	      0.01886869	      0.02643559	      0.06018434
      5.33898305	      0.01888733	      0.02644864	      0.06099067
      5.35593220	      0.01870098	      0.02631785	      0.06197852
      5.37288136	      0.01853269	      0.02619916	      0.06303826
      5.38983051	      0.01852410	      0.02619308	      0.06335249
      5.40677966	      0.01881379	      0.02639710	      0.06313939
      5.42372881	      0.01916059	      0.02663928	      0.06242641
      5.44067797	      0.01962652	      0.02696123	      0.06135756
      5.45762712	      0.02003669	      0.02724151	      0.06004747
      5.47457627	      0.02019735	      0.02735050	      0.05841201
      5.49152542	      0.02004942	      0.02725016	      0.05666904
      5.50847458	      0.01971207	      0.02701993	      0.05487567
      5.52542373	      0.01936406	      0.02678036	      0.05324432
      5.54237288	      0.01904951	      0.02656195	      0.05224908
      5.55932203	      0.01868936	      0.02630966	      0.05146160
      5.57627119	      0.01829705	      0.02603206	      0.05098752
      5.59322034	      0.01801894	      0.02583347	      0.05063645
      5.61016949	      0.01796855	      0.02579732	      0.05039328
      5.62711864	      0.01816137	      0.02593537	      0.04987980
      5.64406780	      0.01854720	      0.02620942	      0.04900927
      5.66101695	      0.01905788	      0.02656779	      0.04842636
      5.67796610	      0.01960304	      0.02694510	      0.04970653
      5.69491525	      0.02003615	      0.02724114	      0.04986650
      5.71186441	      0.02027720	      0.02740452	      0.04825518
      5.72881356	      0.02048171	      0.02754236	      0.04589892
      5.74576271	      0.02088283	      0.02781076	      0.04614236
      5.76271186	      0.02150243	      0.02822032	      0.04786260
      5.77966102	      0.02215142	      0.02864303	      0.04888245
      5.79661017	      0.02260042	      0.02893186	      0.04967106
      5.81355932	      0.02287751	      0.02910868	      0.05047182
      5.83050847	      0.02292997	      0.02914204	      0.05094261
      5.84745763	      0.02268410	      0.02898537	      0.05136549
      5.86440678	      0.02219949	      0.02867409	      0.05058511
      5.88135593	      0.02162382	      0.02829986	      0.04911956
      5.89830508	      0.02116258	      0.02799641	      0.04578967
      5.91525424	      0.02074395	      0.02771812	      0.04496158
      5.93220339	      0.02061044	      0.02762878	      0.04340767
      5.94915254	      0.02071787	      0.02770069	      0.04375340
      5.96610169	      0.02103167	      0.02790969	      0.04503668
      5.98305085	      0.02145874	      0.02819163	      0.04603328
      6.00000000	      0.02183809	      0.02843973	      0.04655421
      6.01694915	      0.02210060	      0.02861015	      0.04672168
      6.03389831	      0.02216866	      0.02865417	      0.04679558
      6.05084746	      0.02212758	      0.02862761	      0.04644411
      6.06779661	      0.02207378	      0.02859279	      0.04775480
      6.08474576	      0.02200309	      0.02854696	      0.04852960
      6.10169492	      0.02192186	      0.02849422	      0.04912594
      6.11864407	      0.02177526	      0.02839879	      0.04883574
      6.13559322	      0.02149612	      0.02821617	      0.04839233
      6.15254237	      0.02108248	      0.02794338	      0.04749153
      6.16949153	      0.02056431	      0.02759785	      0.04657334
      6.18644068	      0.02011373	      0.02729383	      0.04682589
      6.20338983	      0.01982799	      0.02709926	      0.04701848
      6.22033898	      0.01992074	      0.02716257	      0.04707507
      6.23728814	      0.02041179	      0.02749531	      0.04680320
      6.25423729	      0.02102444	      0.02790489	      0.04758412
      6.27118644	      0.02178169	      0.02840298	      0.04990946
      6.28813559	      0.02245162	      0.02883646	      0.05171955
      6.30508475	      0.02275831	      0.02903275	      0.05283385
      6.32203390	      0.02240186	      0.02880449	      0.05294308
      6.33898305	      0.02136357	      0.02812905	      0.05243280
      6.35593220	      0.02009744	      0.02728277	      0.05178567
      6.37288136	      0.01903763	      0.02655367	      0.05136709
      6.38983051	      0.01818794	      0.02595433	      0.05134202
      6.40677966	      0.01746260	      0.02543154	      0.05148117
      6.42372881	      0.01687723	      0.02500165	      0.05123349
      6.44067797	      0.01654029	      0.02475083	      0.05018988
      6.45762712	      0.01639351	      0.02464076	      0.04730279
      6.47457627	      0.01642054	      0.02466107	      0.04387679
      6.49152542	      0.01630149	      0.02457151	      0.04384909
      6.50847458	      0.01602793	      0.02436446	      0.04558155
      6.52542373	      0.01570788	      0.02411998	      0.04691516
      6.54237288	      0.01552915	      0.02398236	      0.04831375
      6.55932203	      0.01561816	      0.02405099	      0.04947440
      6.57627119	      0.01597033	      0.02432065	      0.05024704
      6.59322034	      0.01643855	      0.02467459	      0.05118845
      6.61016949	      0.01689976	      0.02501833	      0.05175943
      6.62711864	      0.01730009	      0.02531292	      0.05217029
      6.64406780	      0.01765380	      0.02557038	      0.05209885
      6.66101695	      0.01810422	      0.02589453	      0.05207848
      6.67796610	      0.01869303	      0.02631225	      0.05224143
      6.69491525	      0.01933472	      0.02676006	      0.05271611
      6.71186441	      0.01988343	      0.02713712	      0.05312294
      6.72881356	      0.02017859	      0.02733779	      0.05360849
      6.74576271	      0.02029596	      0.02741719	      0.05328201
      6.76271186	      0.02012408	      0.02730085	      0.05277089
      6.77966102	      0.01962504	      0.02696022	      0.05121213
      6.79661017	      0.01886558	      0.02643341	      0.04932254
      6.81355932	      0.01798225	      0.02580715	      0.04724631
      6.83050847	      0.01720607	      0.02524404	      0.04537016
      6.84745763	      0.01650031	      0.02472089	      0.04421713
      6.86440678	      0.01605753	      0.02438695	      0.04360181
      6.88135593	      0.01580885	      0.02419737	      0.04295981
      6.89830508	      0.01569051	      0.02410664	      0.04226355
      6.91525424	      0.01569767	      0.02411214	      0.04213090
      6.93220339	      0.01583828	      0.02421988	      0.04197727
      6.94915254	      0.01607863	      0.02440296	      0.04231318
      6.96610169	      0.01633962	      0.02460023	      0.04248024
      6.98305085	      0.01664931	      0.02483226	      0.04280441
      7.00000000	      0.01692503	      0.02503703	      0.04302249
      7.01694915	      0.01709389	      0.02516162	      0.04309393
      7.03389831	      0.01711154	      0.02517460	      0.04303647
      7.05084746	      0.01695293	      0.02505766	      0.04303153
      7.06779661	      0.01663316	      0.02482021	      0.04320999
      7.08474576	      0.01622829	      0.02451627	      0.04358710
      7.10169492	      0.01582512	      0.02420982	      0.04426271
      7.11864407	      0.01549423	      0.02395538	      0.04552198
      7.13559322	      0.01531038	      0.02381284	      0.04659140
      7.15254237	      0.01532643	      0.02382531	      0.04737309
      7.16949153	      0.01540891	      0.02388934	      0.04781169
      7.18644068	      0.01549393	      0.02395515	      0.04812975
      7.20338983	      0.01562725	      0.02405800	      0.04821311
      7.22033898	      0.01593108	      0.02429074	      0.04845139
      7.23728814	      0.01655704	      0.02476335	      0.04877552
      7.25423729	      0.01749680	      0.02545642	      0.04904828
      7.27118644	      0.01848476	      0.02616526	      0.05022625
      7.28813559	      0.01947622	      0.02685780	      0.05183823
      7.30508475	      0.02051979	      0.02756796	      0.05256392
      7.32203390	      0.02154936	      0.02825109	      0.05216839
      7.33898305	      0.02230710	      0.02874350	      0.05069030
      7.35593220	      0.02264070	      0.02895763	      0.05078227
      7.37288136	      0.02251319	      0.02887598	      0.05179411
      7.38983051	      0.02231409	      0.02874800	      0.05277208
      7.40677966	      0.02236105	      0.02877824	      0.05366061
      7.42372881	      0.02271223	      0.02900334	      0.05413654
      7.44067797	      0.02321990	      0.02932570	      0.05416609
      7.45762712	      0.02366553	      0.02960576	      0.05393124
      7.47457627	      0.02407602	      0.02986142	      0.05365225
      7.49152542	      0.02441784	      0.03007265	      0.05503593
      7.50847458	      0.02463843	      0.03020819	      0.05336731
      7.52542373	      0.02350620	      0.02950593	      0.05318712
      7.54237288	      0.02334929	      0.02940729	      0.05307388
      7.55932203	      0.02319709	      0.02931129	      0.05531732
      7.57627119	      0.02326561	      0.02935455	      0.05774076
      7.59322034	      0.02358168	      0.02955327	      0.05963183
      7.61016949	      0.02411790	      0.02988738	      0.06132036
      7.62711864	      0.02473060	      0.03026464	      0.06230238
      7.64406780	      0.02518080	      0.03053887	      0.06321511
      7.66101695	      0.02528853	      0.03060412	      0.06326729
      7.67796610	      0.02502650	      0.03044516	      0.06226746
      7.69491525	      0.02445044	      0.03009272	      0.06140509
      7.71186441	      0.02378893	      0.02968285	      0.05978504
      7.72881356	      0.02313856	      0.02927428	      0.05845703
      7.74576271	      0.02275495	      0.02903060	      0.05755351
      7.76271186	      0.02274542	      0.02902452	      0.05693694
      7.77966102	      0.02307453	      0.02923375	      0.05672961
      7.79661017	      0.02366797	      0.02960729	      0.05712683
      7.81355932	      0.02425105	      0.02996977	      0.05721322
      7.83050847	      0.02464562	      0.03021260	      0.05696057
      7.84745763	      0.02472826	      0.03026320	      0.05638571
      7.86440678	      0.02455660	      0.03015798	      0.05549168
      7.88135593	      0.02433416	      0.03002108	      0.05482557
      7.89830508	      0.02424783	      0.02996778	      0.05463716
      7.91525424	      0.02437750	      0.03004780	      0.05451615
      7.93220339	      0.02459258	      0.03018007	      0.05456870
      7.94915254	      0.02481534	      0.03031644	      0.05490497
      7.96610169	      0.02493827	      0.03039144	      0.05671596
      7.98305085	      0.02489306	      0.03036388	      0.05792455
      8.00000000	      0.02458435	      0.03017502	      0.05840811
      8.01694915	      0.02412180	      0.02988980	      0.05817956
      8.03389831	      0.02359714	      0.02956295	      0.05910589
      8.05084746	      0.02323403	      0.02933461	      0.05947344
      8.06779661	      0.02305886	      0.02922382	      0.05940092
      8.08474576	      0.02296408	      0.02916370	      0.05836857
      8.10169492	      0.02286853	      0.02910297	      0.05725947
      8.11864407	      0.02269611	      0.02899304	      0.05627114
      8.13559322	      0.02239355	      0.02879914	      0.05440849
      8.15254237	      0.02203352	      0.02856670	      0.05313181
      8.16949153	      0.02178670	      0.02840625	      0.05251208
      8.18644068	      0.02171773	      0.02836124	      0.05227030
      8.20338983	      0.02168566	      0.02834030	      0.05203594
      8.22033898	      0.02173680	      0.02837370	      0.05143886
      8.23728814	      0.02185365	      0.02844986	      0.05075902
      8.25423729	      0.02263981	      0.02895706	      0.05253044
      8.27118644	      0.02205717	      0.02858203	      0.05236471
      8.28813559	      0.02199997	      0.02854494	      0.05234809
      8.30508475	      0.02182614	      0.02843194	      0.05171193
      8.32203390	      0.02158931	      0.02827727	      0.05084499
      8.33898305	      0.02140755	      0.02815799	      0.04997793
      8.35593220	      0.02127571	      0.02807115	      0.04926749
      8.37288136	      0.02118952	      0.02801423	      0.04890788
      8.38983051	      0.02104688	      0.02791978	      0.04880321
      8.40677966	      0.02097611	      0.02787280	      0.04902095
      8.42372881	      0.02101193	      0.02789659	      0.04926677
      8.44067797	      0.02092640	      0.02783975	      0.04993123
      8.45762712	      0.02093642	      0.02784642	      0.05010192
      8.47457627	      0.02077669	      0.02773999	      0.05037321
      8.49152542	      0.02067896	      0.02767467	      0.05006046
      8.50847458	      0.02059120	      0.02761589	      0.05107552
      8.52542373	      0.02061357	      0.02763088	      0.05289848
      8.54237288	      0.02069482	      0.02768528	      0.05383659
      8.55932203	      0.02075239	      0.02772376	      0.05384095
      8.57627119	      0.02075987	      0.02772876	      0.05316701
      8.59322034	      0.02073057	      0.02770918	      0.05236649
      8.61016949	      0.02071485	      0.02769867	      0.05181608
      8.62711864	      0.02064546	      0.02765225	      0.05173736
      8.64406780	      0.02066144	      0.02766294	      0.05235879
      8.66101695	      0.02121982	      0.02803425	      0.05316748
      8.67796610	      0.02115711	      0.02799280	      0.05332742
      8.69491525	      0.02103979	      0.02791507	      0.05266926
      8.71186441	      0.02097119	      0.02786953	      0.05128017
      8.72881356	      0.02100544	      0.02789228	      0.04949434
      8.74576271	      0.02118437	      0.02801083	      0.04860567
      8.76271186	      0.02146605	      0.02819643	      0.04843895
      8.77966102	      0.02178002	      0.02840189	      0.04867677
      8.79661017	      0.02193085	      0.02850007	      0.04893896
      8.81355932	      0.02192424	      0.02849577	      0.04909535
      8.83050847	      0.02169217	      0.02834455	      0.04906488
      8.84745763	      0.02141024	      0.02815976	      0.04879234
      8.86440678	      0.02100439	      0.02789159	      0.04833791
      8.88135593	      0.02067986	      0.02767527	      0.04851940
      8.89830508	      0.02043661	      0.02751202	      0.04985738
      8.91525424	      0.02025085	      0.02738670	      0.05078996
      8.93220339	      0.02005239	      0.02725218	      0.05094480
      8.94915254	      0.01990668	      0.02715298	      0.05063984
      8.96610169	      0.01979748	      0.02707841	      0.05014735
      8.98305085	      0.01974277	      0.02704096	      0.04963328
      9.00000000	      0.01968801	      0.02700344	      0.04916008
      9.01694915	      0.01958474	      0.02693252	      0.04910701
      9.03389831	      0.01945630	      0.02684406	      0.04912128
      9.05084746	      0.01931452	      0.02674607	      0.04909288
      9.06779661	      0.01917824	      0.02665155	      0.04887139
      9.08474576	      0.01901678	      0.02653913	      0.04824351
      9.10169492	      0.01888614	      0.02644781	      0.04739014
      9.11864407	      0.01873957	      0.02634499	      0.04654935
      9.13559322	      0.01854351	      0.02620681	      0.04594074
      9.15254237	      0.01828747	      0.02602525	      0.04575586
      9.16949153	      0.01803445	      0.02584458	      0.04570464
      9.18644068	      0.01775532	      0.02564380	      0.04540824
      9.20338983	      0.01757481	      0.02551312	      0.04497340
      9.22033898	      0.01754195	      0.02548925	      0.04448520
      9.23728814	      0.01771719	      0.02561625	      0.04415957
      9.25423729	      0.01812200	      0.02590724	      0.04494865
      9.27118644	      0.01858080	      0.02623314	      0.04568704
      9.28813559	      0.01904173	      0.02655653	      0.04552037
      9.30508475	      0.01935017	      0.02677075	      0.04624830
      9.32203390	      0.01942294	      0.02682104	      0.04724948
      9.33898305	      0.01918699	      0.02665763	      0.04809078
      9.35593220	      0.01874575	      0.02634933	      0.04873497
      9.37288136	      0.01767982	      0.02558922	      0.04900120
      9.38983051	      0.01736199	      0.02535817	      0.04902146
      9.40677966	      0.01739027	      0.02537881	      0.04865420
      9.42372881	      0.01782487	      0.02569397	      0.04787162
      9.44067797	      0.01857801	      0.02623118	      0.04675241
      9.45762712	      0.01948683	      0.02686511	      0.04514987
      9.47457627	      0.02047120	      0.02753530	      0.04594526
      9.49152542	      0.02143688	      0.02817727	      0.04762595
      9.50847458	      0.02230309	      0.02874092	      0.04817632
      9.52542373	      0.02286358	      0.02909982	      0.04869680
      9.54237288	      0.02313834	      0.02927414	      0.04855244
      9.55932203	      0.02313386	      0.02927131	      0.04816010
      9.57627119	      0.02219978	      0.02867428	      0.04722025
      9.59322034	      0.02207037	      0.02859058	      0.04643489
      9.61016949	      0.02193056	      0.02849988	      0.04569836
      9.62711864	      0.02176073	      0.02838931	      0.04620420
      9.64406780	      0.02170824	      0.02835505	      0.04556557
      9.66101695	      0.02159999	      0.02828427	      0.04501074
      9.67796610	      0.02138602	      0.02814382	      0.04511648
      9.69491525	      0.02118727	      0.02801274	      0.04535374
      9.71186441	      0.02097002	      0.02786876	      0.04547866
      9.72881356	      0.02077626	      0.02773970	      0.04545389
      9.74576271	      0.02068694	      0.02768001	      0.04541982
      9.76271186	      0.02049803	      0.02755334	      0.04493641
      9.77966102	      0.02042898	      0.02750689	      0.04463444
      9.79661017	      0.02039816	      0.02748613	      0.04655246
      9.81355932	      0.02042301	      0.02750287	      0.04755652
      9.83050847	      0.02045686	      0.02752565	      0.04697913
      9.84745763	      0.02051978	      0.02756795	      0.04688935
      9.86440678	      0.02061147	      0.02762947	      0.04817435
      9.88135593	      0.02076936	      0.02773510	      0.04909609
      9.89830508	      0.02099599	      0.02788600	      0.04972537
      9.91525424	      0.02108847	      0.02794735	      0.05030947
      9.93220339	      0.02117042	      0.02800160	      0.05064222
      9.94915254	      0.02124603	      0.02805156	      0.05073965
      9.96610169	      0.02137849	      0.02813887	      0.05047461
      9.98305085	      0.02166882	      0.02832929	      0.05014138
     10.00000000	      0.02213737	      0.02863394	      0.04986960
     10.01694915	      0.02278494	      0.02904973	      0.04944236
     10.03389831	      0.02334490	      0.02940452	      0.04913769
     10.05084746	      0.02386353	      0.02972935	      0.04955601
     10.06779661	      0.02419418	      0.02993460	      0.05085998
     10.08474576	      0.02443271	      0.03008181	      0.05068129
     10.10169492	      0.02467985	      0.03023357	      0.04937283
     10.11864407	      0.02506464	      0.03046834	      0.05045918
     10.13559322	      0.02567286	      0.03083580	      0.05174195
     10.15254237	      0.02646506	      0.03130795	      0.05269298
     10.16949153	      0.02731986	      0.03180954	      0.05340491
     10.18644068	      0.02811099	      0.03226682	      0.05604914
     10.20338983	      0.02842799	      0.03244824	      0.05637297
     10.22033898	      0.02809610	      0.03225828	      0.05452234
     10.23728814	      0.02747067	      0.03189722	      0.05700869
     10.25423729	      0.02680375	      0.03150764	      0.05914260
     10.27118644	      0.02632782	      0.03122666	      0.06075077
     10.28813559	      0.02605794	      0.03106620	      0.06182024
     10.30508475	      0.02590071	      0.03097234	      0.06233668
     10.32203390	      0.02572128	      0.03086487	      0.06222115
     10.33898305	      0.02548137	      0.03072059	      0.06169014
     10.35593220	      0.02530324	      0.03061302	      0.06091862
     10.37288136	      0.02535454	      0.03064404	      0.06002608
     10.38983051	      0.02569980	      0.03085198	      0.05928916
     10.40677966	      0.02640143	      0.03127029	      0.05827106
     10.42372881	      0.02738577	      0.03184788	      0.05853276
     10.44067797	      0.02709643	      0.03167920	      0.05684873
     10.45762712	      0.02839596	      0.03242996	      0.05704385
     10.47457627	      0.02985084	      0.03325036	      0.05739062
     10.49152542	      0.03123093	      0.03401031	      0.05775630
     10.50847458	      0.03254986	      0.03472104	      0.05959312
     10.52542373	      0.03358434	      0.03526846	      0.06248847
     10.54237288	      0.03425377	      0.03561823	      0.06381935
     10.55932203	      0.03450631	      0.03574929	      0.06424528
     10.57627119	      0.03453792	      0.03576565	      0.06322466
     10.59322034	      0.03430595	      0.03564535	      0.06127865
     10.61016949	      0.03397201	      0.03547143	      0.05736652
     10.62711864	      0.03354094	      0.03524567	      0.05276352
     10.64406780	      0.03297116	      0.03494502	      0.05345570
     10.66101695	      0.03236913	      0.03462451	      0.05297570
     10.67796610	      0.03084437	      0.03379917	      0.05181817
     10.69491525	      0.02971043	      0.03317207	      0.05123894
     10.71186441	      0.02863544	      0.03256642	      0.05248724
     10.72881356	      0.02807054	      0.03224360	      0.05503693
     10.74576271	      0.02793213	      0.03216401	      0.05752910
     10.76271186	      0.02796036	      0.03218025	      0.05854279
     10.77966102	      0.02806070	      0.03223795	      0.05815838
     10.79661017	      0.02805264	      0.03223332	      0.05750528
     10.81355932	      0.02794007	      0.03216858	      0.05757686
     10.83050847	      0.02765882	      0.03200626	      0.05827667
     10.84745763	      0.02732026	      0.03180977	      0.05866989
     10.86440678	      0.02700923	      0.03162818	      0.05862907
     10.88135593	      0.02662613	      0.03140308	      0.05813510
     10.89830508	      0.02610523	      0.03109438	      0.05776336
     10.91525424	      0.02562047	      0.03080432	      0.05770678
     10.93220339	      0.02548880	      0.03072507	      0.05747621
     10.94915254	      0.02547975	      0.03071961	      0.05622158
     10.96610169	      0.02515132	      0.03052098	      0.05314569
     10.98305085	      0.02451606	      0.03013307	      0.05130037
     11.00000000	      0.02413673	      0.02989905	      0.05238867
     11.01694915	      0.02441333	      0.03006987	      0.05433822
     11.03389831	      0.02510318	      0.03049176	      0.05581595
     11.05084746	      0.02577521	      0.03089721	      0.05638727
     11.06779661	      0.02642825	      0.03128616	      0.05578140
     11.08474576	      0.02739011	      0.03185041	      0.05558970
     11.10169492	      0.02874575	      0.03262909	      0.05526598
     11.11864407	      0.03003928	      0.03335515	      0.05691394
     11.13559322	      0.03087357	      0.03381517	      0.05666519
     11.15254237	      0.03133850	      0.03406883	      0.05759219
     11.16949153	      0.03181323	      0.03432591	      0.05860333
     11.18644068	      0.03232131	      0.03459892	      0.05978069
     11.20338983	      0.03268890	      0.03479511	      0.06127841
     11.22033898	      0.03295141	      0.03493455	      0.06329594
     11.23728814	      0.03316568	      0.03504795	      0.06499556
     11.25423729	      0.03339185	      0.03516725	      0.06591662
     11.27118644	      0.03347109	      0.03520895	      0.06579109
     11.28813559	      0.03351799	      0.03523361	      0.06680287
     11.30508475	      0.03349999	      0.03522415	      0.06941514
     11.32203390	      0.03370525	      0.03533189	      0.07033609
     11.33898305	      0.03413600	      0.03555695	      0.06950268
     11.35593220	      0.03420050	      0.03559052	      0.06678872
     11.37288136	      0.03352817	      0.03523896	      0.06318656
     11.38983051	      0.03186843	      0.03435567	      0.05890126
     11.40677966	      0.02996094	      0.03331163	      0.05638878
     11.42372881	      0.02857567	      0.03253242	      0.05556272
     11.44067797	      0.02795623	      0.03217788	      0.05608631
     11.45762712	      0.02559674	      0.03079005	      0.05560289
     11.47457627	      0.02577297	      0.03089586	      0.05622617
     11.49152542	      0.02610511	      0.03109431	      0.05668297
     11.50847458	      0.02629828	      0.03120914	      0.05727652
     11.52542373	      0.02652334	      0.03134240	      0.05892757
     11.54237288	      0.02689632	      0.03156200	      0.06129983
     11.55932203	      0.02743314	      0.03187542	      0.06400901
     11.57627119	      0.02780625	      0.03209145	      0.06701909
     11.59322034	      0.02808350	      0.03225104	      0.06958142
     11.61016949	      0.02820271	      0.03231942	      0.07184005
     11.62711864	      0.02823099	      0.03233562	      0.07215235
