Model Marker Errors from IK
version=1
nRows=213
nColumns=4
inDegrees=no
endheader
time	total_squared_error	marker_error_RMS	marker_error_max
      0.00000000	      0.01912481	      0.02661440	      0.06289835
      0.01666667	      0.01836074	      0.02607734	      0.06362732
      0.03333333	      0.01803010	      0.02584147	      0.06415816
      0.05000000	      0.01799797	      0.02581843	      0.06390485
      0.06666667	      0.01811329	      0.02590101	      0.06370903
      0.08333333	      0.01831783	      0.02604684	      0.06332769
      0.10000000	      0.01831037	      0.02604154	      0.06164258
      0.11666667	      0.01838323	      0.02609330	      0.06061109
      0.13333333	      0.01840056	      0.02610560	      0.05949286
      0.15000000	      0.01820780	      0.02596850	      0.05820953
      0.16666667	      0.01811294	      0.02590076	      0.05731581
      0.18333333	      0.01809772	      0.02588988	      0.05641791
      0.20000000	      0.01823434	      0.02598742	      0.05558548
      0.21666667	      0.01862116	      0.02626162	      0.05454340
      0.23333333	      0.01913859	      0.02662399	      0.05384188
      0.25000000	      0.01960916	      0.02694931	      0.05330515
      0.26666667	      0.01992450	      0.02716513	      0.05299301
      0.28333333	      0.02008306	      0.02727301	      0.05216520
      0.30000000	      0.02006465	      0.02726051	      0.05214160
      0.31666667	      0.01990625	      0.02715269	      0.05264520
      0.33333333	      0.01961933	      0.02695630	      0.05277443
      0.35000000	      0.01917939	      0.02665235	      0.05299599
      0.36666667	      0.01884254	      0.02641726	      0.05312012
      0.38333333	      0.01864082	      0.02627547	      0.05340195
      0.40000000	      0.01862355	      0.02626330	      0.05379893
      0.41666667	      0.01884991	      0.02642243	      0.05437584
      0.43333333	      0.01937620	      0.02678875	      0.05523741
      0.45000000	      0.01991727	      0.02716020	      0.05617709
      0.46666667	      0.02068447	      0.02767836	      0.05700035
      0.48333333	      0.02135372	      0.02812256	      0.05835556
      0.50000000	      0.02175927	      0.02838836	      0.05961217
      0.51666667	      0.02186206	      0.02845533	      0.06061296
      0.53333333	      0.02178580	      0.02840566	      0.06168148
      0.55000000	      0.02167061	      0.02833047	      0.06208759
      0.56666667	      0.02153412	      0.02824111	      0.06285126
      0.58333333	      0.02146841	      0.02819798	      0.06330361
      0.60000000	      0.02150109	      0.02821944	      0.06310859
      0.61666667	      0.02163349	      0.02830619	      0.06296474
      0.63333333	      0.02174862	      0.02838141	      0.06259202
      0.65000000	      0.02173810	      0.02837454	      0.06196633
      0.66666667	      0.02158564	      0.02827487	      0.06129153
      0.68333333	      0.02136845	      0.02813226	      0.06051260
      0.70000000	      0.02116310	      0.02799676	      0.05961388
      0.71666667	      0.02105000	      0.02792185	      0.05872860
      0.73333333	      0.02102113	      0.02790270	      0.05761368
      0.75000000	      0.02101046	      0.02789561	      0.05645421
      0.76666667	      0.02094468	      0.02785191	      0.05561841
      0.78333333	      0.02079708	      0.02775360	      0.05444645
      0.80000000	      0.02059745	      0.02762007	      0.05321232
      0.81666667	      0.02044713	      0.02751910	      0.05213614
      0.83333333	      0.02043004	      0.02750760	      0.05115724
      0.85000000	      0.02054718	      0.02758635	      0.05039828
      0.86666667	      0.02078331	      0.02774441	      0.04981334
      0.88333333	      0.02098638	      0.02787962	      0.04938871
      0.90000000	      0.02122740	      0.02803926	      0.04900661
      0.91666667	      0.02135671	      0.02812453	      0.04878938
      0.93333333	      0.02146673	      0.02819688	      0.04878074
      0.95000000	      0.02128686	      0.02807850	      0.04930570
      0.96666667	      0.02092860	      0.02784121	      0.04970570
      0.98333333	      0.02029644	      0.02741751	      0.04917901
      1.00000000	      0.01947124	      0.02685437	      0.04915666
      1.01666667	      0.01852619	      0.02619457	      0.04904554
      1.03333333	      0.01763194	      0.02555455	      0.04895808
      1.05000000	      0.01691491	      0.02502955	      0.04899000
      1.06666667	      0.01644615	      0.02468029	      0.04900705
      1.08333333	      0.01616744	      0.02447027	      0.04933390
      1.10000000	      0.01624513	      0.02452899	      0.04949499
      1.11666667	      0.01654705	      0.02475588	      0.04962520
      1.13333333	      0.01697245	      0.02507208	      0.04997518
      1.15000000	      0.01748284	      0.02544627	      0.05002713
      1.16666667	      0.01801512	      0.02583073	      0.04991869
      1.18333333	      0.01845430	      0.02614369	      0.05005990
      1.20000000	      0.01886249	      0.02643125	      0.04952276
      1.21666667	      0.01924568	      0.02669837	      0.04955264
      1.23333333	      0.01967707	      0.02699593	      0.04940400
      1.25000000	      0.02011185	      0.02729255	      0.04908116
      1.26666667	      0.02051719	      0.02756621	      0.04859712
      1.28333333	      0.02079862	      0.02775463	      0.05236240
      1.30000000	      0.02112333	      0.02797044	      0.05426218
      1.31666667	      0.02144175	      0.02818047	      0.05479195
      1.33333333	      0.02195578	      0.02851626	      0.05818883
      1.35000000	      0.02035193	      0.02745497	      0.05343324
      1.36666667	      0.02067506	      0.02767206	      0.05264498
      1.38333333	      0.02104404	      0.02791790	      0.05170393
      1.40000000	      0.02137613	      0.02813732	      0.05019035
      1.41666667	      0.02166697	      0.02832809	      0.04983665
      1.43333333	      0.02190802	      0.02848523	      0.04987804
      1.45000000	      0.02210954	      0.02861594	      0.04990806
      1.46666667	      0.02224427	      0.02870299	      0.04988698
      1.48333333	      0.02239408	      0.02879949	      0.04979240
      1.50000000	      0.02256276	      0.02890775	      0.04969187
      1.51666667	      0.02273001	      0.02901469	      0.04968866
      1.53333333	      0.02288882	      0.02911587	      0.04962582
      1.55000000	      0.02297955	      0.02917352	      0.04963132
      1.56666667	      0.02271940	      0.02900792	      0.04976280
      1.58333333	      0.02199726	      0.02854318	      0.04978019
      1.60000000	      0.02125935	      0.02806035	      0.04963366
      1.61666667	      0.02085461	      0.02779196	      0.04939165
      1.63333333	      0.02070419	      0.02769155	      0.04888804
      1.65000000	      0.02063673	      0.02764640	      0.04815331
      1.66666667	      0.02059510	      0.02761850	      0.04744049
      1.68333333	      0.02055624	      0.02759243	      0.04670032
      1.70000000	      0.02057478	      0.02760487	      0.04589686
      1.71666667	      0.02058248	      0.02761003	      0.04588604
      1.73333333	      0.02051697	      0.02756606	      0.04610482
      1.75000000	      0.02036105	      0.02746112	      0.04691746
      1.76666667	      0.02017165	      0.02733310	      0.04778147
      1.78333333	      0.01996513	      0.02719282	      0.04882729
      1.80000000	      0.01982820	      0.02709941	      0.04954522
      1.81666667	      0.01970334	      0.02701395	      0.05022369
      1.83333333	      0.01955697	      0.02691342	      0.05070493
      1.85000000	      0.01941419	      0.02681500	      0.05106938
      1.86666667	      0.01930475	      0.02673931	      0.05110702
      1.88333333	      0.01924106	      0.02669516	      0.05114513
      1.90000000	      0.01927769	      0.02672056	      0.05111906
      1.91666667	      0.01933131	      0.02675770	      0.05101181
      1.93333333	      0.01936048	      0.02677788	      0.05109163
      1.95000000	      0.01928450	      0.02672528	      0.05109914
      1.96666667	      0.01909547	      0.02659397	      0.05084123
      1.98333333	      0.01885708	      0.02642745	      0.05073640
      2.00000000	      0.01861233	      0.02625539	      0.05082644
      2.01666667	      0.01849566	      0.02617298	      0.05084861
      2.03333333	      0.01851936	      0.02618974	      0.05089489
      2.05000000	      0.01865899	      0.02628828	      0.05094589
      2.06666667	      0.01888478	      0.02644686	      0.05099909
      2.08333333	      0.01915991	      0.02663881	      0.05090496
      2.10000000	      0.01940380	      0.02680782	      0.05063657
      2.11666667	      0.01953650	      0.02689933	      0.05006772
      2.13333333	      0.01956713	      0.02692041	      0.04934038
      2.15000000	      0.01945575	      0.02684368	      0.04902025
      2.16666667	      0.01944502	      0.02683628	      0.04870516
      2.18333333	      0.01957426	      0.02692532	      0.04846340
      2.20000000	      0.01985330	      0.02711655	      0.04851987
      2.21666667	      0.02018195	      0.02734008	      0.04914557
      2.23333333	      0.02052777	      0.02757332	      0.04966319
      2.25000000	      0.02074721	      0.02772030	      0.05010761
      2.26666667	      0.02076399	      0.02773151	      0.05045862
      2.28333333	      0.02060493	      0.02762509	      0.05032476
      2.30000000	      0.02031148	      0.02742767	      0.05013054
      2.31666667	      0.01995785	      0.02718786	      0.04988171
      2.33333333	      0.01965151	      0.02697840	      0.04944904
      2.35000000	      0.01941390	      0.02681480	      0.04953512
      2.36666667	      0.01927126	      0.02671611	      0.04939134
      2.38333333	      0.01922304	      0.02668266	      0.04950882
      2.40000000	      0.01925919	      0.02670774	      0.04976304
      2.41666667	      0.01934525	      0.02676735	      0.04985214
      2.43333333	      0.01939141	      0.02679926	      0.04989432
      2.45000000	      0.01938569	      0.02679531	      0.04981487
      2.46666667	      0.01931043	      0.02674324	      0.04959106
      2.48333333	      0.01924687	      0.02669919	      0.04937603
      2.50000000	      0.01917719	      0.02665082	      0.04923344
      2.51666667	      0.01906324	      0.02657153	      0.04951590
      2.53333333	      0.01888914	      0.02644991	      0.05008783
      2.55000000	      0.01870558	      0.02632108	      0.05075053
      2.56666667	      0.01857970	      0.02623237	      0.05108986
      2.58333333	      0.01852126	      0.02619108	      0.05155842
      2.60000000	      0.01856223	      0.02622003	      0.05185096
      2.61666667	      0.01872871	      0.02633735	      0.05200183
      2.63333333	      0.01906777	      0.02657468	      0.05204681
      2.65000000	      0.01958539	      0.02693297	      0.05216029
      2.66666667	      0.02016540	      0.02732886	      0.05209845
      2.68333333	      0.02068739	      0.02768031	      0.05158621
      2.70000000	      0.02101266	      0.02789708	      0.05101234
      2.71666667	      0.02103472	      0.02791171	      0.05036925
      2.73333333	      0.02079870	      0.02775468	      0.04987325
      2.75000000	      0.02038492	      0.02747721	      0.04972654
      2.76666667	      0.01993331	      0.02717114	      0.04975013
      2.78333333	      0.01948114	      0.02686119	      0.05014525
      2.80000000	      0.01922375	      0.02668316	      0.05040810
      2.81666667	      0.01915582	      0.02663597	      0.05037282
      2.83333333	      0.01903778	      0.02655377	      0.04989114
      2.85000000	      0.01903735	      0.02655347	      0.04905533
      2.86666667	      0.01908998	      0.02659016	      0.04814303
      2.88333333	      0.01924806	      0.02670002	      0.04728363
      2.90000000	      0.01945467	      0.02684294	      0.04917722
      2.91666667	      0.01963109	      0.02696437	      0.05055361
      2.93333333	      0.01971324	      0.02702073	      0.05100212
      2.95000000	      0.01971174	      0.02701970	      0.05039619
      2.96666667	      0.01970240	      0.02701330	      0.04902372
      2.98333333	      0.01964431	      0.02697345	      0.04838692
      3.00000000	      0.01959973	      0.02694283	      0.04857660
      3.01666667	      0.01957466	      0.02692559	      0.04876783
      3.03333333	      0.01956442	      0.02691854	      0.04919064
      3.05000000	      0.01960749	      0.02694816	      0.05003534
      3.06666667	      0.01982545	      0.02709753	      0.05083498
      3.08333333	      0.02023993	      0.02737932	      0.05174722
      3.10000000	      0.02076902	      0.02773487	      0.05266271
      3.11666667	      0.02131018	      0.02809387	      0.05338058
      3.13333333	      0.02172017	      0.02836284	      0.05395825
      3.15000000	      0.02199408	      0.02854112	      0.05364956
      3.16666667	      0.02216362	      0.02865091	      0.05295618
      3.18333333	      0.02218876	      0.02866716	      0.05229481
      3.20000000	      0.02229048	      0.02873279	      0.05156526
      3.21666667	      0.02233618	      0.02876223	      0.05170657
      3.23333333	      0.02179737	      0.02841320	      0.06114270
      3.25000000	      0.02155951	      0.02825775	      0.06055356
      3.26666667	      0.02129052	      0.02808091	      0.05955111
      3.28333333	      0.02096964	      0.02786850	      0.05795200
      3.30000000	      0.02057990	      0.02760831	      0.05574746
      3.31666667	      0.02026440	      0.02739586	      0.05385603
      3.33333333	      0.02007646	      0.02726853	      0.05286127
      3.35000000	      0.02003321	      0.02723914	      0.05267637
      3.36666667	      0.02015580	      0.02732236	      0.05310266
      3.38333333	      0.02037783	      0.02747243	      0.05408373
      3.40000000	      0.02072457	      0.02770517	      0.05488819
      3.41666667	      0.02112091	      0.02796884	      0.05533187
      3.43333333	      0.02147503	      0.02820233	      0.05456744
      3.45000000	      0.02172872	      0.02836842	      0.05184027
      3.46666667	      0.02177511	      0.02839869	      0.05195521
      3.48333333	      0.02159892	      0.02828356	      0.05276360
      3.50000000	      0.02132062	      0.02810076	      0.05063651
      3.51666667	      0.02105214	      0.02792327	      0.04970026
      3.53333333	      0.02098755	      0.02788040	      0.04940979
