Model Marker Errors from IK
version=1
nRows=122
nColumns=4
inDegrees=no
endheader
time	total_squared_error	marker_error_RMS	marker_error_max
      0.00000000	      0.01720068	      0.02524009	      0.04436781
      0.02040816	      0.01737952	      0.02537096	      0.04548795
      0.04081633	      0.01779865	      0.02567507	      0.04531388
      0.06122449	      0.01786158	      0.02572042	      0.04456370
      0.08163265	      0.01752227	      0.02547495	      0.04330862
      0.10204082	      0.01698527	      0.02508155	      0.04150436
      0.12244898	      0.01659623	      0.02479265	      0.04046286
      0.14285714	      0.01627274	      0.02454983	      0.03975823
      0.16326531	      0.01614677	      0.02445462	      0.03988631
      0.18367347	      0.01635028	      0.02460825	      0.04234240
      0.20408163	      0.01690295	      0.02502069	      0.04508283
      0.22448980	      0.01776137	      0.02564817	      0.04799788
      0.24489796	      0.01877797	      0.02637196	      0.05170556
      0.26530612	      0.01947970	      0.02686020	      0.05334315
      0.28571429	      0.02007422	      0.02726701	      0.05497611
      0.30612245	      0.02051753	      0.02756644	      0.05582836
      0.32653061	      0.02081327	      0.02776440	      0.05613387
      0.34693878	      0.02084286	      0.02778413	      0.05623423
      0.36734694	      0.02046570	      0.02753160	      0.05559542
      0.38775510	      0.01987357	      0.02713039	      0.05474836
      0.40816327	      0.01924397	      0.02669718	      0.05381930
      0.42857143	      0.01871663	      0.02632885	      0.05286663
      0.44897959	      0.01825946	      0.02600531	      0.05156560
      0.46938776	      0.01771097	      0.02561175	      0.04944657
      0.48979592	      0.01721689	      0.02525198	      0.04728192
      0.51020408	      0.01686240	      0.02499066	      0.04547721
      0.53061224	      0.01682654	      0.02496408	      0.04413983
      0.55102041	      0.01706766	      0.02514231	      0.04343566
      0.57142857	      0.01750999	      0.02546602	      0.04261873
      0.59183673	      0.01803231	      0.02584305	      0.04283133
      0.61224490	      0.01851014	      0.02618322	      0.04423928
      0.63265306	      0.01886907	      0.02643586	      0.04578229
      0.65306122	      0.01907847	      0.02658214	      0.04655558
      0.67346939	      0.01909926	      0.02659662	      0.04604665
      0.69387755	      0.01914074	      0.02662548	      0.04815835
      0.71428571	      0.01917883	      0.02665196	      0.05042519
      0.73469388	      0.01935316	      0.02677281	      0.05234822
      0.75510204	      0.01963104	      0.02696434	      0.05387336
      0.77551020	      0.01982622	      0.02709805	      0.05486135
      0.79591837	      0.01959978	      0.02694286	      0.05518977
      0.81632653	      0.01900060	      0.02652783	      0.05520017
      0.83673469	      0.01840351	      0.02610769	      0.05500863
      0.85714286	      0.01817014	      0.02594163	      0.05424569
      0.87755102	      0.01832269	      0.02605030	      0.05321174
      0.89795918	      0.01871437	      0.02632726	      0.05232730
      0.91836735	      0.01913921	      0.02662442	      0.05173526
      0.93877551	      0.01945442	      0.02684276	      0.05134117
      0.95918367	      0.01960539	      0.02694671	      0.05066248
      0.97959184	      0.01938647	      0.02679585	      0.04957293
      1.00000000	      0.01908195	      0.02658456	      0.04845419
      1.02040816	      0.01893636	      0.02648295	      0.04744979
      1.04081633	      0.01916105	      0.02663960	      0.04666112
      1.06122449	      0.01956936	      0.02692194	      0.04592815
      1.08163265	      0.01993951	      0.02717536	      0.04514662
      1.10204082	      0.02014019	      0.02731177	      0.04488987
      1.12244898	      0.02027104	      0.02740035	      0.04465853
      1.14285714	      0.02022393	      0.02736850	      0.04424354
      1.16326531	      0.01956214	      0.02691698	      0.04443079
      1.18367347	      0.01877170	      0.02636756	      0.04428204
      1.20408163	      0.01813760	      0.02591839	      0.04487222
      1.22448980	      0.01754276	      0.02548984	      0.04529493
      1.24489796	      0.01823338	      0.02598673	      0.04582579
      1.26530612	      0.01918483	      0.02665613	      0.04611071
      1.28571429	      0.02005326	      0.02725276	      0.04597848
      1.30612245	      0.02083665	      0.02777999	      0.04572324
      1.32653061	      0.02198743	      0.02853681	      0.04577269
      1.34693878	      0.02338987	      0.02943283	      0.04670227
      1.36734694	      0.02438098	      0.03004995	      0.04828203
      1.38775510	      0.02505772	      0.03046414	      0.05019305
      1.40816327	      0.02584323	      0.03093795	      0.05195164
      1.42857143	      0.02646714	      0.03130918	      0.05233807
      1.44897959	      0.02663406	      0.03140775	      0.05366366
      1.46938776	      0.02627365	      0.03119452	      0.05213552
      1.48979592	      0.02575037	      0.03088232	      0.05083449
      1.51020408	      0.02543157	      0.03069055	      0.05021046
      1.53061224	      0.02523839	      0.03057377	      0.05019406
      1.55102041	      0.02528777	      0.03060366	      0.05078764
      1.57142857	      0.02557555	      0.03077730	      0.05396927
      1.59183673	      0.02533741	      0.03063369	      0.05655093
      1.61224490	      0.02469241	      0.03024126	      0.05838524
      1.63265306	      0.02363321	      0.02958554	      0.05932149
      1.65306122	      0.02246756	      0.02884669	      0.05926702
      1.67346939	      0.02143681	      0.02817722	      0.05639615
      1.69387755	      0.02084474	      0.02778538	      0.05391167
      1.71428571	      0.02060073	      0.02762227	      0.05607768
      1.73469388	      0.02046598	      0.02753179	      0.05734114
      1.75510204	      0.02048148	      0.02754221	      0.05777804
      1.77551020	      0.02080817	      0.02776100	      0.05690913
      1.79591837	      0.02140934	      0.02815916	      0.05523795
      1.81632653	      0.02227832	      0.02872495	      0.05314827
      1.83673469	      0.02343449	      0.02946089	      0.05566672
      1.85714286	      0.02449791	      0.03012192	      0.05750461
      1.87755102	      0.02497081	      0.03041126	      0.05836140
      1.89795918	      0.02503886	      0.03045267	      0.05740729
      1.91836735	      0.01997530	      0.02719974	      0.05471541
      1.93877551	      0.02031234	      0.02742825	      0.05577354
      1.95918367	      0.02069639	      0.02768633	      0.05573034
      1.97959184	      0.02108141	      0.02794267	      0.05465281
      2.00000000	      0.02148999	      0.02821215	      0.05329690
      2.02040816	      0.02158131	      0.02827203	      0.05193526
      2.04081633	      0.02140612	      0.02815704	      0.05074406
      2.06122449	      0.02134171	      0.02811465	      0.04961839
      2.08163265	      0.02167731	      0.02833484	      0.04949333
      2.10204082	      0.02249614	      0.02886504	      0.04912088
      2.12244898	      0.02329526	      0.02937324	      0.04825510
      2.14285714	      0.02363328	      0.02958558	      0.04761622
      2.16326531	      0.02347760	      0.02948798	      0.04718683
      2.18367347	      0.02311525	      0.02925953	      0.04661591
      2.20408163	      0.02273994	      0.02902103	      0.04844527
      2.22448980	      0.02244240	      0.02883054	      0.05121277
      2.24489796	      0.02252490	      0.02888348	      0.05324625
      2.26530612	      0.02287009	      0.02910396	      0.05433598
      2.28571429	      0.02337639	      0.02942435	      0.05480212
      2.30612245	      0.02390817	      0.02975715	      0.05430377
      2.32653061	      0.02433540	      0.03002184	      0.05253913
      2.34693878	      0.02464552	      0.03021253	      0.04989554
      2.36734694	      0.02484778	      0.03033625	      0.04983635
      2.38775510	      0.02495788	      0.03040339	      0.05173662
      2.40816327	      0.02485005	      0.03033763	      0.05280348
      2.42857143	      0.02457232	      0.03016763	      0.05223261
      2.44897959	      0.02422318	      0.02995254	      0.05001195
      2.46938776	      0.02429735	      0.02999837	      0.04680718
