Model Marker Errors from IK
version=1
nRows=196
nColumns=4
inDegrees=no
endheader
time	total_squared_error	marker_error_RMS	marker_error_max
      0.00000000	      0.02607445	      0.03107604	      0.06857235
      0.01666667	      0.02498798	      0.03042172	      0.06625866
      0.03333333	      0.02432408	      0.03001486	      0.06453557
      0.05000000	      0.02383025	      0.02970861	      0.06299290
      0.06666667	      0.02333772	      0.02940000	      0.06183679
      0.08333333	      0.02294136	      0.02914927	      0.06098195
      0.10000000	      0.02260302	      0.02893353	      0.06054133
      0.11666667	      0.02218137	      0.02866238	      0.05989520
      0.13333333	      0.02182701	      0.02843251	      0.05981799
      0.15000000	      0.02164729	      0.02831522	      0.05982500
      0.16666667	      0.02162941	      0.02830352	      0.05984748
      0.18333333	      0.02180542	      0.02841845	      0.06008291
      0.20000000	      0.02205500	      0.02858062	      0.06041652
      0.21666667	      0.02229379	      0.02873492	      0.06069748
      0.23333333	      0.02254291	      0.02889503	      0.06087166
      0.25000000	      0.02279699	      0.02905741	      0.06103555
      0.26666667	      0.02303485	      0.02920861	      0.06094069
      0.28333333	      0.02325395	      0.02934719	      0.06063854
      0.30000000	      0.02347148	      0.02948413	      0.06044677
      0.31666667	      0.02371206	      0.02963485	      0.05993229
      0.33333333	      0.02395396	      0.02978563	      0.05939689
      0.35000000	      0.02421040	      0.02994464	      0.05888765
      0.36666667	      0.02448049	      0.03011121	      0.05856949
      0.38333333	      0.02476446	      0.03028535	      0.05842434
      0.40000000	      0.02515400	      0.03052261	      0.05870247
      0.41666667	      0.02585601	      0.03094560	      0.05997474
      0.43333333	      0.02683453	      0.03152573	      0.06147285
      0.45000000	      0.02803838	      0.03222512	      0.06412653
      0.46666667	      0.02926940	      0.03292494	      0.06733893
      0.48333333	      0.03042804	      0.03357029	      0.07085332
      0.50000000	      0.03145108	      0.03412997	      0.07455410
      0.51666667	      0.03257778	      0.03473592	      0.07778161
      0.53333333	      0.03397893	      0.03547505	      0.08068069
      0.55000000	      0.03534866	      0.03618300	      0.08278783
      0.56666667	      0.03664847	      0.03684224	      0.08399223
      0.58333333	      0.03782916	      0.03743100	      0.08476244
      0.60000000	      0.03901484	      0.03801308	      0.08498536
      0.61666667	      0.04021913	      0.03859530	      0.08486367
      0.63333333	      0.04131087	      0.03911563	      0.08484721
      0.65000000	      0.04190519	      0.03939599	      0.08458464
      0.66666667	      0.04196608	      0.03942460	      0.08394835
      0.68333333	      0.04178937	      0.03934151	      0.08325922
      0.70000000	      0.04145613	      0.03918434	      0.08161290
      0.71666667	      0.04108979	      0.03901082	      0.07943925
      0.73333333	      0.04066330	      0.03880784	      0.07761261
      0.75000000	      0.04015600	      0.03856500	      0.07700625
      0.76666667	      0.03963362	      0.03831334	      0.07548369
      0.78333333	      0.03948897	      0.03824336	      0.07348636
      0.80000000	      0.03965964	      0.03832591	      0.07181944
      0.81666667	      0.04014183	      0.03855819	      0.07147342
      0.83333333	      0.04079743	      0.03887179	      0.07269338
      0.85000000	      0.04161910	      0.03926128	      0.07368663
      0.86666667	      0.04261035	      0.03972608	      0.07478221
      0.88333333	      0.04369244	      0.04022733	      0.07637929
      0.90000000	      0.04465816	      0.04066947	      0.07790741
      0.91666667	      0.04541444	      0.04101239	      0.07896399
      0.93333333	      0.04579530	      0.04118400	      0.08025433
      0.95000000	      0.04615548	      0.04134564	      0.08063868
      0.96666667	      0.04687716	      0.04166763	      0.08189807
      0.98333333	      0.04805026	      0.04218577	      0.08238921
      1.00000000	      0.04974157	      0.04292180	      0.08529391
      1.01666667	      0.05139552	      0.04362955	      0.08502968
      1.03333333	      0.04933058	      0.04274410	      0.08724102
      1.05000000	      0.05045121	      0.04322688	      0.09300108
      1.06666667	      0.05114096	      0.04352137	      0.09783787
      1.08333333	      0.05141949	      0.04363972	      0.10248734
      1.10000000	      0.05124476	      0.04356552	      0.10744378
      1.11666667	      0.05072421	      0.04334368	      0.11202679
      1.13333333	      0.05010408	      0.04307792	      0.11560099
      1.15000000	      0.04927261	      0.04271898	      0.11812924
      1.16666667	      0.04780213	      0.04207671	      0.11897793
      1.18333333	      0.04535931	      0.04098749	      0.11761894
      1.20000000	      0.04235318	      0.03960601	      0.11405282
      1.21666667	      0.03978781	      0.03838779	      0.10903688
      1.23333333	      0.03821489	      0.03762136	      0.10296446
      1.25000000	      0.03742428	      0.03723016	      0.09640433
      1.26666667	      0.03711815	      0.03707757	      0.09051428
      1.28333333	      0.03724791	      0.03714233	      0.08714520
      1.30000000	      0.03783430	      0.03743355	      0.08578526
      1.31666667	      0.03875569	      0.03788662	      0.08231348
      1.33333333	      0.03995078	      0.03846633	      0.07921690
      1.35000000	      0.04162486	      0.03926400	      0.07721850
      1.36666667	      0.04417158	      0.04044731	      0.07576567
      1.38333333	      0.04747247	      0.04193137	      0.07498633
      1.40000000	      0.05076662	      0.04336179	      0.07559210
      1.41666667	      0.05298603	      0.04429950	      0.07737692
      1.43333333	      0.05370398	      0.04459861	      0.08008049
      1.45000000	      0.05255130	      0.04411740	      0.08229854
      1.46666667	      0.05087946	      0.04340996	      0.08320638
      1.48333333	      0.04959258	      0.04285746	      0.08478461
      1.50000000	      0.04922050	      0.04269639	      0.08645357
      1.51666667	      0.04973919	      0.04292077	      0.08810444
      1.53333333	      0.05066676	      0.04331913	      0.08839145
      1.55000000	      0.05156562	      0.04370169	      0.08895715
      1.56666667	      0.05214375	      0.04394599	      0.08967720
      1.58333333	      0.05253987	      0.04411259	      0.09306090
      1.60000000	      0.05301658	      0.04431227	      0.09631501
      1.61666667	      0.05354994	      0.04453461	      0.09826475
      1.63333333	      0.05389310	      0.04467707	      0.09928645
      1.65000000	      0.05375479	      0.04461970	      0.09960203
      1.66666667	      0.05292354	      0.04427337	      0.09898955
      1.68333333	      0.05143262	      0.04364529	      0.09786048
      1.70000000	      0.04956169	      0.04284411	      0.09674549
      1.71666667	      0.04778514	      0.04206923	      0.09442024
      1.73333333	      0.04643791	      0.04147195	      0.09270166
      1.75000000	      0.04575799	      0.04116722	      0.09161216
      1.76666667	      0.04570165	      0.04114187	      0.09208110
      1.78333333	      0.04633506	      0.04142600	      0.09172738
      1.80000000	      0.04745058	      0.04192170	      0.09186458
      1.81666667	      0.04864586	      0.04244642	      0.09183217
      1.83333333	      0.04943252	      0.04278825	      0.09232564
      1.85000000	      0.04927536	      0.04272017	      0.09165271
      1.86666667	      0.04823050	      0.04226482	      0.09033949
      1.88333333	      0.04662828	      0.04155687	      0.08986656
      1.90000000	      0.04494601	      0.04080033	      0.08936991
      1.91666667	      0.04346994	      0.04012478	      0.08904899
      1.93333333	      0.04243102	      0.03964239	      0.08888308
      1.95000000	      0.04199540	      0.03943837	      0.08901850
      1.96666667	      0.04217598	      0.03952307	      0.08918975
      1.98333333	      0.04286547	      0.03984483	      0.09010609
      2.00000000	      0.04372110	      0.04024053	      0.09066995
      2.01666667	      0.04457486	      0.04063152	      0.09113019
      2.03333333	      0.04539246	      0.04100247	      0.09195307
      2.05000000	      0.04601328	      0.04128190	      0.09286399
      2.06666667	      0.04641506	      0.04146175	      0.09330487
      2.08333333	      0.04651919	      0.04150823	      0.09293222
      2.10000000	      0.04640955	      0.04145929	      0.09173479
      2.11666667	      0.04618062	      0.04135690	      0.08990539
      2.13333333	      0.04598764	      0.04127040	      0.08788748
      2.15000000	      0.04573992	      0.04115910	      0.08488665
      2.16666667	      0.04552686	      0.04106312	      0.08492874
      2.18333333	      0.04529011	      0.04095621	      0.08592719
      2.20000000	      0.04505624	      0.04085033	      0.08606263
      2.21666667	      0.04450817	      0.04060112	      0.08567115
      2.23333333	      0.04315600	      0.03997963	      0.08415101
      2.25000000	      0.04093964	      0.03893948	      0.08185106
      2.26666667	      0.03833075	      0.03767834	      0.07993421
      2.28333333	      0.03599304	      0.03651131	      0.07902906
      2.30000000	      0.03448765	      0.03573962	      0.07896581
      2.31666667	      0.03421027	      0.03559561	      0.08008491
      2.33333333	      0.03516507	      0.03608892	      0.08213357
      2.35000000	      0.03682336	      0.03693004	      0.08464068
      2.36666667	      0.03849905	      0.03776097	      0.08608730
      2.38333333	      0.03971903	      0.03835460	      0.08598630
      2.40000000	      0.04043472	      0.03869861	      0.08672189
      2.41666667	      0.04103974	      0.03898706	      0.08673754
      2.43333333	      0.04192384	      0.03940476	      0.08546988
      2.45000000	      0.04357087	      0.04017133	      0.08327318
      2.46666667	      0.04592997	      0.04124451	      0.08055450
      2.48333333	      0.04847006	      0.04236965	      0.07874766
      2.50000000	      0.05003590	      0.04304860	      0.07844210
      2.51666667	      0.04934776	      0.04275155	      0.07867553
      2.53333333	      0.04621359	      0.04137166	      0.07980886
      2.55000000	      0.04175786	      0.03932668	      0.08028813
      2.56666667	      0.03749112	      0.03726338	      0.07973393
      2.58333333	      0.03443232	      0.03571094	      0.07844737
      2.60000000	      0.03282855	      0.03486936	      0.07667741
      2.61666667	      0.03239575	      0.03463875	      0.07566144
      2.63333333	      0.03269036	      0.03479589	      0.07616801
      2.65000000	      0.03322853	      0.03508114	      0.07734324
      2.66666667	      0.03359339	      0.03527322	      0.07739540
      2.68333333	      0.03372027	      0.03533976	      0.07878000
      2.70000000	      0.03365614	      0.03530614	      0.08149392
      2.71666667	      0.03354922	      0.03525002	      0.08544738
      2.73333333	      0.03366045	      0.03530840	      0.09055947
      2.75000000	      0.03430714	      0.03564597	      0.09548279
      2.76666667	      0.03563131	      0.03632738	      0.09918753
      2.78333333	      0.03729121	      0.03716390	      0.10172485
      2.80000000	      0.03905267	      0.03803150	      0.10337772
      2.81666667	      0.04116118	      0.03904469	      0.10501004
      2.83333333	      0.04414542	      0.04043533	      0.10792166
      2.85000000	      0.04820702	      0.04225453	      0.11282575
      2.86666667	      0.05294651	      0.04428297	      0.12400132
      2.88333333	      0.05739050	      0.04610395	      0.13430028
      2.90000000	      0.06047961	      0.04732849	      0.14196322
      2.91666667	      0.06147989	      0.04771827	      0.14594452
      2.93333333	      0.06037970	      0.04728938	      0.14693910
      2.95000000	      0.05796893	      0.04633570	      0.14540417
      2.96666667	      0.05537909	      0.04528882	      0.14240082
      2.98333333	      0.04205103	      0.03946448	      0.13564698
      3.00000000	      0.04061975	      0.03878705	      0.13319630
      3.01666667	      0.04064709	      0.03880010	      0.13324963
      3.03333333	      0.04179502	      0.03934417	      0.13300436
      3.05000000	      0.04385862	      0.04030376	      0.13004335
      3.06666667	      0.04645134	      0.04147795	      0.12541984
      3.08333333	      0.04856984	      0.04241324	      0.11952171
      3.10000000	      0.04946636	      0.04280289	      0.11422378
      3.11666667	      0.04881435	      0.04251986	      0.11056762
      3.13333333	      0.04669200	      0.04158525	      0.10798764
      3.15000000	      0.04384694	      0.04029840	      0.10544276
      3.16666667	      0.04117499	      0.03905125	      0.10497036
      3.18333333	      0.03936931	      0.03818537	      0.10841755
      3.20000000	      0.03843852	      0.03773127	      0.11206401
      3.21666667	      0.03846523	      0.03774438	      0.11469678
      3.23333333	      0.03897416	      0.03799325	      0.11495117
      3.25000000	      0.03974832	      0.03836874	      0.11107401
