Model Marker Errors from IK
version=1
nRows=791
nColumns=4
inDegrees=no
endheader
time	total_squared_error	marker_error_RMS	marker_error_max
      0.00000000	      0.03597557	      0.03650244	      0.08085183
      0.01694915	      0.03352320	      0.03523634	      0.07460005
      0.03389831	      0.03131114	      0.03405396	      0.06770558
      0.05084746	      0.02922555	      0.03290027	      0.06405878
      0.06779661	      0.02711028	      0.03168729	      0.06126606
      0.08474576	      0.02537168	      0.03065440	      0.06122032
      0.10169492	      0.02390152	      0.02975301	      0.06162232
      0.11864407	      0.02270921	      0.02900141	      0.06186825
      0.13559322	      0.02185975	      0.02845383	      0.06063513
      0.15254237	      0.02147023	      0.02819918	      0.05828855
      0.16949153	      0.02149538	      0.02821569	      0.06244652
      0.18644068	      0.02213072	      0.02862964	      0.07336831
      0.20338983	      0.02375916	      0.02966427	      0.08396366
      0.22033898	      0.02647814	      0.03131568	      0.09444947
      0.23728814	      0.03001628	      0.03334238	      0.10485250
      0.25423729	      0.03398358	      0.03547747	      0.11403137
      0.27118644	      0.03806549	      0.03754774	      0.12029872
      0.28813559	      0.04209175	      0.03948359	      0.12298810
      0.30508475	      0.04630005	      0.04141034	      0.12498728
      0.32203390	      0.05171286	      0.04376404	      0.12599101
      0.33898305	      0.06002458	      0.04715011	      0.12808319
      0.35593220	      0.07166676	      0.05152014	      0.13275174
      0.37288136	      0.08611432	      0.05647494	      0.15284363
      0.38983051	      0.10250222	      0.06161476	      0.17159586
      0.40677966	      0.12007555	      0.06668765	      0.18714427
      0.42372881	      0.13829134	      0.07156746	      0.19982951
      0.44067797	      0.15691821	      0.07623507	      0.20985435
      0.45762712	      0.17596220	      0.08072867	      0.21841983
      0.47457627	      0.19542014	      0.08507516	      0.22679089
      0.49152542	      0.21518576	      0.08927398	      0.23638227
      0.50847458	      0.23445104	      0.09318461	      0.24592532
      0.52542373	      0.25165576	      0.09654317	      0.25367322
      0.54237288	      0.26538537	      0.09914176	      0.25888890
      0.55932203	      0.27431655	      0.10079619	      0.25880317
      0.57627119	      0.27811800	      0.10149220	      0.25468234
      0.59322034	      0.27791474	      0.10145511	      0.24961419
      0.61016949	      0.27605354	      0.10111481	      0.24587853
      0.62711864	      0.27513284	      0.10094605	      0.24451617
      0.64406780	      0.27708277	      0.10130313	      0.24575266
      0.66101695	      0.28246053	      0.10228148	      0.24929245
      0.67796610	      0.29012796	      0.10366041	      0.25406695
      0.69491525	      0.29758994	      0.10498500	      0.25844692
      0.71186441	      0.30322376	      0.10597410	      0.26113872
      0.72881356	      0.30669496	      0.10657895	      0.26236164
      0.74576271	      0.30900123	      0.10697892	      0.26283722
      0.76271186	      0.31106199	      0.10733506	      0.26365029
      0.77966102	      0.31352532	      0.10775922	      0.26562926
      0.79661017	      0.31673959	      0.10831018	      0.26804735
      0.81355932	      0.32074894	      0.10899353	      0.27057505
      0.83050847	      0.32518645	      0.10974490	      0.27306335
      0.84745763	      0.32905915	      0.11039645	      0.27482706
      0.86440678	      0.33071156	      0.11067329	      0.27472395
      0.88135593	      0.32971145	      0.11050582	      0.27501309
      0.89830508	      0.32534494	      0.10977164	      0.27380510
      0.91525424	      0.31887901	      0.10867536	      0.27191162
      0.93220339	      0.31105249	      0.10733342	      0.26872866
      0.94915254	      0.30321095	      0.10597186	      0.26603885
      0.96610169	      0.29615821	      0.10473215	      0.26345889
      0.98305085	      0.29060334	      0.10374530	      0.26124673
      1.00000000	      0.28699586	      0.10309935	      0.25966697
      1.01694915	      0.28508572	      0.10275568	      0.25802609
      1.03389831	      0.28434440	      0.10262200	      0.25703226
      1.05084746	      0.28434066	      0.10262132	      0.25673725
      1.06779661	      0.28471090	      0.10268811	      0.25678390
      1.08474576	      0.28537598	      0.10280798	      0.25583808
      1.10169492	      0.28662971	      0.10303356	      0.25593586
      1.11864407	      0.28825905	      0.10332599	      0.25567213
      1.13559322	      0.29024176	      0.10368074	      0.25602135
      1.15254237	      0.29253964	      0.10409035	      0.25709487
      1.16949153	      0.29516257	      0.10455595	      0.25914115
      1.18644068	      0.29775424	      0.10501397	      0.26149756
      1.20338983	      0.30015575	      0.10543661	      0.26356670
      1.22033898	      0.30229398	      0.10581150	      0.26487365
      1.23728814	      0.30400708	      0.10611089	      0.26558063
      1.25423729	      0.30509508	      0.10630060	      0.26605851
      1.27118644	      0.30397663	      0.10610558	      0.26466741
      1.28813559	      0.29813423	      0.10508096	      0.26081143
      1.30508475	      0.28671183	      0.10304832	      0.25500354
      1.32203390	      0.27205896	      0.10038056	      0.24867788
      1.33898305	      0.25817765	      0.09778617	      0.24320867
      1.35593220	      0.24744181	      0.09573146	      0.23967503
      1.37288136	      0.23941342	      0.09416562	      0.23553405
      1.38983051	      0.23376033	      0.09304725	      0.23187164
      1.40677966	      0.23130177	      0.09255664	      0.22913587
      1.42372881	      0.23279430	      0.09285478	      0.22727029
      1.44067797	      0.23752934	      0.09379437	      0.22577379
      1.45762712	      0.24172555	      0.09461923	      0.22376470
      1.47457627	      0.24176234	      0.09462643	      0.22099992
      1.49152542	      0.23764693	      0.09381758	      0.21793278
      1.50847458	      0.23213758	      0.09272372	      0.21392257
      1.52542373	      0.22735570	      0.09176373	      0.21000854
      1.54237288	      0.22314062	      0.09090912	      0.20623073
      1.55932203	      0.21890769	      0.09004272	      0.20263268
      1.57627119	      0.21501914	      0.08923941	      0.19908458
      1.59322034	      0.21120874	      0.08844516	      0.19571107
      1.61016949	      0.20744748	      0.08765409	      0.19289122
      1.62711864	      0.20379570	      0.08687916	      0.19050775
      1.64406780	      0.19999279	      0.08606474	      0.18808240
      1.66101695	      0.19569507	      0.08513498	      0.18456526
      1.67796610	      0.19077016	      0.08405690	      0.17964066
      1.69491525	      0.18583386	      0.08296225	      0.17421642
      1.71186441	      0.18261117	      0.08223975	      0.16986182
      1.72881356	      0.18189778	      0.08207895	      0.17261383
      1.74576271	      0.18329856	      0.08239439	      0.17433374
      1.76271186	      0.18572612	      0.08293820	      0.17521513
      1.77966102	      0.18801121	      0.08344686	      0.17629301
      1.79661017	      0.18993632	      0.08387299	      0.17736964
      1.81355932	      0.19200350	      0.08432817	      0.17850252
      1.83050847	      0.19479626	      0.08493925	      0.18002675
      1.84745763	      0.19868468	      0.08578282	      0.18197123
      1.86440678	      0.20381821	      0.08688396	      0.18430507
      1.88135593	      0.21007908	      0.08820832	      0.18703379
      1.89830508	      0.21695338	      0.08963989	      0.18974370
      1.91525424	      0.22323643	      0.09092863	      0.19182367
      1.93220339	      0.22824028	      0.09194207	      0.19306985
      1.94915254	      0.23206254	      0.09270873	      0.19274800
      1.96610169	      0.23594962	      0.09348195	      0.19117094
      1.98305085	      0.24124606	      0.09452534	      0.18858694
      2.00000000	      0.24882966	      0.09599955	      0.19375573
      2.01694915	      0.25782130	      0.09771866	      0.20201841
      2.03389831	      0.26804128	      0.09963661	      0.20867679
      2.05084746	      0.28002515	      0.10183959	      0.21359699
      2.06779661	      0.29015657	      0.10366552	      0.21629620
      2.08474576	      0.29562592	      0.10463799	      0.21678612
      2.10169492	      0.29641706	      0.10477791	      0.21637273
      2.11864407	      0.29444293	      0.10442841	      0.21674302
      2.13559322	      0.29175219	      0.10395017	      0.21580049
      2.15254237	      0.28773541	      0.10323210	      0.21587473
      2.16949153	      0.28374580	      0.10251392	      0.21448418
      2.18644068	      0.27863722	      0.10158689	      0.21249010
      2.20338983	      0.27213387	      0.10039438	      0.20978111
      2.22033898	      0.26469344	      0.09901243	      0.20717805
      2.23728814	      0.25762815	      0.09768205	      0.20573718
      2.25423729	      0.25277894	      0.09675837	      0.20461614
      2.27118644	      0.25274555	      0.09675198	      0.20573361
      2.28813559	      0.25852935	      0.09785275	      0.20748267
      2.30508475	      0.26650296	      0.09935029	      0.21162503
      2.32203390	      0.27516575	      0.10095209	      0.21603136
      2.33898305	      0.28322130	      0.10241913	      0.22050717
      2.35593220	      0.29059887	      0.10374450	      0.22461112
      2.37288136	      0.29723104	      0.10492167	      0.22888232
      2.38983051	      0.30174995	      0.10571624	      0.23217323
      2.40677966	      0.30109848	      0.10560206	      0.23368590
      2.42372881	      0.29465719	      0.10446640	      0.23233120
      2.44067797	      0.28403159	      0.10256553	      0.22898282
      2.45762712	      0.27182642	      0.10033766	      0.22500225
      2.47457627	      0.26031953	      0.09819096	      0.22169375
      2.49152542	      0.25129853	      0.09647462	      0.21999702
      2.50847458	      0.24600241	      0.09545261	      0.22049094
      2.52542373	      0.24452004	      0.09516458	      0.22262470
      2.54237288	      0.24591802	      0.09543623	      0.22672210
      2.55932203	      0.24771861	      0.09578499	      0.23078076
      2.57627119	      0.24775661	      0.09579233	      0.23426013
      2.59322034	      0.24421477	      0.09510516	      0.23594359
      2.61016949	      0.23575173	      0.09344274	      0.23482963
      2.62711864	      0.22185965	      0.09064780	      0.23076138
      2.64406780	      0.20329042	      0.08677139	      0.22400217
      2.66101695	      0.18169497	      0.08203318	      0.21545821
      2.67796610	      0.15872563	      0.07667286	      0.20541679
      2.69491525	      0.13571687	      0.07089817	      0.19360192
      2.71186441	      0.11363707	      0.06487511	      0.17973835
      2.72881356	      0.09351537	      0.05885178	      0.16345663
      2.74576271	      0.07626124	      0.05314593	      0.14481314
      2.76271186	      0.06255622	      0.04813416	      0.12389334
      2.77966102	      0.05268433	      0.04417320	      0.11208416
      2.79661017	      0.04635641	      0.04143554	      0.10346508
      2.81355932	      0.04216986	      0.03952021	      0.09728776
      2.83050847	      0.03665505	      0.03684555	      0.09889220
      2.84745763	      0.03199409	      0.03442334	      0.09075694
      2.86440678	      0.02776340	      0.03206671	      0.08189429
      2.88135593	      0.02440925	      0.03006736	      0.07189630
      2.89830508	      0.02247126	      0.02884907	      0.06150769
      2.91525424	      0.02195668	      0.02851684	      0.06208674
      2.93220339	      0.02250692	      0.02887195	      0.06591469
      2.94915254	      0.02367776	      0.02961341	      0.06938278
      2.96610169	      0.02519749	      0.03054898	      0.07218859
      2.98305085	      0.02680002	      0.03150545	      0.07448397
      3.00000000	      0.02822369	      0.03233143	      0.07597238
      3.01694915	      0.02941170	      0.03300488	      0.07628265
      3.03389831	      0.03055034	      0.03363769	      0.07555863
      3.05084746	      0.03178104	      0.03430853	      0.07502230
      3.06779661	      0.03282751	      0.03486881	      0.07414744
      3.08474576	      0.03353720	      0.03524370	      0.07423517
      3.10169492	      0.03376516	      0.03536328	      0.07381707
      3.11864407	      0.03366407	      0.03531030	      0.07241157
      3.13559322	      0.03353058	      0.03524022	      0.06982311
      3.15254237	      0.03337056	      0.03515603	      0.06746611
      3.16949153	      0.03090135	      0.03383038	      0.06068828
      3.18644068	      0.03014164	      0.03341193	      0.06039417
      3.20338983	      0.02965044	      0.03313856	      0.06391162
      3.22033898	      0.02952078	      0.03306603	      0.06684348
      3.23728814	      0.02972239	      0.03317874	      0.06932914
      3.25423729	      0.03016442	      0.03342455	      0.07044944
      3.27118644	      0.03073491	      0.03373914	      0.07011470
      3.28813559	      0.03126813	      0.03403056	      0.06876088
      3.30508475	      0.03156422	      0.03419130	      0.06636131
      3.32203390	      0.03135043	      0.03407532	      0.06323901
      3.33898305	      0.03054341	      0.03363388	      0.05983498
      3.35593220	      0.02936042	      0.03297610	      0.05818930
      3.37288136	      0.02808999	      0.03225477	      0.05909408
      3.38983051	      0.02694867	      0.03159271	      0.05974150
      3.40677966	      0.02593620	      0.03099355	      0.05980583
      3.42372881	      0.02514748	      0.03051865	      0.05914990
      3.44067797	      0.02449184	      0.03011819	      0.05821549
      3.45762712	      0.02410210	      0.02987759	      0.05723921
      3.47457627	      0.02404996	      0.02984525	      0.05647963
      3.49152542	      0.02428217	      0.02998899	      0.05620960
      3.50847458	      0.02462116	      0.03019760	      0.05638510
      3.52542373	      0.02485817	      0.03034259	      0.05676050
      3.54237288	      0.02502727	      0.03044562	      0.05681781
      3.55932203	      0.02508709	      0.03048199	      0.05627795
      3.57627119	      0.02501695	      0.03043935	      0.05483343
      3.59322034	      0.02480919	      0.03031269	      0.05300276
      3.61016949	      0.02446758	      0.03010327	      0.05102530
      3.62711864	      0.02416201	      0.02991470	      0.04935007
      3.64406780	      0.02398485	      0.02980483	      0.04808326
      3.66101695	      0.02405687	      0.02984954	      0.04708855
      3.67796610	      0.02431473	      0.03000909	      0.04655514
      3.69491525	      0.02488129	      0.03035670	      0.04584545
      3.71186441	      0.02544952	      0.03070138	      0.04596838
      3.72881356	      0.02607408	      0.03107582	      0.04641711
      3.74576271	      0.02647113	      0.03131154	      0.04654352
      3.76271186	      0.02671180	      0.03145355	      0.04703107
      3.77966102	      0.02672711	      0.03146256	      0.04750747
      3.79661017	      0.02661903	      0.03139888	      0.04774533
      3.81355932	      0.02648856	      0.03132184	      0.05034299
      3.83050847	      0.02636008	      0.03124579	      0.05276686
      3.84745763	      0.02624860	      0.03117965	      0.05449920
      3.86440678	      0.02611230	      0.03109859	      0.05475247
      3.88135593	      0.02598760	      0.03102424	      0.05408200
      3.89830508	      0.02587808	      0.03095880	      0.05278235
      3.91525424	      0.02589472	      0.03096875	      0.05108289
      3.93220339	      0.02603318	      0.03105144	      0.04914682
      3.94915254	      0.02630415	      0.03121262	      0.04889379
      3.96610169	      0.02666415	      0.03142548	      0.04931212
      3.98305085	      0.02700899	      0.03162804	      0.05000517
      4.00000000	      0.02743876	      0.03187868	      0.05110878
      4.01694915	      0.02790111	      0.03214614	      0.05401745
      4.03389831	      0.02845835	      0.03246557	      0.05699379
      4.05084746	      0.02915414	      0.03286005	      0.06018120
      4.06779661	      0.02999053	      0.03332807	      0.06365952
      4.08474576	      0.03093839	      0.03385065	      0.06696858
      4.10169492	      0.03193138	      0.03438959	      0.06994638
      4.11864407	      0.03280656	      0.03485768	      0.07230650
      4.13559322	      0.03332101	      0.03512992	      0.07360413
      4.15254237	      0.03346102	      0.03520365	      0.07412172
      4.16949153	      0.03332254	      0.03513073	      0.07450859
      4.18644068	      0.03300238	      0.03496155	      0.07466560
      4.20338983	      0.03263812	      0.03476808	      0.07422628
      4.22033898	      0.03223758	      0.03455408	      0.07276382
      4.23728814	      0.03178478	      0.03431055	      0.07068650
      4.25423729	      0.03124879	      0.03402003	      0.06830661
      4.27118644	      0.03067776	      0.03370776	      0.06561389
      4.28813559	      0.03019403	      0.03344095	      0.06258552
      4.30508475	      0.03004111	      0.03335617	      0.05974635
      4.32203390	      0.03020766	      0.03344850	      0.05727978
      4.33898305	      0.03067451	      0.03370598	      0.05664968
      4.35593220	      0.03133070	      0.03406459	      0.05901824
      4.37288136	      0.03202081	      0.03443771	      0.06052175
      4.38983051	      0.03259904	      0.03474726	      0.06092229
      4.40677966	      0.03278364	      0.03484550	      0.05944339
      4.42372881	      0.03250821	      0.03469882	      0.05705851
      4.44067797	      0.03175762	      0.03429589	      0.05600974
      4.45762712	      0.03067975	      0.03370886	      0.05627281
      4.47457627	      0.02940732	      0.03300243	      0.05522675
      4.49152542	      0.02832899	      0.03239170	      0.05526211
      4.50847458	      0.02748314	      0.03190445	      0.05579357
      4.52542373	      0.02699702	      0.03162103	      0.05811431
      4.54237288	      0.02682833	      0.03152209	      0.06105259
      4.55932203	      0.02694628	      0.03159130	      0.06337798
      4.57627119	      0.02728280	      0.03178795	      0.06550638
      4.59322034	      0.02768846	      0.03202341	      0.06553266
      4.61016949	      0.02804994	      0.03223176	      0.06423876
      4.62711864	      0.02826955	      0.03235770	      0.06192160
      4.64406780	      0.02831073	      0.03238125	      0.05916998
      4.66101695	      0.02821088	      0.03232410	      0.05880032
      4.67796610	      0.02806148	      0.03223840	      0.05900824
      4.69491525	      0.02796687	      0.03218400	      0.05910995
      4.71186441	      0.02795234	      0.03217564	      0.05912050
      4.72881356	      0.02801937	      0.03221420	      0.06082130
      4.74576271	      0.02815691	      0.03229317	      0.06294709
      4.76271186	      0.02840023	      0.03243239	      0.06498036
      4.77966102	      0.02876890	      0.03264222	      0.06660118
      4.79661017	      0.02916247	      0.03286474	      0.06816239
      4.81355932	      0.02944491	      0.03302351	      0.06889767
      4.83050847	      0.02959931	      0.03310998	      0.06916161
      4.84745763	      0.02965883	      0.03314325	      0.06893121
      4.86440678	      0.02963286	      0.03312874	      0.06817815
      4.88135593	      0.02954476	      0.03307945	      0.06682786
      4.89830508	      0.02942625	      0.03301304	      0.06490540
      4.91525424	      0.02934213	      0.03296583	      0.06291064
      4.93220339	      0.02934328	      0.03296647	      0.06101524
      4.94915254	      0.02946749	      0.03303617	      0.05950511
      4.96610169	      0.02968748	      0.03315926	      0.05839207
      4.98305085	      0.02991526	      0.03328622	      0.05777590
      5.00000000	      0.03002521	      0.03334734	      0.05788860
      5.01694915	      0.02989828	      0.03327677	      0.05761354
      5.03389831	      0.02956238	      0.03308932	      0.05695270
      5.05084746	      0.02916249	      0.03286476	      0.05659531
      5.06779661	      0.02887429	      0.03270196	      0.05735309
      5.08474576	      0.02873053	      0.03262045	      0.05937768
      5.10169492	      0.02866942	      0.03258574	      0.06091980
      5.11864407	      0.02857894	      0.03253428	      0.06173812
      5.13559322	      0.02832343	      0.03238852	      0.06184587
      5.15254237	      0.02799756	      0.03220166	      0.06111557
      5.16949153	      0.02764320	      0.03199722	      0.06011379
      5.18644068	      0.02729717	      0.03179632	      0.05854092
      5.20338983	      0.02704186	      0.03164728	      0.05748495
      5.22033898	      0.02687588	      0.03155001	      0.05712298
      5.23728814	      0.02680547	      0.03150865	      0.05775173
      5.25423729	      0.02678945	      0.03149924	      0.05901888
      5.27118644	      0.02677450	      0.03149045	      0.06009577
      5.28813559	      0.02670263	      0.03144815	      0.06053354
      5.30508475	      0.02655595	      0.03136166	      0.06019556
      5.32203390	      0.02634231	      0.03123525	      0.05946313
      5.33898305	      0.02614413	      0.03111754	      0.05843046
      5.35593220	      0.02604477	      0.03105835	      0.05792027
      5.37288136	      0.02608077	      0.03107981	      0.05799951
      5.38983051	      0.02617889	      0.03113822	      0.05802257
      5.40677966	      0.02630991	      0.03121604	      0.05796451
      5.42372881	      0.02640642	      0.03127324	      0.05791733
      5.44067797	      0.02643756	      0.03129167	      0.05784010
      5.45762712	      0.02641181	      0.03127643	      0.05773106
      5.47457627	      0.02647064	      0.03131125	      0.05761545
      5.49152542	      0.02669447	      0.03144334	      0.05755667
      5.50847458	      0.02719566	      0.03173715	      0.05753301
      5.52542373	      0.02778236	      0.03207766	      0.05775232
      5.54237288	      0.02850483	      0.03249206	      0.05821009
      5.55932203	      0.02921204	      0.03289266	      0.05838484
      5.57627119	      0.02973247	      0.03318437	      0.05878838
      5.59322034	      0.03008906	      0.03338277	      0.05909446
      5.61016949	      0.03024131	      0.03346713	      0.05947119
      5.62711864	      0.03038869	      0.03354857	      0.05964024
      5.64406780	      0.03047653	      0.03359703	      0.05971298
      5.66101695	      0.03039123	      0.03354998	      0.05949852
      5.67796610	      0.03016187	      0.03342314	      0.05890425
      5.69491525	      0.02972709	      0.03318137	      0.05889974
      5.71186441	      0.02917902	      0.03287407	      0.05867707
      5.72881356	      0.02866984	      0.03258598	      0.05693364
      5.74576271	      0.02846354	      0.03246853	      0.05424025
      5.76271186	      0.02876181	      0.03263820	      0.05348225
      5.77966102	      0.02962833	      0.03312621	      0.05680481
      5.79661017	      0.03092965	      0.03384587	      0.06022482
      5.81355932	      0.03240176	      0.03464196	      0.06316641
      5.83050847	      0.03372123	      0.03534027	      0.06517611
      5.84745763	      0.03459722	      0.03579635	      0.06575937
      5.86440678	      0.03478130	      0.03589145	      0.06478687
      5.88135593	      0.03427973	      0.03563172	      0.06272087
      5.89830508	      0.03336252	      0.03515180	      0.06121759
      5.91525424	      0.03242614	      0.03465499	      0.06319791
      5.93220339	      0.03158336	      0.03420167	      0.06337495
      5.94915254	      0.03083301	      0.03379295	      0.06126046
      5.96610169	      0.03005388	      0.03336325	      0.05735097
      5.98305085	      0.02932917	      0.03295854	      0.05706727
      6.00000000	      0.02873469	      0.03262281	      0.05599138
      6.01694915	      0.02833663	      0.03239606	      0.05491112
      6.03389831	      0.02820842	      0.03232269	      0.05430942
      6.05084746	      0.02831498	      0.03238368	      0.05443499
      6.06779661	      0.02861635	      0.03255557	      0.05514273
      6.08474576	      0.02893689	      0.03273739	      0.05595010
      6.10169492	      0.02926937	      0.03292493	      0.05637710
      6.11864407	      0.02934447	      0.03296714	      0.05636123
      6.13559322	      0.02907560	      0.03281576	      0.05573881
      6.15254237	      0.02860408	      0.03254859	      0.05449622
      6.16949153	      0.02812968	      0.03227755	      0.05330652
      6.18644068	      0.02768571	      0.03202182	      0.05217163
      6.20338983	      0.02740731	      0.03186041	      0.05144397
      6.22033898	      0.02718252	      0.03172948	      0.05078951
      6.23728814	      0.02691651	      0.03157385	      0.05011040
      6.25423729	      0.02679172	      0.03150057	      0.04975473
      6.27118644	      0.02671755	      0.03145694	      0.04989153
      6.28813559	      0.02664530	      0.03141437	      0.05059152
      6.30508475	      0.02649097	      0.03132326	      0.05118837
      6.32203390	      0.02620887	      0.03115604	      0.05187349
      6.33898305	      0.02595460	      0.03100454	      0.05281246
      6.35593220	      0.02572905	      0.03086953	      0.05333690
      6.37288136	      0.02552779	      0.03074856	      0.05386263
      6.38983051	      0.02519491	      0.03054742	      0.05423349
      6.40677966	      0.02484890	      0.03033694	      0.05465390
      6.42372881	      0.02450272	      0.03012488	      0.05525907
      6.44067797	      0.02423796	      0.02996168	      0.05595269
      6.45762712	      0.02409973	      0.02987612	      0.05676181
      6.47457627	      0.02399616	      0.02981185	      0.05744637
      6.49152542	      0.02406925	      0.02985722	      0.05819808
      6.50847458	      0.02427138	      0.02998233	      0.05882971
      6.52542373	      0.02451282	      0.03013108	      0.05930589
      6.54237288	      0.02470358	      0.03024810	      0.05978951
      6.55932203	      0.02474911	      0.03027596	      0.05988157
      6.57627119	      0.02467712	      0.03023190	      0.06020361
      6.59322034	      0.02450717	      0.03012761	      0.06091779
      6.61016949	      0.02424555	      0.02996637	      0.06183371
      6.62711864	      0.02388399	      0.02974210	      0.06285436
      6.64406780	      0.02353374	      0.02952321	      0.06352804
      6.66101695	      0.02320467	      0.02931607	      0.06368393
      6.67796610	      0.02294269	      0.02915012	      0.06346155
      6.69491525	      0.02278210	      0.02904792	      0.06305700
      6.71186441	      0.02297391	      0.02916994	      0.06235978
      6.72881356	      0.02338804	      0.02943168	      0.06240186
      6.74576271	      0.02401174	      0.02982153	      0.06199468
      6.76271186	      0.02466001	      0.03022141	      0.06162872
      6.77966102	      0.02524697	      0.03057896	      0.06094241
      6.79661017	      0.02544609	      0.03069931	      0.05998376
      6.81355932	      0.02556282	      0.03076964	      0.05892373
      6.83050847	      0.02552379	      0.03074615	      0.05760029
      6.84745763	      0.02539619	      0.03066920	      0.05584146
      6.86440678	      0.02537446	      0.03065607	      0.05402231
      6.88135593	      0.02547850	      0.03071886	      0.05252388
      6.89830508	      0.02565315	      0.03082397	      0.05080751
      6.91525424	      0.02581805	      0.03092288	      0.04983980
      6.93220339	      0.02572535	      0.03086731	      0.04990859
      6.94915254	      0.02528419	      0.03060149	      0.04907198
      6.96610169	      0.02446466	      0.03010147	      0.04817155
      6.98305085	      0.02322429	      0.02932847	      0.04645830
      7.00000000	      0.02203840	      0.02856986	      0.04672139
      7.01694915	      0.02084703	      0.02778690	      0.04786638
      7.03389831	      0.01958929	      0.02693565	      0.04943946
      7.05084746	      0.01842202	      0.02612082	      0.05179166
      7.06779661	      0.01763089	      0.02555378	      0.05455009
      7.08474576	      0.01758705	      0.02552200	      0.05826310
      7.10169492	      0.01872427	      0.02633422	      0.06339562
      7.11864407	      0.02084129	      0.02778308	      0.06921997
      7.13559322	      0.02337244	      0.02942186	      0.07477404
      7.15254237	      0.02612155	      0.03110410	      0.07981149
      7.16949153	      0.02951765	      0.03306428	      0.08521709
      7.18644068	      0.03359929	      0.03527631	      0.08865725
      7.20338983	      0.03937383	      0.03818756	      0.08687315
      7.22033898	      0.04872259	      0.04247988	      0.09298318
      7.23728814	      0.01720735	      0.02524498	      0.05342648
      7.25423729	      0.01791613	      0.02575967	      0.05309887
      7.27118644	      0.01821479	      0.02597349	      0.04910338
      7.28813559	      0.01810389	      0.02589430	      0.04869175
      7.30508475	      0.01762457	      0.02554920	      0.04808018
      7.32203390	      0.01709781	      0.02516450	      0.04782753
      7.33898305	      0.01685126	      0.02498241	      0.04759387
      7.35593220	      0.01687448	      0.02499961	      0.04737092
      7.37288136	      0.01693685	      0.02504577	      0.04721257
      7.38983051	      0.01684729	      0.02497946	      0.04722989
      7.40677966	      0.01662872	      0.02481690	      0.04711865
      7.42372881	      0.01638738	      0.02463615	      0.04703492
      7.44067797	      0.01626140	      0.02454128	      0.04690213
      7.45762712	      0.01636614	      0.02462018	      0.04668900
      7.47457627	      0.01663821	      0.02482398	      0.04653576
      7.49152542	      0.01698606	      0.02508213	      0.04650841
      7.50847458	      0.01711413	      0.02517651	      0.04624770
      7.52542373	      0.01679574	      0.02494122	      0.04628900
      7.54237288	      0.01607077	      0.02439701	      0.04655405
      7.55932203	      0.01536123	      0.02385235	      0.04680057
      7.57627119	      0.01530190	      0.02380624	      0.04708217
      7.59322034	      0.01596115	      0.02431365	      0.04703097
      7.61016949	      0.01683994	      0.02497402	      0.04696767
      7.62711864	      0.01723376	      0.02526435	      0.04704027
      7.64406780	      0.01719730	      0.02523761	      0.04736767
      7.66101695	      0.01698266	      0.02507962	      0.04800994
      7.67796610	      0.01674682	      0.02490487	      0.04909112
      7.69491525	      0.01639529	      0.02464209	      0.05054715
      7.71186441	      0.01601299	      0.02435311	      0.05248680
      7.72881356	      0.01589483	      0.02426309	      0.05452310
      7.74576271	      0.01618894	      0.02448654	      0.05637973
      7.76271186	      0.01703188	      0.02511594	      0.05842669
      7.77966102	      0.01833620	      0.02605991	      0.06024286
      7.79661017	      0.01997523	      0.02719970	      0.06638271
      7.81355932	      0.02173744	      0.02837412	      0.07144903
      7.83050847	      0.02322668	      0.02932997	      0.07354824
      7.84745763	      0.02411956	      0.02988841	      0.07266855
      7.86440678	      0.02454578	      0.03015134	      0.07096734
      7.88135593	      0.02379666	      0.02968767	      0.06727228
      7.89830508	      0.02339836	      0.02943817	      0.06551705
      7.91525424	      0.02337510	      0.02942353	      0.06653943
      7.93220339	      0.02379380	      0.02968589	      0.06914614
      7.94915254	      0.02438848	      0.03005457	      0.07304658
      7.96610169	      0.02484978	      0.03033747	      0.07614841
      7.98305085	      0.02491222	      0.03037556	      0.07594520
      8.00000000	      0.02449998	      0.03012319	      0.07177852
      8.01694915	      0.02353647	      0.02952493	      0.06532607
      8.03389831	      0.02245923	      0.02884135	      0.06085407
      8.05084746	      0.02027394	      0.02740231	      0.05922538
      8.06779661	      0.01993594	      0.02717293	      0.06042309
      8.08474576	      0.01939866	      0.02680427	      0.06156205
      8.10169492	      0.01868585	      0.02630719	      0.06213164
      8.11864407	      0.01807523	      0.02587379	      0.06245949
      8.13559322	      0.01749084	      0.02545209	      0.06311392
      8.15254237	      0.01727197	      0.02529234	      0.06303811
      8.16949153	      0.01706807	      0.02514261	      0.06281801
      8.18644068	      0.01688140	      0.02500474	      0.06246040
      8.20338983	      0.01660473	      0.02479899	      0.06188420
      8.22033898	      0.01651322	      0.02473056	      0.06119147
      8.23728814	      0.01691438	      0.02502916	      0.06038829
      8.25423729	      0.01782288	      0.02569254	      0.05954281
      8.27118644	      0.01900105	      0.02652815	      0.05860911
      8.28813559	      0.02007405	      0.02726689	      0.05741046
      8.30508475	      0.02085499	      0.02779221	      0.05615936
      8.32203390	      0.02151688	      0.02822980	      0.06165960
      8.33898305	      0.02241745	      0.02881451	      0.07011959
      8.35593220	      0.02334937	      0.02940734	      0.07750229
      8.37288136	      0.02419146	      0.02993293	      0.08176764
      8.38983051	      0.02486539	      0.03034700	      0.08355057
      8.40677966	      0.02552270	      0.03074549	      0.08352891
      8.42372881	      0.02631125	      0.03121683	      0.08222632
      8.44067797	      0.02714100	      0.03170524	      0.08048068
      8.45762712	      0.02771912	      0.03204113	      0.07880486
      8.47457627	      0.02799003	      0.03219733	      0.07748322
      8.49152542	      0.02815897	      0.03229435	      0.07572986
      8.50847458	      0.02793639	      0.03216646	      0.07295394
      8.52542373	      0.02683888	      0.03152828	      0.06815283
      8.54237288	      0.02478503	      0.03029792	      0.06138762
      8.55932203	      0.02242333	      0.02881828	      0.05326371
      8.57627119	      0.02061047	      0.02762880	      0.05192196
      8.59322034	      0.01978707	      0.02707128	      0.05209509
      8.61016949	      0.01983687	      0.02710533	      0.05223159
      8.62711864	      0.02041777	      0.02749934	      0.05222014
      8.64406780	      0.02122775	      0.02803949	      0.05221282
      8.66101695	      0.02205413	      0.02858005	      0.05222278
      8.67796610	      0.02280895	      0.02906503	      0.05214366
      8.69491525	      0.02343206	      0.02945936	      0.05244720
      8.71186441	      0.02409429	      0.02987275	      0.05277626
      8.72881356	      0.02467140	      0.03022839	      0.05323806
      8.74576271	      0.02501087	      0.03043565	      0.05393729
      8.76271186	      0.02504900	      0.03045883	      0.05493705
      8.77966102	      0.02483933	      0.03033109	      0.05614566
      8.79661017	      0.02454219	      0.03014913	      0.05587659
      8.81355932	      0.02431699	      0.03001048	      0.05622937
      8.83050847	      0.02429239	      0.02999530	      0.05642333
      8.84745763	      0.02466231	      0.03022282	      0.05682230
      8.86440678	      0.02561064	      0.03079841	      0.05703686
      8.88135593	      0.02720871	      0.03174476	      0.05736920
      8.89830508	      0.02876342	      0.03263911	      0.05759244
      8.91525424	      0.02976009	      0.03319978	      0.05842879
      8.93220339	      0.03003605	      0.03335336	      0.05871847
      8.94915254	      0.02969479	      0.03316334	      0.05641038
      8.96610169	      0.02916184	      0.03286439	      0.05527978
      8.98305085	      0.02844071	      0.03245550	      0.05415771
      9.00000000	      0.02717073	      0.03172260	      0.05328316
      9.01694915	      0.02579298	      0.03090786	      0.05238431
      9.03389831	      0.02498615	      0.03042060	      0.05137040
      9.05084746	      0.02521653	      0.03056053	      0.05021792
      9.06779661	      0.02607394	      0.03107574	      0.05308250
      9.08474576	      0.02640101	      0.03127004	      0.05871563
      9.10169492	      0.02556249	      0.03076945	      0.05731639
      9.11864407	      0.02399524	      0.02981128	      0.05571683
      9.13559322	      0.02243956	      0.02882871	      0.05190734
      9.15254237	      0.02141869	      0.02816531	      0.04790134
      9.16949153	      0.02096814	      0.02786750	      0.04611130
      9.18644068	      0.02065338	      0.02765755	      0.04670437
      9.20338983	      0.02023567	      0.02737643	      0.04690296
      9.22033898	      0.01992299	      0.02716410	      0.04492267
      9.23728814	      0.01968782	      0.02700331	      0.04287270
      9.25423729	      0.01952797	      0.02689346	      0.04350752
      9.27118644	      0.01965733	      0.02698239	      0.04673659
      9.28813559	      0.02031298	      0.02742868	      0.05005694
      9.30508475	      0.02128928	      0.02808010	      0.05273982
      9.32203390	      0.02208553	      0.02860039	      0.05386871
      9.33898305	      0.02232694	      0.02875628	      0.05266627
      9.35593220	      0.02186466	      0.02845703	      0.04955829
      9.37288136	      0.02108287	      0.02794364	      0.05019542
      9.38983051	      0.02029039	      0.02741343	      0.05070799
      9.40677966	      0.01978522	      0.02707002	      0.05070110
      9.42372881	      0.01976519	      0.02705632	      0.04978452
      9.44067797	      0.02021512	      0.02736253	      0.04795890
      9.45762712	      0.02088656	      0.02781324	      0.04628192
      9.47457627	      0.02143415	      0.02817547	      0.04879921
      9.49152542	      0.02166320	      0.02832562	      0.05115414
      9.50847458	      0.02169452	      0.02834609	      0.05326140
      9.52542373	      0.02179275	      0.02841019	      0.05485749
      9.54237288	      0.02210224	      0.02861121	      0.05572914
      9.55932203	      0.02253559	      0.02889033	      0.05817688
      9.57627119	      0.02302139	      0.02920007	      0.06370783
      9.59322034	      0.02344441	      0.02946713	      0.06605152
      9.61016949	      0.02357942	      0.02955185	      0.06582197
      9.62711864	      0.02360391	      0.02956719	      0.06371405
      9.64406780	      0.02371317	      0.02963555	      0.06120800
      9.66101695	      0.02372771	      0.02964463	      0.05870242
      9.67796610	      0.02335635	      0.02941173	      0.05587883
      9.69491525	      0.02262226	      0.02894584	      0.05222979
      9.71186441	      0.02171590	      0.02836005	      0.04828823
      9.72881356	      0.02090911	      0.02782825	      0.04471095
      9.74576271	      0.02032587	      0.02743739	      0.04575903
      9.76271186	      0.01985799	      0.02711976	      0.04749721
      9.77966102	      0.01985033	      0.02711452	      0.04882103
      9.79661017	      0.02019495	      0.02734888	      0.04978832
      9.81355932	      0.02089060	      0.02781593	      0.05067668
      9.83050847	      0.02175060	      0.02838270	      0.05163220
      9.84745763	      0.02239356	      0.02879915	      0.05260479
      9.86440678	      0.02267594	      0.02898016	      0.05356891
      9.88135593	      0.02306214	      0.02922590	      0.05908738
      9.89830508	      0.02435847	      0.03003607	      0.06940691
      9.91525424	      0.02697907	      0.03161052	      0.08158708
      9.93220339	      0.03068291	      0.03371059	      0.09403125
      9.94915254	      0.03499190	      0.03599995	      0.10546658
      9.96610169	      0.03947729	      0.03823770	      0.11344983
      9.98305085	      0.04427338	      0.04049389	      0.11476091
     10.00000000	      0.04942852	      0.04278652	      0.11776458
     10.01694915	      0.05728685	      0.04606230	      0.12171031
     10.03389831	      0.06975883	      0.05082972	      0.13017836
     10.05084746	      0.08750611	      0.05692949	      0.14413972
     10.06779661	      0.10970837	      0.06374381	      0.16077957
     10.08474576	      0.13395467	      0.07043638	      0.17604485
     10.10169492	      0.15692735	      0.07623729	      0.18705985
     10.11864407	      0.17564875	      0.08065674	      0.19319719
     10.13559322	      0.18881171	      0.08362432	      0.19525738
     10.15254237	      0.19687503	      0.08539126	      0.19492115
     10.16949153	      0.20110858	      0.08630450	      0.19344993
     10.18644068	      0.20270213	      0.08664575	      0.19729389
     10.20338983	      0.20269756	      0.08664477	      0.20213841
     10.22033898	      0.20247356	      0.08659689	      0.20492237
     10.23728814	      0.20333160	      0.08678018	      0.20643621
     10.25423729	      0.20564532	      0.08727252	      0.20758206
     10.27118644	      0.20904661	      0.08799129	      0.20884103
     10.28813559	      0.21324236	      0.08886993	      0.21014648
     10.30508475	      0.21815153	      0.08988708	      0.21113805
     10.32203390	      0.22297611	      0.09087560	      0.21106364
     10.33898305	      0.22625890	      0.09154212	      0.20923247
     10.35593220	      0.22644482	      0.09157972	      0.20481695
     10.37288136	      0.22297887	      0.09087616	      0.20518962
     10.38983051	      0.21674993	      0.08959785	      0.20335962
     10.40677966	      0.20877026	      0.08793311	      0.19938178
     10.42372881	      0.19995603	      0.08605684	      0.19288883
     10.44067797	      0.19165928	      0.08425255	      0.18590418
     10.45762712	      0.18527721	      0.08283791	      0.17960418
     10.47457627	      0.18111661	      0.08190252	      0.17875839
     10.49152542	      0.17883845	      0.08138579	      0.17925536
     10.50847458	      0.17816337	      0.08123203	      0.17998099
     10.52542373	      0.17923476	      0.08147591	      0.18109769
     10.54237288	      0.18195006	      0.08209075	      0.18249392
     10.55932203	      0.18601307	      0.08300225	      0.18404341
     10.57627119	      0.19121012	      0.08415377	      0.19059140
     10.59322034	      0.19744810	      0.08551545	      0.19801024
     10.61016949	      0.20386995	      0.08689499	      0.20385635
     10.62711864	      0.20842174	      0.08785968	      0.20691563
     10.64406780	      0.20885963	      0.08795193	      0.20630697
     10.66101695	      0.20506421	      0.08714913	      0.20252440
     10.67796610	      0.19925464	      0.08590577	      0.19689827
     10.69491525	      0.19390197	      0.08474405	      0.19594203
     10.71186441	      0.19018267	      0.08392737	      0.19840248
     10.72881356	      0.18868072	      0.08359530	      0.20114959
     10.74576271	      0.19020536	      0.08393237	      0.20500843
     10.76271186	      0.19554747	      0.08510287	      0.21083510
     10.77966102	      0.20435705	      0.08699873	      0.21814288
     10.79661017	      0.21486806	      0.08920805	      0.22527200
     10.81355932	      0.22512482	      0.09131241	      0.23087623
     10.83050847	      0.23457824	      0.09320989	      0.23471235
     10.84745763	      0.24370232	      0.09500533	      0.23853225
     10.86440678	      0.25248621	      0.09670233	      0.24198898
     10.88135593	      0.26056201	      0.09823668	      0.24572693
     10.89830508	      0.26782621	      0.09959663	      0.24934261
     10.91525424	      0.27441462	      0.10081421	      0.25306694
     10.93220339	      0.28006566	      0.10184696	      0.25649424
     10.94915254	      0.28432332	      0.10261819	      0.25914213
     10.96610169	      0.28719684	      0.10313545	      0.26084144
     10.98305085	      0.28952049	      0.10355183	      0.26200780
     11.00000000	      0.29194876	      0.10398518	      0.26300701
     11.01694915	      0.29489897	      0.10450925	      0.26442104
     11.03389831	      0.29772602	      0.10500900	      0.26572525
     11.05084746	      0.29973761	      0.10536315	      0.26672839
     11.06779661	      0.30069242	      0.10553083	      0.26673595
     11.08474576	      0.30101516	      0.10558745	      0.26649809
     11.10169492	      0.30064446	      0.10552241	      0.26615288
     11.11864407	      0.29891389	      0.10521827	      0.26562945
     11.13559322	      0.29479672	      0.10449113	      0.26465100
     11.15254237	      0.28726738	      0.10314811	      0.26262486
     11.16949153	      0.27613573	      0.10112986	      0.25895808
     11.18644068	      0.26193267	      0.09849472	      0.25328668
     11.20338983	      0.24494801	      0.09524783	      0.24539651
     11.22033898	      0.22466153	      0.09121841	      0.23540180
     11.23728814	      0.20129294	      0.08634404	      0.22413234
     11.25423729	      0.17658081	      0.08087045	      0.21250392
     11.27118644	      0.15358660	      0.07542143	      0.20092517
     11.28813559	      0.13448386	      0.07057538	      0.18926979
     11.30508475	      0.11917400	      0.06643683	      0.17670326
     11.32203390	      0.10596118	      0.06264574	      0.18036987
     11.33898305	      0.09283490	      0.05863727	      0.17979328
     11.35593220	      0.07833027	      0.05386206	      0.17175573
     11.37288136	      0.06274122	      0.04820528	      0.15464228
     11.38983051	      0.04857365	      0.04241490	      0.13105358
     11.40677966	      0.03671927	      0.03687781	      0.11272613
     11.42372881	      0.02900939	      0.03277837	      0.08959197
     11.44067797	      0.02416980	      0.02991952	      0.07085430
     11.45762712	      0.02306647	      0.02922864	      0.05600381
     11.47457627	      0.02388625	      0.02974350	      0.04895950
     11.49152542	      0.02523860	      0.03057389	      0.05292880
     11.50847458	      0.02619583	      0.03114829	      0.05494279
     11.52542373	      0.02615389	      0.03112335	      0.05442953
     11.54237288	      0.02533310	      0.03063108	      0.05266072
     11.55932203	      0.02468110	      0.03023433	      0.05390495
     11.57627119	      0.02492287	      0.03038205	      0.05505779
     11.59322034	      0.02613601	      0.03111270	      0.05592706
     11.61016949	      0.02779227	      0.03208338	      0.05967863
     11.62711864	      0.02935433	      0.03297268	      0.06106430
     11.64406780	      0.03066367	      0.03370002	      0.06125637
     11.66101695	      0.03211312	      0.03448732	      0.06963426
     11.67796610	      0.03408107	      0.03552832	      0.07479641
     11.69491525	      0.03683991	      0.03693834	      0.07763719
     11.71186441	      0.04051767	      0.03873828	      0.07901253
     11.72881356	      0.04529407	      0.04095801	      0.08394717
     11.74576271	      0.05096417	      0.04344608	      0.10050905
     11.76271186	      0.05709013	      0.04598314	      0.11723123
     11.77966102	      0.06291836	      0.04827328	      0.13124755
     11.79661017	      0.06699787	      0.04981368	      0.13929436
     11.81355932	      0.06788983	      0.05014417	      0.13875993
     11.83050847	      0.06548094	      0.04924652	      0.12957187
     11.84745763	      0.06088131	      0.04748540	      0.11490030
     11.86440678	      0.05505215	      0.04515494	      0.09826172
     11.88135593	      0.04789996	      0.04211974	      0.08982779
     11.89830508	      0.03970831	      0.03834942	      0.08019795
     11.91525424	      0.03168726	      0.03425788	      0.06566889
     11.93220339	      0.02558626	      0.03078375	      0.05302494
     11.94915254	      0.02171512	      0.02835954	      0.04941243
     11.96610169	      0.01971789	      0.02702392	      0.04679588
     11.98305085	      0.01893050	      0.02647885	      0.04493330
     12.00000000	      0.01848978	      0.02616881	      0.04418237
     12.01694915	      0.01800118	      0.02582074	      0.04936744
     12.03389831	      0.01771978	      0.02561812	      0.05548842
     12.05084746	      0.01812680	      0.02591067	      0.06129056
     12.06779661	      0.01941661	      0.02681667	      0.06643593
     12.08474576	      0.02129627	      0.02808470	      0.07090176
     12.10169492	      0.02322359	      0.02932802	      0.07501318
     12.11864407	      0.02466441	      0.03022411	      0.07853040
     12.13559322	      0.02533734	      0.03063364	      0.08024789
     12.15254237	      0.02523815	      0.03057362	      0.07974863
     12.16949153	      0.02450075	      0.03012367	      0.07646921
     12.18644068	      0.02331088	      0.02938309	      0.07103438
     12.20338983	      0.02194879	      0.02851172	      0.06397968
     12.22033898	      0.02074346	      0.02771780	      0.05669594
     12.23728814	      0.01999639	      0.02721409	      0.05248934
     12.25423729	      0.01980379	      0.02708272	      0.05326018
     12.27118644	      0.02007913	      0.02727034	      0.05650899
     12.28813559	      0.02079286	      0.02775079	      0.06053850
     12.30508475	      0.02182021	      0.02842808	      0.06313021
     12.32203390	      0.02313133	      0.02926971	      0.06538994
     12.33898305	      0.02448250	      0.03011244	      0.06586725
     12.35593220	      0.02570670	      0.03085612	      0.06540207
     12.37288136	      0.02657407	      0.03137235	      0.06428929
     12.38983051	      0.02681670	      0.03151525	      0.06468958
     12.40677966	      0.02653348	      0.03134839	      0.06591040
     12.42372881	      0.02591959	      0.03098362	      0.06749700
     12.44067797	      0.02511765	      0.03050055	      0.06787471
     12.45762712	      0.02087715	      0.02780697	      0.04589786
     12.47457627	      0.02039576	      0.02748451	      0.04433903
     12.49152542	      0.02012438	      0.02730105	      0.04273125
     12.50847458	      0.02012584	      0.02730204	      0.04199344
     12.52542373	      0.02057660	      0.02760609	      0.04276430
     12.54237288	      0.02130450	      0.02809013	      0.04257285
     12.55932203	      0.02208468	      0.02859984	      0.04366472
     12.57627119	      0.02380302	      0.02969164	      0.04530413
     12.59322034	      0.02632167	      0.03122302	      0.04922889
     12.61016949	      0.02936083	      0.03297633	      0.05462520
     12.62711864	      0.03236922	      0.03462456	      0.06015074
     12.64406780	      0.03472896	      0.03586444	      0.06544346
     12.66101695	      0.03614439	      0.03658799	      0.06973232
     12.67796610	      0.03676287	      0.03689970	      0.07383651
     12.69491525	      0.03676903	      0.03690279	      0.07528883
     12.71186441	      0.03644853	      0.03674161	      0.07592970
     12.72881356	      0.03576479	      0.03639535	      0.07627834
     12.74576271	      0.03465199	      0.03582467	      0.07645679
     12.76271186	      0.03308840	      0.03500709	      0.07680994
     12.77966102	      0.03151698	      0.03416571	      0.07725977
     12.79661017	      0.03023249	      0.03346225	      0.07685536
     12.81355932	      0.02951041	      0.03306022	      0.07534827
     12.83050847	      0.02950998	      0.03305998	      0.07282611
     12.84745763	      0.02995765	      0.03330980	      0.06894279
     12.86440678	      0.03050369	      0.03361200	      0.06345713
     12.88135593	      0.03107663	      0.03392619	      0.05925181
     12.89830508	      0.03151104	      0.03416249	      0.05749423
     12.91525424	      0.03116409	      0.03397389	      0.06215299
     12.93220339	      0.03177663	      0.03430616	      0.06641953
     12.94915254	      0.03229112	      0.03458276	      0.06823288
     12.96610169	      0.03246772	      0.03467720	      0.06811573
     12.98305085	      0.03227616	      0.03457475	      0.06905306
     13.00000000	      0.03176274	      0.03429866	      0.07071345
     13.01694915	      0.03113125	      0.03395599	      0.07097645
     13.03389831	      0.03051038	      0.03361568	      0.06988525
     13.05084746	      0.02990511	      0.03328057	      0.06800909
     13.06779661	      0.02941725	      0.03300799	      0.06446690
     13.08474576	      0.02907475	      0.03281528	      0.05976626
     13.10169492	      0.02911101	      0.03283574	      0.05782584
     13.11864407	      0.02954864	      0.03308162	      0.05715579
     13.13559322	      0.03036007	      0.03353277	      0.05644306
     13.15254237	      0.03146858	      0.03413946	      0.05627819
     13.16949153	      0.03264054	      0.03476937	      0.05694552
     13.18644068	      0.03384074	      0.03540284	      0.06223899
     13.20338983	      0.03472624	      0.03586303	      0.06566822
     13.22033898	      0.03524784	      0.03613137	      0.06677417
     13.23728814	      0.03517366	      0.03609333	      0.06518184
     13.25423729	      0.03453905	      0.03576624	      0.06135736
     13.27118644	      0.03366907	      0.03531292	      0.06007840
     13.28813559	      0.03292065	      0.03491824	      0.05948051
     13.30508475	      0.03225890	      0.03456550	      0.05899323
     13.32203390	      0.03160884	      0.03421546	      0.05976487
     13.33898305	      0.03107952	      0.03392777	      0.06067971
     13.35593220	      0.03057333	      0.03365034	      0.06125256
     13.37288136	      0.03023780	      0.03346518	      0.06189144
     13.38983051	      0.03017219	      0.03342886	      0.06241937
