Model Marker Errors from IK
version=1
nRows=647
nColumns=4
inDegrees=no
endheader
time	total_squared_error	marker_error_RMS	marker_error_max
      0.00000000	      0.01812814	      0.02591163	      0.04683575
      0.01666667	      0.01731259	      0.02532207	      0.04297320
      0.03333333	      0.01765747	      0.02557304	      0.04358333
      0.05000000	      0.01774984	      0.02563985	      0.04306347
      0.06666667	      0.01733590	      0.02533911	      0.04259248
      0.08333333	      0.01679512	      0.02494076	      0.04343313
      0.10000000	      0.01640814	      0.02465175	      0.04233871
      0.11666667	      0.01623305	      0.02451987	      0.04325575
      0.13333333	      0.01608335	      0.02440655	      0.04222985
      0.15000000	      0.01582041	      0.02420622	      0.04139772
      0.16666667	      0.01538926	      0.02387410	      0.04018832
      0.18333333	      0.01489805	      0.02348999	      0.03966384
      0.20000000	      0.01456186	      0.02322344	      0.04035953
      0.21666667	      0.01447758	      0.02315613	      0.04121918
      0.23333333	      0.01462011	      0.02326984	      0.04216829
      0.25000000	      0.01479100	      0.02340544	      0.04357361
      0.26666667	      0.01487009	      0.02346794	      0.04410897
      0.28333333	      0.01485656	      0.02345726	      0.04444280
      0.30000000	      0.01489366	      0.02348653	      0.04402016
      0.31666667	      0.01502184	      0.02358738	      0.04414884
      0.33333333	      0.01522839	      0.02374899	      0.04417251
      0.35000000	      0.01538610	      0.02387165	      0.04441937
      0.36666667	      0.01540634	      0.02388734	      0.04471864
      0.38333333	      0.01524674	      0.02376330	      0.04538433
      0.40000000	      0.01497043	      0.02354698	      0.04568279
      0.41666667	      0.01462823	      0.02327631	      0.04648510
      0.43333333	      0.01433158	      0.02303908	      0.04679416
      0.45000000	      0.01416807	      0.02290727	      0.04674975
      0.46666667	      0.01416924	      0.02290822	      0.04687307
      0.48333333	      0.01438933	      0.02308545	      0.04690293
      0.50000000	      0.01479562	      0.02340910	      0.04721523
      0.51666667	      0.01530211	      0.02380640	      0.04773870
      0.53333333	      0.01588680	      0.02425696	      0.04803181
      0.55000000	      0.01635270	      0.02461007	      0.04932938
      0.56666667	      0.01686857	      0.02499523	      0.05034061
      0.58333333	      0.01734946	      0.02534901	      0.05081165
      0.60000000	      0.01774721	      0.02563795	      0.05131356
      0.61666667	      0.01803414	      0.02584436	      0.05120440
      0.63333333	      0.01817291	      0.02594361	      0.05075767
      0.65000000	      0.01818506	      0.02595228	      0.04993136
      0.66666667	      0.01803346	      0.02584388	      0.04881647
      0.68333333	      0.01759951	      0.02553103	      0.04782326
      0.70000000	      0.01698016	      0.02507777	      0.04614359
      0.71666667	      0.01617362	      0.02447495	      0.04464076
      0.73333333	      0.01522085	      0.02374311	      0.04256141
      0.75000000	      0.01444813	      0.02313258	      0.04089243
      0.76666667	      0.01387026	      0.02266524	      0.04032094
      0.78333333	      0.01352326	      0.02237993	      0.03991885
      0.80000000	      0.01338507	      0.02226529	      0.03992319
      0.81666667	      0.01339646	      0.02227476	      0.03951623
      0.83333333	      0.01348410	      0.02234751	      0.03885326
      0.85000000	      0.01365555	      0.02248914	      0.03933466
      0.86666667	      0.01394740	      0.02272819	      0.04020276
      0.88333333	      0.01438209	      0.02307965	      0.04080708
      0.90000000	      0.01497701	      0.02355216	      0.04095431
      0.91666667	      0.01562826	      0.02405877	      0.04105826
      0.93333333	      0.01612416	      0.02443749	      0.04145876
      0.95000000	      0.01660508	      0.02479925	      0.04154325
      0.96666667	      0.01701961	      0.02510689	      0.04108378
      0.98333333	      0.01720147	      0.02524067	      0.04161489
      1.00000000	      0.01714297	      0.02519772	      0.04270147
      1.01666667	      0.01693538	      0.02504469	      0.04368237
      1.03333333	      0.01675653	      0.02491209	      0.04419075
      1.05000000	      0.01664770	      0.02483106	      0.04441130
      1.06666667	      0.01657205	      0.02477458	      0.04362745
      1.08333333	      0.01645387	      0.02468608	      0.04310084
      1.10000000	      0.01629095	      0.02456356	      0.04153745
      1.11666667	      0.01602714	      0.02436386	      0.04003497
      1.13333333	      0.01586398	      0.02423953	      0.03848480
      1.15000000	      0.01591254	      0.02427660	      0.03879359
      1.16666667	      0.01609069	      0.02441211	      0.04108048
      1.18333333	      0.01637128	      0.02462405	      0.04291244
      1.20000000	      0.01681719	      0.02495714	      0.04404265
      1.21666667	      0.01750819	      0.02546471	      0.04437019
      1.23333333	      0.01828690	      0.02602485	      0.04382605
      1.25000000	      0.01891347	      0.02646694	      0.04240916
      1.26666667	      0.01917503	      0.02664932	      0.04039930
      1.28333333	      0.01895817	      0.02649820	      0.03871777
      1.30000000	      0.01825695	      0.02600353	      0.04033168
      1.31666667	      0.01720579	      0.02524384	      0.03967416
      1.33333333	      0.01595234	      0.02430694	      0.03723641
      1.35000000	      0.01474321	      0.02336760	      0.03702285
      1.36666667	      0.01381279	      0.02261824	      0.03692607
      1.38333333	      0.01336525	      0.02224881	      0.03696720
      1.40000000	      0.01336748	      0.02225066	      0.03699616
      1.41666667	      0.01344491	      0.02231501	      0.03701266
      1.43333333	      0.01332126	      0.02221216	      0.03739694
      1.45000000	      0.01298493	      0.02192997	      0.03699660
      1.46666667	      0.01240250	      0.02143250	      0.03708665
      1.48333333	      0.01199665	      0.02107891	      0.03708317
      1.50000000	      0.01174101	      0.02085311	      0.03714597
      1.51666667	      0.01165701	      0.02077838	      0.03726504
      1.53333333	      0.01160100	      0.02072841	      0.03752973
      1.55000000	      0.01145411	      0.02059675	      0.03780775
      1.56666667	      0.01142899	      0.02057415	      0.03828947
      1.58333333	      0.01170562	      0.02082166	      0.03847829
      1.60000000	      0.01232505	      0.02136547	      0.03887736
      1.61666667	      0.01332157	      0.02221242	      0.03884108
      1.63333333	      0.01420097	      0.02293386	      0.03876186
      1.65000000	      0.01480983	      0.02342033	      0.04083560
      1.66666667	      0.01522119	      0.02374338	      0.04256323
      1.68333333	      0.01516299	      0.02369794	      0.04239550
      1.70000000	      0.01500192	      0.02357174	      0.04032296
      1.71666667	      0.01470378	      0.02333634	      0.04425973
      1.73333333	      0.01430118	      0.02301464	      0.04628713
      1.75000000	      0.01391721	      0.02270357	      0.04714445
      1.76666667	      0.01353416	      0.02238895	      0.04714131
      1.78333333	      0.01323556	      0.02214060	      0.04669325
      1.80000000	      0.01307681	      0.02200741	      0.04591928
      1.81666667	      0.01310509	      0.02203120	      0.04499068
      1.83333333	      0.01336057	      0.02224490	      0.04326886
      1.85000000	      0.01383983	      0.02264037	      0.04205882
      1.86666667	      0.01439409	      0.02308927	      0.04304628
      1.88333333	      0.01487363	      0.02347073	      0.04373197
      1.90000000	      0.01518539	      0.02371543	      0.04508132
      1.91666667	      0.01530210	      0.02380639	      0.04593925
      1.93333333	      0.01528584	      0.02379374	      0.04633630
      1.95000000	      0.01503026	      0.02359399	      0.04627084
      1.96666667	      0.01474824	      0.02337159	      0.04574446
      1.98333333	      0.01432331	      0.02303244	      0.04486871
      2.00000000	      0.01365104	      0.02248542	      0.04348817
      2.01666667	      0.01299071	      0.02193485	      0.04189531
      2.03333333	      0.01239942	      0.02142983	      0.04011857
      2.05000000	      0.01202515	      0.02110393	      0.04120373
      2.06666667	      0.01181264	      0.02091662	      0.04257498
      2.08333333	      0.01172158	      0.02083585	      0.04228156
      2.10000000	      0.01175019	      0.02086126	      0.04054609
      2.11666667	      0.01188137	      0.02097739	      0.03917436
      2.13333333	      0.01199294	      0.02107565	      0.03797561
      2.15000000	      0.01209770	      0.02116750	      0.03621257
      2.16666667	      0.01215738	      0.02121964	      0.03474209
      2.18333333	      0.01210193	      0.02117120	      0.03432941
      2.20000000	      0.01205087	      0.02112649	      0.03510186
      2.21666667	      0.01203290	      0.02111073	      0.03618548
      2.23333333	      0.01208116	      0.02115302	      0.03739349
      2.25000000	      0.01226057	      0.02130951	      0.03850910
      2.26666667	      0.01255577	      0.02156452	      0.03932107
      2.28333333	      0.01289852	      0.02185688	      0.03990455
      2.30000000	      0.01318827	      0.02210100	      0.04011255
      2.31666667	      0.01341332	      0.02228877	      0.04014465
      2.33333333	      0.01356750	      0.02241651	      0.04003249
      2.35000000	      0.01375239	      0.02256874	      0.03969502
      2.36666667	      0.01396330	      0.02274113	      0.03934148
      2.38333333	      0.01412704	      0.02287408	      0.03902986
      2.40000000	      0.01417306	      0.02291131	      0.03903803
      2.41666667	      0.01412202	      0.02287002	      0.03935487
      2.43333333	      0.01404789	      0.02280991	      0.03986777
      2.45000000	      0.01395202	      0.02273194	      0.04014074
      2.46666667	      0.01377559	      0.02258776	      0.04082299
      2.48333333	      0.01353872	      0.02239272	      0.04166781
      2.50000000	      0.01335826	      0.02224298	      0.04251743
      2.51666667	      0.01336071	      0.02224502	      0.04366178
      2.53333333	      0.01350061	      0.02236118	      0.04392222
      2.55000000	      0.01373289	      0.02255273	      0.04380659
      2.56666667	      0.01400841	      0.02277784	      0.04317444
      2.58333333	      0.01436223	      0.02306370	      0.04223903
      2.60000000	      0.01473494	      0.02336104	      0.04224776
      2.61666667	      0.01493384	      0.02351819	      0.04363953
      2.63333333	      0.01468628	      0.02332244	      0.04442451
      2.65000000	      0.01400467	      0.02277480	      0.04448427
      2.66666667	      0.01311952	      0.02204332	      0.04400767
      2.68333333	      0.01240544	      0.02143504	      0.04316642
      2.70000000	      0.01200257	      0.02108411	      0.04249900
      2.71666667	      0.01187368	      0.02097059	      0.04211299
      2.73333333	      0.01187839	      0.02097475	      0.04193803
      2.75000000	      0.01188385	      0.02097957	      0.04210771
      2.76666667	      0.01188140	      0.02097741	      0.04233038
      2.78333333	      0.01192417	      0.02101513	      0.04256524
      2.80000000	      0.01205658	      0.02113150	      0.04276778
      2.81666667	      0.01219323	      0.02125091	      0.04253423
      2.83333333	      0.01234582	      0.02138346	      0.04259682
      2.85000000	      0.01251068	      0.02152577	      0.04379585
      2.86666667	      0.01271212	      0.02169837	      0.04385307
      2.88333333	      0.01293503	      0.02188778	      0.04292140
      2.90000000	      0.01320425	      0.02211439	      0.04224120
      2.91666667	      0.01350383	      0.02236385	      0.04279207
      2.93333333	      0.01380695	      0.02261346	      0.04332145
      2.95000000	      0.01412066	      0.02286892	      0.04421248
      2.96666667	      0.01427147	      0.02299071	      0.04431059
      2.98333333	      0.01425458	      0.02297711	      0.04423626
      3.00000000	      0.01408125	      0.02283698	      0.04367561
      3.01666667	      0.01387991	      0.02267312	      0.04301617
      3.03333333	      0.01365921	      0.02249214	      0.04240328
      3.05000000	      0.01333041	      0.02221978	      0.04148285
      3.06666667	      0.01285445	      0.02181950	      0.04061816
      3.08333333	      0.01235576	      0.02139207	      0.04030574
      3.10000000	      0.01204004	      0.02111699	      0.04026050
      3.11666667	      0.01198688	      0.02107032	      0.04033603
      3.13333333	      0.01211713	      0.02118449	      0.04053169
      3.15000000	      0.01233234	      0.02137179	      0.04079685
      3.16666667	      0.01253422	      0.02154601	      0.04119128
      3.18333333	      0.01275738	      0.02173697	      0.04165774
      3.20000000	      0.01308867	      0.02201740	      0.04222695
      3.21666667	      0.01351351	      0.02237187	      0.04249628
      3.23333333	      0.01397467	      0.02275039	      0.04277563
      3.25000000	      0.01442292	      0.02311238	      0.04378874
      3.26666667	      0.01475232	      0.02337482	      0.04447014
      3.28333333	      0.01471998	      0.02334919	      0.04408252
      3.30000000	      0.01460652	      0.02325902	      0.04273327
      3.31666667	      0.01443362	      0.02312096	      0.04297834
      3.33333333	      0.01429615	      0.02301058	      0.04323898
      3.35000000	      0.01425594	      0.02297821	      0.04360896
      3.36666667	      0.01435550	      0.02305830	      0.04421450
      3.38333333	      0.01459054	      0.02324630	      0.04413778
      3.40000000	      0.01487505	      0.02347185	      0.04368118
      3.41666667	      0.01504609	      0.02360641	      0.04303641
      3.43333333	      0.01498151	      0.02355569	      0.04229895
      3.45000000	      0.01466043	      0.02330190	      0.04142239
      3.46666667	      0.01414957	      0.02289232	      0.04090915
      3.48333333	      0.01357919	      0.02242617	      0.04168812
      3.50000000	      0.01308262	      0.02201231	      0.04288090
      3.51666667	      0.01275648	      0.02173619	      0.04424583
      3.53333333	      0.01266802	      0.02166070	      0.04556553
      3.55000000	      0.01281751	      0.02178813	      0.04676712
      3.56666667	      0.01315812	      0.02207573	      0.04772168
      3.58333333	      0.01360508	      0.02244754	      0.04818504
      3.60000000	      0.01407459	      0.02283158	      0.04834939
      3.61666667	      0.01448954	      0.02316570	      0.04839135
      3.63333333	      0.01477904	      0.02339598	      0.04825242
      3.65000000	      0.01485355	      0.02345488	      0.04806142
      3.66666667	      0.01474026	      0.02336526	      0.04787316
      3.68333333	      0.01451482	      0.02318590	      0.04751257
      3.70000000	      0.01429771	      0.02301184	      0.04725845
      3.71666667	      0.01422312	      0.02295174	      0.04707282
      3.73333333	      0.01437097	      0.02307072	      0.04681365
      3.75000000	      0.01479752	      0.02341060	      0.04654150
      3.76666667	      0.01535755	      0.02384949	      0.04619943
      3.78333333	      0.01566780	      0.02408919	      0.04577800
      3.80000000	      0.01552751	      0.02398110	      0.04564502
      3.81666667	      0.01507027	      0.02362537	      0.04568336
      3.83333333	      0.01463247	      0.02327968	      0.04604394
      3.85000000	      0.01450357	      0.02317691	      0.04670715
      3.86666667	      0.01489798	      0.02348993	      0.04745138
      3.88333333	      0.01565383	      0.02407844	      0.04832553
      3.90000000	      0.01647646	      0.02470302	      0.04915879
      3.91666667	      0.01704371	      0.02512466	      0.05041915
      3.93333333	      0.01715566	      0.02520704	      0.05124308
      3.95000000	      0.01692748	      0.02503885	      0.05007716
      3.96666667	      0.01660968	      0.02480269	      0.04974483
      3.98333333	      0.01639210	      0.02463970	      0.04936548
      4.00000000	      0.01634007	      0.02460057	      0.04909114
      4.01666667	      0.01634635	      0.02460529	      0.04879404
      4.03333333	      0.01646583	      0.02469505	      0.04855620
      4.05000000	      0.01667614	      0.02485226	      0.04834393
      4.06666667	      0.01677682	      0.02492717	      0.04820206
      4.08333333	      0.01658892	      0.02478718	      0.04807253
      4.10000000	      0.01616914	      0.02447156	      0.04813096
      4.11666667	      0.01569979	      0.02411376	      0.04798530
      4.13333333	      0.01538402	      0.02387004	      0.04756630
      4.15000000	      0.01513476	      0.02367587	      0.04676883
      4.16666667	      0.01495333	      0.02353353	      0.04543092
      4.18333333	      0.01491474	      0.02350314	      0.04407158
      4.20000000	      0.01496502	      0.02354272	      0.04288667
      4.21666667	      0.01487941	      0.02347529	      0.04243926
      4.23333333	      0.01473989	      0.02336497	      0.04282507
      4.25000000	      0.01474696	      0.02337057	      0.04380356
      4.26666667	      0.01516250	      0.02369755	      0.04550819
      4.28333333	      0.01572620	      0.02413404	      0.04715796
      4.30000000	      0.01621402	      0.02450550	      0.04839880
      4.31666667	      0.01651308	      0.02473046	      0.04895119
      4.33333333	      0.01657538	      0.02477706	      0.04882035
      4.35000000	      0.01641597	      0.02465764	      0.04831070
      4.36666667	      0.01627245	      0.02454961	      0.04779203
      4.38333333	      0.01626446	      0.02454358	      0.04753694
      4.40000000	      0.01652040	      0.02473594	      0.04756562
      4.41666667	      0.01711947	      0.02518044	      0.04770261
      4.43333333	      0.01798545	      0.02580945	      0.04776302
      4.45000000	      0.01876957	      0.02636606	      0.04786186
      4.46666667	      0.01857104	      0.02622626	      0.04762559
      4.48333333	      0.01829985	      0.02603406	      0.04750932
      4.50000000	      0.01828614	      0.02602430	      0.04835427
      4.51666667	      0.01842161	      0.02612052	      0.05177472
      4.53333333	      0.01854985	      0.02621128	      0.05236097
      4.55000000	      0.01888395	      0.02644628	      0.05165723
      4.56666667	      0.01924891	      0.02670061	      0.04953763
      4.58333333	      0.01970392	      0.02701435	      0.04971635
      4.60000000	      0.02018548	      0.02734246	      0.05008579
      4.61666667	      0.02096140	      0.02786303	      0.05493008
      4.63333333	      0.02185476	      0.02845058	      0.06343994
      4.65000000	      0.02314188	      0.02927638	      0.07218282
      4.66666667	      0.02460774	      0.03018936	      0.07695134
      4.68333333	      0.02462760	      0.03020155	      0.06717388
      4.70000000	      0.02424824	      0.02996803	      0.06640873
      4.71666667	      0.02361683	      0.02957529	      0.06216277
      4.73333333	      0.02304807	      0.02921698	      0.06589357
      4.75000000	      0.02251444	      0.02887678	      0.06643520
      4.76666667	      0.02173315	      0.02837131	      0.06207809
      4.78333333	      0.02035719	      0.02745851	      0.05206119
      4.80000000	      0.01922366	      0.02668309	      0.05318166
      4.81666667	      0.01869123	      0.02631098	      0.05425004
      4.83333333	      0.01844102	      0.02613428	      0.05507788
      4.85000000	      0.01823922	      0.02599089	      0.05540962
      4.86666667	      0.01790774	      0.02575363	      0.05534120
      4.88333333	      0.01757061	      0.02551007	      0.05517014
      4.90000000	      0.01757753	      0.02551508	      0.05494955
      4.91666667	      0.01794030	      0.02577704	      0.05490924
      4.93333333	      0.01871728	      0.02632931	      0.05540595
      4.95000000	      0.01972358	      0.02702782	      0.06559466
      4.96666667	      0.02101464	      0.02789838	      0.07549921
      4.98333333	      0.02096267	      0.02786387	      0.05967015
      5.00000000	      0.02168688	      0.02834110	      0.06030679
      5.01666667	      0.02283846	      0.02908382	      0.06369469
      5.03333333	      0.02414895	      0.02990661	      0.06888579
      5.05000000	      0.02500707	      0.03043333	      0.07058361
      5.06666667	      0.02519797	      0.03054927	      0.07077287
      5.08333333	      0.02460495	      0.03018766	      0.07323068
      5.10000000	      0.02317776	      0.02929907	      0.07613109
      5.11666667	      0.02116610	      0.02799874	      0.06689290
      5.13333333	      0.01916514	      0.02664245	      0.06169398
      5.15000000	      0.01665405	      0.02483579	      0.05807818
      5.16666667	      0.01492020	      0.02350745	      0.05713799
      5.18333333	      0.01425334	      0.02297611	      0.05561787
      5.20000000	      0.01399217	      0.02276463	      0.05385177
      5.21666667	      0.01408335	      0.02283868	      0.05214751
      5.23333333	      0.01415755	      0.02289877	      0.05062846
      5.25000000	      0.01441295	      0.02310439	      0.04955127
      5.26666667	      0.01508616	      0.02363782	      0.04889066
      5.28333333	      0.01606159	      0.02439003	      0.05177290
      5.30000000	      0.01670000	      0.02487003	      0.05318709
      5.31666667	      0.01677311	      0.02492441	      0.04955005
      5.33333333	      0.01652124	      0.02473656	      0.05004268
      5.35000000	      0.01605919	      0.02438821	      0.05047212
      5.36666667	      0.01536865	      0.02385810	      0.05039772
      5.38333333	      0.01468325	      0.02332004	      0.04987105
      5.40000000	      0.01408409	      0.02283929	      0.04916140
      5.41666667	      0.01368318	      0.02251187	      0.04846162
      5.43333333	      0.01342430	      0.02229790	      0.04803452
      5.45000000	      0.01326307	      0.02216359	      0.04773890
      5.46666667	      0.01321435	      0.02212285	      0.04748323
      5.48333333	      0.01332093	      0.02221188	      0.04735123
      5.50000000	      0.01358447	      0.02243053	      0.04716215
      5.51666667	      0.01380920	      0.02261530	      0.04700351
      5.53333333	      0.01376710	      0.02258080	      0.04693776
      5.55000000	      0.01344076	      0.02231157	      0.04673301
      5.56666667	      0.01297375	      0.02192052	      0.04659019
      5.58333333	      0.01264162	      0.02163812	      0.04645046
      5.60000000	      0.01273241	      0.02171568	      0.04632579
      5.61666667	      0.01323387	      0.02213918	      0.04626274
      5.63333333	      0.01373909	      0.02255782	      0.04633413
      5.65000000	      0.01407739	      0.02283385	      0.04640496
      5.66666667	      0.01441605	      0.02310688	      0.04651323
      5.68333333	      0.01502875	      0.02359280	      0.04665429
      5.70000000	      0.01595935	      0.02431228	      0.04684855
      5.71666667	      0.01689069	      0.02501162	      0.04723270
      5.73333333	      0.01768707	      0.02559447	      0.04749157
      5.75000000	      0.01849089	      0.02616959	      0.04820325
      5.76666667	      0.01951095	      0.02688173	      0.04983661
      5.78333333	      0.02038138	      0.02747483	      0.04954602
      5.80000000	      0.02051490	      0.02756467	      0.04967935
      5.81666667	      0.02021885	      0.02736505	      0.05013256
      5.83333333	      0.01972427	      0.02702829	      0.04977561
      5.85000000	      0.01917764	      0.02665113	      0.04919252
      5.86666667	      0.01875949	      0.02635898	      0.04908024
      5.88333333	      0.01850907	      0.02618246	      0.04881338
      5.90000000	      0.01844525	      0.02613728	      0.04853922
      5.91666667	      0.01876830	      0.02636517	      0.04819023
      5.93333333	      0.01970573	      0.02701558	      0.04840032
      5.95000000	      0.02087031	      0.02780242	      0.05615976
      5.96666667	      0.02255989	      0.02890591	      0.06039290
      5.98333333	      0.02479603	      0.03030464	      0.06256500
      6.00000000	      0.02694189	      0.03158873	      0.06186086
      6.01666667	      0.02752319	      0.03192769	      0.06654996
      6.03333333	      0.02555671	      0.03076597	      0.06432807
      6.05000000	      0.02189990	      0.02847995	      0.05276208
      6.06666667	      0.01814950	      0.02592689	      0.04922232
      6.08333333	      0.01579017	      0.02418308	      0.04874422
      6.10000000	      0.01489052	      0.02348405	      0.04807745
      6.11666667	      0.01482131	      0.02342941	      0.04731599
      6.13333333	      0.01507725	      0.02363084	      0.04677379
      6.15000000	      0.01482750	      0.02343430	      0.04654490
      6.16666667	      0.01405636	      0.02281679	      0.04667089
      6.18333333	      0.01334279	      0.02223010	      0.04693680
      6.20000000	      0.01341769	      0.02229241	      0.04707519
      6.21666667	      0.01427330	      0.02299219	      0.04704901
      6.23333333	      0.01566352	      0.02408590	      0.04682263
      6.25000000	      0.01703312	      0.02511685	      0.04912823
      6.26666667	      0.01792214	      0.02576398	      0.05688079
      6.28333333	      0.01805839	      0.02586174	      0.05948671
      6.30000000	      0.01750157	      0.02545990	      0.05750925
      6.31666667	      0.01658881	      0.02478710	      0.05288271
      6.33333333	      0.01581170	      0.02419955	      0.04804820
      6.35000000	      0.01545478	      0.02392486	      0.04569037
      6.36666667	      0.01553401	      0.02398612	      0.04584824
      6.38333333	      0.01580210	      0.02419221	      0.04594047
      6.40000000	      0.01611909	      0.02443365	      0.04604126
      6.41666667	      0.01629501	      0.02456662	      0.04610891
      6.43333333	      0.01649898	      0.02471990	      0.04622453
      6.45000000	      0.01675571	      0.02491148	      0.04635414
      6.46666667	      0.01705476	      0.02513281	      0.04723223
      6.48333333	      0.01729796	      0.02531136	      0.04728846
      6.50000000	      0.01754521	      0.02549162	      0.05055936
      6.51666667	      0.01776653	      0.02565189	      0.05369151
      6.53333333	      0.01796543	      0.02579509	      0.05559969
      6.55000000	      0.01810503	      0.02589511	      0.05600423
      6.56666667	      0.01801115	      0.02582788	      0.05469567
      6.58333333	      0.01751011	      0.02546611	      0.05065917
      6.60000000	      0.01663250	      0.02481972	      0.04616552
      6.61666667	      0.01566313	      0.02408560	      0.04570674
      6.63333333	      0.01500793	      0.02357645	      0.04498381
      6.65000000	      0.01486992	      0.02346781	      0.04426290
      6.66666667	      0.01513561	      0.02367653	      0.04339428
      6.68333333	      0.01554501	      0.02399461	      0.04248448
      6.70000000	      0.01587186	      0.02424555	      0.04149324
      6.71666667	      0.01598785	      0.02433398	      0.04049969
      6.73333333	      0.01594750	      0.02430326	      0.03991746
      6.75000000	      0.01590515	      0.02427096	      0.03880357
      6.76666667	      0.01597252	      0.02432231	      0.03815927
      6.78333333	      0.01616757	      0.02447036	      0.03780960
      6.80000000	      0.01639864	      0.02464462	      0.03790702
      6.81666667	      0.01652133	      0.02473663	      0.03838051
      6.83333333	      0.01656224	      0.02476724	      0.03910267
      6.85000000	      0.01656156	      0.02476674	      0.03987114
      6.86666667	      0.01661873	      0.02480945	      0.04054874
      6.88333333	      0.01673218	      0.02489398	      0.04125104
      6.90000000	      0.01664964	      0.02483250	      0.04204647
      6.91666667	      0.01650245	      0.02472250	      0.04287514
      6.93333333	      0.01607402	      0.02439947	      0.04366493
      6.95000000	      0.01543929	      0.02391287	      0.04441620
      6.96666667	      0.01476287	      0.02338318	      0.04478671
      6.98333333	      0.01417155	      0.02291009	      0.04466364
      7.00000000	      0.01372423	      0.02254562	      0.04397752
      7.01666667	      0.01344485	      0.02231496	      0.04288563
      7.03333333	      0.01341150	      0.02228726	      0.04173187
      7.05000000	      0.01367401	      0.02250433	      0.04064864
      7.06666667	      0.01410620	      0.02285720	      0.04005194
      7.08333333	      0.01453151	      0.02319922	      0.03968814
      7.10000000	      0.01518173	      0.02371258	      0.03934304
      7.11666667	      0.01655116	      0.02475896	      0.03999747
      7.13333333	      0.01897894	      0.02651271	      0.04278853
      7.15000000	      0.02229215	      0.02873387	      0.05108945
      7.16666667	      0.02282858	      0.02907753	      0.04958954
      7.18333333	      0.02473016	      0.03026437	      0.05492844
      7.20000000	      0.02589536	      0.03096913	      0.05849139
      7.21666667	      0.02619202	      0.03114603	      0.06028915
      7.23333333	      0.02578360	      0.03090224	      0.05970787
      7.25000000	      0.02490007	      0.03036816	      0.05740867
      7.26666667	      0.02374738	      0.02965692	      0.05398584
      7.28333333	      0.02243408	      0.02882520	      0.05040806
      7.30000000	      0.02102252	      0.02790362	      0.04764046
      7.31666667	      0.01964635	      0.02697485	      0.04796893
      7.33333333	      0.01857925	      0.02623205	      0.04941186
      7.35000000	      0.01796800	      0.02579693	      0.05049674
      7.36666667	      0.01766209	      0.02557638	      0.05113298
      7.38333333	      0.01777905	      0.02566093	      0.05147847
      7.40000000	      0.01806173	      0.02586413	      0.05148237
      7.41666667	      0.01862107	      0.02626155	      0.05300292
      7.43333333	      0.01941723	      0.02681710	      0.05894888
      7.45000000	      0.02054618	      0.02758568	      0.06444037
      7.46666667	      0.02042513	      0.02750430	      0.06973029
      7.48333333	      0.02087577	      0.02780605	      0.07555652
      7.50000000	      0.02134533	      0.02811704	      0.08116369
      7.51666667	      0.02208405	      0.02859943	      0.08598677
      7.53333333	      0.02327098	      0.02935793	      0.09031220
      7.55000000	      0.01855066	      0.02621186	      0.05659080
      7.56666667	      0.01890924	      0.02646398	      0.05529022
      7.58333333	      0.01926565	      0.02671222	      0.05412223
      7.60000000	      0.01970843	      0.02701744	      0.05312437
      7.61666667	      0.02001352	      0.02722575	      0.05162666
      7.63333333	      0.02014041	      0.02731193	      0.05023817
      7.65000000	      0.01935224	      0.02677218	      0.04820033
      7.66666667	      0.01836380	      0.02607951	      0.04551277
      7.68333333	      0.01750245	      0.02546053	      0.04318510
      7.70000000	      0.01699674	      0.02509001	      0.04196912
      7.71666667	      0.01691966	      0.02503306	      0.04305696
      7.73333333	      0.01706981	      0.02514389	      0.04375236
      7.75000000	      0.01733766	      0.02534040	      0.04390876
      7.76666667	      0.01755144	      0.02549614	      0.04367704
      7.78333333	      0.01753203	      0.02548204	      0.04328043
      7.80000000	      0.01742511	      0.02540422	      0.04281705
      7.81666667	      0.01735508	      0.02535312	      0.04329782
      7.83333333	      0.01742638	      0.02540515	      0.04380608
      7.85000000	      0.01759377	      0.02552687	      0.04430135
      7.86666667	      0.01775184	      0.02564128	      0.04433600
      7.88333333	      0.01778090	      0.02566227	      0.04484376
      7.90000000	      0.01767556	      0.02558613	      0.04526363
      7.91666667	      0.01747490	      0.02544049	      0.04460760
      7.93333333	      0.01721854	      0.02525319	      0.04354424
      7.95000000	      0.01689948	      0.02501813	      0.04274571
      7.96666667	      0.01655025	      0.02475827	      0.04236556
      7.98333333	      0.01630284	      0.02457252	      0.04255725
      8.00000000	      0.01615513	      0.02446095	      0.04305173
      8.01666667	      0.01597648	      0.02432533	      0.04369771
      8.03333333	      0.01565761	      0.02408135	      0.04402598
      8.05000000	      0.01509962	      0.02364837	      0.04386574
      8.06666667	      0.01444214	      0.02312778	      0.04346560
      8.08333333	      0.01379934	      0.02260723	      0.04300517
      8.10000000	      0.01323977	      0.02214411	      0.04277896
      8.11666667	      0.01280435	      0.02177694	      0.04261320
      8.13333333	      0.01251516	      0.02152962	      0.04246584
      8.15000000	      0.01239067	      0.02142227	      0.04213304
      8.16666667	      0.01246138	      0.02148331	      0.04170236
      8.18333333	      0.01273924	      0.02172150	      0.04121274
      8.20000000	      0.01298579	      0.02193069	      0.04009405
      8.21666667	      0.01334334	      0.02223056	      0.03981516
      8.23333333	      0.01375183	      0.02256827	      0.04013231
      8.25000000	      0.01420251	      0.02293510	      0.04083716
      8.26666667	      0.01465203	      0.02329523	      0.04245352
      8.28333333	      0.01498440	      0.02355797	      0.04409077
      8.30000000	      0.01518621	      0.02371607	      0.04557754
      8.31666667	      0.01526826	      0.02378006	      0.04649036
      8.33333333	      0.01521978	      0.02374227	      0.04651832
      8.35000000	      0.01497210	      0.02354830	      0.04521195
      8.36666667	      0.01465922	      0.02330095	      0.04342218
      8.38333333	      0.01432165	      0.02303110	      0.04125208
      8.40000000	      0.01409490	      0.02284805	      0.03953554
      8.41666667	      0.01396752	      0.02274457	      0.04028919
      8.43333333	      0.01388600	      0.02267810	      0.04134761
      8.45000000	      0.01384836	      0.02264735	      0.04258190
      8.46666667	      0.01373359	      0.02255331	      0.04297730
      8.48333333	      0.01368294	      0.02251168	      0.04329473
      8.50000000	      0.01372146	      0.02254334	      0.04319412
      8.51666667	      0.01388298	      0.02267563	      0.04295422
      8.53333333	      0.01417840	      0.02291563	      0.04269133
      8.55000000	      0.01460536	      0.02325810	      0.04238192
      8.56666667	      0.01511972	      0.02366410	      0.04223230
      8.58333333	      0.01564420	      0.02407104	      0.04226770
      8.60000000	      0.01616637	      0.02446946	      0.04240085
      8.61666667	      0.01668075	      0.02485570	      0.04310531
      8.63333333	      0.01703192	      0.02511597	      0.04445757
      8.65000000	      0.01727688	      0.02529594	      0.04529069
      8.66666667	      0.01742112	      0.02540131	      0.04555155
      8.68333333	      0.01756011	      0.02550244	      0.04563397
      8.70000000	      0.01763698	      0.02555820	      0.04572989
      8.71666667	      0.01763302	      0.02555533	      0.04575416
      8.73333333	      0.01739188	      0.02537999	      0.04527970
      8.75000000	      0.01689385	      0.02501396	      0.04439792
      8.76666667	      0.01626567	      0.02454450	      0.04307628
      8.78333333	      0.01570389	      0.02411692	      0.04184939
      8.80000000	      0.01530510	      0.02380873	      0.04150308
      8.81666667	      0.01505199	      0.02361103	      0.04126408
      8.83333333	      0.01490480	      0.02349531	      0.04124449
      8.85000000	      0.01491120	      0.02350035	      0.04162297
      8.86666667	      0.01499035	      0.02356264	      0.04207580
      8.88333333	      0.01520332	      0.02372943	      0.04227462
      8.90000000	      0.01546646	      0.02393391	      0.04265182
      8.91666667	      0.01581251	      0.02420018	      0.04280253
      8.93333333	      0.01619374	      0.02449016	      0.04302107
      8.95000000	      0.01660876	      0.02480200	      0.04349972
      8.96666667	      0.01698688	      0.02508274	      0.04387192
      8.98333333	      0.01729208	      0.02530706	      0.04403289
      9.00000000	      0.01750774	      0.02546438	      0.04441145
      9.01666667	      0.01764062	      0.02556084	      0.04509101
      9.03333333	      0.01768995	      0.02559655	      0.04515760
      9.05000000	      0.01772654	      0.02562301	      0.04502815
      9.06666667	      0.01775792	      0.02564568	      0.04502507
      9.08333333	      0.01776209	      0.02564869	      0.04635284
      9.10000000	      0.01773151	      0.02562660	      0.04682349
      9.11666667	      0.01758403	      0.02551980	      0.04630061
      9.13333333	      0.01742868	      0.02540683	      0.04473793
      9.15000000	      0.01723856	      0.02526787	      0.04517955
      9.16666667	      0.01713942	      0.02519511	      0.04590069
      9.18333333	      0.01705848	      0.02513554	      0.04592275
      9.20000000	      0.01698385	      0.02508050	      0.04581241
      9.21666667	      0.01687019	      0.02499643	      0.04478773
      9.23333333	      0.01669631	      0.02486728	      0.04328340
      9.25000000	      0.01639332	      0.02464061	      0.04179322
      9.26666667	      0.01600175	      0.02434456	      0.04014083
      9.28333333	      0.01560724	      0.02404259	      0.03859388
      9.30000000	      0.01532123	      0.02382127	      0.03818416
      9.31666667	      0.01519418	      0.02372230	      0.03834303
      9.33333333	      0.01514617	      0.02368479	      0.03852915
      9.35000000	      0.01516536	      0.02369979	      0.03853530
      9.36666667	      0.01523886	      0.02375715	      0.03858888
      9.38333333	      0.01542873	      0.02390469	      0.03868268
      9.40000000	      0.01569399	      0.02410931	      0.03946940
      9.41666667	      0.01590953	      0.02427430	      0.03986464
      9.43333333	      0.01599770	      0.02434148	      0.04009215
      9.45000000	      0.01588599	      0.02425634	      0.03956440
      9.46666667	      0.01568372	      0.02410142	      0.03900243
      9.48333333	      0.01548049	      0.02394476	      0.03886950
      9.50000000	      0.01531999	      0.02382031	      0.03871253
      9.51666667	      0.01520550	      0.02373113	      0.03857024
      9.53333333	      0.01506950	      0.02362477	      0.03846939
      9.55000000	      0.01506780	      0.02362343	      0.03835304
      9.56666667	      0.01510506	      0.02365263	      0.03813175
      9.58333333	      0.01507867	      0.02363195	      0.03802653
      9.60000000	      0.01511987	      0.02366422	      0.03791351
      9.61666667	      0.01509674	      0.02364611	      0.03788402
      9.63333333	      0.01506153	      0.02361852	      0.03785556
      9.65000000	      0.01495505	      0.02353489	      0.03798878
      9.66666667	      0.01482095	      0.02342913	      0.03812132
      9.68333333	      0.01465926	      0.02330098	      0.03829350
      9.70000000	      0.01451828	      0.02318866	      0.03841347
      9.71666667	      0.01442788	      0.02311636	      0.03838927
      9.73333333	      0.01441175	      0.02310343	      0.03843652
      9.75000000	      0.01448934	      0.02316554	      0.03845651
      9.76666667	      0.01466386	      0.02330464	      0.03868301
      9.78333333	      0.01487560	      0.02347228	      0.03894141
      9.80000000	      0.01505189	      0.02361096	      0.03919976
      9.81666667	      0.01513573	      0.02367662	      0.03926133
      9.83333333	      0.01513401	      0.02367528	      0.03988498
      9.85000000	      0.01510235	      0.02365051	      0.04016841
      9.86666667	      0.01509320	      0.02364334	      0.03990758
      9.88333333	      0.01517145	      0.02370455	      0.03958985
      9.90000000	      0.01531998	      0.02382030	      0.03914322
      9.91666667	      0.01563488	      0.02406387	      0.04028633
      9.93333333	      0.01608612	      0.02440865	      0.04098359
      9.95000000	      0.01653550	      0.02474724	      0.04199177
      9.96666667	      0.01696824	      0.02506897	      0.04230270
      9.98333333	      0.01732854	      0.02533372	      0.04221456
     10.00000000	      0.01755916	      0.02550175	      0.04220426
     10.01666667	      0.01774770	      0.02563829	      0.04177223
     10.03333333	      0.01783164	      0.02569885	      0.04273763
     10.05000000	      0.01790888	      0.02575446	      0.04381666
     10.06666667	      0.01790105	      0.02574882	      0.04447847
     10.08333333	      0.01785408	      0.02571502	      0.04469716
     10.10000000	      0.01774227	      0.02563437	      0.04438927
     10.11666667	      0.01753261	      0.02548247	      0.04347704
     10.13333333	      0.01728828	      0.02530428	      0.04225533
     10.15000000	      0.01702885	      0.02511371	      0.04084995
     10.16666667	      0.01680170	      0.02494565	      0.03965842
     10.18333333	      0.01654683	      0.02475572	      0.03976057
     10.20000000	      0.01633490	      0.02459667	      0.03956455
     10.21666667	      0.01615883	      0.02446375	      0.03984967
     10.23333333	      0.01605668	      0.02438630	      0.04009386
     10.25000000	      0.01596438	      0.02431611	      0.04018976
     10.26666667	      0.01592783	      0.02428826	      0.04009517
     10.28333333	      0.01596643	      0.02431767	      0.04031359
     10.30000000	      0.01608517	      0.02440793	      0.04169909
     10.31666667	      0.01624795	      0.02453112	      0.04270530
     10.33333333	      0.01636091	      0.02461625	      0.04295739
     10.35000000	      0.01641746	      0.02465875	      0.04232671
     10.36666667	      0.01638773	      0.02463642	      0.04095237
     10.38333333	      0.01629398	      0.02456585	      0.03928409
     10.40000000	      0.01619723	      0.02449281	      0.03929284
     10.41666667	      0.01617363	      0.02447495	      0.03945590
     10.43333333	      0.01627598	      0.02455227	      0.03953270
     10.45000000	      0.01642909	      0.02466749	      0.03958134
     10.46666667	      0.01663299	      0.02482008	      0.04003175
     10.48333333	      0.01686329	      0.02499132	      0.04039140
     10.50000000	      0.01696277	      0.02506493	      0.04065775
     10.51666667	      0.01702398	      0.02511011	      0.04227428
     10.53333333	      0.01706546	      0.02514068	      0.04331935
     10.55000000	      0.01705250	      0.02513114	      0.04333040
     10.56666667	      0.01701542	      0.02510380	      0.04239157
     10.58333333	      0.01698821	      0.02508372	      0.04133770
     10.60000000	      0.01698576	      0.02508191	      0.04131388
     10.61666667	      0.01701074	      0.02510035	      0.04097626
     10.63333333	      0.01698053	      0.02507805	      0.04097042
     10.65000000	      0.01689345	      0.02501366	      0.04034953
     10.66666667	      0.01682317	      0.02496158	      0.04020183
     10.68333333	      0.01686927	      0.02499576	      0.04027917
     10.70000000	      0.01689420	      0.02501422	      0.03910299
     10.71666667	      0.01701200	      0.02510128	      0.03939718
     10.73333333	      0.01713839	      0.02519435	      0.03932825
     10.75000000	      0.01735562	      0.02535352	      0.03966341
     10.76666667	      0.01785192	      0.02571346	      0.04012997
