Model Marker Errors from IK
version=1
nRows=379
nColumns=4
inDegrees=no
endheader
time	total_squared_error	marker_error_RMS	marker_error_max
      0.00000000	      0.04638744	      0.04144941	      0.07835601
      0.01694915	      0.05096670	      0.04344716	      0.07975861
      0.03389831	      0.05348701	      0.04450843	      0.09314250
      0.05084746	      0.05608815	      0.04557783	      0.09747824
      0.06779661	      0.05831974	      0.04647570	      0.10103531
      0.08474576	      0.05988160	      0.04709392	      0.10354674
      0.10169492	      0.06045391	      0.04731843	      0.10465909
      0.11864407	      0.06027119	      0.04724687	      0.10469572
      0.13559322	      0.05956590	      0.04696961	      0.10275087
      0.15254237	      0.05867282	      0.04661617	      0.10101438
      0.16949153	      0.05765811	      0.04621131	      0.09875043
      0.18644068	      0.05675231	      0.04584689	      0.09623727
      0.20338983	      0.05604020	      0.04555835	      0.09349373
      0.22033898	      0.05551097	      0.04534272	      0.09060714
      0.23728814	      0.05496748	      0.04512020	      0.08922483
      0.25423729	      0.05422631	      0.04481497	      0.08902609
      0.27118644	      0.05325714	      0.04441269	      0.08850100
      0.28813559	      0.05227624	      0.04400179	      0.08750322
      0.30508475	      0.05153584	      0.04368907	      0.08619464
      0.32203390	      0.05100348	      0.04346283	      0.08660193
      0.33898305	      0.05043685	      0.04322073	      0.08660674
      0.35593220	      0.04954943	      0.04283882	      0.08569449
      0.37288136	      0.04815029	      0.04222966	      0.08520719
      0.38983051	      0.04613814	      0.04133788	      0.08591519
      0.40677966	      0.04385504	      0.04030212	      0.08588281
      0.42372881	      0.04199082	      0.03943622	      0.08639012
      0.44067797	      0.04110205	      0.03901664	      0.08754809
      0.45762712	      0.04145805	      0.03918524	      0.09008527
      0.47457627	      0.04299814	      0.03990644	      0.09384403
      0.49152542	      0.04541096	      0.04101082	      0.09721359
      0.50847458	      0.04814134	      0.04222573	      0.09708701
      0.52542373	      0.05086670	      0.04340451	      0.09179613
      0.54237288	      0.05336501	      0.04445764	      0.08981065
      0.55932203	      0.05517951	      0.04520714	      0.09384461
      0.57627119	      0.05619132	      0.04561973	      0.09808881
      0.59322034	      0.05667855	      0.04581709	      0.09977139
      0.61016949	      0.05712395	      0.04599676	      0.09921532
      0.62711864	      0.05791922	      0.04631583	      0.09881323
      0.64406780	      0.05932752	      0.04687553	      0.10097826
      0.66101695	      0.06115107	      0.04759049	      0.10241910
      0.67796610	      0.06284989	      0.04824701	      0.10254542
      0.69491525	      0.06373637	      0.04858607	      0.10140158
      0.71186441	      0.06373747	      0.04858649	      0.09972075
      0.72881356	      0.06342416	      0.04846693	      0.09990922
      0.74576271	      0.06312117	      0.04835102	      0.09928128
      0.76271186	      0.06248178	      0.04810551	      0.09776021
      0.77966102	      0.06088772	      0.04748790	      0.09411976
      0.79661017	      0.05839339	      0.04650503	      0.08949086
      0.81355932	      0.05537613	      0.04528761	      0.08552639
      0.83050847	      0.05254282	      0.04411383	      0.08844278
      0.84745763	      0.05016881	      0.04310573	      0.09059212
      0.86440678	      0.04822912	      0.04226421	      0.09164246
      0.88135593	      0.04670128	      0.04158939	      0.09187707
      0.89830508	      0.04563073	      0.04110994	      0.09192648
      0.91525424	      0.04499257	      0.04082146	      0.09243403
      0.93220339	      0.04478350	      0.04072650	      0.09352030
      0.94915254	      0.04496152	      0.04080737	      0.09446865
      0.96610169	      0.04515495	      0.04089505	      0.09444195
      0.98305085	      0.04511520	      0.04087705	      0.09290340
      1.00000000	      0.04526113	      0.04094311	      0.09004181
      1.01694915	      0.04625910	      0.04139203	      0.08662262
      1.03389831	      0.04833374	      0.04231003	      0.08944959
      1.05084746	      0.05096741	      0.04344746	      0.09322051
      1.06779661	      0.05332366	      0.04444041	      0.09634348
      1.08474576	      0.05487714	      0.04508311	      0.09898954
      1.10169492	      0.05545422	      0.04531953	      0.10140351
      1.11864407	      0.05503827	      0.04514925	      0.10309346
      1.13559322	      0.05393397	      0.04469401	      0.10382546
      1.15254237	      0.05264025	      0.04415471	      0.10393994
      1.16949153	      0.05170415	      0.04376035	      0.10354887
      1.18644068	      0.05135045	      0.04361042	      0.10331860
      1.20338983	      0.05153101	      0.04368702	      0.10351376
      1.22033898	      0.05217950	      0.04396105	      0.10390391
      1.23728814	      0.05298885	      0.04430068	      0.10288022
      1.25423729	      0.05387255	      0.04466855	      0.10151910
      1.27118644	      0.05452472	      0.04493811	      0.09914320
      1.28813559	      0.05473045	      0.04502281	      0.09636289
      1.30508475	      0.05437105	      0.04487474	      0.09394325
      1.32203390	      0.05362611	      0.04456627	      0.09186724
      1.33898305	      0.05291018	      0.04426778	      0.09121539
      1.35593220	      0.05235027	      0.04403293	      0.08943360
      1.37288136	      0.05219293	      0.04396671	      0.08882909
      1.38983051	      0.05218431	      0.04396308	      0.08728500
      1.40677966	      0.05231016	      0.04401606	      0.08629871
      1.42372881	      0.05227388	      0.04400079	      0.08478876
      1.44067797	      0.05214815	      0.04394784	      0.08409176
      1.45762712	      0.05203754	      0.04390121	      0.08233887
      1.47457627	      0.05178461	      0.04379439	      0.08070179
      1.49152542	      0.05110038	      0.04350410	      0.07776753
      1.50847458	      0.04963454	      0.04287559	      0.07400362
      1.52542373	      0.04726235	      0.04183847	      0.07350477
      1.54237288	      0.04446814	      0.04058286	      0.07557574
      1.55932203	      0.04226085	      0.03956282	      0.07843768
      1.57627119	      0.04140337	      0.03915939	      0.08140403
      1.59322034	      0.04198239	      0.03943226	      0.08434052
      1.61016949	      0.04361123	      0.04018993	      0.08712160
      1.62711864	      0.04588505	      0.04122434	      0.08868231
      1.64406780	      0.04855249	      0.04240566	      0.08961973
      1.66101695	      0.05158020	      0.04370787	      0.09356103
      1.67796610	      0.05488670	      0.04508704	      0.09910440
      1.69491525	      0.05846256	      0.04653257	      0.09635019
      1.71186441	      0.06330422	      0.04842108	      0.10202537
      1.72881356	      0.06895297	      0.05053527	      0.11284745
      1.74576271	      0.07427456	      0.05244911	      0.12219351
      1.76271186	      0.07827365	      0.05384259	      0.12934717
      1.77966102	      0.08110642	      0.05480823	      0.13509421
      1.79661017	      0.08388008	      0.05573751	      0.14022878
      1.81355932	      0.08778132	      0.05701894	      0.14558360
      1.83050847	      0.09290095	      0.05865813	      0.15095377
      1.84745763	      0.09842992	      0.06037841	      0.15597279
      1.86440678	      0.10333332	      0.06186405	      0.15939809
      1.88135593	      0.10722059	      0.06301693	      0.16062590
      1.89830508	      0.10983015	      0.06377918	      0.16007546
      1.91525424	      0.11075707	      0.06404775	      0.15795783
      1.93220339	      0.10935420	      0.06364083	      0.15389031
      1.94915254	      0.10579412	      0.06259633	      0.14889089
      1.96610169	      0.10098579	      0.06115729	      0.14312970
      1.98305085	      0.09617125	      0.05968164	      0.13706445
      2.00000000	      0.09253107	      0.05854124	      0.13138710
      2.01694915	      0.09068958	      0.05795579	      0.12792444
      2.03389831	      0.09074073	      0.05797213	      0.12823641
      2.05084746	      0.09258673	      0.05855884	      0.12832550
      2.06779661	      0.09600939	      0.05963140	      0.13318986
      2.08474576	      0.10056334	      0.06102924	      0.13971182
      2.10169492	      0.10577651	      0.06259112	      0.14675296
      2.11864407	      0.11131865	      0.06420991	      0.15361946
      2.13559322	      0.11612892	      0.06558255	      0.15907816
      2.15254237	      0.11849400	      0.06624701	      0.16267330
      2.16949153	      0.11718977	      0.06588142	      0.16403355
      2.18644068	      0.11256504	      0.06456838	      0.16313715
      2.20338983	      0.10624736	      0.06273028	      0.16052466
      2.22033898	      0.10013241	      0.06089834	      0.15686564
      2.23728814	      0.09556369	      0.05949282	      0.15292394
      2.25423729	      0.09267529	      0.05858684	      0.14955709
      2.27118644	      0.09140458	      0.05818380	      0.14705949
      2.28813559	      0.09181249	      0.05831349	      0.14484985
      2.30508475	      0.09366291	      0.05889819	      0.14249567
      2.32203390	      0.09623705	      0.05970205	      0.13990081
      2.33898305	      0.09924055	      0.06062653	      0.13743216
      2.35593220	      0.10256462	      0.06163351	      0.13528838
      2.37288136	      0.10611270	      0.06269051	      0.13759630
      2.38983051	      0.10970676	      0.06374334	      0.14121145
      2.40677966	      0.11315068	      0.06473612	      0.14321927
      2.42372881	      0.11649443	      0.06568568	      0.14361857
      2.44067797	      0.12037805	      0.06677160	      0.15157746
      2.45762712	      0.12526710	      0.06811404	      0.16133864
      2.47457627	      0.13101159	      0.06965832	      0.17161241
      2.49152542	      0.13606604	      0.07098932	      0.18002503
      2.50847458	      0.13847224	      0.07161426	      0.18443962
      2.52542373	      0.13768516	      0.07141043	      0.18445828
      2.54237288	      0.13472465	      0.07063853	      0.18043932
      2.55932203	      0.13159026	      0.06981198	      0.17492287
      2.57627119	      0.12991631	      0.06936653	      0.16974037
      2.59322034	      0.13040989	      0.06949817	      0.16715174
      2.61016949	      0.13224278	      0.06998486	      0.16764066
      2.62711864	      0.13411753	      0.07047919	      0.17079895
      2.64406780	      0.13532286	      0.07079518	      0.17481376
      2.66101695	      0.13596273	      0.07096236	      0.17774415
      2.67796610	      0.13629265	      0.07104841	      0.17836791
      2.69491525	      0.13666121	      0.07114440	      0.17673071
      2.71186441	      0.13753453	      0.07137136	      0.17675367
      2.72881356	      0.13912731	      0.07178345	      0.17786170
      2.74576271	      0.14111448	      0.07229427	      0.17733660
      2.76271186	      0.14253045	      0.07265608	      0.17446943
      2.77966102	      0.14235115	      0.07261036	      0.16910176
      2.79661017	      0.14046026	      0.07212650	      0.17128400
      2.81355932	      0.13763254	      0.07139679	      0.17389616
      2.83050847	      0.13531615	      0.07079343	      0.17619381
      2.84745763	      0.13432561	      0.07053384	      0.17790618
      2.86440678	      0.13477994	      0.07065302	      0.17836771
      2.88135593	      0.13600431	      0.07097321	      0.17753851
      2.89830508	      0.13765121	      0.07140163	      0.17539958
      2.91525424	      0.13927957	      0.07182272	      0.17244307
      2.93220339	      0.14028200	      0.07208072	      0.16944725
      2.94915254	      0.13997079	      0.07200072	      0.16829664
      2.96610169	      0.13816363	      0.07153441	      0.16593069
      2.98305085	      0.13540154	      0.07081576	      0.16263346
      3.00000000	      0.13221326	      0.06997705	      0.15860189
      3.01694915	      0.12866169	      0.06903077	      0.15409747
      3.03389831	      0.12472994	      0.06796784	      0.15167195
      3.05084746	      0.12042636	      0.06678499	      0.14966366
      3.06779661	      0.11601191	      0.06554950	      0.14770818
      3.08474576	      0.11171962	      0.06432545	      0.14565817
      3.10169492	      0.10742866	      0.06307804	      0.14322906
      3.11864407	      0.10281759	      0.06170947	      0.14009982
      3.13559322	      0.09758863	      0.06011983	      0.13573456
      3.15254237	      0.09215809	      0.05842313	      0.13109430
      3.16949153	      0.08675932	      0.05668605	      0.12666584
      3.18644068	      0.08166130	      0.05499539	      0.12314116
      3.20338983	      0.07753347	      0.05358741	      0.12112833
      3.22033898	      0.07488599	      0.05266455	      0.12059585
      3.23728814	      0.07355244	      0.05219353	      0.12084698
      3.25423729	      0.07282487	      0.05193474	      0.12105977
      3.27118644	      0.07195136	      0.05162233	      0.11956085
      3.28813559	      0.07052605	      0.05110847	      0.11634045
      3.30508475	      0.06831889	      0.05030238	      0.11067197
      3.32203390	      0.06513014	      0.04911443	      0.10275507
      3.33898305	      0.06115026	      0.04759017	      0.09429537
      3.35593220	      0.05678368	      0.04585956	      0.09328938
      3.37288136	      0.05238089	      0.04404581	      0.09444592
      3.38983051	      0.04886051	      0.04253996	      0.09496083
      3.40677966	      0.04674605	      0.04160932	      0.09425941
      3.42372881	      0.04630570	      0.04141287	      0.09316658
      3.44067797	      0.04698775	      0.04171675	      0.09243287
      3.45762712	      0.04806588	      0.04219263	      0.09188500
      3.47457627	      0.04904714	      0.04262113	      0.09156961
      3.49152542	      0.04964461	      0.04287994	      0.09077442
      3.50847458	      0.04997634	      0.04302296	      0.09002920
      3.52542373	      0.05074992	      0.04335466	      0.09010133
      3.54237288	      0.05272346	      0.04418960	      0.09123132
      3.55932203	      0.05588499	      0.04549521	      0.09153058
      3.57627119	      0.05896468	      0.04673197	      0.09219677
      3.59322034	      0.06082194	      0.04746224	      0.09646801
      3.61016949	      0.06061095	      0.04737985	      0.09896075
      3.62711864	      0.05873091	      0.04663924	      0.10205468
      3.64406780	      0.05633217	      0.04567687	      0.10326277
      3.66101695	      0.05441769	      0.04489399	      0.10393827
      3.67796610	      0.05375631	      0.04462034	      0.10525266
      3.69491525	      0.05510078	      0.04517488	      0.10709152
      3.71186441	      0.05859046	      0.04658344	      0.10883061
      3.72881356	      0.06277299	      0.04821748	      0.10943684
      3.74576271	      0.06531840	      0.04918536	      0.10821748
      3.76271186	      0.06511983	      0.04911054	      0.10525086
      3.77966102	      0.06253138	      0.04812460	      0.10097173
      3.79661017	      0.05832078	      0.04647611	      0.09656077
      3.81355932	      0.05388502	      0.04467372	      0.09285573
      3.83050847	      0.05055711	      0.04327223	      0.09073197
      3.84745763	      0.04857204	      0.04241420	      0.08973140
      3.86440678	      0.04754354	      0.04196274	      0.08849433
      3.88135593	      0.04746799	      0.04192939	      0.08630317
      3.89830508	      0.04809774	      0.04220661	      0.08271222
      3.91525424	      0.04890897	      0.04256106	      0.08187433
      3.93220339	      0.04989186	      0.04298659	      0.08180271
      3.94915254	      0.05141621	      0.04363833	      0.08085966
      3.96610169	      0.05371021	      0.04460120	      0.08015815
      3.98305085	      0.05675706	      0.04584881	      0.08755417
      4.00000000	      0.06008689	      0.04717457	      0.09540241
      4.01694915	      0.06276398	      0.04821402	      0.10297229
      4.03389831	      0.06412639	      0.04873450	      0.10807994
      4.05084746	      0.06423070	      0.04877412	      0.10994301
      4.06779661	      0.06324977	      0.04840025	      0.10840456
      4.08474576	      0.06135423	      0.04766948	      0.10450069
      4.10169492	      0.05916230	      0.04681022	      0.09991763
      4.11864407	      0.05729191	      0.04606433	      0.09554838
      4.13559322	      0.05578972	      0.04545642	      0.09419030
      4.15254237	      0.05474331	      0.04502810	      0.09139552
      4.16949153	      0.05408236	      0.04475545	      0.08877628
      4.18644068	      0.05333390	      0.04444468	      0.08898741
      4.20338983	      0.05213600	      0.04394273	      0.08823141
      4.22033898	      0.05065236	      0.04331297	      0.08736371
      4.23728814	      0.04900523	      0.04260292	      0.08687596
      4.25423729	      0.04727253	      0.04184297	      0.08355676
      4.27118644	      0.04598899	      0.04127100	      0.08328683
      4.28813559	      0.04528833	      0.04095541	      0.08714642
      4.30508475	      0.04509185	      0.04086647	      0.08963214
      4.32203390	      0.04486316	      0.04076271	      0.09029129
      4.33898305	      0.04421071	      0.04046521	      0.08827990
      4.35593220	      0.04314692	      0.03997542	      0.08340331
      4.37288136	      0.04185452	      0.03937216	      0.08709511
      4.38983051	      0.04070808	      0.03882920	      0.09008070
      4.40677966	      0.03973580	      0.03836270	      0.09177594
      4.42372881	      0.03907162	      0.03804073	      0.09249190
      4.44067797	      0.03911167	      0.03806022	      0.09259375
      4.45762712	      0.04032064	      0.03864398	      0.09208864
      4.47457627	      0.04283421	      0.03983029	      0.09115711
      4.49152542	      0.04628619	      0.04140415	      0.08914049
      4.50847458	      0.04963588	      0.04287617	      0.08613333
      4.52542373	      0.05218795	      0.04396461	      0.08904421
      4.54237288	      0.05417732	      0.04479472	      0.09109220
      4.55932203	      0.05553105	      0.04535091	      0.09228748
      4.57627119	      0.05624160	      0.04564014	      0.09652947
      4.59322034	      0.05652925	      0.04575670	      0.09928178
      4.61016949	      0.05669143	      0.04582229	      0.10063105
      4.62711864	      0.05681191	      0.04587096	      0.10102300
      4.64406780	      0.05702239	      0.04595585	      0.10092892
      4.66101695	      0.05725824	      0.04605079	      0.09919197
      4.67796610	      0.05768687	      0.04622284	      0.09811836
      4.69491525	      0.05818301	      0.04642118	      0.09870635
      4.71186441	      0.05875100	      0.04664722	      0.10090801
      4.72881356	      0.05976144	      0.04704664	      0.10450027
      4.74576271	      0.06148430	      0.04771998	      0.10916618
      4.76271186	      0.06409997	      0.04872446	      0.11370974
      4.77966102	      0.06780153	      0.05011155	      0.11743736
      4.79661017	      0.07247736	      0.05181068	      0.11931816
      4.81355932	      0.07771450	      0.05364993	      0.11955540
      4.83050847	      0.08317461	      0.05550262	      0.11785199
      4.84745763	      0.08912743	      0.05745447	      0.11470494
      4.86440678	      0.09556779	      0.05949410	      0.11977547
      4.88135593	      0.10234515	      0.06156753	      0.12498610
      4.89830508	      0.10886004	      0.06349688	      0.12981149
      4.91525424	      0.11380979	      0.06492440	      0.13396957
      4.93220339	      0.11586863	      0.06550901	      0.13661096
      4.94915254	      0.11509270	      0.06528930	      0.13822055
      4.96610169	      0.11275814	      0.06462374	      0.13826410
      4.98305085	      0.11032798	      0.06392356	      0.13713311
      5.00000000	      0.10877517	      0.06347212	      0.13600918
      5.01694915	      0.10820552	      0.06330570	      0.13539685
      5.03389831	      0.10862548	      0.06342843	      0.13600815
      5.05084746	      0.10990810	      0.06380181	      0.13760700
      5.06779661	      0.11194257	      0.06438960	      0.13974111
      5.08474576	      0.11458504	      0.06514515	      0.14174040
      5.10169492	      0.11724689	      0.06589748	      0.14372183
      5.11864407	      0.11867186	      0.06629671	      0.14478851
      5.13559322	      0.11771278	      0.06602827	      0.14493092
      5.15254237	      0.11386021	      0.06493878	      0.14358056
      5.16949153	      0.10771032	      0.06316068	      0.14102204
      5.18644068	      0.10047911	      0.06100368	      0.13697404
      5.20338983	      0.09323316	      0.05876291	      0.13125841
      5.22033898	      0.08630351	      0.05653695	      0.12422837
      5.23728814	      0.07943102	      0.05423919	      0.11637476
      5.25423729	      0.07222447	      0.05172021	      0.10848238
      5.27118644	      0.06448983	      0.04887241	      0.09982119
      5.28813559	      0.05735320	      0.04608896	      0.09071811
      5.30508475	      0.05169255	      0.04375544	      0.08902209
      5.32203390	      0.04748795	      0.04193821	      0.08861611
      5.33898305	      0.02609597	      0.03108886	      0.05497046
      5.35593220	      0.02432868	      0.03001770	      0.05301876
      5.37288136	      0.02286136	      0.02909840	      0.05155761
      5.38983051	      0.02203354	      0.02856671	      0.05109977
      5.40677966	      0.02225248	      0.02870829	      0.05151975
      5.42372881	      0.02342105	      0.02945244	      0.05276931
      5.44067797	      0.02478819	      0.03029986	      0.05450186
      5.45762712	      0.02560690	      0.03079616	      0.05625720
      5.47457627	      0.02572637	      0.03086792	      0.05726103
      5.49152542	      0.02545485	      0.03070460	      0.05719220
      5.50847458	      0.02510878	      0.03049516	      0.05593952
      5.52542373	      0.02489438	      0.03036468	      0.05367701
      5.54237288	      0.02499263	      0.03042454	      0.05015846
      5.55932203	      0.02527480	      0.03059581	      0.05089699
      5.57627119	      0.02565684	      0.03082618	      0.05372285
      5.59322034	      0.02594382	      0.03099810	      0.05573626
      5.61016949	      0.02614667	      0.03111905	      0.05475280
      5.62711864	      0.02633832	      0.03123289	      0.05336574
      5.64406780	      0.02686245	      0.03154212	      0.05274342
      5.66101695	      0.02776307	      0.03206652	      0.05212486
      5.67796610	      0.02902995	      0.03278999	      0.05299964
      5.69491525	      0.03018733	      0.03343724	      0.05437866
      5.71186441	      0.03073156	      0.03373731	      0.05762579
      5.72881356	      0.03044411	      0.03357916	      0.05873951
      5.74576271	      0.02965044	      0.03313856	      0.05776864
      5.76271186	      0.02894114	      0.03273979	      0.05615109
      5.77966102	      0.02888480	      0.03270791	      0.05627751
      5.79661017	      0.02977298	      0.03320697	      0.05602268
      5.81355932	      0.03140042	      0.03410247	      0.05615908
      5.83050847	      0.03318291	      0.03505705	      0.05736286
      5.84745763	      0.03475559	      0.03587818	      0.05934314
      5.86440678	      0.03615676	      0.03659425	      0.06187584
      5.88135593	      0.03741643	      0.03722625	      0.06410013
      5.89830508	      0.03854785	      0.03778489	      0.06568577
      5.91525424	      0.03973892	      0.03836420	      0.06871200
      5.93220339	      0.04111424	      0.03902243	      0.07107848
      5.94915254	      0.04295439	      0.03988613	      0.07310697
      5.96610169	      0.04524165	      0.04093430	      0.07493102
      5.98305085	      0.04786967	      0.04210642	      0.07703665
      6.00000000	      0.05061431	      0.04329670	      0.07894855
      6.01694915	      0.05323833	      0.04440484	      0.08100910
      6.03389831	      0.05528762	      0.04525141	      0.08242825
      6.05084746	      0.05639545	      0.04570252	      0.08316109
      6.06779661	      0.05652750	      0.04575599	      0.08321261
      6.08474576	      0.05596557	      0.04552800	      0.08261156
      6.10169492	      0.05521208	      0.04522048	      0.08208143
      6.11864407	      0.05468076	      0.04500237	      0.08211084
      6.13559322	      0.05438696	      0.04488131	      0.08269806
      6.15254237	      0.05437853	      0.04487783	      0.08350555
      6.16949153	      0.05466075	      0.04499414	      0.08464016
      6.18644068	      0.05515297	      0.04519627	      0.08673234
      6.20338983	      0.05598674	      0.04553661	      0.08914448
      6.22033898	      0.05741568	      0.04611406	      0.09275782
      6.23728814	      0.05918769	      0.04682026	      0.09668121
      6.25423729	      0.06083366	      0.04746682	      0.10056372
      6.27118644	      0.06221562	      0.04800294	      0.10328455
      6.28813559	      0.06349126	      0.04849256	      0.10515736
      6.30508475	      0.06461637	      0.04892033	      0.10610235
      6.32203390	      0.06459544	      0.04891241	      0.10359244
      6.33898305	      0.06427829	      0.04879219	      0.10340057
      6.35593220	      0.06445319	      0.04885852	      0.10311897
      6.37288136	      0.06513471	      0.04911615	      0.10265819
      6.38983051	      0.06658915	      0.04966150	      0.10241383
      6.40677966	      0.06973598	      0.05082139	      0.10305027
