Model Marker Errors from IK
version=1
nRows=346
nColumns=4
inDegrees=no
endheader
time	total_squared_error	marker_error_RMS	marker_error_max
      0.00000000	      0.01904319	      0.02655754	      0.04852842
      0.01666667	      0.01766602	      0.02557923	      0.04806952
      0.03333333	      0.01670814	      0.02487610	      0.04768791
      0.05000000	      0.01617200	      0.02447372	      0.04700778
      0.06666667	      0.01572974	      0.02413675	      0.04650408
      0.08333333	      0.01543020	      0.02390583	      0.04574853
      0.10000000	      0.01529538	      0.02380116	      0.04516302
      0.11666667	      0.01532523	      0.02382438	      0.04538611
      0.13333333	      0.01543700	      0.02391110	      0.04565680
      0.15000000	      0.01557548	      0.02401811	      0.04619252
      0.16666667	      0.01565034	      0.02407576	      0.04615649
      0.18333333	      0.01559354	      0.02403203	      0.04549474
      0.20000000	      0.01546872	      0.02393565	      0.04458519
      0.21666667	      0.01532650	      0.02382537	      0.04350299
      0.23333333	      0.01517189	      0.02370489	      0.04244950
      0.25000000	      0.01505495	      0.02361336	      0.04161291
      0.26666667	      0.01489965	      0.02349125	      0.04106535
      0.28333333	      0.01475866	      0.02337984	      0.04076659
      0.30000000	      0.01461151	      0.02326300	      0.04078423
      0.31666667	      0.01444156	      0.02312731	      0.04088878
      0.33333333	      0.01425054	      0.02297385	      0.04084663
      0.35000000	      0.01410040	      0.02285251	      0.04046488
      0.36666667	      0.01412493	      0.02287237	      0.03987071
      0.38333333	      0.01420549	      0.02293751	      0.03990401
      0.40000000	      0.01439520	      0.02309016	      0.03976875
      0.41666667	      0.01461802	      0.02326818	      0.03961733
      0.43333333	      0.01478031	      0.02339698	      0.03971242
      0.45000000	      0.01484775	      0.02345030	      0.04011099
      0.46666667	      0.01480671	      0.02341787	      0.04046511
      0.48333333	      0.01470963	      0.02334098	      0.04090086
      0.50000000	      0.01458124	      0.02323889	      0.04116860
      0.51666667	      0.01451980	      0.02318987	      0.04174719
      0.53333333	      0.01442148	      0.02311123	      0.04153055
      0.55000000	      0.01429565	      0.02301018	      0.04166318
      0.56666667	      0.01413473	      0.02288031	      0.04238408
      0.58333333	      0.01395477	      0.02273419	      0.04296376
      0.60000000	      0.01384571	      0.02264518	      0.04360414
      0.61666667	      0.01384884	      0.02264774	      0.04422609
      0.63333333	      0.01397924	      0.02275411	      0.04493356
      0.65000000	      0.01413851	      0.02288337	      0.04550763
      0.66666667	      0.01429595	      0.02301043	      0.04548209
      0.68333333	      0.01444579	      0.02313070	      0.04510943
      0.70000000	      0.01462344	      0.02327249	      0.04436237
      0.71666667	      0.01486442	      0.02346346	      0.04344389
      0.73333333	      0.01518605	      0.02371595	      0.04263775
      0.75000000	      0.01555966	      0.02400591	      0.04300625
      0.76666667	      0.01597754	      0.02432613	      0.04329911
      0.78333333	      0.01645428	      0.02468639	      0.04358189
      0.80000000	      0.01689872	      0.02501756	      0.04329713
      0.81666667	      0.01724611	      0.02527340	      0.04370038
      0.83333333	      0.01739017	      0.02537874	      0.04404441
      0.85000000	      0.01739435	      0.02538179	      0.04421303
      0.86666667	      0.01729092	      0.02530621	      0.04438989
      0.88333333	      0.01719853	      0.02523852	      0.04387834
      0.90000000	      0.01717035	      0.02521783	      0.04345038
      0.91666667	      0.01725769	      0.02528189	      0.04473645
      0.93333333	      0.01701360	      0.02510246	      0.04296742
      0.95000000	      0.01680502	      0.02494811	      0.04292158
      0.96666667	      0.01645981	      0.02469054	      0.04289221
      0.98333333	      0.01603707	      0.02437141	      0.04296524
      1.00000000	      0.01560054	      0.02403743	      0.04303772
      1.01666667	      0.01522368	      0.02374532	      0.04324221
      1.03333333	      0.01500180	      0.02357164	      0.04316787
      1.05000000	      0.01488710	      0.02348135	      0.04324413
      1.06666667	      0.01491515	      0.02350347	      0.04334753
      1.08333333	      0.01498803	      0.02356082	      0.04298397
      1.10000000	      0.01507581	      0.02362972	      0.04260630
      1.11666667	      0.01521566	      0.02373906	      0.04232775
      1.13333333	      0.01547899	      0.02394360	      0.04284275
      1.15000000	      0.01589048	      0.02425977	      0.04405114
      1.16666667	      0.01643415	      0.02467128	      0.04530222
      1.18333333	      0.01701328	      0.02510222	      0.04632771
      1.20000000	      0.01751340	      0.02546850	      0.04709275
      1.21666667	      0.01782602	      0.02569480	      0.04748774
      1.23333333	      0.01788720	      0.02573886	      0.04742551
      1.25000000	      0.01764869	      0.02556668	      0.04701414
      1.26666667	      0.01719198	      0.02523371	      0.04623019
      1.28333333	      0.01669804	      0.02486857	      0.04534239
      1.30000000	      0.01629387	      0.02456576	      0.04477865
      1.31666667	      0.01608987	      0.02441149	      0.04441834
      1.33333333	      0.01611447	      0.02443015	      0.04436557
      1.35000000	      0.01632192	      0.02458690	      0.04441295
      1.36666667	      0.01657011	      0.02477312	      0.04469902
      1.38333333	      0.01690517	      0.02502234	      0.04619032
      1.40000000	      0.01705802	      0.02513521	      0.04737526
      1.41666667	      0.01712487	      0.02518441	      0.04843156
      1.43333333	      0.01702008	      0.02510723	      0.04938647
      1.45000000	      0.01676211	      0.02491624	      0.04988132
      1.46666667	      0.01645467	      0.02468668	      0.05016350
      1.48333333	      0.01618371	      0.02448258	      0.05019985
      1.50000000	      0.01599445	      0.02433901	      0.05012517
      1.51666667	      0.01590981	      0.02427452	      0.04981957
      1.53333333	      0.01589785	      0.02426539	      0.04929701
      1.55000000	      0.01593026	      0.02429012	      0.04846840
      1.56666667	      0.01601519	      0.02435478	      0.04758385
      1.58333333	      0.01617844	      0.02447859	      0.04696395
      1.60000000	      0.01638521	      0.02463452	      0.04636630
      1.61666667	      0.01658673	      0.02478555	      0.04596145
      1.63333333	      0.01674097	      0.02490052	      0.04569457
      1.65000000	      0.01683542	      0.02497067	      0.04543570
      1.66666667	      0.01686492	      0.02499253	      0.04532832
      1.68333333	      0.01685427	      0.02498464	      0.04517767
      1.70000000	      0.01680518	      0.02494822	      0.04501167
      1.71666667	      0.01675145	      0.02490832	      0.04485272
      1.73333333	      0.01672785	      0.02489076	      0.04492496
      1.75000000	      0.01668187	      0.02485653	      0.04516147
      1.76666667	      0.01658470	      0.02478403	      0.04520260
      1.78333333	      0.01647957	      0.02470536	      0.04561708
      1.80000000	      0.01637461	      0.02462655	      0.04595522
      1.81666667	      0.01629244	      0.02456469	      0.04613718
      1.83333333	      0.01619738	      0.02449292	      0.04644317
      1.85000000	      0.01610792	      0.02442518	      0.04645302
      1.86666667	      0.01601917	      0.02435780	      0.04640151
      1.88333333	      0.01592130	      0.02428328	      0.04615036
      1.90000000	      0.01594293	      0.02429977	      0.04570241
      1.91666667	      0.01607719	      0.02440188	      0.04536605
      1.93333333	      0.01626445	      0.02454357	      0.04441163
      1.95000000	      0.01638069	      0.02463112	      0.04373603
      1.96666667	      0.01639107	      0.02463892	      0.04281854
      1.98333333	      0.01628940	      0.02456239	      0.04208186
      2.00000000	      0.01610895	      0.02442597	      0.04135208
      2.01666667	      0.01593336	      0.02429248	      0.04100297
      2.03333333	      0.01576255	      0.02416191	      0.04101870
      2.05000000	      0.01568385	      0.02410152	      0.04122027
      2.06666667	      0.01576968	      0.02416738	      0.04112025
      2.08333333	      0.01595370	      0.02430797	      0.04121495
      2.10000000	      0.01630724	      0.02457584	      0.04085303
      2.11666667	      0.01668329	      0.02485759	      0.04244505
      2.13333333	      0.01704096	      0.02512263	      0.04447169
      2.15000000	      0.01729989	      0.02531278	      0.04626941
      2.16666667	      0.01734587	      0.02534639	      0.04717557
      2.18333333	      0.01726152	      0.02528469	      0.04813065
      2.20000000	      0.01710874	      0.02517254	      0.04810816
      2.21666667	      0.01699763	      0.02509067	      0.04858358
      2.23333333	      0.01693852	      0.02504701	      0.04901897
      2.25000000	      0.01695484	      0.02505907	      0.04941497
      2.26666667	      0.01704993	      0.02512924	      0.04951941
      2.28333333	      0.01721378	      0.02524970	      0.04939787
      2.30000000	      0.01744883	      0.02542151	      0.04919958
      2.31666667	      0.01758432	      0.02552002	      0.04849883
      2.33333333	      0.01751397	      0.02546892	      0.04762330
      2.35000000	      0.01717869	      0.02522395	      0.04676024
      2.36666667	      0.01674222	      0.02490145	      0.04583183
      2.38333333	      0.01634596	      0.02460500	      0.04517332
      2.40000000	      0.01599310	      0.02433797	      0.04476457
      2.41666667	      0.01575013	      0.02415239	      0.04458461
      2.43333333	      0.01559092	      0.02403002	      0.04434301
      2.45000000	      0.01551486	      0.02397132	      0.04428667
      2.46666667	      0.01552663	      0.02398041	      0.04465754
      2.48333333	      0.01562547	      0.02405662	      0.04512380
      2.50000000	      0.01579176	      0.02418429	      0.04557195
      2.51666667	      0.01596572	      0.02431713	      0.04597594
      2.53333333	      0.01605621	      0.02438595	      0.04650806
      2.55000000	      0.01602024	      0.02435861	      0.04678261
      2.56666667	      0.01585176	      0.02423019	      0.04693616
      2.58333333	      0.01563928	      0.02406725	      0.04666481
      2.60000000	      0.01546481	      0.02393263	      0.04647140
      2.61666667	      0.01539436	      0.02387805	      0.04630563
      2.63333333	      0.01543051	      0.02390608	      0.04620436
      2.65000000	      0.01559166	      0.02403058	      0.04644541
      2.66666667	      0.01577478	      0.02417129	      0.04679789
      2.68333333	      0.01592919	      0.02428930	      0.04745752
      2.70000000	      0.01600914	      0.02435017	      0.04847307
      2.71666667	      0.01602603	      0.02436302	      0.04877500
      2.73333333	      0.01601400	      0.02435387	      0.04854393
      2.75000000	      0.01596600	      0.02431735	      0.04809820
      2.76666667	      0.01588337	      0.02425434	      0.04762121
      2.78333333	      0.01576302	      0.02416228	      0.04653479
      2.80000000	      0.01563113	      0.02406098	      0.04583684
      2.81666667	      0.01553664	      0.02398814	      0.04519226
      2.83333333	      0.01546569	      0.02393331	      0.04501383
      2.85000000	      0.01545645	      0.02392616	      0.04548393
      2.86666667	      0.01552086	      0.02397596	      0.04578118
      2.88333333	      0.01560840	      0.02404348	      0.04608598
      2.90000000	      0.01571540	      0.02412575	      0.04632821
      2.91666667	      0.01576638	      0.02416485	      0.04639449
      2.93333333	      0.01574114	      0.02414550	      0.04614252
      2.95000000	      0.01560818	      0.02404331	      0.04547000
      2.96666667	      0.01547953	      0.02394402	      0.04487679
      2.98333333	      0.01543440	      0.02390909	      0.04437087
      3.00000000	      0.01549002	      0.02395212	      0.04462536
      3.01666667	      0.01560673	      0.02404219	      0.04498819
      3.03333333	      0.01572759	      0.02413511	      0.04575925
      3.05000000	      0.01583507	      0.02421743	      0.04650590
      3.06666667	      0.01589464	      0.02426294	      0.04691049
      3.08333333	      0.01594970	      0.02430493	      0.04717225
      3.10000000	      0.01592369	      0.02428510	      0.04694909
      3.11666667	      0.01592929	      0.02428937	      0.04638166
      3.13333333	      0.01587608	      0.02424877	      0.04569141
      3.15000000	      0.01573627	      0.02414177	      0.04500421
      3.16666667	      0.01549385	      0.02395509	      0.04420901
      3.18333333	      0.01521083	      0.02373530	      0.04321462
      3.20000000	      0.01493865	      0.02352197	      0.04222061
      3.21666667	      0.01474942	      0.02337253	      0.04148423
      3.23333333	      0.01466561	      0.02330602	      0.04076718
      3.25000000	      0.01466204	      0.02330319	      0.04046940
      3.26666667	      0.01477235	      0.02339068	      0.04053913
      3.28333333	      0.01495323	      0.02353345	      0.04061796
      3.30000000	      0.01518373	      0.02371414	      0.04117206
      3.31666667	      0.01542053	      0.02389834	      0.04183456
      3.33333333	      0.01567045	      0.02409123	      0.04273812
      3.35000000	      0.01595522	      0.02430913	      0.04372163
      3.36666667	      0.01629040	      0.02456315	      0.04465341
      3.38333333	      0.01669467	      0.02486607	      0.04516998
      3.40000000	      0.01709053	      0.02515915	      0.04524698
      3.41666667	      0.01742447	      0.02540375	      0.04497195
      3.43333333	      0.01768436	      0.02559250	      0.04446356
      3.45000000	      0.01782246	      0.02569224	      0.04395740
      3.46666667	      0.01783038	      0.02569795	      0.04486153
      3.48333333	      0.01770736	      0.02560914	      0.04529230
      3.50000000	      0.01746884	      0.02543608	      0.04541510
      3.51666667	      0.01718439	      0.02522814	      0.04514965
      3.53333333	      0.01689605	      0.02501559	      0.04410611
      3.55000000	      0.01661095	      0.02480363	      0.04324236
      3.56666667	      0.01629043	      0.02456317	      0.04275632
      3.58333333	      0.01594097	      0.02429828	      0.04239199
      3.60000000	      0.01561689	      0.02405002	      0.04197904
      3.61666667	      0.01536804	      0.02385763	      0.04147950
      3.63333333	      0.01521628	      0.02373954	      0.04110470
      3.65000000	      0.01509613	      0.02364563	      0.04094621
      3.66666667	      0.01497271	      0.02354877	      0.04083072
      3.68333333	      0.01485558	      0.02345648	      0.04090477
      3.70000000	      0.01478002	      0.02339675	      0.04107600
      3.71666667	      0.01479952	      0.02341219	      0.04126738
      3.73333333	      0.01485160	      0.02345334	      0.04183366
      3.75000000	      0.01499218	      0.02356408	      0.04195537
      3.76666667	      0.01517411	      0.02370662	      0.04224259
      3.78333333	      0.01535545	      0.02384786	      0.04241299
      3.80000000	      0.01550927	      0.02396701	      0.04259144
      3.81666667	      0.01560466	      0.02404060	      0.04296255
      3.83333333	      0.01566849	      0.02408972	      0.04318639
      3.85000000	      0.01569317	      0.02410868	      0.04365963
      3.86666667	      0.01574136	      0.02414567	      0.04421316
      3.88333333	      0.01581274	      0.02420035	      0.04448362
      3.90000000	      0.01588616	      0.02425647	      0.04485138
      3.91666667	      0.01594679	      0.02430272	      0.04597514
      3.93333333	      0.01598995	      0.02433558	      0.04682306
      3.95000000	      0.01600977	      0.02435066	      0.04734430
      3.96666667	      0.01601067	      0.02435134	      0.04745514
      3.98333333	      0.01602014	      0.02435854	      0.04702410
      4.00000000	      0.01605729	      0.02438677	      0.04608000
      4.01666667	      0.01613207	      0.02444349	      0.04485724
      4.03333333	      0.01622500	      0.02451379	      0.04498309
      4.05000000	      0.01634062	      0.02460098	      0.04594496
      4.06666667	      0.01642970	      0.02466794	      0.04657547
      4.08333333	      0.01649383	      0.02471604	      0.04687993
      4.10000000	      0.01652682	      0.02474074	      0.04663546
      4.11666667	      0.01653402	      0.02474614	      0.04562635
      4.13333333	      0.01654417	      0.02475373	      0.04468290
      4.15000000	      0.01653435	      0.02474638	      0.04341082
      4.16666667	      0.01653050	      0.02474350	      0.04257270
      4.18333333	      0.01650731	      0.02472613	      0.04245683
      4.20000000	      0.01641714	      0.02465851	      0.04231780
      4.21666667	      0.01624424	      0.02452832	      0.04257667
      4.23333333	      0.01600261	      0.02434521	      0.04261742
      4.25000000	      0.01586609	      0.02424114	      0.04287193
      4.26666667	      0.01591361	      0.02427742	      0.04292718
      4.28333333	      0.01614519	      0.02445342	      0.04312021
      4.30000000	      0.01643900	      0.02467492	      0.04325228
      4.31666667	      0.01664793	      0.02483123	      0.04334738
      4.33333333	      0.01672454	      0.02488830	      0.04352527
      4.35000000	      0.01667358	      0.02485035	      0.04432636
      4.36666667	      0.01652727	      0.02474108	      0.04494934
      4.38333333	      0.01632879	      0.02459207	      0.04488341
      4.40000000	      0.01616258	      0.02446659	      0.04456342
      4.41666667	      0.01606144	      0.02438992	      0.04507433
      4.43333333	      0.01607933	      0.02440350	      0.04497474
      4.45000000	      0.01617499	      0.02447598	      0.04435353
      4.46666667	      0.01633001	      0.02459299	      0.04406381
      4.48333333	      0.01651085	      0.02472879	      0.04375858
      4.50000000	      0.01667585	      0.02485204	      0.04366869
      4.51666667	      0.01678710	      0.02493481	      0.04336486
      4.53333333	      0.01672181	      0.02488627	      0.04303524
      4.55000000	      0.01645754	      0.02468883	      0.04284132
      4.56666667	      0.01607643	      0.02440130	      0.04268965
      4.58333333	      0.01571658	      0.02412665	      0.04256478
      4.60000000	      0.01545040	      0.02392147	      0.04276053
      4.61666667	      0.01524076	      0.02375863	      0.04313013
      4.63333333	      0.01503017	      0.02359392	      0.04341637
      4.65000000	      0.01480379	      0.02341556	      0.04364023
      4.66666667	      0.01457542	      0.02323425	      0.04354684
      4.68333333	      0.01439608	      0.02309087	      0.04334604
      4.70000000	      0.01431499	      0.02302574	      0.04280850
      4.71666667	      0.01437694	      0.02307551	      0.04237434
      4.73333333	      0.01455734	      0.02321983	      0.04250416
      4.75000000	      0.01480848	      0.02341927	      0.04290110
      4.76666667	      0.01504185	      0.02360308	      0.04340116
      4.78333333	      0.01524166	      0.02375933	      0.04399026
      4.80000000	      0.01539312	      0.02387709	      0.04447477
      4.81666667	      0.01549810	      0.02395837	      0.04521255
      4.83333333	      0.01566193	      0.02408467	      0.04549308
      4.85000000	      0.01584777	      0.02422714	      0.04574835
      4.86666667	      0.01600808	      0.02434937	      0.04589189
      4.88333333	      0.01610062	      0.02441965	      0.04588233
      4.90000000	      0.01607478	      0.02440005	      0.04577044
      4.91666667	      0.01593846	      0.02429636	      0.04562769
      4.93333333	      0.01568436	      0.02410191	      0.04548225
      4.95000000	      0.01537076	      0.02385974	      0.04533276
      4.96666667	      0.01509790	      0.02364702	      0.04503678
      4.98333333	      0.01491451	      0.02350296	      0.04481674
      5.00000000	      0.01482393	      0.02343149	      0.04467515
      5.01666667	      0.01483116	      0.02343720	      0.04465828
      5.03333333	      0.01472622	      0.02335413	      0.04458644
      5.05000000	      0.01463562	      0.02328218	      0.04447695
      5.06666667	      0.01452069	      0.02319059	      0.04455419
      5.08333333	      0.01436030	      0.02306216	      0.04468872
      5.10000000	      0.01421711	      0.02294689	      0.04492205
      5.11666667	      0.01410245	      0.02285417	      0.04513688
      5.13333333	      0.01403808	      0.02280195	      0.04541652
      5.15000000	      0.01402995	      0.02279535	      0.04550754
      5.16666667	      0.01406844	      0.02282659	      0.04570005
      5.18333333	      0.01414354	      0.02288744	      0.04584471
      5.20000000	      0.01425247	      0.02297540	      0.04546073
      5.21666667	      0.01444873	      0.02313305	      0.04542549
      5.23333333	      0.01481453	      0.02342405	      0.04463160
      5.25000000	      0.01531274	      0.02381467	      0.04579521
      5.26666667	      0.01585196	      0.02423035	      0.04692616
      5.28333333	      0.01640984	      0.02465303	      0.04901941
      5.30000000	      0.01720329	      0.02524201	      0.05115103
      5.31666667	      0.01830257	      0.02603599	      0.05327236
      5.33333333	      0.01967608	      0.02699525	      0.05511376
      5.35000000	      0.02081845	      0.02776785	      0.05614876
      5.36666667	      0.02157900	      0.02827052	      0.05643697
      5.38333333	      0.02208667	      0.02860113	      0.05576606
      5.40000000	      0.02257171	      0.02891348	      0.05451082
      5.41666667	      0.02311705	      0.02926068	      0.05316689
      5.43333333	      0.02356815	      0.02954479	      0.05179282
      5.45000000	      0.02381618	      0.02969985	      0.05048760
      5.46666667	      0.02397417	      0.02979819	      0.04948107
      5.48333333	      0.02420282	      0.02993995	      0.04893638
      5.50000000	      0.02456427	      0.03016269	      0.04861385
      5.51666667	      0.02507597	      0.03047523	      0.05051000
      5.53333333	      0.02553564	      0.03075328	      0.05259640
      5.55000000	      0.02582301	      0.03092584	      0.05323389
      5.56666667	      0.02613748	      0.03111358	      0.05397501
      5.58333333	      0.02636225	      0.03124707	      0.05446390
      5.60000000	      0.02655836	      0.03136308	      0.05443070
      5.61666667	      0.02661346	      0.03139560	      0.05413401
      5.63333333	      0.02667397	      0.03143127	      0.05348995
      5.65000000	      0.02685391	      0.03153711	      0.05291744
      5.66666667	      0.02536757	      0.03065191	      0.05151425
      5.68333333	      0.02564737	      0.03082049	      0.05109528
      5.70000000	      0.02591044	      0.03097815	      0.05138349
      5.71666667	      0.02609081	      0.03108579	      0.05213971
      5.73333333	      0.02626587	      0.03118990	      0.05241797
      5.75000000	      0.02682563	      0.03152050	      0.05239246
