Model Marker Errors from IK
version=1
nRows=868
nColumns=4
inDegrees=no
endheader
time	total_squared_error	marker_error_RMS	marker_error_max
      0.00000000	      0.06548938	      0.04924969	      0.07948647
      0.01694915	      0.06299920	      0.04830428	      0.08033576
      0.03389831	      0.06102360	      0.04754086	      0.08209472
      0.05084746	      0.05926150	      0.04684944	      0.08485515
      0.06779661	      0.05740336	      0.04610911	      0.08818363
      0.08474576	      0.05579468	      0.04545844	      0.09238612
      0.10169492	      0.05459005	      0.04496503	      0.09660016
      0.11864407	      0.05401404	      0.04472717	      0.10091815
      0.13559322	      0.05401134	      0.04472605	      0.10478442
      0.15254237	      0.05424140	      0.04482121	      0.10830776
      0.16949153	      0.05439695	      0.04488543	      0.11114265
      0.18644068	      0.05439083	      0.04488291	      0.11339543
      0.20338983	      0.05408172	      0.04475519	      0.11508348
      0.22033898	      0.05323178	      0.04440211	      0.11589514
      0.23728814	      0.05183561	      0.04381595	      0.11656025
      0.25423729	      0.05029381	      0.04315940	      0.11653265
      0.27118644	      0.04917113	      0.04267497	      0.11592833
      0.28813559	      0.04856868	      0.04241273	      0.11450780
      0.30508475	      0.04491178	      0.04078479	      0.08491668
      0.32203390	      0.04500094	      0.04082526	      0.08162175
      0.33898305	      0.04524065	      0.04093384	      0.07896848
      0.35593220	      0.04556413	      0.04107993	      0.07717314
      0.37288136	      0.04564387	      0.04111586	      0.07476865
      0.38983051	      0.04544405	      0.04102576	      0.07363083
      0.40677966	      0.04492036	      0.04078869	      0.07303999
      0.42372881	      0.04426291	      0.04048910	      0.07249378
      0.44067797	      0.04371843	      0.04023930	      0.07230775
      0.45762712	      0.04344972	      0.04011544	      0.07310772
      0.47457627	      0.04349281	      0.04013533	      0.07398719
      0.49152542	      0.04383154	      0.04029132	      0.07502921
      0.50847458	      0.04437783	      0.04054163	      0.07592710
      0.52542373	      0.04511470	      0.04087682	      0.07870873
      0.54237288	      0.04564828	      0.04111784	      0.08157639
      0.55932203	      0.04546672	      0.04103599	      0.08309655
      0.57627119	      0.04447397	      0.04058552	      0.08305022
      0.59322034	      0.04284664	      0.03983607	      0.08135027
      0.61016949	      0.04127794	      0.03910003	      0.07846537
      0.62711864	      0.04000799	      0.03849386	      0.07771635
      0.64406780	      0.03900521	      0.03800838	      0.08339419
      0.66101695	      0.03820571	      0.03761684	      0.08998860
      0.67796610	      0.03768815	      0.03736117	      0.09686779
      0.69491525	      0.03719111	      0.03711400	      0.10272849
      0.71186441	      0.03638032	      0.03670721	      0.10661015
      0.72881356	      0.03548512	      0.03625278	      0.10854521
      0.74576271	      0.03498870	      0.03599830	      0.10882667
      0.76271186	      0.03549058	      0.03625557	      0.10840665
      0.77966102	      0.03676803	      0.03690229	      0.10807225
      0.79661017	      0.03836743	      0.03769636	      0.10940759
      0.81355932	      0.04015807	      0.03856599	      0.11279587
      0.83050847	      0.04244572	      0.03964926	      0.11843227
      0.84745763	      0.04580120	      0.04118666	      0.12652287
      0.86440678	      0.05070154	      0.04333399	      0.13685150
      0.88135593	      0.05715705	      0.04601008	      0.14831956
      0.89830508	      0.06453102	      0.04888801	      0.15922455
      0.91525424	      0.07177963	      0.05156069	      0.16837314
      0.93220339	      0.07800354	      0.05374960	      0.17439945
      0.94915254	      0.08257382	      0.05530180	      0.17558437
      0.96610169	      0.08600420	      0.05643882	      0.17254946
      0.98305085	      0.08910145	      0.05744609	      0.16599184
      1.00000000	      0.09344757	      0.05883044	      0.16072156
      1.01694915	      0.09977533	      0.06078966	      0.17060106
      1.03389831	      0.10852040	      0.06339775	      0.18283763
      1.05084746	      0.11937344	      0.06649240	      0.19627616
      1.06779661	      0.13001196	      0.06939206	      0.21005290
      1.08474576	      0.13712024	      0.07126379	      0.22011981
      1.10169492	      0.13854862	      0.07163400	      0.22402443
      1.11864407	      0.13501746	      0.07071525	      0.22215322
      1.13559322	      0.12902342	      0.06912775	      0.21695036
      1.15254237	      0.12253225	      0.06736640	      0.21100341
      1.16949153	      0.11673287	      0.06575287	      0.20526652
      1.18644068	      0.11228953	      0.06448931	      0.19986251
      1.20338983	      0.10935516	      0.06364111	      0.19496597
      1.22033898	      0.10727344	      0.06303245	      0.19014888
      1.23728814	      0.10473351	      0.06228177	      0.18454749
      1.25423729	      0.10042448	      0.06098709	      0.17741058
      1.27118644	      0.09420230	      0.05906754	      0.16889817
      1.28813559	      0.08732245	      0.05686972	      0.16007918
      1.30508475	      0.08129979	      0.05487352	      0.15256280
      1.32203390	      0.07670187	      0.05329925	      0.14719605
      1.33898305	      0.07335409	      0.05212311	      0.14389032
      1.35593220	      0.07091180	      0.05124805	      0.14209488
      1.37288136	      0.06918106	      0.05061879	      0.14129354
      1.38983051	      0.06785722	      0.05013213	      0.14129077
      1.40677966	      0.06680131	      0.04974055	      0.14090135
      1.42372881	      0.06589264	      0.04940109	      0.14006396
      1.44067797	      0.06500658	      0.04906782	      0.13933509
      1.45762712	      0.06424369	      0.04877905	      0.13814012
      1.47457627	      0.06359703	      0.04853293	      0.13660901
      1.49152542	      0.06297447	      0.04829480	      0.13528520
      1.50847458	      0.06207808	      0.04794985	      0.13379147
      1.52542373	      0.06072441	      0.04742417	      0.13227593
      1.54237288	      0.05895519	      0.04672821	      0.13124779
      1.55932203	      0.05700332	      0.04594817	      0.12971595
      1.57627119	      0.05517076	      0.04520355	      0.12864604
      1.59322034	      0.05370465	      0.04459889	      0.12730539
      1.61016949	      0.05266230	      0.04416396	      0.12595102
      1.62711864	      0.05206633	      0.04391335	      0.12477307
      1.64406780	      0.05166325	      0.04374304	      0.12334089
      1.66101695	      0.05113128	      0.04351725	      0.12152518
      1.67796610	      0.05021148	      0.04312406	      0.11931587
      1.69491525	      0.04893479	      0.04257229	      0.11709017
      1.71186441	      0.04752622	      0.04195510	      0.11556113
      1.72881356	      0.04636990	      0.04144157	      0.11449763
      1.74576271	      0.04575343	      0.04116517	      0.11380638
      1.76271186	      0.04589848	      0.04123038	      0.11406265
      1.77966102	      0.04682403	      0.04164401	      0.11538066
      1.79661017	      0.04840382	      0.04234069	      0.11733639
      1.81355932	      0.05012914	      0.04308869	      0.11942438
      1.83050847	      0.05195011	      0.04386431	      0.12210570
      1.84745763	      0.05349136	      0.04451024	      0.12467829
      1.86440678	      0.05469955	      0.04501010	      0.12682854
      1.88135593	      0.05567647	      0.04541026	      0.12876753
      1.89830508	      0.05645599	      0.04572705	      0.12926490
      1.91525424	      0.05717181	      0.04601602	      0.13011661
      1.93220339	      0.05790289	      0.04630930	      0.13047628
      1.94915254	      0.05880366	      0.04666812	      0.13132155
      1.96610169	      0.05992047	      0.04710920	      0.13282716
      1.98305085	      0.06101437	      0.04753726	      0.13493518
      2.00000000	      0.06186402	      0.04786711	      0.13679323
      2.01694915	      0.06217446	      0.04798706	      0.13748629
      2.03389831	      0.06194671	      0.04789909	      0.13719957
      2.05084746	      0.06121263	      0.04761444	      0.13544721
      2.06779661	      0.05997170	      0.04712933	      0.13217908
      2.08474576	      0.05822881	      0.04643945	      0.12784875
      2.10169492	      0.05617599	      0.04561351	      0.12357967
      2.11864407	      0.05394180	      0.04469725	      0.11923676
      2.13559322	      0.05176984	      0.04378814	      0.11533453
      2.15254237	      0.04984883	      0.04296805	      0.11261361
      2.16949153	      0.04824256	      0.04227010	      0.11101747
      2.18644068	      0.04729759	      0.04185406	      0.10969335
      2.20338983	      0.04685289	      0.04165684	      0.11035521
      2.22033898	      0.04721903	      0.04181929	      0.11209048
      2.23728814	      0.04809059	      0.04220347	      0.11366697
      2.25423729	      0.04942215	      0.04278376	      0.11525407
      2.27118644	      0.05103537	      0.04347642	      0.11712022
      2.28813559	      0.05265053	      0.04415903	      0.11938368
      2.30508475	      0.05441563	      0.04489314	      0.12091373
      2.32203390	      0.05600425	      0.04554373	      0.12155325
      2.33898305	      0.05702162	      0.04595554	      0.12160436
      2.35593220	      0.05776459	      0.04625397	      0.12109380
      2.37288136	      0.05830982	      0.04647174	      0.11928405
      2.38983051	      0.05860760	      0.04659026	      0.11762068
      2.40677966	      0.05877011	      0.04665481	      0.11448655
      2.42372881	      0.05839844	      0.04650705	      0.11268736
      2.44067797	      0.05791785	      0.04631528	      0.11128455
      2.45762712	      0.05727998	      0.04605954	      0.11052289
      2.47457627	      0.05673331	      0.04583922	      0.11090512
      2.49152542	      0.05631818	      0.04567120	      0.11166100
      2.50847458	      0.05623054	      0.04563565	      0.11346694
      2.52542373	      0.05665080	      0.04580587	      0.11605655
      2.54237288	      0.05763074	      0.04620034	      0.12007047
      2.55932203	      0.05880415	      0.04666831	      0.12573583
      2.57627119	      0.06151453	      0.04773171	      0.13224276
      2.59322034	      0.06505021	      0.04908428	      0.13923850
      2.61016949	      0.06879659	      0.05047794	      0.14631849
      2.62711864	      0.07197287	      0.05163005	      0.15238410
      2.64406780	      0.07395137	      0.05233488	      0.15636179
      2.66101695	      0.07467635	      0.05259079	      0.15871470
      2.67796610	      0.07409815	      0.05238679	      0.15773238
      2.69491525	      0.07261415	      0.05185955	      0.15646794
      2.71186441	      0.07061569	      0.05114094	      0.15383424
      2.72881356	      0.06869555	      0.05044085	      0.15097147
      2.74576271	      0.06731101	      0.04992995	      0.14935982
      2.76271186	      0.06641822	      0.04959772	      0.14943975
      2.77966102	      0.06593540	      0.04941712	      0.15032323
      2.79661017	      0.06571477	      0.04933437	      0.15091964
      2.81355932	      0.06571830	      0.04933570	      0.15197607
      2.83050847	      0.06593095	      0.04941546	      0.15236115
      2.84745763	      0.06644525	      0.04960781	      0.15308392
      2.86440678	      0.06723100	      0.04990027	      0.15367715
      2.88135593	      0.06823443	      0.05027128	      0.15466591
      2.89830508	      0.06919558	      0.05062410	      0.15538834
      2.91525424	      0.06979725	      0.05084371	      0.15601146
      2.93220339	      0.06979526	      0.05084299	      0.15658626
      2.94915254	      0.06936103	      0.05068458	      0.15699862
      2.96610169	      0.06865024	      0.05042421	      0.15762693
      2.98305085	      0.06833313	      0.05030762	      0.15910389
      3.00000000	      0.06847823	      0.05036101	      0.16111726
      3.01694915	      0.06949291	      0.05073275	      0.16452527
      3.03389831	      0.07117262	      0.05134221	      0.16862169
      3.05084746	      0.07340736	      0.05214203	      0.17311572
      3.06779661	      0.07586067	      0.05300617	      0.17736906
      3.08474576	      0.07828025	      0.05384486	      0.18094916
      3.10169492	      0.08043492	      0.05458087	      0.18317857
      3.11864407	      0.08198535	      0.05510439	      0.18499104
      3.13559322	      0.08299973	      0.05544424	      0.18551836
      3.15254237	      0.08323664	      0.05552332	      0.18633212
      3.16949153	      0.08274490	      0.05535906	      0.18554667
      3.18644068	      0.08141165	      0.05491126	      0.18345563
      3.20338983	      0.07929103	      0.05419137	      0.17916821
      3.22033898	      0.07720256	      0.05347293	      0.17321911
      3.23728814	      0.07554538	      0.05289591	      0.16675723
      3.25423729	      0.07458556	      0.05255881	      0.16114561
      3.27118644	      0.07451523	      0.05253402	      0.15629982
      3.28813559	      0.07517008	      0.05276435	      0.15399707
      3.30508475	      0.07649003	      0.05322560	      0.15331272
      3.32203390	      0.07831851	      0.05385801	      0.15364971
      3.33898305	      0.08029776	      0.05453431	      0.15514243
      3.35593220	      0.08214113	      0.05515672	      0.15688910
      3.37288136	      0.08383761	      0.05572339	      0.15791660
      3.38983051	      0.08531339	      0.05621170	      0.15946079
      3.40677966	      0.08674663	      0.05668190	      0.16087527
      3.42372881	      0.08820423	      0.05715613	      0.16265899
      3.44067797	      0.08977124	      0.05766161	      0.16459249
      3.45762712	      0.09130853	      0.05815322	      0.16638664
      3.47457627	      0.09247508	      0.05852352	      0.16783173
      3.49152542	      0.09295603	      0.05867551	      0.16844431
      3.50847458	      0.09237619	      0.05849222	      0.16908331
      3.52542373	      0.09121957	      0.05812489	      0.16803901
      3.54237288	      0.08984404	      0.05768498	      0.16686694
      3.55932203	      0.08860424	      0.05728559	      0.16561851
      3.57627119	      0.08756398	      0.05694831	      0.16477157
      3.59322034	      0.08654502	      0.05661600	      0.16463220
      3.61016949	      0.08542235	      0.05624759	      0.16527588
      3.62711864	      0.08427931	      0.05586999	      0.16662944
      3.64406780	      0.08333973	      0.05555769	      0.16820761
      3.66101695	      0.08270195	      0.05534469	      0.16909655
      3.67796610	      0.08242288	      0.05525124	      0.17001303
      3.69491525	      0.08260709	      0.05531294	      0.17009988
      3.71186441	      0.08343660	      0.05558997	      0.17002052
      3.72881356	      0.08497764	      0.05610098	      0.17034684
      3.74576271	      0.08716444	      0.05681824	      0.17187809
      3.76271186	      0.08986018	      0.05769016	      0.17455730
      3.77966102	      0.09256795	      0.05855291	      0.17847952
      3.79661017	      0.09484115	      0.05926749	      0.18311855
      3.81355932	      0.09648011	      0.05977740	      0.18791358
      3.83050847	      0.09772352	      0.06016136	      0.19225518
      3.84745763	      0.09880256	      0.06049260	      0.19564217
      3.86440678	      0.10001016	      0.06086115	      0.19826748
      3.88135593	      0.10137999	      0.06127654	      0.20023027
      3.89830508	      0.10292055	      0.06174036	      0.20158335
      3.91525424	      0.10463874	      0.06225358	      0.20265674
      3.93220339	      0.10652850	      0.06281322	      0.20358195
      3.94915254	      0.10848854	      0.06338844	      0.20479691
      3.96610169	      0.11027395	      0.06390791	      0.20540672
      3.98305085	      0.11179533	      0.06434724	      0.20632417
      4.00000000	      0.11304877	      0.06470697	      0.20709935
      4.01694915	      0.11403675	      0.06498910	      0.20811437
      4.03389831	      0.11480215	      0.06520684	      0.20804821
      4.05084746	      0.11532062	      0.06535391	      0.20744274
      4.06779661	      0.11552550	      0.06541194	      0.20621142
      4.08474576	      0.11537837	      0.06537028	      0.20410540
      4.10169492	      0.11486063	      0.06522344	      0.20152285
      4.11864407	      0.11433508	      0.06507406	      0.19888524
      4.13559322	      0.11420027	      0.06503568	      0.19719488
      4.15254237	      0.11446894	      0.06511214	      0.19576642
      4.16949153	      0.11456641	      0.06513985	      0.19484508
      4.18644068	      0.11386600	      0.06494043	      0.19361844
      4.20338983	      0.11203142	      0.06441515	      0.19193720
      4.22033898	      0.10903646	      0.06354831	      0.18970740
      4.23728814	      0.10486386	      0.06232051	      0.18637342
      4.25423729	      0.09952258	      0.06071261	      0.18192839
      4.27118644	      0.09292091	      0.05866443	      0.17575543
      4.28813559	      0.08509398	      0.05613937	      0.16889554
      4.30508475	      0.07628805	      0.05315528	      0.16157889
      4.32203390	      0.06745559	      0.04998355	      0.15401015
      4.33898305	      0.05984290	      0.04707870	      0.14586193
      4.35593220	      0.05411849	      0.04477040	      0.13675418
      4.37288136	      0.05011830	      0.04308403	      0.12607782
      4.38983051	      0.04720863	      0.04181469	      0.11436421
      4.40677966	      0.04456866	      0.04062870	      0.10270700
      4.42372881	      0.04131160	      0.03911597	      0.09577004
      4.44067797	      0.03683636	      0.03693656	      0.09325180
      4.45762712	      0.03282410	      0.03486700	      0.08849397
      4.47457627	      0.02959622	      0.03310825	      0.08323046
      4.49152542	      0.02751637	      0.03192374	      0.07810194
      4.50847458	      0.02649184	      0.03132378	      0.07294364
      4.52542373	      0.02628615	      0.03120194	      0.06857884
      4.54237288	      0.02679511	      0.03150257	      0.06593251
      4.55932203	      0.02755830	      0.03194805	      0.06637760
      4.57627119	      0.02780255	      0.03208931	      0.06710199
      4.59322034	      0.02724519	      0.03176604	      0.06760319
      4.61016949	      0.02641228	      0.03127671	      0.06789881
      4.62711864	      0.02621180	      0.03115778	      0.06780137
      4.64406780	      0.02724969	      0.03176866	      0.06770671
      4.66101695	      0.02956187	      0.03308903	      0.06858215
      4.67796610	      0.03259947	      0.03474748	      0.07611944
      4.69491525	      0.03563505	      0.03632928	      0.08246382
      4.71186441	      0.03797213	      0.03750167	      0.08630408
      4.72881356	      0.03934031	      0.03817131	      0.08770977
      4.74576271	      0.04002308	      0.03850112	      0.08775854
      4.76271186	      0.04042608	      0.03869447	      0.08720988
      4.77966102	      0.04079714	      0.03887165	      0.08595728
      4.79661017	      0.04123742	      0.03908084	      0.08910257
      4.81355932	      0.04140017	      0.03915788	      0.09083307
      4.83050847	      0.04094016	      0.03893973	      0.09046915
      4.84745763	      0.03966757	      0.03832975	      0.08682575
      4.86440678	      0.03776661	      0.03740004	      0.08035182
      4.88135593	      0.03571410	      0.03636955	      0.07348438
      4.89830508	      0.03395380	      0.03546193	      0.07160304
      4.91525424	      0.03256076	      0.03472685	      0.07323818
      4.93220339	      0.03141930	      0.03411272	      0.07407921
      4.94915254	      0.03062066	      0.03367638	      0.07401060
      4.96610169	      0.03014162	      0.03341192	      0.07351332
      4.98305085	      0.03015244	      0.03341791	      0.07245591
      5.00000000	      0.03049675	      0.03360817	      0.07143985
      5.01694915	      0.03085423	      0.03380458	      0.07070114
      5.03389831	      0.03086267	      0.03380920	      0.07025215
      5.05084746	      0.03031033	      0.03350530	      0.07027601
      5.06779661	      0.02930828	      0.03294680	      0.07053751
      5.08474576	      0.02810842	      0.03226534	      0.07095330
      5.10169492	      0.02695125	      0.03159421	      0.07111099
      5.11864407	      0.02579653	      0.03090998	      0.07022056
      5.13559322	      0.02456469	      0.03016295	      0.06822066
      5.15254237	      0.02353584	      0.02952453	      0.07236522
      5.16949153	      0.02323324	      0.02933411	      0.08183990
      5.18644068	      0.02419306	      0.02993392	      0.08938015
      5.20338983	      0.02738468	      0.03184725	      0.09613585
      5.22033898	      0.03295266	      0.03493521	      0.09689046
      5.23728814	      0.04010799	      0.03854194	      0.10263360
      5.25423729	      0.05113221	      0.04351765	      0.11081897
      5.27118644	      0.06633009	      0.04956480	      0.13385308
      5.28813559	      0.08476200	      0.05602975	      0.15987487
      5.30508475	      0.10486677	      0.06232138	      0.18199628
      5.32203390	      0.12472002	      0.06796514	      0.19963671
      5.33898305	      0.14190383	      0.07249619	      0.21341163
      5.35593220	      0.15433222	      0.07560429	      0.22352543
      5.37288136	      0.16129828	      0.07729172	      0.23009353
      5.38983051	      0.16373028	      0.07787223	      0.23330390
      5.40677966	      0.16330309	      0.07777058	      0.23347080
      5.42372881	      0.16108015	      0.07723944	      0.23091491
      5.44067797	      0.15732575	      0.07633400	      0.22606006
      5.45762712	      0.15274706	      0.07521501	      0.22041817
      5.47457627	      0.14859896	      0.07418669	      0.21550534
      5.49152542	      0.14587494	      0.07350358	      0.21197448
      5.50847458	      0.14518156	      0.07332868	      0.21079267
      5.52542373	      0.14612003	      0.07356530	      0.21002432
      5.54237288	      0.14828630	      0.07410860	      0.21093920
      5.55932203	      0.15045370	      0.07464824	      0.21202823
      5.57627119	      0.15141872	      0.07488725	      0.21234092
      5.59322034	      0.15045515	      0.07464860	      0.21160331
      5.61016949	      0.14765239	      0.07395003	      0.20986391
      5.62711864	      0.14388491	      0.07300049	      0.20756580
      5.64406780	      0.14012260	      0.07203975	      0.20532494
      5.66101695	      0.13693296	      0.07121511	      0.20337688
      5.67796610	      0.13442268	      0.07055932	      0.20151704
      5.69491525	      0.13258226	      0.07007463	      0.19968712
      5.71186441	      0.13118263	      0.06970377	      0.19812871
      5.72881356	      0.13023679	      0.06945203	      0.19747152
      5.74576271	      0.12981829	      0.06934036	      0.19702462
      5.76271186	      0.12985409	      0.06934992	      0.19583084
      5.77966102	      0.13045656	      0.06951061	      0.19592894
      5.79661017	      0.13133423	      0.06974404	      0.19591568
      5.81355932	      0.13222253	      0.06997950	      0.19597749
      5.83050847	      0.13268717	      0.07010235	      0.19608422
      5.84745763	      0.13264669	      0.07009166	      0.19589994
      5.86440678	      0.13213359	      0.06995596	      0.19535274
      5.88135593	      0.13134225	      0.06974617	      0.19484571
      5.89830508	      0.13060857	      0.06955109	      0.19514330
      5.91525424	      0.13009352	      0.06941382	      0.19480453
      5.93220339	      0.12986294	      0.06935228	      0.19467295
      5.94915254	      0.12989020	      0.06935956	      0.19504717
      5.96610169	      0.12999451	      0.06938740	      0.19511337
      5.98305085	      0.12982811	      0.06934298	      0.19479290
      6.00000000	      0.12923054	      0.06918321	      0.19415602
      6.01694915	      0.12839168	      0.06895830	      0.19330537
      6.03389831	      0.12759620	      0.06874435	      0.19255541
      6.05084746	      0.12703776	      0.06859375	      0.19197301
      6.06779661	      0.12675054	      0.06851616	      0.19182877
      6.08474576	      0.12667049	      0.06849452	      0.19196445
      6.10169492	      0.12686370	      0.06854674	      0.19253504
      6.11864407	      0.12735208	      0.06867855	      0.19342273
      6.13559322	      0.12813782	      0.06889010	      0.19478164
      6.15254237	      0.12954857	      0.06926828	      0.19573122
      6.16949153	      0.13232466	      0.07000652	      0.19775800
      6.18644068	      0.13713223	      0.07126690	      0.20103040
      6.20338983	      0.14401865	      0.07303440	      0.20499244
      6.22033898	      0.15203929	      0.07504056	      0.20955140
      6.23728814	      0.15998982	      0.07697759	      0.21426086
      6.25423729	      0.16586903	      0.07837919	      0.21645577
      6.27118644	      0.16777774	      0.07882887	      0.21752814
      6.28813559	      0.16424315	      0.07799410	      0.21536082
      6.30508475	      0.15601678	      0.07601578	      0.21055092
      6.32203390	      0.14603243	      0.07354324	      0.20474713
      6.33898305	      0.13743974	      0.07134676	      0.19916556
      6.35593220	      0.13236957	      0.07001840	      0.19513553
      6.37288136	      0.13151796	      0.06979280	      0.19387138
      6.38983051	      0.13448754	      0.07057634	      0.19533226
      6.40677966	      0.13993635	      0.07199186	      0.19824805
      6.42372881	      0.14605460	      0.07354883	      0.20155853
      6.44067797	      0.15046053	      0.07464993	      0.20369242
      6.45762712	      0.15098871	      0.07478084	      0.20361764
      6.47457627	      0.14633446	      0.07361926	      0.20066735
      6.49152542	      0.13697219	      0.07122530	      0.19499545
      6.50847458	      0.12493467	      0.06802360	      0.18677287
      6.52542373	      0.11312213	      0.06472796	      0.17832318
      6.54237288	      0.10364039	      0.06195590	      0.17092947
      6.55932203	      0.09748686	      0.06008847	      0.16590691
      6.57627119	      0.09482264	      0.05926170	      0.16385594
      6.59322034	      0.09553699	      0.05948451	      0.16441955
      6.61016949	      0.09938961	      0.06067204	      0.16709137
      6.62711864	      0.10568520	      0.06256410	      0.17086275
      6.64406780	      0.11299891	      0.06469270	      0.17475208
      6.66101695	      0.11937904	      0.06649395	      0.17780299
      6.67796610	      0.12300448	      0.06749608	      0.17926575
      6.69491525	      0.12281707	      0.06744465	      0.17849362
      6.71186441	      0.11891545	      0.06636472	      0.17915045
      6.72881356	      0.11297594	      0.06468612	      0.17860979
      6.74576271	      0.10682126	      0.06289947	      0.17710494
      6.76271186	      0.10225533	      0.06154051	      0.17569014
      6.77966102	      0.10047622	      0.06100280	      0.17532776
      6.79661017	      0.10144309	      0.06129561	      0.17608609
      6.81355932	      0.10481135	      0.06230491	      0.17765429
      6.83050847	      0.10950159	      0.06368371	      0.17940365
      6.84745763	      0.11364203	      0.06487653	      0.18043609
      6.86440678	      0.11555136	      0.06541926	      0.18010420
      6.88135593	      0.11424481	      0.06504836	      0.17791444
      6.89830508	      0.11026043	      0.06390399	      0.17444235
      6.91525424	      0.10494219	      0.06234379	      0.17016674
      6.93220339	      0.09979939	      0.06079699	      0.16566047
      6.94915254	      0.09578239	      0.05956086	      0.16115842
      6.96610169	      0.09348735	      0.05884297	      0.15915244
      6.98305085	      0.09335904	      0.05880257	      0.15938088
      7.00000000	      0.09550358	      0.05947411	      0.16193937
      7.01694915	      0.09938442	      0.06067046	      0.16578502
      7.03389831	      0.10375225	      0.06198932	      0.16982721
      7.05084746	      0.10763806	      0.06313949	      0.17317592
      7.06779661	      0.11070098	      0.06403152	      0.17638513
      7.08474576	      0.11331365	      0.06478273	      0.17818635
      7.10169492	      0.11572550	      0.06546854	      0.17936901
      7.11864407	      0.11821841	      0.06616993	      0.17996497
      7.13559322	      0.12092103	      0.06692202	      0.18079943
      7.15254237	      0.12426477	      0.06784098	      0.18238489
      7.16949153	      0.12844489	      0.06897259	      0.18362330
      7.18644068	      0.13279331	      0.07013038	      0.18525859
      7.20338983	      0.13624351	      0.07103560	      0.18642173
      7.22033898	      0.13828314	      0.07156534	      0.18775046
      7.23728814	      0.13956619	      0.07189658	      0.18971940
      7.25423729	      0.14069148	      0.07218584	      0.19205634
      7.27118644	      0.14126611	      0.07233310	      0.19457848
      7.28813559	      0.14033399	      0.07209407	      0.19584720
      7.30508475	      0.13750028	      0.07136247	      0.19542196
      7.32203390	      0.13342881	      0.07029799	      0.19343984
      7.33898305	      0.12907166	      0.06914067	      0.19039036
      7.35593220	      0.12485056	      0.06800070	      0.18679462
      7.37288136	      0.12081101	      0.06689157	      0.18304111
      7.38983051	      0.11708026	      0.06585063	      0.17949421
      7.40677966	      0.11413937	      0.06501834	      0.17728384
      7.42372881	      0.11237205	      0.06451300	      0.17686118
      7.44067797	      0.11211105	      0.06443804	      0.17821284
      7.45762712	      0.11379968	      0.06492151	      0.18120946
      7.47457627	      0.11771934	      0.06603011	      0.18532211
      7.49152542	      0.12352924	      0.06763991	      0.18989585
      7.50847458	      0.12967219	      0.06930132	      0.19390353
      7.52542373	      0.13403482	      0.07045745	      0.19619584
      7.54237288	      0.13534468	      0.07080089	      0.19649876
      7.55932203	      0.13392519	      0.07042863	      0.19498893
      7.57627119	      0.13121022	      0.06971110	      0.19242265
      7.59322034	      0.12848663	      0.06898380	      0.19029930
      7.61016949	      0.12620145	      0.06836759	      0.18877712
      7.62711864	      0.12456544	      0.06792301	      0.18804032
      7.64406780	      0.12376955	      0.06770567	      0.18724989
      7.66101695	      0.12341212	      0.06760783	      0.18637058
      7.67796610	      0.12260921	      0.06738755	      0.18461081
      7.69491525	      0.12074917	      0.06687445	      0.18154298
      7.71186441	      0.11775451	      0.06603997	      0.17782292
      7.72881356	      0.11444459	      0.06510521	      0.17387136
      7.74576271	      0.11149719	      0.06426138	      0.17042817
      7.76271186	      0.10951589	      0.06368787	      0.16852782
      7.77966102	      0.10890638	      0.06351039	      0.16824738
      7.79661017	      0.11007340	      0.06384977	      0.17060907
      7.81355932	      0.11337507	      0.06480028	      0.17469733
      7.83050847	      0.11862293	      0.06628304	      0.18008043
      7.84745763	      0.12490602	      0.06801580	      0.18557041
      7.86440678	      0.13079616	      0.06960102	      0.18994497
      7.88135593	      0.13496286	      0.07070095	      0.19302303
      7.89830508	      0.13657798	      0.07112274	      0.19368520
      7.91525424	      0.13574170	      0.07090466	      0.19263480
      7.93220339	      0.13298660	      0.07018140	      0.18995470
      7.94915254	      0.12920741	      0.06917702	      0.18623698
      7.96610169	      0.12553809	      0.06818767	      0.18203356
      7.98305085	      0.12237179	      0.06732227	      0.17848815
      8.00000000	      0.11974347	      0.06659537	      0.17570457
      8.01694915	      0.11730344	      0.06591337	      0.17418494
      8.03389831	      0.11532930	      0.06535637	      0.17394932
      8.05084746	      0.11454068	      0.06513254	      0.17526730
      8.06779661	      0.11548503	      0.06540048	      0.17779681
      8.08474576	      0.11833899	      0.06620367	      0.18162391
      8.10169492	      0.12303069	      0.06750328	      0.18613458
      8.11864407	      0.12925817	      0.06919060	      0.19131131
      8.13559322	      0.13650889	      0.07110475	      0.19660549
      8.15254237	      0.14407347	      0.07304830	      0.20130392
      8.16949153	      0.15088330	      0.07475473	      0.20468275
      8.18644068	      0.15609200	      0.07603410	      0.20654765
      8.20338983	      0.15927212	      0.07680474	      0.20713493
      8.22033898	      0.16057326	      0.07711782	      0.20671179
      8.23728814	      0.16025075	      0.07704033	      0.20577940
      8.25423729	      0.15874638	      0.07667787	      0.20524629
      8.27118644	      0.15677523	      0.07620033	      0.20553504
      8.28813559	      0.15512048	      0.07579712	      0.20711850
      8.30508475	      0.15424775	      0.07558359	      0.20925455
      8.32203390	      0.15440553	      0.07562224	      0.21148600
      8.33898305	      0.15606254	      0.07602693	      0.21353528
      8.35593220	      0.15991284	      0.07695907	      0.21598242
      8.37288136	      0.16592819	      0.07839317	      0.21889122
      8.38983051	      0.17306352	      0.08006098	      0.22140063
      8.40677966	      0.17969049	      0.08157943	      0.22431420
      8.42372881	      0.18386412	      0.08252140	      0.22540245
      8.44067797	      0.18419348	      0.08259528	      0.22518591
      8.45762712	      0.18024175	      0.08170447	      0.22350391
      8.47457627	      0.17373371	      0.08021585	      0.22017536
      8.49152542	      0.16809985	      0.07890450	      0.21749523
      8.50847458	      0.16645478	      0.07851746	      0.21653851
      8.52542373	      0.17061918	      0.07949358	      0.21901163
      8.54237288	      0.18089592	      0.08185260	      0.22470076
      8.55932203	      0.19615339	      0.08523462	      0.23349572
      8.57627119	      0.21286244	      0.08879073	      0.24251821
      8.59322034	      0.22606087	      0.09150205	      0.24913320
      8.61016949	      0.23176319	      0.09264892	      0.25190117
      8.62711864	      0.22876536	      0.09204777	      0.25038199
      8.64406780	      0.21886715	      0.09003439	      0.24559730
      8.66101695	      0.20526339	      0.08719144	      0.23871035
      8.67796610	      0.19075952	      0.08405455	      0.22991309
      8.69491525	      0.17820624	      0.08124181	      0.22172271
      8.71186441	      0.16915236	      0.07915113	      0.21450849
      8.72881356	      0.16332841	      0.07777661	      0.20806185
      8.74576271	      0.15790289	      0.07647388	      0.20077081
      8.76271186	      0.14893363	      0.07427019	      0.19080272
      8.77966102	      0.13432087	      0.07053260	      0.17784552
      8.79661017	      0.11521979	      0.06532534	      0.16307021
      8.81355932	      0.09500900	      0.05931991	      0.15030791
      8.83050847	      0.07712775	      0.05344702	      0.14112004
      8.84745763	      0.06350964	      0.04849958	      0.13202817
      8.86440678	      0.05459976	      0.04496902	      0.12398488
      8.88135593	      0.04991377	      0.04299603	      0.11817073
      8.89830508	      0.04831499	      0.04230182	      0.11460193
      8.91525424	      0.04841102	      0.04234384	      0.11242691
      8.93220339	      0.04897942	      0.04259170	      0.11090461
      8.94915254	      0.04939140	      0.04277045	      0.10985439
      8.96610169	      0.04959224	      0.04285732	      0.10890805
      8.98305085	      0.04980618	      0.04294966	      0.10824753
      9.00000000	      0.05006728	      0.04306209	      0.10763009
      9.01694915	      0.05046759	      0.04323390	      0.10731939
      9.03389831	      0.05086690	      0.04340460	      0.10667477
      9.05084746	      0.05116696	      0.04353243	      0.10626452
      9.06779661	      0.05115153	      0.04352587	      0.10588282
      9.08474576	      0.05097478	      0.04345060	      0.10604108
      9.10169492	      0.05092090	      0.04342763	      0.10670536
      9.11864407	      0.05135516	      0.04361242	      0.10812510
      9.13559322	      0.05230850	      0.04401536	      0.11000872
      9.15254237	      0.05327062	      0.04441830	      0.11168318
      9.16949153	      0.05351180	      0.04451875	      0.11255908
      9.18644068	      0.05268972	      0.04417546	      0.11187877
      9.20338983	      0.05154622	      0.04369347	      0.11077373
      9.22033898	      0.05087860	      0.04340959	      0.10880876
      9.23728814	      0.05171516	      0.04376501	      0.10860481
      9.25423729	      0.05375090	      0.04461809	      0.10921616
      9.27118644	      0.05652466	      0.04575484	      0.11005155
      9.28813559	      0.05965962	      0.04700655	      0.11137936
      9.30508475	      0.06265773	      0.04817320	      0.11319462
      9.32203390	      0.06474482	      0.04896893	      0.11511064
      9.33898305	      0.06540544	      0.04921812	      0.11668113
      9.35593220	      0.06503496	      0.04907853	      0.11813368
      9.37288136	      0.06464048	      0.04892946	      0.11991713
      9.38983051	      0.06497608	      0.04905631	      0.12194621
      9.40677966	      0.06622991	      0.04952736	      0.12370365
      9.42372881	      0.06791231	      0.05015248	      0.12412825
      9.44067797	      0.06907335	      0.05057937	      0.12301913
      9.45762712	      0.06873184	      0.05045417	      0.11984092
      9.47457627	      0.06664918	      0.04968388	      0.11468184
      9.49152542	      0.06348890	      0.04849166	      0.10816851
      9.50847458	      0.06032169	      0.04726666	      0.10228829
      9.52542373	      0.05808967	      0.04638393	      0.09898823
      9.54237288	      0.05721792	      0.04603458	      0.10028996
      9.55932203	      0.05788666	      0.04630281	      0.10654106
      9.57627119	      0.05992816	      0.04711222	      0.11689345
      9.59322034	      0.06253516	      0.04812606	      0.12875943
      9.61016949	      0.06428079	      0.04879313	      0.13820876
      9.62711864	      0.06466740	      0.04893965	      0.14431159
      9.64406780	      0.06392533	      0.04865804	      0.14726787
      9.66101695	      0.06266611	      0.04817642	      0.15763302
      9.67796610	      0.06109238	      0.04756764	      0.15525090
      9.69491525	      0.05945963	      0.04692769	      0.15189458
      9.71186441	      0.03665571	      0.03684588	      0.09296525
      9.72881356	      0.03527458	      0.03614507	      0.09528767
      9.74576271	      0.03374641	      0.03535346	      0.09389360
      9.76271186	      0.03184717	      0.03434421	      0.08965921
      9.77966102	      0.02973296	      0.03318465	      0.08415941
      9.79661017	      0.02879461	      0.03265681	      0.07919894
      9.81355932	      0.02924073	      0.03290881	      0.07500794
      9.83050847	      0.02951625	      0.03306349	      0.07259911
      9.84745763	      0.02803809	      0.03222496	      0.07078021
      9.86440678	      0.02506342	      0.03046761	      0.07053679
      9.88135593	      0.02211719	      0.02862089	      0.07054758
      9.89830508	      0.02050412	      0.02755743	      0.07019887
      9.91525424	      0.02054413	      0.02758430	      0.06898001
      9.93220339	      0.02126216	      0.02806220	      0.06738933
      9.94915254	      0.02150738	      0.02822357	      0.06611904
      9.96610169	      0.02133752	      0.02811189	      0.06491536
      9.98305085	      0.02114636	      0.02798568	      0.06406724
     10.00000000	      0.02112618	      0.02797233	      0.06350263
     10.01694915	      0.02142106	      0.02816687	      0.06419596
     10.03389831	      0.02194218	      0.02850743	      0.06539849
     10.05084746	      0.02233854	      0.02876375	      0.06719464
     10.06779661	      0.02226752	      0.02871799	      0.06883892
     10.08474576	      0.02174196	      0.02837707	      0.06999397
     10.10169492	      0.02110910	      0.02796102	      0.07087473
     10.11864407	      0.02071127	      0.02769628	      0.07151858
     10.13559322	      0.02062301	      0.02763721	      0.07188157
     10.15254237	      0.02076412	      0.02773160	      0.07183037
     10.16949153	      0.02105257	      0.02792356	      0.07201448
     10.18644068	      0.02152193	      0.02823311	      0.07225109
     10.20338983	      0.02215134	      0.02864297	      0.07291050
     10.22033898	      0.02278842	      0.02905195	      0.07371182
     10.23728814	      0.02327323	      0.02935935	      0.07448910
     10.25423729	      0.02357460	      0.02954883	      0.07530907
     10.27118644	      0.02372383	      0.02964221	      0.07626945
     10.28813559	      0.02371938	      0.02963942	      0.07727446
     10.30508475	      0.02362332	      0.02957935	      0.07850637
     10.32203390	      0.02359535	      0.02956183	      0.07995901
     10.33898305	      0.02382401	      0.02970472	      0.08124442
     10.35593220	      0.02438969	      0.03005531	      0.08287556
     10.37288136	      0.02519906	      0.03054993	      0.08432284
     10.38983051	      0.02609996	      0.03109124	      0.08558946
     10.40677966	      0.02696240	      0.03160075	      0.08649890
     10.42372881	      0.02766188	      0.03200803	      0.08729267
     10.44067797	      0.02807623	      0.03224687	      0.08801068
     10.45762712	      0.02810981	      0.03226615	      0.08848833
     10.47457627	      0.02779134	      0.03208285	      0.08846574
     10.49152542	      0.02724877	      0.03176812	      0.08839945
     10.50847458	      0.02653529	      0.03134946	      0.08719879
     10.52542373	      0.02561774	      0.03080268	      0.08452909
     10.54237288	      0.02466804	      0.03022633	      0.08198693
     10.55932203	      0.02387331	      0.02973544	      0.08010396
     10.57627119	      0.02345847	      0.02947596	      0.08043897
     10.59322034	      0.02348210	      0.02949080	      0.08318024
     10.61016949	      0.02387966	      0.02973940	      0.08729884
     10.62711864	      0.02442107	      0.03007464	      0.09106388
     10.64406780	      0.02480822	      0.03031209	      0.09305088
     10.66101695	      0.02487227	      0.03035120	      0.09189030
     10.67796610	      0.02443502	      0.03008323	      0.08771230
     10.69491525	      0.02390526	      0.02975533	      0.08038082
     10.71186441	      0.02378186	      0.02967843	      0.07168745
     10.72881356	      0.02422624	      0.02995443	      0.06359567
     10.74576271	      0.02469949	      0.03024559	      0.06161460
     10.76271186	      0.02449869	      0.03012240	      0.06494181
     10.77966102	      0.02343905	      0.02946376	      0.06679490
     10.79661017	      0.02192231	      0.02849452	      0.06602950
     10.81355932	      0.02041157	      0.02749516	      0.06424978
     10.83050847	      0.01935176	      0.02677185	      0.06172477
     10.84745763	      0.01881551	      0.02639831	      0.05895410
     10.86440678	      0.01869125	      0.02631099	      0.05561486
     10.88135593	      0.01881410	      0.02639732	      0.05216897
     10.89830508	      0.01896400	      0.02650227	      0.04848434
     10.91525424	      0.01906827	      0.02657503	      0.05156866
     10.93220339	      0.01923468	      0.02669074	      0.05254348
     10.94915254	      0.01948470	      0.02686365	      0.05154990
     10.96610169	      0.01972279	      0.02702728	      0.04969846
     10.98305085	      0.01969223	      0.02700633	      0.04805837
     11.00000000	      0.01922275	      0.02668246	      0.04714811
     11.01694915	      0.01819587	      0.02595999	      0.04569948
     11.03389831	      0.01709846	      0.02516498	      0.04481872
     11.05084746	      0.01625397	      0.02453567	      0.04404568
     11.06779661	      0.01583592	      0.02421808	      0.04472738
     11.08474576	      0.01569611	      0.02411094	      0.04521377
     11.10169492	      0.01555798	      0.02400461	      0.04529337
     11.11864407	      0.01546939	      0.02393617	      0.04493284
     11.13559322	      0.01589723	      0.02426492	      0.04554267
     11.15254237	      0.01724106	      0.02526970	      0.04644430
     11.16949153	      0.01944358	      0.02683528	      0.04764901
     11.18644068	      0.02180661	      0.02841923	      0.04881135
     11.20338983	      0.02345675	      0.02947488	      0.05014598
     11.22033898	      0.02395090	      0.02978373	      0.05143588
     11.23728814	      0.02361445	      0.02957379	      0.05097629
     11.25423729	      0.02308670	      0.02924146	      0.05328621
     11.27118644	      0.02272559	      0.02901187	      0.05467808
     11.28813559	      0.02258632	      0.02892284	      0.05569984
     11.30508475	      0.02249635	      0.02886517	      0.05538911
     11.32203390	      0.02234161	      0.02876573	      0.05479875
     11.33898305	      0.02210056	      0.02861012	      0.05456580
     11.35593220	      0.02175060	      0.02838270	      0.05578049
     11.37288136	      0.02146689	      0.02819698	      0.05689901
     11.38983051	      0.02024790	      0.02738471	      0.05851050
     11.40677966	      0.02044984	      0.02752093	      0.06100504
     11.42372881	      0.02111291	      0.02796354	      0.06384101
     11.44067797	      0.02227519	      0.02872294	      0.06669629
     11.45762712	      0.02386114	      0.02972787	      0.06917232
     11.47457627	      0.02565184	      0.03082318	      0.07128208
     11.49152542	      0.02729064	      0.03179252	      0.07264161
     11.50847458	      0.02860219	      0.03254751	      0.07302960
     11.52542373	      0.02948650	      0.03304683	      0.07318600
     11.54237288	      0.03000630	      0.03333684	      0.07305213
     11.55932203	      0.03031304	      0.03350679	      0.07258340
     11.57627119	      0.03046531	      0.03359084	      0.07192906
     11.59322034	      0.03057678	      0.03365224	      0.07104636
     11.61016949	      0.03090180	      0.03383063	      0.07166046
     11.62711864	      0.03149059	      0.03415140	      0.07680633
     11.64406780	      0.03211481	      0.03448822	      0.08059358
     11.66101695	      0.03250328	      0.03469619	      0.08201264
     11.67796610	      0.03259890	      0.03474718	      0.08119237
     11.69491525	      0.03251988	      0.03470504	      0.07893756
     11.71186441	      0.03231348	      0.03459473	      0.07647640
     11.72881356	      0.03196409	      0.03440720	      0.07478572
     11.74576271	      0.03160853	      0.03421529	      0.07459672
     11.76271186	      0.03135634	      0.03407852	      0.07566082
     11.77966102	      0.03124117	      0.03401588	      0.07770616
     11.79661017	      0.03102841	      0.03389986	      0.07983215
     11.81355932	      0.03059339	      0.03366138	      0.08069587
     11.83050847	      0.03001133	      0.03333963	      0.08022740
     11.84745763	      0.02928440	      0.03293338	      0.07808751
     11.86440678	      0.02843035	      0.03244959	      0.07468448
     11.88135593	      0.02759124	      0.03196714	      0.07057590
     11.89830508	      0.02694835	      0.03159251	      0.06710108
     11.91525424	      0.02664493	      0.03141416	      0.06478067
     11.93220339	      0.02679393	      0.03150187	      0.06383725
     11.94915254	      0.02741369	      0.03186412	      0.06432975
     11.96610169	      0.02835984	      0.03240933	      0.06585035
     11.98305085	      0.02949903	      0.03305384	      0.06815178
     12.00000000	      0.03069119	      0.03371514	      0.07106321
     12.01694915	      0.03185495	      0.03434840	      0.07435300
     12.03389831	      0.03284884	      0.03488013	      0.07740133
     12.05084746	      0.03348143	      0.03521438	      0.07970617
     12.06779661	      0.03369246	      0.03532519	      0.08087551
     12.08474576	      0.03363880	      0.03529705	      0.08120322
     12.10169492	      0.03355374	      0.03525239	      0.08111265
     12.11864407	      0.03327612	      0.03510625	      0.07998095
     12.13559322	      0.03272356	      0.03481355	      0.07757755
     12.15254237	      0.03174159	      0.03428724	      0.07393863
     12.16949153	      0.03047106	      0.03359401	      0.06962880
     12.18644068	      0.02912917	      0.03284598	      0.06600969
     12.20338983	      0.02810914	      0.03226576	      0.06323647
     12.22033898	      0.02772687	      0.03204561	      0.06163221
     12.23728814	      0.02832426	      0.03238899	      0.06662467
     12.25423729	      0.02972957	      0.03318276	      0.08007924
     12.27118644	      0.03169446	      0.03426177	      0.09406975
     12.28813559	      0.03398485	      0.03547813	      0.10792584
     12.30508475	      0.03687514	      0.03695600	      0.12134569
     12.32203390	      0.04111840	      0.03902440	      0.13372806
     12.33898305	      0.04749007	      0.04193914	      0.14463438
     12.35593220	      0.05552523	      0.04534854	      0.15538620
     12.37288136	      0.06535734	      0.04920002	      0.16333595
     12.38983051	      0.07672770	      0.05330822	      0.16923994
     12.40677966	      0.08886877	      0.05737104	      0.17499201
     12.42372881	      0.10074428	      0.06108412	      0.18141182
     12.44067797	      0.11107009	      0.06413819	      0.18773289
     12.45762712	      0.11836607	      0.06621124	      0.19179700
     12.47457627	      0.12162406	      0.06711628	      0.19271864
     12.49152542	      0.12148350	      0.06707748	      0.19318188
     12.50847458	      0.11971164	      0.06658652	      0.19195022
     12.52542373	      0.11760176	      0.06599713	      0.18995010
     12.54237288	      0.11486741	      0.06522537	      0.18647902
     12.55932203	      0.11031523	      0.06391986	      0.18042819
     12.57627119	      0.10359580	      0.06194257	      0.17204593
     12.59322034	      0.09576667	      0.05955597	      0.16246433
     12.61016949	      0.08813026	      0.05713216	      0.15292384
     12.62711864	      0.08106348	      0.05479371	      0.14391434
     12.64406780	      0.07439608	      0.05249200	      0.13583360
     12.66101695	      0.06820536	      0.05026057	      0.12939711
     12.67796610	      0.06294277	      0.04828264	      0.12540713
     12.69491525	      0.05892405	      0.04671586	      0.12391847
     12.71186441	      0.05622853	      0.04563483	      0.12419846
     12.72881356	      0.05486863	      0.04507961	      0.12504767
     12.74576271	      0.05501276	      0.04513878	      0.12596861
     12.76271186	      0.05666266	      0.04581066	      0.12649832
     12.77966102	      0.05952348	      0.04695288	      0.12631919
     12.79661017	      0.06302449	      0.04831398	      0.12511778
     12.81355932	      0.06659863	      0.04966504	      0.12509980
     12.83050847	      0.06998464	      0.05091192	      0.12674103
     12.84745763	      0.07319214	      0.05206554	      0.12829174
     12.86440678	      0.07639419	      0.05319224	      0.12990799
     12.88135593	      0.07956137	      0.05428368	      0.13068302
     12.89830508	      0.08289816	      0.05541031	      0.13145542
     12.91525424	      0.08605864	      0.05645668	      0.13212797
     12.93220339	      0.08843411	      0.05723056	      0.13256585
     12.94915254	      0.08934385	      0.05752418	      0.13234059
     12.96610169	      0.08863674	      0.05729609	      0.13371985
     12.98305085	      0.08650515	      0.05660295	      0.13350430
     13.00000000	      0.08329225	      0.05554186	      0.13108773
     13.01694915	      0.07893741	      0.05407040	      0.13025770
     13.03389831	      0.07316171	      0.05205471	      0.12625290
     13.05084746	      0.06693860	      0.04979164	      0.11930249
     13.06779661	      0.06196965	      0.04790796	      0.11197654
     13.08474576	      0.05931016	      0.04686867	      0.10702606
     13.10169492	      0.05909046	      0.04678179	      0.10695016
     13.11864407	      0.06104596	      0.04754957	      0.11252785
     13.13559322	      0.06422498	      0.04877195	      0.12103409
     13.15254237	      0.06777159	      0.05010049	      0.12929567
     13.16949153	      0.07010139	      0.05095437	      0.13480395
     13.18644068	      0.06995530	      0.05090125	      0.13784747
     13.20338983	      0.06731483	      0.04993137	      0.14110448
     13.22033898	      0.06423192	      0.04877458	      0.15174038
     13.23728814	      0.06078962	      0.04744963	      0.15308347
     13.25423729	      0.05832257	      0.04647682	      0.15384044
     13.27118644	      0.03460804	      0.03580195	      0.08008777
     13.28813559	      0.03428631	      0.03563514	      0.07779134
     13.30508475	      0.03434950	      0.03566796	      0.07569565
     13.32203390	      0.03453505	      0.03576417	      0.07469430
     13.33898305	      0.03462072	      0.03580850	      0.07579538
     13.35593220	      0.03443219	      0.03571087	      0.07702691
     13.37288136	      0.03402595	      0.03549958	      0.07998244
     13.38983051	      0.03365119	      0.03530355	      0.08441021
     13.40677966	      0.03343953	      0.03519234	      0.08988349
     13.42372881	      0.03313579	      0.03503215	      0.09476028
     13.44067797	      0.03247126	      0.03467909	      0.09754698
     13.45762712	      0.03115500	      0.03396894	      0.09690574
     13.47457627	      0.02923604	      0.03290617	      0.09299641
     13.49152542	      0.02684972	      0.03153465	      0.08597109
     13.50847458	      0.02426053	      0.02997563	      0.07631528
     13.52542373	      0.02184247	      0.02844258	      0.06522409
     13.54237288	      0.01992356	      0.02716449	      0.05478175
     13.55932203	      0.01866079	      0.02628955	      0.04863794
     13.57627119	      0.01795568	      0.02578808	      0.04660711
     13.59322034	      0.01771839	      0.02561712	      0.04365735
     13.61016949	      0.01796461	      0.02579450	      0.04525171
     13.62711864	      0.01881352	      0.02639691	      0.04965740
     13.64406780	      0.02011758	      0.02729644	      0.05384563
     13.66101695	      0.02191984	      0.02849291	      0.05819609
     13.67796610	      0.02408603	      0.02986762	      0.06003446
     13.69491525	      0.02651196	      0.03133567	      0.06094848
     13.71186441	      0.02861958	      0.03255740	      0.06478375
     13.72881356	      0.03088707	      0.03382256	      0.06104126
     13.74576271	      0.03339545	      0.03516914	      0.06646469
     13.76271186	      0.03606932	      0.03654997	      0.07106803
     13.77966102	      0.03903274	      0.03802179	      0.07358682
     13.79661017	      0.04257264	      0.03970849	      0.08130326
     13.81355932	      0.04676399	      0.04161730	      0.08859205
     13.83050847	      0.05155598	      0.04369761	      0.09647753
     13.84745763	      0.05657301	      0.04577441	      0.10391674
     13.86440678	      0.06149577	      0.04772443	      0.11442371
     13.88135593	      0.06044234	      0.04731390	      0.09759105
     13.89830508	      0.06329266	      0.04841666	      0.09472825
     13.91525424	      0.06560879	      0.04929458	      0.09218033
     13.93220339	      0.06726461	      0.04991274	      0.09014598
     13.94915254	      0.06824019	      0.05027340	      0.09267986
     13.96610169	      0.06838696	      0.05032743	      0.09374903
     13.98305085	      0.06714256	      0.04986744	      0.09331882
     14.00000000	      0.06468019	      0.04894449	      0.09024020
     14.01694915	      0.06188138	      0.04787382	      0.08686697
     14.03389831	      0.05899523	      0.04674407	      0.08418084
     14.05084746	      0.05642249	      0.04571347	      0.08243448
     14.06779661	      0.05439462	      0.04488447	      0.08111676
     14.08474576	      0.05299398	      0.04430282	      0.08037792
     14.10169492	      0.05218818	      0.04396471	      0.08009674
     14.11864407	      0.05190667	      0.04384597	      0.08011168
     14.13559322	      0.05214071	      0.04394471	      0.08076075
     14.15254237	      0.05276959	      0.04420893	      0.08156547
     14.16949153	      0.05361881	      0.04456323	      0.08316146
     14.18644068	      0.05457655	      0.04495947	      0.08460808
     14.20338983	      0.05511068	      0.04517893	      0.08430346
     14.22033898	      0.05544802	      0.04531700	      0.08415684
     14.23728814	      0.05542295	      0.04530675	      0.08440990
     14.25423729	      0.05535887	      0.04528055	      0.08431889
     14.27118644	      0.05545021	      0.04531789	      0.08501566
     14.28813559	      0.05580427	      0.04546234	      0.08519337
     14.30508475	      0.05641488	      0.04571039	      0.08685437
     14.32203390	      0.05683572	      0.04588057	      0.08612116
     14.33898305	      0.05715891	      0.04601083	      0.08638551
     14.35593220	      0.05697426	      0.04593645	      0.08478138
     14.37288136	      0.05682994	      0.04587824	      0.08316868
     14.38983051	      0.05655936	      0.04576889	      0.08147626
     14.40677966	      0.05661404	      0.04579101	      0.08096631
     14.42372881	      0.05690248	      0.04590751	      0.08120567
     14.44067797	      0.05757789	      0.04617916	      0.08194833
     14.45762712	      0.05848083	      0.04653984	      0.08242556
     14.47457627	      0.05968120	      0.04701505	      0.08375077
     14.49152542	      0.06091463	      0.04749839	      0.08448581
     14.50847458	      0.06193001	      0.04789263	      0.08529857
     14.52542373	      0.06257684	      0.04814209	      0.08566060
     14.54237288	      0.06294168	      0.04828223	      0.08590681
     14.55932203	      0.06313438	      0.04835608	      0.08542160
     14.57627119	      0.06348047	      0.04848844	      0.08508552
     14.59322034	      0.06405097	      0.04870583	      0.08489848
     14.61016949	      0.06498364	      0.04905916	      0.08831621
     14.62711864	      0.06583969	      0.04938124	      0.08859006
     14.64406780	      0.06657628	      0.04965670	      0.08876675
     14.66101695	      0.06689552	      0.04977561	      0.08920474
     14.67796610	      0.06693010	      0.04978848	      0.09015776
     14.69491525	      0.06629941	      0.04955334	      0.08657099
