Model Marker Errors from IK
version=1
nRows=404
nColumns=4
inDegrees=no
endheader
time	total_squared_error	marker_error_RMS	marker_error_max
      0.00000000	      0.03123197	      0.03401087	      0.06334450
      0.02325581	      0.03082999	      0.03379129	      0.06401128
      0.04651163	      0.03057543	      0.03365150	      0.06376370
      0.06976744	      0.03054331	      0.03363382	      0.06345417
      0.09302326	      0.03056592	      0.03364626	      0.06320837
      0.11627907	      0.03045883	      0.03358727	      0.06246710
      0.13953488	      0.03042249	      0.03356723	      0.06187359
      0.16279070	      0.03050278	      0.03361149	      0.06164427
      0.18604651	      0.03057963	      0.03365381	      0.06133970
      0.20930233	      0.03072424	      0.03373329	      0.06120027
      0.23255814	      0.03091720	      0.03383906	      0.06096140
      0.25581395	      0.03128498	      0.03403972	      0.06037828
      0.27906977	      0.03191014	      0.03437815	      0.06252135
      0.30232558	      0.03309876	      0.03501257	      0.06669700
      0.32558140	      0.03458362	      0.03578931	      0.07200538
      0.34883721	      0.03532949	      0.03617319	      0.07606505
      0.37209302	      0.03459187	      0.03579358	      0.07812664
      0.39534884	      0.03250236	      0.03469570	      0.07772497
      0.41860465	      0.02954955	      0.03308214	      0.07378535
      0.44186047	      0.02617285	      0.03113463	      0.06695916
      0.46511628	      0.02264395	      0.02895971	      0.05971686
      0.48837209	      0.01982165	      0.02709493	      0.05379553
      0.51162791	      0.01832744	      0.02605368	      0.05046773
      0.53488372	      0.01801749	      0.02583243	      0.05153066
      0.55813953	      0.01829901	      0.02603346	      0.05679840
      0.58139535	      0.01854969	      0.02621117	      0.06086839
      0.60465116	      0.01856288	      0.02622049	      0.06299588
      0.62790698	      0.01823238	      0.02598602	      0.06236899
      0.65116279	      0.01760193	      0.02553279	      0.05866398
      0.67441860	      0.01709952	      0.02516576	      0.05348505
      0.69767442	      0.01654120	      0.02475150	      0.04843376
      0.72093023	      0.01561405	      0.02404783	      0.04810457
      0.74418605	      0.01467047	      0.02330989	      0.04736023
      0.76744186	      0.01548099	      0.02394515	      0.04716968
      0.79069767	      0.02099242	      0.02788363	      0.05939320
      0.81395349	      0.03206849	      0.03446334	      0.08364902
      0.83720930	      0.04564467	      0.04111622	      0.10828459
      0.86046512	      0.05806875	      0.04637558	      0.12923920
      0.88372093	      0.06523358	      0.04915342	      0.14010187
      0.90697674	      0.06154052	      0.04774179	      0.13310241
      0.93023256	      0.04732141	      0.04186460	      0.10611458
      0.95348837	      0.03156673	      0.03419266	      0.07835963
      0.97674419	      0.02188347	      0.02846926	      0.06109537
      1.00000000	      0.01773132	      0.02562646	      0.05130539
      1.02325581	      0.01627671	      0.02455283	      0.04992715
      1.04651163	      0.01549292	      0.02395437	      0.04980472
      1.06976744	      0.01486030	      0.02346021	      0.04803410
      1.09302326	      0.01482499	      0.02343232	      0.04599226
      1.11627907	      0.01582182	      0.02420730	      0.04453977
      1.13953488	      0.01684997	      0.02498145	      0.04292510
      1.16279070	      0.01689094	      0.02501180	      0.04535667
      1.18604651	      0.01644031	      0.02467590	      0.04561860
      1.20930233	      0.01654669	      0.02475561	      0.04788115
      1.23255814	      0.01764424	      0.02556346	      0.05214490
      1.25581395	      0.01924049	      0.02669477	      0.05471827
      1.27906977	      0.02077765	      0.02774063	      0.05601994
      1.30232558	      0.02255319	      0.02890161	      0.05748145
      1.32558140	      0.02518677	      0.03054248	      0.06244732
      1.34883721	      0.02862489	      0.03256042	      0.07243040
      1.37209302	      0.03208360	      0.03447146	      0.08161763
      1.39534884	      0.03463434	      0.03581554	      0.08707698
      1.41860465	      0.03527465	      0.03614510	      0.08659031
      1.44186047	      0.03341463	      0.03517924	      0.08056448
      1.46511628	      0.02980120	      0.03322271	      0.07225589
      1.48837209	      0.02527325	      0.03059488	      0.06491904
      1.51162791	      0.02219571	      0.02867165	      0.06079688
      1.53488372	      0.02155045	      0.02825181	      0.06006118
      1.55813953	      0.02250348	      0.02886975	      0.05769414
      1.58139535	      0.02408508	      0.02986704	      0.05595099
      1.60465116	      0.02571490	      0.03086104	      0.05950587
      1.62790698	      0.02727332	      0.03178243	      0.06322128
      1.65116279	      0.02860306	      0.03254800	      0.06614422
      1.67441860	      0.02987369	      0.03326309	      0.07143335
      1.69767442	      0.03087987	      0.03381862	      0.07410742
      1.72093023	      0.03151816	      0.03416635	      0.07466193
      1.74418605	      0.03184963	      0.03434554	      0.07409997
      1.76744186	      0.03188015	      0.03436199	      0.07266077
      1.79069767	      0.03162106	      0.03422207	      0.07178906
      1.81395349	      0.03096603	      0.03386576	      0.07113997
      1.83720930	      0.03006440	      0.03336909	      0.07009875
      1.86046512	      0.02920052	      0.03288618	      0.06980645
      1.88372093	      0.02857982	      0.03253478	      0.07017449
      1.90697674	      0.02843490	      0.03245219	      0.07076457
      1.93023256	      0.02851993	      0.03250067	      0.07109134
      1.95348837	      0.02878164	      0.03264945	      0.07153481
      1.97674419	      0.02909917	      0.03282906	      0.07194654
      2.00000000	      0.02931977	      0.03295326	      0.07196491
      2.02325581	      0.02933876	      0.03296393	      0.07147530
      2.04651163	      0.02928118	      0.03293157	      0.07075445
      2.06976744	      0.02930135	      0.03294291	      0.07062409
      2.09302326	      0.02927505	      0.03292812	      0.07213719
      2.11627907	      0.02915439	      0.03286019	      0.07314279
      2.13953488	      0.02903325	      0.03279185	      0.07342535
      2.16279070	      0.02902299	      0.03278606	      0.07272212
      2.18604651	      0.02889248	      0.03271226	      0.07002066
      2.20930233	      0.02853583	      0.03250973	      0.06933015
      2.23255814	      0.02816057	      0.03229526	      0.06952455
      2.25581395	      0.02800363	      0.03220515	      0.06934411
      2.27906977	      0.02792152	      0.03215790	      0.06867848
      2.30232558	      0.02775632	      0.03206262	      0.06758468
      2.32558140	      0.02743273	      0.03187518	      0.06644840
      2.34883721	      0.02710905	      0.03168657	      0.06575698
      2.37209302	      0.02693957	      0.03158737	      0.06553743
      2.39534884	      0.02685141	      0.03153564	      0.06575747
      2.41860465	      0.02666640	      0.03142681	      0.06626888
      2.44186047	      0.02633508	      0.03123097	      0.06677160
      2.46511628	      0.02599289	      0.03102740	      0.06734839
      2.48837209	      0.02566867	      0.03083329	      0.06772080
      2.51162791	      0.02533567	      0.03063263	      0.06795842
      2.53488372	      0.02505503	      0.03046250	      0.06810850
      2.55813953	      0.02472867	      0.03026346	      0.06774823
      2.58139535	      0.02426668	      0.02997943	      0.06652067
      2.60465116	      0.02353659	      0.02952500	      0.06450257
      2.62790698	      0.02285781	      0.02909614	      0.06273679
      2.65116279	      0.02233693	      0.02876271	      0.06146562
      2.67441860	      0.02199120	      0.02853925	      0.06019024
      2.69767442	      0.02172735	      0.02836753	      0.05843114
      2.72093023	      0.02157098	      0.02826526	      0.05641544
      2.74418605	      0.02162546	      0.02830094	      0.05551911
      2.76744186	      0.02180448	      0.02841783	      0.05523826
      2.79069767	      0.02186786	      0.02845911	      0.05521342
      2.81395349	      0.02202336	      0.02856011	      0.05528087
      2.83720930	      0.02221415	      0.02868355	      0.05565542
      2.86046512	      0.02216831	      0.02865394	      0.05560871
      2.88372093	      0.02253512	      0.02889004	      0.05617365
      2.90697674	      0.02386318	      0.02972914	      0.05819785
      2.93023256	      0.02663342	      0.03140737	      0.06362445
      2.95348837	      0.02984375	      0.03324641	      0.07055540
      2.97674419	      0.03285650	      0.03488420	      0.07996920
      3.00000000	      0.03569850	      0.03636161	      0.08939812
      3.02325581	      0.03922247	      0.03811409	      0.09700209
      3.04651163	      0.04388375	      0.04031531	      0.10074496
      3.06976744	      0.04991692	      0.04299738	      0.10030207
      3.09302326	      0.05688086	      0.04589879	      0.11098613
      3.11627907	      0.06439936	      0.04883811	      0.12054563
      3.13953488	      0.07218648	      0.05170661	      0.12638002
      3.16279070	      0.08116343	      0.05482749	      0.13023714
      3.18604651	      0.09247796	      0.05852443	      0.13318620
      3.20930233	      0.10730072	      0.06304047	      0.13541263
      3.23255814	      0.12765380	      0.06875986	      0.13796662
      3.25581395	      0.15520414	      0.07581755	      0.14214728
      3.27906977	      0.18845554	      0.08354541	      0.15738444
      3.30232558	      0.22337404	      0.09095665	      0.17483946
      3.32558140	      0.25781038	      0.09771659	      0.18611614
      3.34883721	      0.29128846	      0.10386752	      0.19288670
      3.37209302	      0.32287819	      0.10935471	      0.19638961
      3.39534884	      0.35132759	      0.11407074	      0.19766616
      3.41860465	      0.37673672	      0.11812371	      0.19834839
      3.44186047	      0.39734897	      0.12131211	      0.19934489
      3.46511628	      0.40804134	      0.12293349	      0.20522271
      3.48837209	      0.40502780	      0.12247869	      0.20832748
      3.51162791	      0.38730179	      0.11976857	      0.20632228
      3.53488372	      0.35981911	      0.11544104	      0.20342385
      3.55813953	      0.33022272	      0.11059146	      0.19940757
      3.58139535	      0.30346744	      0.10601667	      0.19554444
      3.60465116	      0.28163415	      0.10213175	      0.19293111
      3.62790698	      0.26630650	      0.09931366	      0.19150801
      3.65116279	      0.25822786	      0.09779568	      0.19100361
      3.67441860	      0.25511787	      0.09720499	      0.19044903
      3.69767442	      0.25278081	      0.09675873	      0.18874096
      3.72093023	      0.24901377	      0.09603506	      0.18590661
      3.74418605	      0.24500493	      0.09525889	      0.18207386
      3.76744186	      0.24216282	      0.09470477	      0.17630435
      3.79069767	      0.24092374	      0.09446217	      0.16937878
      3.81395349	      0.24159889	      0.09459443	      0.16247112
      3.83720930	      0.24367557	      0.09500011	      0.16097632
      3.86046512	      0.24584761	      0.09542257	      0.16220676
      3.88372093	      0.24631656	      0.09551354	      0.16113571
      3.90697674	      0.24234690	      0.09474076	      0.15911515
      3.93023256	      0.23262541	      0.09282110	      0.15952884
      3.95348837	      0.22002142	      0.09027149	      0.15970491
      3.97674419	      0.20902580	      0.08798691	      0.16119337
      4.00000000	      0.20181088	      0.08645506	      0.16586632
      4.02325581	      0.19903987	      0.08585946	      0.17386437
      4.04651163	      0.20135044	      0.08635638	      0.18340438
      4.06976744	      0.20857974	      0.08789298	      0.19216984
      4.09302326	      0.21822823	      0.08990287	      0.19830139
      4.11627907	      0.22613601	      0.09151725	      0.20109065
      4.13953488	      0.23022935	      0.09234183	      0.19987789
      4.16279070	      0.23151851	      0.09260000	      0.19555351
      4.18604651	      0.23181407	      0.09265909	      0.18995254
      4.20930233	      0.23184788	      0.09266584	      0.18518034
      4.23255814	      0.23019410	      0.09233476	      0.18149432
      4.25581395	      0.22510056	      0.09130749	      0.17886920
      4.27906977	      0.21682562	      0.08961349	      0.17744686
      4.30232558	      0.20713480	      0.08758801	      0.17772694
      4.32558140	      0.19734519	      0.08549316	      0.17915275
      4.34883721	      0.18850934	      0.08355733	      0.18164085
      4.37209302	      0.18143764	      0.08197507	      0.18490630
      4.39534884	      0.17657484	      0.08086909	      0.18836310
      4.41860465	      0.17345684	      0.08015190	      0.19165647
      4.44186047	      0.17044407	      0.07945278	      0.19444307
      4.46511628	      0.16627953	      0.07847612	      0.19615588
      4.48837209	      0.16103336	      0.07722822	      0.19649262
      4.51162791	      0.15550563	      0.07589116	      0.19531235
      4.53488372	      0.15071509	      0.07471305	      0.19302728
      4.55813953	      0.14738509	      0.07388306	      0.19033906
      4.58139535	      0.14518369	      0.07332921	      0.18740520
      4.60465116	      0.14337413	      0.07287080	      0.18432670
      4.62790698	      0.14170111	      0.07244439	      0.18101520
      4.65116279	      0.13990131	      0.07198285	      0.17720610
      4.67441860	      0.13763298	      0.07139690	      0.17189199
      4.69767442	      0.13490446	      0.07068565	      0.16447799
      4.72093023	      0.13187009	      0.06988618	      0.15483889
      4.74418605	      0.12806913	      0.06887163	      0.14360379
      4.76744186	      0.12351154	      0.06763506	      0.13173134
      4.79069767	      0.11946991	      0.06651926	      0.12077092
      4.81395349	      0.11751843	      0.06597374	      0.11368046
      4.83720930	      0.11857295	      0.06626908	      0.11801435
      4.86046512	      0.12281426	      0.06744387	      0.12148302
      4.88372093	      0.13054433	      0.06953399	      0.13247117
      4.90697674	      0.13974300	      0.07194211	      0.15946687
      4.93023256	      0.14482780	      0.07323928	      0.17360687
      4.95348837	      0.14214929	      0.07255886	      0.16984501
      4.97674419	      0.13363052	      0.07035111	      0.15124907
      5.00000000	      0.12315329	      0.06753690	      0.12209209
      5.02325581	      0.11413242	      0.06501636	      0.11862171
      5.04651163	      0.10837557	      0.06335543	      0.11911518
      5.06976744	      0.10621103	      0.06271955	      0.11986296
      5.09302326	      0.10648374	      0.06280002	      0.12073276
      5.11627907	      0.10748188	      0.06309366	      0.12123727
      5.13953488	      0.10857356	      0.06341327	      0.12105850
      5.16279070	      0.11046250	      0.06396252	      0.12113610
      5.18604651	      0.11456373	      0.06513909	      0.11927650
      5.20930233	      0.12181111	      0.06716787	      0.12243846
      5.23255814	      0.13168423	      0.06983691	      0.12477415
      5.25581395	      0.14258966	      0.07267117	      0.12565899
      5.27906977	      0.15328570	      0.07534751	      0.12617401
      5.30232558	      0.16230312	      0.07753210	      0.12709133
      5.32558140	      0.16693571	      0.07863081	      0.13432822
      5.34883721	      0.16397843	      0.07793122	      0.13944419
      5.37209302	      0.15319293	      0.07532471	      0.13774429
      5.39534884	      0.13855687	      0.07163614	      0.13688939
      5.41860465	      0.12528021	      0.06811760	      0.14116618
      5.44186047	      0.11550000	      0.06540472	      0.14558499
      5.46511628	      0.10880275	      0.06348017	      0.14955737
      5.48837209	      0.10501876	      0.06236653	      0.15278295
      5.51162791	      0.10388151	      0.06202792	      0.15527165
      5.53488372	      0.10485106	      0.06231671	      0.15709420
      5.55813953	      0.10713156	      0.06299076	      0.15833223
      5.58139535	      0.10896724	      0.06352813	      0.15863737
      5.60465116	      0.10889905	      0.06350825	      0.15813599
      5.62790698	      0.10697895	      0.06294587	      0.15708000
      5.65116279	      0.10411563	      0.06209778	      0.15538795
      5.67441860	      0.10263421	      0.06165442	      0.15320796
      5.69767442	      0.10328004	      0.06184809	      0.15136504
      5.72093023	      0.10295768	      0.06175150	      0.15633560
      5.74418605	      0.09899711	      0.06055212	      0.15554563
      5.76744186	      0.09350149	      0.05884741	      0.14867036
      5.79069767	      0.08887326	      0.05737249	      0.13902024
      5.81395349	      0.08476530	      0.05603085	      0.13654046
      5.83720930	      0.08059201	      0.05463414	      0.13078497
      5.86046512	      0.07578679	      0.05298036	      0.12732086
      5.88372093	      0.07051832	      0.05110567	      0.12612121
      5.90697674	      0.06730016	      0.04992593	      0.12717626
      5.93023256	      0.06748230	      0.04999345	      0.12913666
      5.95348837	      0.06855990	      0.05039103	      0.12584939
      5.97674419	      0.06986690	      0.05086908	      0.12679527
      6.00000000	      0.07006582	      0.05094144	      0.12761762
      6.02325581	      0.07027402	      0.05101707	      0.12749999
      6.04651163	      0.07143966	      0.05143844	      0.12586447
      6.06976744	      0.07396487	      0.05233966	      0.12330930
      6.09302326	      0.07796929	      0.05373780	      0.12930929
      6.11627907	      0.08393272	      0.05575499	      0.13411918
      6.13953488	      0.09090823	      0.05802561	      0.14079355
      6.16279070	      0.10028755	      0.06094550	      0.16444956
      6.18604651	      0.10590323	      0.06262860	      0.17451732
      6.20930233	      0.10379113	      0.06200093	      0.16492766
      6.23255814	      0.09725263	      0.06001624	      0.15200255
      6.25581395	      0.09236666	      0.05848921	      0.15243243
      6.27906977	      0.09198308	      0.05836763	      0.15295035
      6.30232558	      0.09637914	      0.05974611	      0.15419345
      6.32558140	      0.10442192	      0.06218905	      0.15676275
      6.34883721	      0.11435337	      0.06507926	      0.15825043
      6.37209302	      0.12622827	      0.06837486	      0.15800990
      6.39534884	      0.14083320	      0.07222219	      0.15610561
      6.41860465	      0.15676171	      0.07619704	      0.15314707
      6.44186047	      0.17060163	      0.07948949	      0.15045451
      6.46511628	      0.18133243	      0.08195130	      0.14887688
      6.48837209	      0.18967505	      0.08381528	      0.14408709
      6.51162791	      0.19544691	      0.08508099	      0.13977077
      6.53488372	      0.19936764	      0.08593013	      0.14298792
      6.55813953	      0.20384478	      0.08688962	      0.14563637
      6.58139535	      0.20968321	      0.08812516	      0.15303657
      6.60465116	      0.21561516	      0.08936301	      0.16288749
      6.62790698	      0.22239001	      0.09075609	      0.17219330
      6.65116279	      0.23138877	      0.09257405	      0.17709416
      6.67441860	      0.24046148	      0.09437150	      0.17520397
      6.69767442	      0.24440000	      0.09514122	      0.17115577
      6.72093023	      0.24028707	      0.09433727	      0.17060850
      6.74418605	      0.22974945	      0.09224554	      0.16986026
      6.76744186	      0.21512728	      0.08926185	      0.17009373
      6.79069767	      0.19635460	      0.08527833	      0.17005796
      6.81395349	      0.17318902	      0.08009000	      0.16742128
      6.83720930	      0.14636346	      0.07362655	      0.16076955
      6.86046512	      0.11821294	      0.06616840	      0.15047591
      6.88372093	      0.08742740	      0.05690388	      0.13233578
      6.90697674	      0.06338987	      0.04845382	      0.11778580
      6.93023256	      0.04498613	      0.04081854	      0.10418335
      6.95348837	      0.03297659	      0.03494789	      0.09277604
      6.97674419	      0.02964670	      0.03313648	      0.07834767
      7.00000000	      0.03404390	      0.03550894	      0.07331775
      7.02325581	      0.04158024	      0.03924295	      0.07751606
      7.04651163	      0.04945683	      0.04279877	      0.08667765
      7.06976744	      0.05530663	      0.04525918	      0.09336586
      7.09302326	      0.05793417	      0.04632181	      0.09496325
      7.11627907	      0.05771497	      0.04623410	      0.09469278
      7.13953488	      0.05610590	      0.04558504	      0.09394149
      7.16279070	      0.05489624	      0.04509095	      0.09334193
      7.18604651	      0.05467242	      0.04499894	      0.09154000
      7.20930233	      0.05481736	      0.04505855	      0.08765666
      7.23255814	      0.05432580	      0.04485607	      0.08271408
      7.25581395	      0.05125496	      0.04356985	      0.07654314
      7.27906977	      0.04879252	      0.04251036	      0.07383854
      7.30232558	      0.04713301	      0.04178118	      0.07854747
      7.32558140	      0.04700432	      0.04172410	      0.08328229
      7.34883721	      0.04619517	      0.04136342	      0.08635716
      7.37209302	      0.04552225	      0.04106104	      0.08682826
      7.39534884	      0.04501028	      0.04082949	      0.08627020
      7.41860465	      0.04488682	      0.04077346	      0.08542027
      7.44186047	      0.04492862	      0.04079244	      0.08424717
      7.46511628	      0.04498101	      0.04081621	      0.08241835
      7.48837209	      0.04506769	      0.04085552	      0.08040282
      7.51162791	      0.04536656	      0.04099077	      0.07849403
      7.53488372	      0.04599726	      0.04127472	      0.08102638
      7.55813953	      0.04589590	      0.04122922	      0.08253351
      7.58139535	      0.04428928	      0.04050115	      0.08205720
      7.60465116	      0.04082095	      0.03888299	      0.07907071
      7.62790698	      0.03615136	      0.03659152	      0.07398270
      7.65116279	      0.03134148	      0.03407045	      0.06714188
      7.67441860	      0.02848819	      0.03248258	      0.05864709
      7.69767442	      0.02711527	      0.03169021	      0.06264319
      7.72093023	      0.02768450	      0.03202112	      0.07548402
      7.74418605	      0.03044122	      0.03357756	      0.09086842
      7.76744186	      0.03497379	      0.03599063	      0.10092105
      7.79069767	      0.03986716	      0.03842605	      0.11035909
      7.81395349	      0.04495680	      0.04080523	      0.11686409
      7.83720930	      0.05080118	      0.04337655	      0.11865560
      7.86046512	      0.05662741	      0.04579641	      0.12678338
      7.88372093	      0.05910594	      0.04678791	      0.12969835
      7.90697674	      0.05595030	      0.04552179	      0.12224354
      7.93023256	      0.04943476	      0.04278922	      0.11760189
      7.95348837	      0.04335959	      0.04007381	      0.12137186
      7.97674419	      0.03867717	      0.03784822	      0.13613155
      8.00000000	      0.03653966	      0.03678751	      0.12536777
      8.02325581	      0.03735622	      0.03719629	      0.11383063
      8.04651163	      0.04154328	      0.03922550	      0.09974302
      8.06976744	      0.04939198	      0.04277070	      0.10096100
      8.09302326	      0.05967449	      0.04701241	      0.10262788
      8.11627907	      0.06525088	      0.04915994	      0.08983429
      8.13953488	      0.07053301	      0.05111100	      0.09692869
      8.16279070	      0.07250804	      0.05182165	      0.09978323
      8.18604651	      0.07215892	      0.05169674	      0.10020480
      8.20930233	      0.07079534	      0.05120595	      0.09925992
      8.23255814	      0.06990886	      0.05088435	      0.09883561
      8.25581395	      0.06976526	      0.05083206	      0.09873375
      8.27906977	      0.06982372	      0.05085335	      0.09804507
      8.30232558	      0.07005953	      0.05093915	      0.09728509
      8.32558140	      0.07034192	      0.05104171	      0.09909369
      8.34883721	      0.07079646	      0.05120636	      0.09943151
      8.37209302	      0.07101329	      0.05128471	      0.10122345
      8.39534884	      0.07077276	      0.05119779	      0.10277586
      8.41860465	      0.07005955	      0.05093916	      0.10300106
      8.44186047	      0.06870411	      0.05044399	      0.10103732
      8.46511628	      0.06678206	      0.04973339	      0.09680800
      8.48837209	      0.06414047	      0.04873985	      0.09108494
      8.51162791	      0.06095003	      0.04751219	      0.08591053
      8.53488372	      0.05786592	      0.04629452	      0.08518896
      8.55813953	      0.05583769	      0.04547595	      0.08740409
      8.58139535	      0.05552356	      0.04534786	      0.08648890
      8.60465116	      0.05623978	      0.04563940	      0.08261977
      8.62790698	      0.05636925	      0.04569190	      0.08135782
      8.65116279	      0.05477903	      0.04504279	      0.08337596
      8.67441860	      0.05129376	      0.04358634	      0.08241574
      8.69767442	      0.04687332	      0.04166592	      0.07996461
      8.72093023	      0.04234338	      0.03960143	      0.07931431
      8.74418605	      0.03821332	      0.03762058	      0.07767993
      8.76744186	      0.03516104	      0.03608685	      0.07518112
      8.79069767	      0.03329367	      0.03511551	      0.07308452
      8.81395349	      0.03265857	      0.03477897	      0.07079440
      8.83720930	      0.03239413	      0.03463788	      0.06886640
      8.86046512	      0.03220659	      0.03453747	      0.06936678
      8.88372093	      0.03180197	      0.03431983	      0.06977998
      8.90697674	      0.03138440	      0.03409377	      0.06989778
      8.93023256	      0.03095363	      0.03385898	      0.06878901
      8.95348837	      0.03072969	      0.03373628	      0.06803860
      8.97674419	      0.03062332	      0.03367784	      0.06756023
      9.00000000	      0.03052655	      0.03362459	      0.06789799
      9.02325581	      0.03041697	      0.03356418	      0.06870916
      9.04651163	      0.03044293	      0.03357851	      0.06974502
      9.06976744	      0.03051597	      0.03361876	      0.07102917
      9.09302326	      0.03071860	      0.03373019	      0.07188259
      9.11627907	      0.02988028	      0.03326676	      0.07127486
      9.13953488	      0.02991092	      0.03328381	      0.07093502
      9.16279070	      0.02992077	      0.03328929	      0.07028415
      9.18604651	      0.02982402	      0.03323542	      0.06951993
      9.20930233	      0.02965039	      0.03313854	      0.06872849
      9.23255814	      0.02953043	      0.03307143	      0.06800594
      9.25581395	      0.02947995	      0.03304316	      0.06754872
      9.27906977	      0.02954347	      0.03307873	      0.06699923
      9.30232558	      0.02960549	      0.03311343	      0.06670620
      9.32558140	      0.02944201	      0.03302188	      0.06623384
      9.34883721	      0.02930642	      0.03294576	      0.06615598
      9.37209302	      0.02910554	      0.03283265	      0.06640623
