Model Marker Errors from IK
version=1
nRows=478
nColumns=4
inDegrees=no
endheader
time	total_squared_error	marker_error_RMS	marker_error_max
      0.00000000	      0.01711546	      0.02517749	      0.04607757
      0.01666667	      0.01743415	      0.02541081	      0.04731811
      0.03333333	      0.01787692	      0.02573146	      0.04833769
      0.05000000	      0.01821037	      0.02597033	      0.04860862
      0.06666667	      0.01831318	      0.02604354	      0.04878372
      0.08333333	      0.01837511	      0.02608754	      0.04835791
      0.10000000	      0.01839811	      0.02610386	      0.04785860
      0.11666667	      0.01845766	      0.02614607	      0.04717381
      0.13333333	      0.01857464	      0.02622880	      0.04657529
      0.15000000	      0.01871021	      0.02632433	      0.04626692
      0.16666667	      0.01883658	      0.02641309	      0.04629674
      0.18333333	      0.01894482	      0.02648887	      0.04678112
      0.20000000	      0.01907632	      0.02658064	      0.04730470
      0.21666667	      0.01923359	      0.02668998	      0.04799080
      0.23333333	      0.01942487	      0.02682237	      0.04857414
      0.25000000	      0.01961343	      0.02695224	      0.04879324
      0.26666667	      0.01974460	      0.02704222	      0.04871151
      0.28333333	      0.01981363	      0.02708944	      0.04849199
      0.30000000	      0.01983694	      0.02710538	      0.04841728
      0.31666667	      0.01985618	      0.02711852	      0.04824932
      0.33333333	      0.01984676	      0.02711209	      0.04810960
      0.35000000	      0.01975894	      0.02705204	      0.04814496
      0.36666667	      0.01962325	      0.02695899	      0.04789620
      0.38333333	      0.01947428	      0.02685646	      0.04748119
      0.40000000	      0.01931942	      0.02674947	      0.04749872
      0.41666667	      0.01927848	      0.02672111	      0.04825867
      0.43333333	      0.01907571	      0.02658021	      0.05110621
      0.45000000	      0.01887707	      0.02644146	      0.05287356
      0.46666667	      0.01845787	      0.02614622	      0.05318002
      0.48333333	      0.01773063	      0.02562596	      0.05229976
      0.50000000	      0.01686972	      0.02499609	      0.05070504
      0.51666667	      0.01608909	      0.02441091	      0.05161573
      0.53333333	      0.01565557	      0.02407978	      0.05255567
      0.55000000	      0.01547187	      0.02393809	      0.05299508
      0.56666667	      0.01557357	      0.02401664	      0.05333452
      0.58333333	      0.01596192	      0.02431424	      0.05355312
      0.60000000	      0.01699761	      0.02509066	      0.05369738
      0.61666667	      0.01848505	      0.02616546	      0.05375265
      0.63333333	      0.01958020	      0.02692940	      0.05384641
      0.65000000	      0.01973410	      0.02703502	      0.05379955
      0.66666667	      0.01911166	      0.02660525	      0.05381892
      0.68333333	      0.01817294	      0.02594363	      0.05375686
      0.70000000	      0.01751530	      0.02546988	      0.05366639
      0.71666667	      0.01732093	      0.02532816	      0.05353848
      0.73333333	      0.01748400	      0.02544711	      0.05327188
      0.75000000	      0.01777228	      0.02565604	      0.05303806
      0.76666667	      0.01801152	      0.02582815	      0.05288471
      0.78333333	      0.01819259	      0.02595765	      0.05276840
      0.80000000	      0.01827561	      0.02601681	      0.05257844
      0.81666667	      0.01841664	      0.02611700	      0.05257457
      0.83333333	      0.01864747	      0.02628017	      0.05254266
      0.85000000	      0.01895200	      0.02649388	      0.05250558
      0.86666667	      0.01917320	      0.02664805	      0.05232299
      0.88333333	      0.01916157	      0.02663997	      0.05206498
      0.90000000	      0.01883013	      0.02640857	      0.05166085
      0.91666667	      0.01824227	      0.02599307	      0.05133215
      0.93333333	      0.01750168	      0.02545998	      0.05095739
      0.95000000	      0.01687013	      0.02499639	      0.05055865
      0.96666667	      0.01651023	      0.02472832	      0.05023225
      0.98333333	      0.01645049	      0.02468355	      0.04973455
      1.00000000	      0.01676601	      0.02491914	      0.04963442
      1.01666667	      0.01716063	      0.02521069	      0.04900083
      1.03333333	      0.01772753	      0.02562372	      0.04841706
      1.05000000	      0.01828581	      0.02602407	      0.04790971
      1.06666667	      0.01876278	      0.02636129	      0.04760785
      1.08333333	      0.01919212	      0.02666119	      0.04749175
      1.10000000	      0.01963576	      0.02696758	      0.04764999
      1.11666667	      0.02001412	      0.02722616	      0.04781529
      1.13333333	      0.02025265	      0.02738792	      0.04784537
      1.15000000	      0.02030805	      0.02742535	      0.04749293
      1.16666667	      0.02034721	      0.02745178	      0.04664608
      1.18333333	      0.02057631	      0.02760590	      0.04528332
      1.20000000	      0.02110263	      0.02795673	      0.04401360
      1.21666667	      0.02174626	      0.02837987	      0.04307607
      1.23333333	      0.02232175	      0.02875294	      0.04333599
      1.25000000	      0.02265494	      0.02896674	      0.04424161
      1.26666667	      0.02285857	      0.02909663	      0.04685410
      1.28333333	      0.02295190	      0.02915597	      0.04918595
      1.30000000	      0.02293947	      0.02914807	      0.05090552
      1.31666667	      0.02283433	      0.02908119	      0.05147493
      1.33333333	      0.02243176	      0.02882371	      0.05138933
      1.35000000	      0.02185173	      0.02844861	      0.05184203
      1.36666667	      0.02110238	      0.02795657	      0.05208414
      1.38333333	      0.02025249	      0.02738781	      0.05232281
      1.40000000	      0.01939630	      0.02680264	      0.05240382
      1.41666667	      0.01857654	      0.02623013	      0.05227762
      1.43333333	      0.01794245	      0.02577858	      0.05200970
      1.45000000	      0.01738877	      0.02537772	      0.05129476
      1.46666667	      0.01691222	      0.02502756	      0.05065819
      1.48333333	      0.01663473	      0.02482138	      0.05007539
      1.50000000	      0.01647824	      0.02470435	      0.04964408
      1.51666667	      0.01641989	      0.02466057	      0.04958713
      1.53333333	      0.01635223	      0.02460971	      0.04986705
      1.55000000	      0.01630971	      0.02457770	      0.05038910
      1.56666667	      0.01629993	      0.02457033	      0.05090178
      1.58333333	      0.01638447	      0.02463396	      0.05136465
      1.60000000	      0.01655763	      0.02476380	      0.05162074
      1.61666667	      0.01674435	      0.02490304	      0.05157006
      1.63333333	      0.01704003	      0.02512194	      0.05155053
      1.65000000	      0.01757375	      0.02551234	      0.05544909
      1.66666667	      0.01841129	      0.02611321	      0.06073011
      1.68333333	      0.01958364	      0.02693177	      0.06572081
      1.70000000	      0.02077986	      0.02774210	      0.06931552
      1.71666667	      0.02162528	      0.02830082	      0.07050839
      1.73333333	      0.02203301	      0.02856637	      0.06914633
      1.75000000	      0.02201181	      0.02855262	      0.06589905
      1.76666667	      0.02172193	      0.02836399	      0.06157900
      1.78333333	      0.02125791	      0.02805940	      0.05714215
      1.80000000	      0.02071395	      0.02769807	      0.05325648
      1.81666667	      0.02019064	      0.02734596	      0.05061908
      1.83333333	      0.01977846	      0.02706539	      0.04918040
      1.85000000	      0.01946662	      0.02685118	      0.04861915
      1.86666667	      0.01930318	      0.02673822	      0.04873817
      1.88333333	      0.01918020	      0.02665291	      0.04905825
      1.90000000	      0.01903532	      0.02655206	      0.04912611
      1.91666667	      0.01890951	      0.02646417	      0.04931796
      1.93333333	      0.01881740	      0.02639963	      0.05020557
      1.95000000	      0.01875228	      0.02635392	      0.05066645
      1.96666667	      0.01869671	      0.02631484	      0.05070825
      1.98333333	      0.01865549	      0.02628581	      0.05068379
      2.00000000	      0.01868898	      0.02630940	      0.05043688
      2.01666667	      0.01881643	      0.02639895	      0.05043796
      2.03333333	      0.01898116	      0.02651426	      0.05055065
      2.05000000	      0.01911682	      0.02660884	      0.05078769
      2.06666667	      0.01921036	      0.02667386	      0.05100898
      2.08333333	      0.01929840	      0.02673491	      0.05117039
      2.10000000	      0.01948929	      0.02686681	      0.05126282
      2.11666667	      0.01988404	      0.02713754	      0.05146580
      2.13333333	      0.02049653	      0.02755233	      0.05163976
      2.15000000	      0.02124112	      0.02804832	      0.05183699
      2.16666667	      0.02189977	      0.02847986	      0.05195964
      2.18333333	      0.02219827	      0.02867330	      0.05273959
      2.20000000	      0.02210539	      0.02861325	      0.05371703
      2.21666667	      0.02170269	      0.02835142	      0.05420100
      2.23333333	      0.02109595	      0.02795231	      0.05355490
      2.25000000	      0.02068606	      0.02767942	      0.05457673
      2.26666667	      0.02049600	      0.02755197	      0.05559794
      2.28333333	      0.02049223	      0.02754943	      0.05669476
      2.30000000	      0.02062851	      0.02764089	      0.05787056
      2.31666667	      0.02087601	      0.02780621	      0.05898635
      2.33333333	      0.02105109	      0.02792257	      0.05993011
      2.35000000	      0.02097212	      0.02787015	      0.06061503
      2.36666667	      0.02056683	      0.02759953	      0.06082438
      2.38333333	      0.01986876	      0.02712711	      0.06095603
      2.40000000	      0.01905937	      0.02656883	      0.06107524
      2.41666667	      0.01839992	      0.02610514	      0.06131993
      2.43333333	      0.01809025	      0.02588453	      0.06184303
      2.45000000	      0.01817762	      0.02594697	      0.06293517
      2.46666667	      0.01853556	      0.02620119	      0.06497696
      2.48333333	      0.01907469	      0.02657950	      0.06765518
      2.50000000	      0.01968069	      0.02699842	      0.07059473
      2.51666667	      0.02025619	      0.02739032	      0.07339470
      2.53333333	      0.02069386	      0.02768464	      0.07536583
      2.55000000	      0.02103491	      0.02791184	      0.07668520
      2.56666667	      0.02137003	      0.02813330	      0.07741167
      2.58333333	      0.02177513	      0.02839870	      0.07779551
      2.60000000	      0.02230028	      0.02873911	      0.07852560
      2.61666667	      0.02293516	      0.02914533	      0.07993867
      2.63333333	      0.02368950	      0.02962075	      0.08186181
      2.65000000	      0.02424780	      0.02996776	      0.08413983
      2.66666667	      0.02434158	      0.03002565	      0.08614906
      2.68333333	      0.02403737	      0.02983744	      0.08745259
      2.70000000	      0.02360051	      0.02956506	      0.08808314
      2.71666667	      0.02342373	      0.02945412	      0.08818252
      2.73333333	      0.02354130	      0.02952795	      0.08873038
      2.75000000	      0.02416740	      0.02991804	      0.09021831
      2.76666667	      0.02524941	      0.03058044	      0.09304223
      2.78333333	      0.02677060	      0.03148815	      0.09709481
      2.80000000	      0.02857313	      0.03253097	      0.10175266
      2.81666667	      0.03039288	      0.03355089	      0.10643995
      2.83333333	      0.03199502	      0.03442384	      0.11072761
      2.85000000	      0.03327545	      0.03510590	      0.11441347
      2.86666667	      0.03417128	      0.03557531	      0.11743518
      2.88333333	      0.03472957	      0.03586475	      0.11970360
      2.90000000	      0.03493589	      0.03597113	      0.12116505
      2.91666667	      0.03489611	      0.03595064	      0.12209727
      2.93333333	      0.03473213	      0.03586607	      0.12266450
      2.95000000	      0.03461790	      0.03580704	      0.12296442
      2.96666667	      0.03455007	      0.03577195	      0.12325224
      2.98333333	      0.03452321	      0.03575804	      0.12310864
      3.00000000	      0.03438423	      0.03568599	      0.12223405
      3.01666667	      0.03418640	      0.03558318	      0.12062852
      3.03333333	      0.03379128	      0.03537695	      0.11830320
      3.05000000	      0.03328160	      0.03510914	      0.11550189
      3.06666667	      0.03256686	      0.03473010	      0.11226145
      3.08333333	      0.03175638	      0.03429522	      0.10895040
      3.10000000	      0.03073619	      0.03373985	      0.10552557
      3.11666667	      0.02965716	      0.03314232	      0.10204514
      3.13333333	      0.02866184	      0.03258143	      0.09854803
      3.15000000	      0.02760376	      0.03197439	      0.09487676
      3.16666667	      0.02669619	      0.03144436	      0.09123409
      3.18333333	      0.02594060	      0.03099618	      0.08779393
      3.20000000	      0.02544610	      0.03069932	      0.08487456
      3.21666667	      0.02524201	      0.03057596	      0.08274702
      3.23333333	      0.02512930	      0.03050762	      0.08127941
      3.25000000	      0.02494942	      0.03039824	      0.08006055
      3.26666667	      0.02468077	      0.03023413	      0.07876142
      3.28333333	      0.02439353	      0.03005768	      0.07728472
      3.30000000	      0.02417835	      0.02992481	      0.07600344
      3.31666667	      0.02405243	      0.02984679	      0.07510823
      3.33333333	      0.02397416	      0.02979819	      0.07452370
      3.35000000	      0.02393848	      0.02977601	      0.07411497
      3.36666667	      0.02400246	      0.02981577	      0.07373780
      3.38333333	      0.02417214	      0.02992097	      0.07344084
      3.40000000	      0.02440225	      0.03006305	      0.07325157
      3.41666667	      0.02460243	      0.03018611	      0.07272072
      3.43333333	      0.02274759	      0.02902591	      0.07347218
      3.45000000	      0.02311656	      0.02926036	      0.07266128
      3.46666667	      0.02373298	      0.02964792	      0.07205108
      3.48333333	      0.02441838	      0.03007299	      0.07158721
      3.50000000	      0.02503140	      0.03044814	      0.07125779
      3.51666667	      0.02547702	      0.03071796	      0.07101336
      3.53333333	      0.02595756	      0.03100631	      0.07070013
      3.55000000	      0.02662742	      0.03140383	      0.07011831
      3.56666667	      0.02765673	      0.03200505	      0.06941880
      3.58333333	      0.02917151	      0.03286984	      0.06886988
      3.60000000	      0.03123484	      0.03401244	      0.06926602
      3.61666667	      0.03350548	      0.03522703	      0.07021788
      3.63333333	      0.03544925	      0.03623445	      0.07231423
      3.65000000	      0.03668340	      0.03685979	      0.07500792
      3.66666667	      0.03714229	      0.03708963	      0.07811995
      3.68333333	      0.03699556	      0.03701629	      0.08102785
      3.70000000	      0.03652955	      0.03678242	      0.08327956
      3.71666667	      0.03607012	      0.03655038	      0.08454518
      3.73333333	      0.03570206	      0.03636342	      0.08491122
      3.75000000	      0.03535140	      0.03618441	      0.08470368
      3.76666667	      0.03485029	      0.03592703	      0.08449566
      3.78333333	      0.03259506	      0.03474514	      0.08517489
      3.80000000	      0.03237327	      0.03462672	      0.08532632
      3.81666667	      0.03245352	      0.03466961	      0.08570747
      3.83333333	      0.03273661	      0.03482050	      0.08631282
      3.85000000	      0.03305624	      0.03499007	      0.08685943
      3.86666667	      0.03318955	      0.03506056	      0.08702772
      3.88333333	      0.03305031	      0.03498694	      0.08656515
      3.90000000	      0.03280758	      0.03485822	      0.08539898
      3.91666667	      0.03244184	      0.03466337	      0.08387173
      3.93333333	      0.03183753	      0.03433901	      0.08194401
      3.95000000	      0.03085894	      0.03380716	      0.07967131
      3.96666667	      0.02974678	      0.03319236	      0.07700980
      3.98333333	      0.02888246	      0.03270659	      0.07399875
      4.00000000	      0.02849685	      0.03248752	      0.07079295
      4.01666667	      0.02851078	      0.03249546	      0.07319962
      4.03333333	      0.02882433	      0.03267366	      0.07647981
      4.05000000	      0.02950024	      0.03305452	      0.07949079
      4.06666667	      0.03064672	      0.03369071	      0.08120885
      4.08333333	      0.03267738	      0.03478898	      0.08395108
      4.10000000	      0.03530757	      0.03616197	      0.08680131
      4.11666667	      0.03831186	      0.03766905	      0.09019809
      4.13333333	      0.04107252	      0.03900262	      0.09413096
      4.15000000	      0.04321498	      0.04000694	      0.09823098
      4.16666667	      0.04489369	      0.04077658	      0.10233488
      4.18333333	      0.04668480	      0.04158205	      0.10644739
      4.20000000	      0.04907497	      0.04263322	      0.11014930
      4.21666667	      0.05214286	      0.04394561	      0.11324855
      4.23333333	      0.04212304	      0.03949826	      0.11375643
      4.25000000	      0.04459280	      0.04063970	      0.11708090
      4.26666667	      0.04734822	      0.04187646	      0.12168407
      4.28333333	      0.04994283	      0.04300854	      0.12663700
      4.30000000	      0.05215434	      0.04395045	      0.13198373
      4.31666667	      0.05397822	      0.04471234	      0.13695150
      4.33333333	      0.05598222	      0.04553477	      0.14183450
      4.35000000	      0.05845344	      0.04652894	      0.14632243
      4.36666667	      0.06106933	      0.04755867	      0.14965818
      4.38333333	      0.06317777	      0.04837269	      0.15118847
      4.40000000	      0.06445364	      0.04885869	      0.15112803
      4.41666667	      0.06494688	      0.04904528	      0.15055668
      4.43333333	      0.06495894	      0.04904984	      0.15051374
      4.45000000	      0.06482675	      0.04899991	      0.15073726
      4.46666667	      0.06502391	      0.04907436	      0.15130929
      4.48333333	      0.06546981	      0.04924234	      0.15023017
      4.50000000	      0.06652677	      0.04963823	      0.15004158
      4.51666667	      0.06747618	      0.04999118	      0.14967742
      4.53333333	      0.06769852	      0.05007347	      0.14960712
      4.55000000	      0.06674407	      0.04971924	      0.14864917
      4.56666667	      0.06473758	      0.04896619	      0.14601113
      4.58333333	      0.06221706	      0.04800350	      0.14122834
      4.60000000	      0.05989071	      0.04709750	      0.13416805
      4.61666667	      0.05837058	      0.04649595	      0.12553796
      4.63333333	      0.05804390	      0.04636566	      0.11698225
      4.65000000	      0.05905606	      0.04676817	      0.11900797
      4.66666667	      0.06111993	      0.04757837	      0.12115127
      4.68333333	      0.06357041	      0.04852277	      0.12354718
      4.70000000	      0.06585008	      0.04938514	      0.12584216
      4.71666667	      0.06768975	      0.05007023	      0.12784508
      4.73333333	      0.06932626	      0.05067188	      0.12968209
      4.75000000	      0.07117501	      0.05134308	      0.13126102
      4.76666667	      0.07319685	      0.05206721	      0.13299441
      4.78333333	      0.07540937	      0.05284827	      0.13461337
      4.80000000	      0.07758818	      0.05360631	      0.13598885
      4.81666667	      0.07975913	      0.05435110	      0.13659195
      4.83333333	      0.08205667	      0.05512836	      0.13905028
      4.85000000	      0.08461771	      0.05598204	      0.14306586
      4.86666667	      0.08745394	      0.05691252	      0.14819462
      4.88333333	      0.09040395	      0.05786445	      0.15350759
      4.90000000	      0.09330809	      0.05878652	      0.15824231
      4.91666667	      0.09600093	      0.05962877	      0.16178685
      4.93333333	      0.09824487	      0.06032163	      0.16412701
      4.95000000	      0.09978898	      0.06079382	      0.16489507
      4.96666667	      0.10022163	      0.06092547	      0.16501188
      4.98333333	      0.09971831	      0.06077228	      0.16408008
      5.00000000	      0.09877983	      0.06048564	      0.16288842
      5.01666667	      0.09805006	      0.06026179	      0.16188202
      5.03333333	      0.09797195	      0.06023779	      0.16096805
      5.05000000	      0.09845228	      0.06038527	      0.16079585
      5.06666667	      0.09906510	      0.06057291	      0.16032339
      5.08333333	      0.09923784	      0.06062570	      0.15946697
      5.10000000	      0.09871885	      0.06046696	      0.15858399
      5.11666667	      0.09745561	      0.06007884	      0.15709425
      5.13333333	      0.09546395	      0.05946177	      0.15543167
      5.15000000	      0.09268175	      0.05858888	      0.15364686
      5.16666667	      0.08951034	      0.05757775	      0.15171467
      5.18333333	      0.08642575	      0.05657697	      0.14972191
      5.20000000	      0.08363735	      0.05565680	      0.14767611
      5.21666667	      0.08116802	      0.05482903	      0.14533706
      5.23333333	      0.07899800	      0.05409114	      0.14238009
      5.25000000	      0.07715297	      0.05345575	      0.14019748
      5.26666667	      0.07579647	      0.05298374	      0.13848005
      5.28333333	      0.07505694	      0.05272463	      0.13728869
      5.30000000	      0.07489056	      0.05266616	      0.13625702
      5.31666667	      0.07495277	      0.05268803	      0.13540690
      5.33333333	      0.07469255	      0.05259649	      0.13426105
      5.35000000	      0.07363506	      0.05222283	      0.13206445
      5.36666667	      0.07144302	      0.05143965	      0.12886203
      5.38333333	      0.06837140	      0.05032171	      0.12587596
      5.40000000	      0.06506237	      0.04908887	      0.12553783
      5.41666667	      0.06214680	      0.04797638	      0.12577504
      5.43333333	      0.06003499	      0.04715419	      0.12569633
      5.45000000	      0.05878991	      0.04666266	      0.12538342
      5.46666667	      0.05810500	      0.04639005	      0.12538458
      5.48333333	      0.05764309	      0.04620529	      0.12499421
      5.50000000	      0.05721309	      0.04603263	      0.12454689
      5.51666667	      0.05686098	      0.04589077	      0.12427257
      5.53333333	      0.05669543	      0.04582391	      0.12423935
      5.55000000	      0.05680637	      0.04586872	      0.12424940
      5.56666667	      0.05730400	      0.04606919	      0.12401956
      5.58333333	      0.05820860	      0.04643139	      0.12354255
      5.60000000	      0.05933439	      0.04687825	      0.12295290
      5.61666667	      0.06035321	      0.04727900	      0.12228660
      5.63333333	      0.06096854	      0.04751941	      0.12147107
      5.65000000	      0.06107959	      0.04756266	      0.12011712
      5.66666667	      0.06068959	      0.04741058	      0.11771450
      5.68333333	      0.06010424	      0.04718139	      0.11634153
      5.70000000	      0.05932294	      0.04687372	      0.11857138
      5.71666667	      0.05895304	      0.04672736	      0.11999435
      5.73333333	      0.05918396	      0.04681878	      0.12194840
      5.75000000	      0.05993420	      0.04711459	      0.12419897
      5.76666667	      0.06099809	      0.04753092	      0.12672625
      5.78333333	      0.06215940	      0.04798125	      0.12916374
      5.80000000	      0.06343952	      0.04847279	      0.13105943
      5.81666667	      0.06487427	      0.04901786	      0.13281762
      5.83333333	      0.06626486	      0.04954043	      0.13414452
      5.85000000	      0.06728646	      0.04992085	      0.13489676
      5.86666667	      0.06776310	      0.05009735	      0.13533860
      5.88333333	      0.06789403	      0.05014572	      0.13585494
      5.90000000	      0.06816373	      0.05024523	      0.13647298
      5.91666667	      0.06904261	      0.05056811	      0.13818882
      5.93333333	      0.07083806	      0.05122140	      0.14046054
      5.95000000	      0.07342344	      0.05214774	      0.14345379
      5.96666667	      0.07666659	      0.05328699	      0.14633140
      5.98333333	      0.08000290	      0.05443409	      0.14938400
      6.00000000	      0.08297483	      0.05543593	      0.15158345
      6.01666667	      0.08495286	      0.05609280	      0.15273251
      6.03333333	      0.08558322	      0.05630052	      0.15351518
      6.05000000	      0.08500537	      0.05611013	      0.15405731
      6.06666667	      0.08359664	      0.05564326	      0.15461797
      6.08333333	      0.08170687	      0.05501073	      0.15483198
      6.10000000	      0.07949998	      0.05426273	      0.15433173
      6.11666667	      0.07699502	      0.05340100	      0.15278700
      6.13333333	      0.07419985	      0.05242273	      0.14962637
      6.15000000	      0.07120654	      0.05135445	      0.14520322
      6.16666667	      0.06843683	      0.05034578	      0.14032552
      6.18333333	      0.06630443	      0.04955522	      0.13486899
      6.20000000	      0.06511553	      0.04910892	      0.13022895
      6.21666667	      0.06481672	      0.04899611	      0.12982763
      6.23333333	      0.06523209	      0.04915286	      0.13317456
      6.25000000	      0.06603254	      0.04945351	      0.13609110
      6.26666667	      0.06691210	      0.04978178	      0.13825350
      6.28333333	      0.06747351	      0.04999019	      0.13912956
      6.30000000	      0.06728389	      0.04991990	      0.13790936
      6.31666667	      0.06638159	      0.04958404	      0.13528465
      6.33333333	      0.06514223	      0.04911899	      0.13213693
      6.35000000	      0.06403877	      0.04870119	      0.12927645
      6.36666667	      0.06321468	      0.04838682	      0.12687778
      6.38333333	      0.06243612	      0.04808793	      0.12494214
      6.40000000	      0.06141808	      0.04769427	      0.12338879
      6.41666667	      0.06001719	      0.04714721	      0.12216570
      6.43333333	      0.05837022	      0.04649581	      0.12104825
      6.45000000	      0.05649262	      0.04574188	      0.11954061
      6.46666667	      0.05433586	      0.04486022	      0.11769409
      6.48333333	      0.05163789	      0.04373231	      0.11309931
      6.50000000	      0.04864332	      0.04244531	      0.10881549
      6.51666667	      0.04547199	      0.04103837	      0.10483520
      6.53333333	      0.01623531	      0.02452158	      0.05088315
      6.55000000	      0.01594610	      0.02430219	      0.05059767
      6.56666667	      0.01587748	      0.02424984	      0.05037812
      6.58333333	      0.01584722	      0.02422672	      0.05062875
      6.60000000	      0.01588938	      0.02425893	      0.05085670
      6.61666667	      0.01584038	      0.02422150	      0.05114574
      6.63333333	      0.01568813	      0.02410481	      0.05143676
      6.65000000	      0.01539542	      0.02387888	      0.05145779
      6.66666667	      0.01502102	      0.02358674	      0.05147528
      6.68333333	      0.01476431	      0.02338432	      0.05131008
      6.70000000	      0.01486519	      0.02346407	      0.05100538
      6.71666667	      0.01541926	      0.02389736	      0.05076810
      6.73333333	      0.01639081	      0.02463873	      0.05031873
      6.75000000	      0.01762601	      0.02555025	      0.04992631
      6.76666667	      0.01883945	      0.02641510	      0.04959571
      6.78333333	      0.01981485	      0.02709028	      0.05137655
      6.80000000	      0.02017566	      0.02733582	      0.05454176
      6.81666667	      0.01993327	      0.02717111	      0.05728647
      6.83333333	      0.01918625	      0.02665711	      0.05976595
      6.85000000	      0.01814420	      0.02592311	      0.06053761
      6.86666667	      0.01688572	      0.02500794	      0.05982660
      6.88333333	      0.01557812	      0.02402015	      0.05670219
      6.90000000	      0.01458893	      0.02324501	      0.05177530
      6.91666667	      0.01412976	      0.02287629	      0.04644721
      6.93333333	      0.01427884	      0.02299665	      0.04605517
      6.95000000	      0.01466958	      0.02330918	      0.04577656
      6.96666667	      0.01495549	      0.02353523	      0.04564745
      6.98333333	      0.01489258	      0.02348568	      0.04553586
      7.00000000	      0.01475749	      0.02337891	      0.04538022
      7.01666667	      0.01463536	      0.02328198	      0.04544129
      7.03333333	      0.01463203	      0.02327933	      0.04634811
      7.05000000	      0.01464631	      0.02329068	      0.04869212
      7.06666667	      0.01469952	      0.02333295	      0.05095440
      7.08333333	      0.01482660	      0.02343360	      0.05180374
      7.10000000	      0.01516294	      0.02369789	      0.05101598
      7.11666667	      0.01571982	      0.02412915	      0.04876858
      7.13333333	      0.01638405	      0.02463365	      0.04544028
      7.15000000	      0.01685083	      0.02498209	      0.04232897
      7.16666667	      0.01698001	      0.02507766	      0.04321388
      7.18333333	      0.01666702	      0.02484546	      0.04374196
      7.20000000	      0.01604406	      0.02437672	      0.04343048
      7.21666667	      0.01520243	      0.02372873	      0.04250354
      7.23333333	      0.01427546	      0.02299393	      0.04091865
      7.25000000	      0.01343779	      0.02230910	      0.03926568
      7.26666667	      0.01284737	      0.02181350	      0.03860134
      7.28333333	      0.01251595	      0.02153030	      0.03866685
      7.30000000	      0.01251737	      0.02153152	      0.03914569
      7.31666667	      0.01291528	      0.02187107	      0.03973929
      7.33333333	      0.01354954	      0.02240167	      0.04070239
      7.35000000	      0.01411541	      0.02286467	      0.04181889
      7.36666667	      0.01441308	      0.02310450	      0.04297154
      7.38333333	      0.01443183	      0.02311952	      0.04395091
      7.40000000	      0.01440492	      0.02309796	      0.04493477
      7.41666667	      0.01452045	      0.02319040	      0.04581773
      7.43333333	      0.01484834	      0.02345077	      0.04673323
      7.45000000	      0.01544294	      0.02391570	      0.04784105
      7.46666667	      0.01629910	      0.02456971	      0.04887600
      7.48333333	      0.01731407	      0.02532315	      0.04991412
      7.50000000	      0.01826538	      0.02600953	      0.05081771
      7.51666667	      0.01890446	      0.02646064	      0.05158917
      7.53333333	      0.01913486	      0.02662139	      0.05225684
      7.55000000	      0.01908560	      0.02658711	      0.05250864
      7.56666667	      0.01895781	      0.02649794	      0.05266534
      7.58333333	      0.01885841	      0.02642839	      0.05264016
      7.60000000	      0.01876821	      0.02636510	      0.05255024
      7.61666667	      0.01866578	      0.02629306	      0.05233995
      7.63333333	      0.01862201	      0.02626222	      0.05173660
      7.65000000	      0.01854922	      0.02621084	      0.05150850
      7.66666667	      0.01860275	      0.02624863	      0.05095621
      7.68333333	      0.01867489	      0.02629948	      0.05082221
      7.70000000	      0.01863852	      0.02627385	      0.05114848
      7.71666667	      0.01858257	      0.02623439	      0.05161526
      7.73333333	      0.01850413	      0.02617896	      0.05228586
      7.75000000	      0.01843707	      0.02613148	      0.05304263
      7.76666667	      0.01838816	      0.02609680	      0.05379982
      7.78333333	      0.01841581	      0.02611642	      0.05475576
      7.80000000	      0.01853514	      0.02620089	      0.05604850
      7.81666667	      0.01874560	      0.02634922	      0.05761825
      7.83333333	      0.01901656	      0.02653898	      0.05970841
      7.85000000	      0.01941286	      0.02681408	      0.06160423
      7.86666667	      0.01986316	      0.02712329	      0.06363313
      7.88333333	      0.02029254	      0.02741488	      0.06605158
      7.90000000	      0.02083393	      0.02777818	      0.06809967
      7.91666667	      0.02145014	      0.02818598	      0.07015517
      7.93333333	      0.02206679	      0.02858826	      0.07240197
      7.95000000	      0.02290608	      0.02912685	      0.07436369
