Model Marker Errors from IK
version=1
nRows=336
nColumns=4
inDegrees=no
endheader
time	total_squared_error	marker_error_RMS	marker_error_max
      0.00000000	      0.06743476	      0.04997583	      0.17951863
      0.01666667	      0.04017812	      0.03857562	      0.11098854
      0.03333333	      0.02822502	      0.03233220	      0.06531139
      0.05000000	      0.02305420	      0.02922087	      0.05166511
      0.06666667	      0.02049099	      0.02754860	      0.05131320
      0.08333333	      0.01847893	      0.02616113	      0.05078194
      0.10000000	      0.01805254	      0.02585755	      0.05025009
      0.11666667	      0.01847438	      0.02615791	      0.04980561
      0.13333333	      0.01872644	      0.02633575	      0.04957751
      0.15000000	      0.01852324	      0.02619248	      0.04939578
      0.16666667	      0.01812382	      0.02590854	      0.04907616
      0.18333333	      0.01760648	      0.02553609	      0.04860273
      0.20000000	      0.01761720	      0.02554386	      0.04792015
      0.21666667	      0.01855885	      0.02621765	      0.04694261
      0.23333333	      0.01886340	      0.02643188	      0.04627214
      0.25000000	      0.01934210	      0.02676516	      0.04599886
      0.26666667	      0.02012867	      0.02730396	      0.04603029
      0.28333333	      0.02020955	      0.02735876	      0.04612500
      0.30000000	      0.01955002	      0.02690864	      0.04642379
      0.31666667	      0.01923513	      0.02669105	      0.04650898
      0.33333333	      0.01980229	      0.02708169	      0.05008702
      0.35000000	      0.01927209	      0.02671668	      0.04664089
      0.36666667	      0.01927525	      0.02671887	      0.04658850
      0.38333333	      0.01887808	      0.02644217	      0.04644013
      0.40000000	      0.01812902	      0.02591226	      0.04638407
      0.41666667	      0.01772513	      0.02562199	      0.04617411
      0.43333333	      0.01731651	      0.02532493	      0.04595616
      0.45000000	      0.01643015	      0.02466828	      0.04572913
      0.46666667	      0.01583373	      0.02421641	      0.04549667
      0.48333333	      0.01549225	      0.02395385	      0.04533484
      0.50000000	      0.01522228	      0.02374423	      0.04531054
      0.51666667	      0.01508063	      0.02363349	      0.04538497
      0.53333333	      0.01524431	      0.02376140	      0.04549117
      0.55000000	      0.01576942	      0.02416718	      0.04606171
      0.56666667	      0.01641106	      0.02465395	      0.04654435
      0.58333333	      0.01697803	      0.02507620	      0.04720905
      0.60000000	      0.01733753	      0.02534030	      0.04784980
      0.61666667	      0.01764849	      0.02556654	      0.04850413
      0.63333333	      0.01806016	      0.02586300	      0.04915544
      0.65000000	      0.01865434	      0.02628501	      0.04973504
      0.66666667	      0.01927836	      0.02672103	      0.05027644
      0.68333333	      0.01980415	      0.02708296	      0.05082429
      0.70000000	      0.02020518	      0.02735580	      0.05143810
      0.71666667	      0.02037415	      0.02746995	      0.05201846
      0.73333333	      0.02046485	      0.02753102	      0.05246675
      0.75000000	      0.02060722	      0.02762662	      0.05268662
      0.76666667	      0.02092355	      0.02783786	      0.05255057
      0.78333333	      0.02134638	      0.02811773	      0.05478431
      0.80000000	      0.02176578	      0.02839260	      0.05482663
      0.81666667	      0.02207250	      0.02859196	      0.05274184
      0.83333333	      0.02227989	      0.02872597	      0.04919131
      0.85000000	      0.02244669	      0.02883329	      0.04769614
      0.86666667	      0.02256548	      0.02890949	      0.04726640
      0.88333333	      0.02253272	      0.02888849	      0.04772398
      0.90000000	      0.02243535	      0.02882601	      0.04656406
      0.91666667	      0.02226079	      0.02871365	      0.04611771
      0.93333333	      0.02205109	      0.02857808	      0.04631625
      0.95000000	      0.02184606	      0.02844492	      0.04626977
      0.96666667	      0.02165228	      0.02831848	      0.04654264
      0.98333333	      0.02146997	      0.02819901	      0.04691971
      1.00000000	      0.02130496	      0.02809044	      0.04743688
      1.01666667	      0.02128710	      0.02807866	      0.04786863
      1.03333333	      0.02156022	      0.02825821	      0.04810643
      1.05000000	      0.02221445	      0.02868375	      0.04842421
      1.06666667	      0.02327878	      0.02936285	      0.04918742
      1.08333333	      0.02478890	      0.03030029	      0.05285992
      1.10000000	      0.02664297	      0.03141300	      0.05633983
      1.11666667	      0.02871297	      0.03261048	      0.05958884
      1.13333333	      0.03056023	      0.03364313	      0.06200604
      1.15000000	      0.03150965	      0.03416173	      0.06304598
      1.16666667	      0.03111628	      0.03394783	      0.06244042
      1.18333333	      0.02973763	      0.03318725	      0.06052870
      1.20000000	      0.02807615	      0.03224682	      0.05790742
      1.21666667	      0.02650850	      0.03133363	      0.05635918
      1.23333333	      0.02510015	      0.03048992	      0.05757813
      1.25000000	      0.02393938	      0.02977657	      0.05857018
      1.26666667	      0.02321148	      0.02932037	      0.05949661
      1.28333333	      0.02292945	      0.02914171	      0.06032269
      1.30000000	      0.02303188	      0.02920672	      0.06116797
      1.31666667	      0.02346576	      0.02948054	      0.06183096
      1.33333333	      0.02408885	      0.02986938	      0.06230802
      1.35000000	      0.02470514	      0.03024905	      0.06247382
      1.36666667	      0.02500714	      0.03043338	      0.06255854
      1.38333333	      0.02476308	      0.03028450	      0.06243989
      1.40000000	      0.02412903	      0.02989427	      0.06198328
      1.41666667	      0.02339993	      0.02943916	      0.06150991
      1.43333333	      0.02285018	      0.02909129	      0.06077588
      1.45000000	      0.02260681	      0.02893595	      0.06006725
      1.46666667	      0.02251828	      0.02887924	      0.06619727
      1.48333333	      0.02233659	      0.02876250	      0.07042759
      1.50000000	      0.02199493	      0.02854167	      0.07158723
      1.51666667	      0.02187076	      0.02846100	      0.07117675
      1.53333333	      0.02228123	      0.02872683	      0.06983134
      1.55000000	      0.02319558	      0.02931033	      0.06815083
      1.56666667	      0.02424567	      0.02996644	      0.06683032
      1.58333333	      0.02506775	      0.03047023	      0.07287462
      1.60000000	      0.02562933	      0.03080965	      0.07749772
      1.61666667	      0.02588615	      0.03096363	      0.08047245
      1.63333333	      0.02572484	      0.03086700	      0.08133220
      1.65000000	      0.02503512	      0.03045040	      0.08064023
      1.66666667	      0.02389140	      0.02974671	      0.07733969
      1.68333333	      0.02281542	      0.02906915	      0.07142989
      1.70000000	      0.02250685	      0.02887190	      0.06393388
      1.71666667	      0.02315712	      0.02928602	      0.05708408
      1.73333333	      0.02422696	      0.02995488	      0.05804343
      1.75000000	      0.02491953	      0.03038002	      0.05962437
      1.76666667	      0.02486928	      0.03034937	      0.06113937
      1.78333333	      0.02415664	      0.02991137	      0.06354214
      1.80000000	      0.02318531	      0.02930384	      0.06662651
      1.81666667	      0.02240656	      0.02880751	      0.07020798
      1.83333333	      0.02200708	      0.02854956	      0.07372326
      1.85000000	      0.02205376	      0.02857982	      0.07720555
      1.86666667	      0.02246946	      0.02884792	      0.07979153
      1.88333333	      0.02324751	      0.02934312	      0.08051602
      1.90000000	      0.02439958	      0.03006140	      0.07990330
      1.91666667	      0.02596821	      0.03101267	      0.07850416
      1.93333333	      0.02782125	      0.03210010	      0.07726347
      1.95000000	      0.02964638	      0.03313630	      0.07646370
      1.96666667	      0.03103166	      0.03390164	      0.07528924
      1.98333333	      0.03175994	      0.03429715	      0.08096163
      2.00000000	      0.03201290	      0.03443346	      0.08454448
      2.01666667	      0.03175119	      0.03429242	      0.08475588
      2.03333333	      0.03112413	      0.03395211	      0.08168260
      2.05000000	      0.03042097	      0.03356639	      0.07612733
      2.06666667	      0.03011694	      0.03339824	      0.06952813
      2.08333333	      0.03037290	      0.03353986	      0.06344533
      2.10000000	      0.03099289	      0.03388045	      0.06518717
      2.11666667	      0.03181271	      0.03432563	      0.07177770
      2.13333333	      0.03260591	      0.03475092	      0.07672664
      2.15000000	      0.03312807	      0.03502807	      0.07858168
      2.16666667	      0.03326107	      0.03509831	      0.07697113
      2.18333333	      0.03294462	      0.03493095	      0.07414875
      2.20000000	      0.03237531	      0.03462781	      0.07312383
      2.21666667	      0.03181506	      0.03432689	      0.07498230
      2.23333333	      0.03146336	      0.03413663	      0.07883831
      2.25000000	      0.03137946	      0.03409109	      0.08308646
      2.26666667	      0.03143288	      0.03412009	      0.08710883
      2.28333333	      0.03145819	      0.03413383	      0.08908661
      2.30000000	      0.03129860	      0.03404714	      0.08813053
      2.31666667	      0.03081742	      0.03378441	      0.08334080
      2.33333333	      0.03023105	      0.03346145	      0.07648197
      2.35000000	      0.02996285	      0.03331269	      0.07003615
      2.36666667	      0.02995504	      0.03330835	      0.06577028
      2.38333333	      0.02986861	      0.03326026	      0.06454455
      2.40000000	      0.02961416	      0.03311829	      0.06482989
      2.41666667	      0.02929811	      0.03294109	      0.06418126
      2.43333333	      0.02902417	      0.03278672	      0.06277821
      2.45000000	      0.02887263	      0.03270102	      0.06183289
      2.46666667	      0.02900584	      0.03277637	      0.06004083
      2.48333333	      0.02957938	      0.03309883	      0.06103228
      2.50000000	      0.03079750	      0.03377348	      0.06235025
      2.51666667	      0.03270974	      0.03480620	      0.06427208
      2.53333333	      0.03481279	      0.03590769	      0.06559615
      2.55000000	      0.03631885	      0.03667619	      0.07011285
      2.56666667	      0.03672436	      0.03688037	      0.07900628
      2.58333333	      0.03638717	      0.03671067	      0.08250206
      2.60000000	      0.03559077	      0.03630670	      0.08066743
      2.61666667	      0.03441921	      0.03570414	      0.07410122
      2.63333333	      0.03290908	      0.03491210	      0.07278046
      2.65000000	      0.03132505	      0.03406152	      0.07636808
      2.66666667	      0.02995978	      0.03331098	      0.07632034
      2.68333333	      0.02890880	      0.03272149	      0.07295350
      2.70000000	      0.02785907	      0.03212192	      0.06665641
      2.71666667	      0.02641566	      0.03127871	      0.05982686
      2.73333333	      0.02465298	      0.03021710	      0.05945548
      2.75000000	      0.02319205	      0.02930810	      0.05891736
      2.76666667	      0.02242823	      0.02882144	      0.05812113
      2.78333333	      0.02245092	      0.02883601	      0.05776172
      2.80000000	      0.02313200	      0.02927014	      0.05763420
      2.81666667	      0.02432995	      0.03001848	      0.06193384
      2.83333333	      0.02582163	      0.03092502	      0.06702700
      2.85000000	      0.02723755	      0.03176158	      0.07045206
      2.86666667	      0.02804247	      0.03222747	      0.07167023
      2.88333333	      0.02807487	      0.03224609	      0.07072521
      2.90000000	      0.02743384	      0.03187582	      0.06788880
      2.91666667	      0.02668280	      0.03143647	      0.06337475
      2.93333333	      0.02612858	      0.03110828	      0.05927389
      2.95000000	      0.02590183	      0.03097301	      0.05928705
      2.96666667	      0.02574613	      0.03087977	      0.05980362
      2.98333333	      0.02536073	      0.03064778	      0.05985826
      3.00000000	      0.02511489	      0.03049887	      0.05978065
      3.01666667	      0.02605855	      0.03106656	      0.05948533
      3.03333333	      0.02847817	      0.03247687	      0.06041155
      3.05000000	      0.03094712	      0.03385542	      0.07087706
      3.06666667	      0.03208070	      0.03446990	      0.07486990
      3.08333333	      0.03147545	      0.03414319	      0.07289946
      3.10000000	      0.02963286	      0.03312874	      0.06732983
      3.11666667	      0.02760039	      0.03197244	      0.06126787
      3.13333333	      0.02636568	      0.03124911	      0.06012793
      3.15000000	      0.02607394	      0.03107574	      0.06134354
      3.16666667	      0.02626075	      0.03118686	      0.05984658
      3.18333333	      0.02663031	      0.03140554	      0.06103429
      3.20000000	      0.02725431	      0.03177135	      0.06419160
      3.21666667	      0.02809167	      0.03225573	      0.06928644
      3.23333333	      0.02955990	      0.03308793	      0.07303678
      3.25000000	      0.03123053	      0.03401009	      0.07582419
      3.26666667	      0.03201530	      0.03443475	      0.07641436
      3.28333333	      0.03125388	      0.03402280	      0.07449429
      3.30000000	      0.02956811	      0.03309252	      0.07180569
      3.31666667	      0.02787886	      0.03213332	      0.06801761
      3.33333333	      0.02695457	      0.03159616	      0.06389300
      3.35000000	      0.02701619	      0.03163225	      0.06249001
      3.36666667	      0.02780533	      0.03209092	      0.06627818
      3.38333333	      0.02896577	      0.03275372	      0.06931853
      3.40000000	      0.03016220	      0.03342332	      0.07087254
      3.41666667	      0.03097500	      0.03387067	      0.06978786
      3.43333333	      0.03118257	      0.03398397	      0.06692279
      3.45000000	      0.03073468	      0.03373902	      0.06134395
      3.46666667	      0.02980792	      0.03322645	      0.06204483
      3.48333333	      0.02866751	      0.03258465	      0.06216411
      3.50000000	      0.02759317	      0.03196825	      0.06105323
      3.51666667	      0.02691953	      0.03157562	      0.05889982
      3.53333333	      0.02698024	      0.03161120	      0.05578991
      3.55000000	      0.02769494	      0.03202715	      0.06445888
      3.56666667	      0.02861989	      0.03255758	      0.07109964
      3.58333333	      0.02916532	      0.03286635	      0.07414875
      3.60000000	      0.02873478	      0.03262286	      0.07273141
      3.61666667	      0.02724792	      0.03176763	      0.06800211
      3.63333333	      0.02543223	      0.03069095	      0.06328685
      3.65000000	      0.02416224	      0.02991484	      0.06202995
      3.66666667	      0.02375729	      0.02966310	      0.06096800
      3.68333333	      0.02391563	      0.02976179	      0.05994854
      3.70000000	      0.02430207	      0.03000128	      0.06433576
      3.71666667	      0.02477514	      0.03029188	      0.06952599
      3.73333333	      0.02525405	      0.03058325	      0.07393101
      3.75000000	      0.02566445	      0.03083075	      0.07654911
      3.76666667	      0.02608140	      0.03108018	      0.07754534
      3.78333333	      0.02655679	      0.03136216	      0.07738990
      3.80000000	      0.02729439	      0.03179471	      0.07712540
      3.81666667	      0.02820233	      0.03231920	      0.07738132
      3.83333333	      0.02894000	      0.03273915	      0.07722480
      3.85000000	      0.02938481	      0.03298979	      0.07639848
      3.86666667	      0.02938685	      0.03299094	      0.07443443
      3.88333333	      0.02899668	      0.03277119	      0.07138646
      3.90000000	      0.02850203	      0.03249047	      0.06773042
      3.91666667	      0.02805659	      0.03223558	      0.06413265
      3.93333333	      0.02790221	      0.03214677	      0.06187384
      3.95000000	      0.02826643	      0.03235591	      0.06121003
      3.96666667	      0.02895807	      0.03274937	      0.06189801
      3.98333333	      0.02936410	      0.03297817	      0.06303525
      4.00000000	      0.02903652	      0.03279370	      0.06354007
      4.01666667	      0.02805671	      0.03223566	      0.06272879
      4.03333333	      0.02698881	      0.03161622	      0.06042707
      4.05000000	      0.02643321	      0.03128910	      0.05736265
      4.06666667	      0.02650650	      0.03133245	      0.05446237
      4.08333333	      0.02666825	      0.03142790	      0.05284115
      4.10000000	      0.02640561	      0.03127276	      0.05329629
      4.11666667	      0.02622609	      0.03116627	      0.05632623
      4.13333333	      0.02659101	      0.03138236	      0.06078531
      4.15000000	      0.02756069	      0.03194944	      0.06643308
      4.16666667	      0.02878943	      0.03265387	      0.07211589
      4.18333333	      0.02981308	      0.03322933	      0.07669985
      4.20000000	      0.03035163	      0.03352811	      0.07965316
      4.21666667	      0.03044800	      0.03358130	      0.08067084
      4.23333333	      0.03032961	      0.03351595	      0.08140195
      4.25000000	      0.03032493	      0.03351336	      0.08213673
      4.26666667	      0.03073548	      0.03373946	      0.08413854
      4.28333333	      0.03158718	      0.03420374	      0.08643313
      4.30000000	      0.03255794	      0.03472534	      0.08817488
      4.31666667	      0.03297987	      0.03494963	      0.08814806
      4.33333333	      0.03239020	      0.03463578	      0.08572676
      4.35000000	      0.03074176	      0.03374290	      0.08110201
      4.36666667	      0.02845219	      0.03246205	      0.07507423
      4.38333333	      0.02606501	      0.03107042	      0.06848681
      4.40000000	      0.02386263	      0.02972879	      0.06260006
      4.41666667	      0.02193792	      0.02850466	      0.05753670
      4.43333333	      0.02037769	      0.02747234	      0.05334464
      4.45000000	      0.01928806	      0.02672775	      0.04958151
      4.46666667	      0.01879279	      0.02638236	      0.04572187
      4.48333333	      0.01910499	      0.02660061	      0.04173621
      4.50000000	      0.02043170	      0.02750872	      0.04433825
      4.51666667	      0.02285901	      0.02909691	      0.05247166
      4.53333333	      0.02615578	      0.03112447	      0.06146116
      4.55000000	      0.02964820	      0.03313731	      0.06884989
      4.56666667	      0.03251259	      0.03470116	      0.07213033
      4.58333333	      0.03401157	      0.03549208	      0.07169872
      4.60000000	      0.03433649	      0.03566121	      0.07663879
      4.61666667	      0.03390794	      0.03543797	      0.08064303
      4.63333333	      0.03305031	      0.03498694	      0.08376272
      4.65000000	      0.03177841	      0.03430712	      0.08511244
      4.66666667	      0.03014587	      0.03341427	      0.08487277
      4.68333333	      0.02865322	      0.03257653	      0.08402243
      4.70000000	      0.02779781	      0.03208658	      0.08311561
      4.71666667	      0.02787289	      0.03212988	      0.08374630
      4.73333333	      0.02874890	      0.03263088	      0.08535537
      4.75000000	      0.03029274	      0.03349557	      0.08781868
      4.76666667	      0.03216495	      0.03451513	      0.09058794
      4.78333333	      0.03381025	      0.03538688	      0.09227206
      4.80000000	      0.03475106	      0.03587584	      0.09219604
      4.81666667	      0.03482286	      0.03591289	      0.09066596
      4.83333333	      0.03433533	      0.03566061	      0.08733862
      4.85000000	      0.03341717	      0.03518058	      0.08381498
      4.86666667	      0.03217354	      0.03451974	      0.08005573
      4.88333333	      0.03074722	      0.03374590	      0.07626362
      4.90000000	      0.02933138	      0.03295979	      0.07240363
      4.91666667	      0.02821802	      0.03232819	      0.06856241
      4.93333333	      0.02746730	      0.03189526	      0.06559676
      4.95000000	      0.02702491	      0.03163736	      0.06451986
      4.96666667	      0.02696418	      0.03160179	      0.06228238
      4.98333333	      0.02738472	      0.03184728	      0.05926160
      5.00000000	      0.02821706	      0.03232764	      0.06137960
      5.01666667	      0.02919898	      0.03288531	      0.06240766
      5.03333333	      0.03032642	      0.03351419	      0.06530635
      5.05000000	      0.02954698	      0.03308070	      0.06864311
      5.06666667	      0.03079914	      0.03377438	      0.07328725
      5.08333333	      0.03222368	      0.03454663	      0.07796823
      5.10000000	      0.03335562	      0.03514816	      0.08154340
      5.11666667	      0.03345159	      0.03519869	      0.08225315
      5.13333333	      0.03227706	      0.03457523	      0.07923230
      5.15000000	      0.03042936	      0.03357102	      0.07261803
      5.16666667	      0.02865102	      0.03257528	      0.06330921
      5.18333333	      0.02748944	      0.03190811	      0.06000118
      5.20000000	      0.02669550	      0.03144395	      0.05997609
      5.21666667	      0.02603798	      0.03105430	      0.05689945
      5.23333333	      0.02530688	      0.03061522	      0.05506867
      5.25000000	      0.01986080	      0.02712168	      0.04223476
      5.26666667	      0.01751709	      0.02547118	      0.04062253
      5.28333333	      0.01603430	      0.02436930	      0.04109232
      5.30000000	      0.01487532	      0.02347206	      0.04122545
      5.31666667	      0.01395712	      0.02273610	      0.04087465
      5.33333333	      0.01354511	      0.02239800	      0.04063429
      5.35000000	      0.01354268	      0.02239600	      0.04042762
      5.36666667	      0.01377733	      0.02258919	      0.04033276
      5.38333333	      0.01420604	      0.02293795	      0.04056646
      5.40000000	      0.01488915	      0.02348297	      0.04114863
      5.41666667	      0.01567607	      0.02409554	      0.04159356
      5.43333333	      0.01627069	      0.02454828	      0.04214174
      5.45000000	      0.01662470	      0.02481390	      0.04247420
      5.46666667	      0.01678402	      0.02493251	      0.04289426
      5.48333333	      0.01677092	      0.02492278	      0.04325385
      5.50000000	      0.01679696	      0.02494213	      0.04367384
      5.51666667	      0.01714738	      0.02520095	      0.04383147
      5.53333333	      0.01774558	      0.02563677	      0.04366886
      5.55000000	      0.01836649	      0.02608142	      0.04340570
      5.56666667	      0.01883717	      0.02641350	      0.04513211
      5.58333333	      0.01897270	      0.02650835	      0.04504796
