Model Marker Errors from IK
version=1
nRows=780
nColumns=4
inDegrees=no
endheader
time	total_squared_error	marker_error_RMS	marker_error_max
      0.00000000	      0.02222862	      0.02869289	      0.04941125
      0.01666667	      0.02205178	      0.02857854	      0.04934041
      0.03333333	      0.02211261	      0.02861793	      0.04975350
      0.05000000	      0.02229001	      0.02873249	      0.04973855
      0.06666667	      0.02250575	      0.02887120	      0.04990356
      0.08333333	      0.02274324	      0.02902314	      0.04993102
      0.10000000	      0.02307886	      0.02923650	      0.05045745
      0.11666667	      0.02333986	      0.02940135	      0.05053488
      0.13333333	      0.02356162	      0.02954069	      0.05074184
      0.15000000	      0.02373504	      0.02964921	      0.05113938
      0.16666667	      0.02381158	      0.02969698	      0.05118696
      0.18333333	      0.02387108	      0.02973406	      0.05103156
      0.20000000	      0.02398487	      0.02980484	      0.05073849
      0.21666667	      0.02409167	      0.02987112	      0.04995569
      0.23333333	      0.02429725	      0.02999830	      0.04955017
      0.25000000	      0.02445228	      0.03009385	      0.04901420
      0.26666667	      0.02459144	      0.03017936	      0.04876377
      0.28333333	      0.02469931	      0.03024548	      0.04866304
      0.30000000	      0.02480588	      0.03031066	      0.04897536
      0.31666667	      0.02475527	      0.03027973	      0.04926034
      0.33333333	      0.02460782	      0.03018941	      0.04978153
      0.35000000	      0.02432118	      0.03001307	      0.05014868
      0.36666667	      0.02394593	      0.02978064	      0.05055117
      0.38333333	      0.02351874	      0.02951380	      0.05070697
      0.40000000	      0.02302416	      0.02920182	      0.05041041
      0.41666667	      0.02252730	      0.02888502	      0.04989133
      0.43333333	      0.02212950	      0.02862885	      0.04956317
      0.45000000	      0.02190944	      0.02848615	      0.05008160
      0.46666667	      0.02191776	      0.02849156	      0.05045851
      0.48333333	      0.02216638	      0.02865270	      0.05092709
      0.50000000	      0.02265497	      0.02896676	      0.05080008
      0.51666667	      0.02339895	      0.02943854	      0.05011440
      0.53333333	      0.02420406	      0.02994072	      0.04912566
      0.55000000	      0.02474304	      0.03027225	      0.04749345
      0.56666667	      0.02472725	      0.03026259	      0.04630740
      0.58333333	      0.02416686	      0.02991770	      0.04468753
      0.60000000	      0.02310775	      0.02925479	      0.04451331
      0.61666667	      0.02167030	      0.02833026	      0.04389234
      0.63333333	      0.02016827	      0.02733081	      0.04330020
      0.65000000	      0.01914424	      0.02662791	      0.04441938
      0.66666667	      0.01915294	      0.02663397	      0.04577047
      0.68333333	      0.02046838	      0.02753340	      0.04814554
      0.70000000	      0.02267852	      0.02898181	      0.05130823
      0.71666667	      0.02480996	      0.03031316	      0.05515883
      0.73333333	      0.02601538	      0.03104082	      0.05933633
      0.75000000	      0.02617210	      0.03113418	      0.06358469
      0.76666667	      0.02552051	      0.03074417	      0.06439121
      0.78333333	      0.02456745	      0.03016464	      0.06177239
      0.80000000	      0.02448714	      0.03011530	      0.05663281
      0.81666667	      0.02628947	      0.03120391	      0.05359207
      0.83333333	      0.02939663	      0.03299643	      0.06180420
      0.85000000	      0.03222235	      0.03454592	      0.07037938
      0.86666667	      0.03348789	      0.03521778	      0.07025662
      0.88333333	      0.03274119	      0.03482293	      0.06219486
      0.90000000	      0.03054345	      0.03363390	      0.06318894
      0.91666667	      0.02823138	      0.03233584	      0.06048929
      0.93333333	      0.02655520	      0.03136121	      0.06033552
      0.95000000	      0.02522233	      0.03056404	      0.05850822
      0.96666667	      0.02410990	      0.02988242	      0.05677936
      0.98333333	      0.02336376	      0.02941640	      0.05599208
      1.00000000	      0.02308083	      0.02923774	      0.05660191
      1.01666667	      0.02310324	      0.02925193	      0.05797518
      1.03333333	      0.02328291	      0.02936546	      0.05998883
      1.05000000	      0.02349456	      0.02949863	      0.06206619
      1.06666667	      0.02370314	      0.02962928	      0.06370665
      1.08333333	      0.02385953	      0.02972686	      0.06575265
      1.10000000	      0.02405612	      0.02984907	      0.06728354
      1.11666667	      0.02425227	      0.02997052	      0.06871834
      1.13333333	      0.02440650	      0.03006567	      0.06986637
      1.15000000	      0.02462621	      0.03020069	      0.07083403
      1.16666667	      0.02492586	      0.03038388	      0.07170048
      1.18333333	      0.02522756	      0.03056721	      0.07219926
      1.20000000	      0.02538545	      0.03066271	      0.07204306
      1.21666667	      0.02524527	      0.03057793	      0.07094118
      1.23333333	      0.02479128	      0.03030174	      0.06907501
      1.25000000	      0.02422371	      0.02995287	      0.06669175
      1.26666667	      0.02366265	      0.02960396	      0.06405850
      1.28333333	      0.02328047	      0.02936392	      0.06187372
      1.30000000	      0.02295983	      0.02916100	      0.06024892
      1.31666667	      0.02267699	      0.02898083	      0.05926783
      1.33333333	      0.02258055	      0.02891914	      0.05902701
      1.35000000	      0.02275801	      0.02903256	      0.05920449
      1.36666667	      0.02319648	      0.02931090	      0.05986771
      1.38333333	      0.02377886	      0.02967656	      0.06042396
      1.40000000	      0.02445948	      0.03009829	      0.06110707
      1.41666667	      0.02525656	      0.03058477	      0.06210673
      1.43333333	      0.02611864	      0.03110236	      0.06363975
      1.45000000	      0.02687435	      0.03154911	      0.06592537
      1.46666667	      0.02742082	      0.03186826	      0.06820628
      1.48333333	      0.02772682	      0.03204558	      0.07023864
      1.50000000	      0.02791167	      0.03215222	      0.07201895
      1.51666667	      0.02806082	      0.03223802	      0.07308735
      1.53333333	      0.02817704	      0.03230471	      0.07340245
      1.55000000	      0.02829809	      0.03237402	      0.07299446
      1.56666667	      0.02850524	      0.03249230	      0.07196434
      1.58333333	      0.02885461	      0.03269082	      0.07043091
      1.60000000	      0.02928518	      0.03293382	      0.06877683
      1.61666667	      0.02960460	      0.03311294	      0.06671877
      1.63333333	      0.02972253	      0.03317882	      0.06456706
      1.65000000	      0.02973684	      0.03318681	      0.06270131
      1.66666667	      0.02971228	      0.03317310	      0.06156269
      1.68333333	      0.02972500	      0.03318021	      0.06138781
      1.70000000	      0.02987011	      0.03326109	      0.06205906
      1.71666667	      0.03021468	      0.03345239	      0.06334517
      1.73333333	      0.03074005	      0.03374197	      0.06468576
      1.75000000	      0.03133284	      0.03406575	      0.06569382
      1.76666667	      0.03185418	      0.03434799	      0.06585433
      1.78333333	      0.03222860	      0.03454927	      0.06524211
      1.80000000	      0.03249404	      0.03469125	      0.06568200
      1.81666667	      0.03269018	      0.03479580	      0.06639284
      1.83333333	      0.03276029	      0.03483309	      0.06660039
      1.85000000	      0.03255367	      0.03472307	      0.06608439
      1.86666667	      0.03214031	      0.03450191	      0.06516542
      1.88333333	      0.03176332	      0.03429897	      0.06499223
      1.90000000	      0.03174231	      0.03428762	      0.06733996
      1.91666667	      0.03194264	      0.03439565	      0.06967022
      1.93333333	      0.03207470	      0.03446668	      0.07103874
      1.95000000	      0.03186017	      0.03435122	      0.07074651
      1.96666667	      0.03134651	      0.03407318	      0.06893309
      1.98333333	      0.03087218	      0.03381441	      0.06631152
      2.00000000	      0.03070080	      0.03372042	      0.06445008
      2.01666667	      0.03070959	      0.03372525	      0.06318315
      2.03333333	      0.03071631	      0.03372894	      0.06331593
      2.05000000	      0.03080966	      0.03378015	      0.06460645
      2.06666667	      0.03107496	      0.03392528	      0.06681910
      2.08333333	      0.03151136	      0.03416266	      0.06951715
      2.10000000	      0.03191737	      0.03438204	      0.07211277
      2.11666667	      0.03206671	      0.03446238	      0.07390569
      2.13333333	      0.03188745	      0.03436592	      0.07482936
      2.15000000	      0.03145634	      0.03413282	      0.07489460
      2.16666667	      0.03099563	      0.03388194	      0.07422605
      2.18333333	      0.03068902	      0.03371395	      0.07312630
      2.20000000	      0.03056832	      0.03364758	      0.07204258
      2.21666667	      0.03079964	      0.03377465	      0.07100696
      2.23333333	      0.03135992	      0.03408047	      0.07048083
      2.25000000	      0.03216586	      0.03451562	      0.07058226
      2.26666667	      0.03311922	      0.03502339	      0.07162583
      2.28333333	      0.03398989	      0.03548076	      0.07297971
      2.30000000	      0.03468297	      0.03584068	      0.07414161
      2.31666667	      0.03513659	      0.03607430	      0.07475716
      2.33333333	      0.03533699	      0.03617703	      0.07510946
      2.35000000	      0.03523956	      0.03612712	      0.07543922
      2.36666667	      0.03485795	      0.03593098	      0.07599849
      2.38333333	      0.03429974	      0.03564212	      0.07679118
      2.40000000	      0.03370741	      0.03533302	      0.07772945
      2.41666667	      0.03323757	      0.03508591	      0.07903123
      2.43333333	      0.03297687	      0.03494804	      0.08051082
      2.45000000	      0.03297076	      0.03494480	      0.08233527
      2.46666667	      0.03323220	      0.03508307	      0.08409466
      2.48333333	      0.03365867	      0.03530747	      0.08566077
      2.50000000	      0.03405265	      0.03551351	      0.08677843
      2.51666667	      0.03429595	      0.03564015	      0.08749288
      2.53333333	      0.03443134	      0.03571043	      0.08793026
      2.55000000	      0.03451662	      0.03575463	      0.08792602
      2.56666667	      0.03450424	      0.03574821	      0.08760888
      2.58333333	      0.03421430	      0.03559770	      0.08749733
      2.60000000	      0.03363224	      0.03529360	      0.08677534
      2.61666667	      0.03272272	      0.03481311	      0.08603845
      2.63333333	      0.03174096	      0.03428689	      0.08488705
      2.65000000	      0.03085461	      0.03380478	      0.08356089
      2.66666667	      0.03012632	      0.03340344	      0.08204257
      2.68333333	      0.02944318	      0.03302254	      0.08013550
      2.70000000	      0.02869786	      0.03260190	      0.07798266
      2.71666667	      0.02783219	      0.03210642	      0.07593497
      2.73333333	      0.02684107	      0.03152957	      0.07351072
      2.75000000	      0.02592650	      0.03098775	      0.07103008
      2.76666667	      0.02513535	      0.03051129	      0.06813760
      2.78333333	      0.02458092	      0.03017291	      0.06496661
      2.80000000	      0.02417970	      0.02992565	      0.06196312
      2.81666667	      0.02387324	      0.02973540	      0.05912002
      2.83333333	      0.02379654	      0.02968760	      0.05702752
      2.85000000	      0.02391405	      0.02976080	      0.05557863
      2.86666667	      0.02421450	      0.02994717	      0.05446744
      2.88333333	      0.02464714	      0.03021353	      0.05386241
      2.90000000	      0.02517480	      0.03053522	      0.05376051
      2.91666667	      0.02583849	      0.03093511	      0.05438102
      2.93333333	      0.02662150	      0.03140034	      0.05539091
      2.95000000	      0.02753730	      0.03193587	      0.05681847
      2.96666667	      0.02846094	      0.03246704	      0.05854369
      2.98333333	      0.02933737	      0.03296315	      0.06016752
      3.00000000	      0.03009062	      0.03338364	      0.06155441
      3.01666667	      0.03062892	      0.03368092	      0.06243581
      3.03333333	      0.03085914	      0.03380726	      0.06282488
      3.05000000	      0.03081975	      0.03378568	      0.06289225
      3.06666667	      0.03070758	      0.03372414	      0.06296453
      3.08333333	      0.03070133	      0.03372071	      0.06349403
      3.10000000	      0.03090386	      0.03383175	      0.06413902
      3.11666667	      0.03132237	      0.03406006	      0.06518629
      3.13333333	      0.03203562	      0.03444567	      0.06611580
      3.15000000	      0.03309196	      0.03500897	      0.06692993
      3.16666667	      0.03445738	      0.03572393	      0.06862841
      3.18333333	      0.03590222	      0.03646521	      0.07009019
      3.20000000	      0.03716767	      0.03710230	      0.07063529
      3.21666667	      0.03811280	      0.03757107	      0.07063485
      3.23333333	      0.03876874	      0.03789300	      0.07168361
      3.25000000	      0.03917451	      0.03809078	      0.07254065
      3.26666667	      0.03941603	      0.03820802	      0.07307955
      3.28333333	      0.03961576	      0.03830471	      0.07318435
      3.30000000	      0.03986126	      0.03842321	      0.07285842
      3.31666667	      0.04015673	      0.03856535	      0.07449878
      3.33333333	      0.04043858	      0.03870045	      0.07699200
      3.35000000	      0.04057190	      0.03876419	      0.07857039
      3.36666667	      0.04049233	      0.03872617	      0.07900362
      3.38333333	      0.04022927	      0.03860017	      0.07815265
      3.40000000	      0.03989903	      0.03844141	      0.07653446
      3.41666667	      0.03960970	      0.03830177	      0.07451256
      3.43333333	      0.03935768	      0.03817973	      0.07259140
      3.45000000	      0.03918894	      0.03809780	      0.07137873
      3.46666667	      0.03901620	      0.03801374	      0.07177490
      3.48333333	      0.03849183	      0.03775743	      0.07236951
      3.50000000	      0.03774371	      0.03738870	      0.07255743
      3.51666667	      0.03674272	      0.03688959	      0.07187996
      3.53333333	      0.03567559	      0.03634994	      0.07023898
      3.55000000	      0.03478749	      0.03589465	      0.06792821
      3.56666667	      0.03424114	      0.03561166	      0.06576446
      3.58333333	      0.03414664	      0.03556249	      0.06661585
      3.60000000	      0.03457272	      0.03578367	      0.06797263
      3.61666667	      0.03541842	      0.03621869	      0.06967565
      3.63333333	      0.03651506	      0.03677512	      0.07132297
      3.65000000	      0.03756886	      0.03730200	      0.07314163
      3.66666667	      0.03841107	      0.03771780	      0.07433361
      3.68333333	      0.03898462	      0.03799835	      0.07566999
      3.70000000	      0.03916130	      0.03808436	      0.07547617
      3.71666667	      0.03918021	      0.03809356	      0.07525094
      3.73333333	      0.03899724	      0.03800450	      0.07440982
      3.75000000	      0.03871801	      0.03786820	      0.07595045
      3.76666667	      0.03852956	      0.03777593	      0.07783204
      3.78333333	      0.03845524	      0.03773948	      0.07981774
      3.80000000	      0.03838885	      0.03770688	      0.08136683
      3.81666667	      0.03814153	      0.03758523	      0.08181344
      3.83333333	      0.03762431	      0.03732952	      0.08104169
      3.85000000	      0.03683453	      0.03693564	      0.07932704
      3.86666667	      0.03571883	      0.03637196	      0.07669551
      3.88333333	      0.03446489	      0.03572782	      0.07340081
      3.90000000	      0.03327575	      0.03510606	      0.07018641
      3.91666667	      0.03246117	      0.03467370	      0.06788967
      3.93333333	      0.03218625	      0.03452656	      0.06677969
      3.95000000	      0.03247480	      0.03468098	      0.06652830
      3.96666667	      0.03320225	      0.03506726	      0.06792656
      3.98333333	      0.03416388	      0.03557146	      0.07028915
      4.00000000	      0.03510502	      0.03605809	      0.07238865
      4.01666667	      0.03570719	      0.03636603	      0.07383520
      4.03333333	      0.03577382	      0.03639995	      0.07422038
      4.05000000	      0.03511330	      0.03606234	      0.07345518
      4.06666667	      0.03411496	      0.03554599	      0.07171287
      4.08333333	      0.03319280	      0.03506227	      0.07017552
      4.10000000	      0.03271808	      0.03481064	      0.06953380
      4.11666667	      0.03275809	      0.03483192	      0.06993225
      4.13333333	      0.03310500	      0.03501587	      0.07086599
      4.15000000	      0.03348964	      0.03521870	      0.07136894
      4.16666667	      0.03381764	      0.03539075	      0.07184292
      4.18333333	      0.03406761	      0.03552131	      0.07160843
      4.20000000	      0.03425396	      0.03561833	      0.07060285
      4.21666667	      0.03430914	      0.03564700	      0.06828125
      4.23333333	      0.03428100	      0.03563238	      0.06784307
      4.25000000	      0.03428312	      0.03563348	      0.07114790
      4.26666667	      0.03433457	      0.03566021	      0.07336978
      4.28333333	      0.03413368	      0.03555574	      0.07359305
      4.30000000	      0.03331145	      0.03512488	      0.07329840
      4.31666667	      0.03179227	      0.03431460	      0.07247476
      4.33333333	      0.02990026	      0.03327788	      0.07050277
      4.35000000	      0.02800562	      0.03220629	      0.06680147
      4.36666667	      0.02657838	      0.03137490	      0.06359552
      4.38333333	      0.02557026	      0.03077413	      0.06093164
      4.40000000	      0.02516184	      0.03052737	      0.05933499
      4.41666667	      0.02513710	      0.03051235	      0.05907847
      4.43333333	      0.02525930	      0.03058643	      0.05906349
      4.45000000	      0.02537485	      0.03065631	      0.05933865
      4.46666667	      0.02524744	      0.03057925	      0.05887457
      4.48333333	      0.02492203	      0.03038154	      0.05828922
      4.50000000	      0.02449342	      0.03011916	      0.05800590
      4.51666667	      0.02421981	      0.02995046	      0.05811761
      4.53333333	      0.02418759	      0.02993053	      0.05890704
      4.55000000	      0.02446618	      0.03010240	      0.06008297
      4.56666667	      0.02506938	      0.03047122	      0.06165034
      4.58333333	      0.02595283	      0.03100349	      0.06271079
      4.60000000	      0.02690892	      0.03156939	      0.06353524
      4.61666667	      0.02774853	      0.03205812	      0.06336596
      4.63333333	      0.02832167	      0.03238751	      0.06310713
      4.65000000	      0.02859008	      0.03254062	      0.06344221
      4.66666667	      0.02857386	      0.03253138	      0.06055160
      4.68333333	      0.02846021	      0.03246662	      0.05897165
      4.70000000	      0.02826159	      0.03235314	      0.05741767
      4.71666667	      0.02784008	      0.03211097	      0.05833815
      4.73333333	      0.02723819	      0.03176195	      0.05991534
      4.75000000	      0.02670512	      0.03144962	      0.06074681
      4.76666667	      0.02644493	      0.03129604	      0.06186939
      4.78333333	      0.02644286	      0.03129481	      0.06181969
      4.80000000	      0.02654091	      0.03135277	      0.06065905
      4.81666667	      0.02658880	      0.03138105	      0.06338865
      4.83333333	      0.02653121	      0.03134705	      0.06484646
      4.85000000	      0.02633511	      0.03123098	      0.06467570
      4.86666667	      0.02598123	      0.03102044	      0.06306922
      4.88333333	      0.02558516	      0.03078309	      0.06182544
      4.90000000	      0.02522990	      0.03056863	      0.06165526
      4.91666667	      0.02496058	      0.03040503	      0.06150677
      4.93333333	      0.02460325	      0.03018661	      0.06096340
      4.95000000	      0.02417368	      0.02992193	      0.06023068
      4.96666667	      0.02371158	      0.02963455	      0.05942829
      4.98333333	      0.02327697	      0.02936171	      0.05852966
      5.00000000	      0.02294829	      0.02915367	      0.05745186
      5.01666667	      0.02272736	      0.02901300	      0.05588862
      5.03333333	      0.02264411	      0.02895981	      0.05648454
      5.05000000	      0.02274467	      0.02902404	      0.06058202
      5.06666667	      0.02305298	      0.02922010	      0.06534746
      5.08333333	      0.02340939	      0.02944511	      0.06939487
      5.10000000	      0.02371551	      0.02963701	      0.07089482
      5.11666667	      0.02379716	      0.02968798	      0.07023490
      5.13333333	      0.02364630	      0.02959373	      0.06620234
      5.15000000	      0.02311781	      0.02926115	      0.05989574
      5.16666667	      0.02235499	      0.02877434	      0.05302457
      5.18333333	      0.02182987	      0.02843438	      0.05412458
      5.20000000	      0.02195393	      0.02851506	      0.05733003
      5.21666667	      0.02266666	      0.02897423	      0.06109224
      5.23333333	      0.02380193	      0.02969096	      0.06509253
      5.25000000	      0.02505466	      0.03046228	      0.06876105
      5.26666667	      0.02613688	      0.03111322	      0.07157587
      5.28333333	      0.02688878	      0.03155758	      0.07324198
      5.30000000	      0.02745287	      0.03188688	      0.07372787
      5.31666667	      0.02796055	      0.03218037	      0.07253542
      5.33333333	      0.02842213	      0.03244490	      0.07002397
      5.35000000	      0.02879360	      0.03265624	      0.06724106
      5.36666667	      0.02906303	      0.03280867	      0.06388763
      5.38333333	      0.02922877	      0.03290208	      0.06556575
      5.40000000	      0.02913925	      0.03285166	      0.06701532
      5.41666667	      0.02878092	      0.03264904	      0.06771716
      5.43333333	      0.02828002	      0.03236368	      0.06823826
      5.45000000	      0.02788375	      0.03213614	      0.06841604
      5.46666667	      0.02773581	      0.03205078	      0.06839892
      5.48333333	      0.02786300	      0.03212418	      0.06827833
      5.50000000	      0.02814955	      0.03228895	      0.06798187
      5.51666667	      0.02858631	      0.03253847	      0.06758783
      5.53333333	      0.02911664	      0.03283891	      0.06745297
      5.55000000	      0.02971807	      0.03317634	      0.06754884
      5.56666667	      0.03034901	      0.03352667	      0.06724616
      5.58333333	      0.03099235	      0.03388015	      0.06752569
      5.60000000	      0.03154340	      0.03418002	      0.06731215
      5.61666667	      0.03191018	      0.03437817	      0.06690144
      5.63333333	      0.03191974	      0.03438332	      0.06600978
      5.65000000	      0.03152220	      0.03416853	      0.06495020
      5.66666667	      0.03080145	      0.03377565	      0.06454495
      5.68333333	      0.02988082	      0.03326706	      0.06452652
      5.70000000	      0.02895296	      0.03274648	      0.06358609
      5.71666667	      0.02833091	      0.03239279	      0.06494433
      5.73333333	      0.02826340	      0.03235417	      0.06608171
      5.75000000	      0.02880667	      0.03266365	      0.06716938
      5.76666667	      0.02977462	      0.03320789	      0.06820143
      5.78333333	      0.03088147	      0.03381950	      0.06917746
      5.80000000	      0.03181518	      0.03432696	      0.06888423
      5.81666667	      0.03236577	      0.03462271	      0.07261053
      5.83333333	      0.03226550	      0.03456904	      0.07506687
      5.85000000	      0.03139661	      0.03410040	      0.07440935
      5.86666667	      0.02990052	      0.03327802	      0.07085652
      5.88333333	      0.02817713	      0.03230476	      0.06648489
      5.90000000	      0.02661010	      0.03139362	      0.06600173
      5.91666667	      0.02547356	      0.03071588	      0.06459425
      5.93333333	      0.02479744	      0.03030551	      0.06316361
      5.95000000	      0.02458008	      0.03017239	      0.06092901
      5.96666667	      0.02462974	      0.03020285	      0.05809665
      5.98333333	      0.02476080	      0.03028311	      0.05535074
      6.00000000	      0.02475598	      0.03028016	      0.05506187
      6.01666667	      0.02451781	      0.03013415	      0.05409339
      6.03333333	      0.02411537	      0.02988581	      0.05236682
      6.05000000	      0.02373412	      0.02964863	      0.05334922
      6.06666667	      0.02353350	      0.02952306	      0.05477017
      6.08333333	      0.02366641	      0.02960631	      0.05664181
      6.10000000	      0.02455360	      0.03015614	      0.05983242
      6.11666667	      0.02704302	      0.03164796	      0.06411936
      6.13333333	      0.03224696	      0.03455911	      0.07837020
      6.15000000	      0.04073652	      0.03884276	      0.10929955
      6.16666667	      0.05161835	      0.04372403	      0.14010740
      6.18333333	      0.06121460	      0.04761520	      0.16249642
      6.20000000	      0.06420204	      0.04876324	      0.16891631
      6.21666667	      0.05842521	      0.04651770	      0.15621121
      6.23333333	      0.04740101	      0.04189980	      0.12840241
      6.25000000	      0.03659503	      0.03681537	      0.09408331
      6.26666667	      0.02909447	      0.03282641	      0.07049452
      6.28333333	      0.02530349	      0.03061317	      0.06368787
      6.30000000	      0.02419079	      0.02993251	      0.05980075
      6.31666667	      0.02464503	      0.03021223	      0.05947102
      6.33333333	      0.02596645	      0.03101162	      0.06157261
      6.35000000	      0.02770307	      0.03203185	      0.06422242
      6.36666667	      0.02925078	      0.03291447	      0.06936478
      6.38333333	      0.03017411	      0.03342992	      0.07212852
      6.40000000	      0.03046856	      0.03359263	      0.07322035
      6.41666667	      0.03041365	      0.03356235	      0.07280431
      6.43333333	      0.03044271	      0.03357838	      0.07225300
      6.45000000	      0.03082187	      0.03378685	      0.07161824
      6.46666667	      0.03171755	      0.03427425	      0.07187136
      6.48333333	      0.03309816	      0.03501225	      0.07365423
      6.50000000	      0.03461653	      0.03580633	      0.07662122
      6.51666667	      0.03578375	      0.03640500	      0.07952909
      6.53333333	      0.03643428	      0.03673442	      0.08171551
      6.55000000	      0.03650845	      0.03677180	      0.08281454
      6.56666667	      0.03622620	      0.03662937	      0.08309206
      6.58333333	      0.03580594	      0.03641629	      0.08308232
      6.60000000	      0.03545724	      0.03623853	      0.08354991
      6.61666667	      0.03525587	      0.03613548	      0.08392453
      6.63333333	      0.03520820	      0.03611104	      0.08384830
      6.65000000	      0.03526387	      0.03613958	      0.08289262
      6.66666667	      0.03532430	      0.03617053	      0.08109649
      6.68333333	      0.03531473	      0.03616563	      0.07870080
      6.70000000	      0.03522885	      0.03612163	      0.07616799
      6.71666667	      0.03490473	      0.03595508	      0.07759197
      6.73333333	      0.03421795	      0.03559960	      0.07798853
      6.75000000	      0.03322691	      0.03508028	      0.07736463
      6.76666667	      0.03200707	      0.03443032	      0.07483504
      6.78333333	      0.03082437	      0.03378821	      0.07203493
      6.80000000	      0.02983916	      0.03324386	      0.06935712
      6.81666667	      0.02917873	      0.03287391	      0.06736516
      6.83333333	      0.02867957	      0.03259151	      0.06610751
      6.85000000	      0.02828997	      0.03236938	      0.06564772
      6.86666667	      0.02804010	      0.03222611	      0.06620953
      6.88333333	      0.02812302	      0.03227372	      0.06749661
      6.90000000	      0.02893196	      0.03273460	      0.07013529
      6.91666667	      0.03055866	      0.03364227	      0.07151327
      6.93333333	      0.03251441	      0.03470212	      0.07349617
      6.95000000	      0.03384054	      0.03540273	      0.07487512
      6.96666667	      0.03402852	      0.03550092	      0.07530770
      6.98333333	      0.03317224	      0.03505141	      0.07469040
      7.00000000	      0.03171483	      0.03427278	      0.07293708
      7.01666667	      0.03022243	      0.03345668	      0.07100403
      7.03333333	      0.02895202	      0.03274595	      0.06896501
      7.05000000	      0.02779380	      0.03208426	      0.06755011
      7.06666667	      0.02666132	      0.03142382	      0.06657579
      7.08333333	      0.02545974	      0.03070755	      0.06666651
      7.10000000	      0.02449419	      0.03011963	      0.06663085
      7.11666667	      0.02391341	      0.02976041	      0.06659075
      7.13333333	      0.02384224	      0.02971609	      0.06625233
      7.15000000	      0.02446204	      0.03009986	      0.06580203
      7.16666667	      0.02583294	      0.03093179	      0.06560694
      7.18333333	      0.02783338	      0.03210710	      0.06530848
      7.20000000	      0.03016070	      0.03342249	      0.06629415
      7.21666667	      0.03245387	      0.03466980	      0.06712348
      7.23333333	      0.03438554	      0.03568667	      0.07171618
      7.25000000	      0.03576685	      0.03639640	      0.07481984
      7.26666667	      0.03659403	      0.03681487	      0.07559079
      7.28333333	      0.03696625	      0.03700163	      0.07368767
      7.30000000	      0.03713849	      0.03708773	      0.07562259
      7.31666667	      0.03732769	      0.03718208	      0.07771731
      7.33333333	      0.03753358	      0.03728448	      0.08004221
      7.35000000	      0.03799573	      0.03751332	      0.08355076
      7.36666667	      0.03866492	      0.03784223	      0.08748646
      7.38333333	      0.03954017	      0.03826814	      0.09231738
      7.40000000	      0.04036481	      0.03866514	      0.09741317
      7.41666667	      0.04076242	      0.03885510	      0.10150781
      7.43333333	      0.04057742	      0.03876683	      0.10396654
      7.45000000	      0.03972399	      0.03835699	      0.10382720
      7.46666667	      0.03825817	      0.03764265	      0.10112849
      7.48333333	      0.03643536	      0.03673497	      0.09710134
      7.50000000	      0.03468434	      0.03584139	      0.09330970
      7.51666667	      0.03328676	      0.03511186	      0.09092986
      7.53333333	      0.03215026	      0.03450725	      0.08956920
      7.55000000	      0.03097063	      0.03386828	      0.08940081
      7.56666667	      0.02977976	      0.03321075	      0.08862526
      7.58333333	      0.02879332	      0.03265608	      0.08758038
      7.60000000	      0.02821180	      0.03232463	      0.08750018
      7.61666667	      0.02805822	      0.03223652	      0.08826062
      7.63333333	      0.02823505	      0.03233794	      0.09030303
      7.65000000	      0.02850806	      0.03249391	      0.09160602
      7.66666667	      0.02878729	      0.03265266	      0.09179800
      7.68333333	      0.02915858	      0.03286255	      0.09146532
      7.70000000	      0.02943231	      0.03301644	      0.09012981
      7.71666667	      0.02923129	      0.03290350	      0.08676376
      7.73333333	      0.02845722	      0.03246492	      0.08224108
      7.75000000	      0.02730927	      0.03180337	      0.07618798
      7.76666667	      0.02613635	      0.03111291	      0.06987218
      7.78333333	      0.02532108	      0.03062381	      0.06587604
      7.80000000	      0.02522016	      0.03056272	      0.06607773
      7.81666667	      0.02589200	      0.03096713	      0.06974676
      7.83333333	      0.02691278	      0.03157166	      0.07403303
      7.85000000	      0.02773776	      0.03205190	      0.07704859
      7.86666667	      0.02818938	      0.03231178	      0.07875935
      7.88333333	      0.02841896	      0.03244309	      0.08002718
      7.90000000	      0.02859562	      0.03254377	      0.08124409
      7.91666667	      0.02871885	      0.03261382	      0.08220618
      7.93333333	      0.02862042	      0.03255788	      0.08227428
      7.95000000	      0.02801162	      0.03220974	      0.08100672
      7.96666667	      0.02701356	      0.03163072	      0.07875628
      7.98333333	      0.02601882	      0.03104287	      0.07619715
      8.00000000	      0.02538527	      0.03066260	      0.07413711
      8.01666667	      0.02506087	      0.03046606	      0.07285931
      8.03333333	      0.02495097	      0.03039918	      0.07221617
      8.05000000	      0.02492685	      0.03038448	      0.07172418
      8.06666667	      0.02477316	      0.03029067	      0.07093432
      8.08333333	      0.02439134	      0.03005633	      0.06995118
      8.10000000	      0.02393085	      0.02977126	      0.06912164
      8.11666667	      0.02359063	      0.02955887	      0.06801722
      8.13333333	      0.02383243	      0.02970997	      0.06731671
      8.15000000	      0.02511186	      0.03049703	      0.06717361
      8.16666667	      0.02717712	      0.03172633	      0.06735788
      8.18333333	      0.02930010	      0.03294220	      0.08006754
      8.20000000	      0.03084726	      0.03380076	      0.08225554
      8.21666667	      0.03151346	      0.03416380	      0.08358941
      8.23333333	      0.03126607	      0.03402944	      0.08240953
      8.25000000	      0.03029416	      0.03349636	      0.08017627
      8.26666667	      0.02895035	      0.03274500	      0.07507181
      8.28333333	      0.02769376	      0.03202647	      0.06869168
      8.30000000	      0.02682778	      0.03152176	      0.06570520
      8.31666667	      0.02633610	      0.03123157	      0.06599108
      8.33333333	      0.02582580	      0.03092751	      0.06614411
      8.35000000	      0.02538638	      0.03066327	      0.06612590
      8.36666667	      0.02534069	      0.03063567	      0.06639739
      8.38333333	      0.02570979	      0.03085797	      0.06692715
      8.40000000	      0.02628204	      0.03119950	      0.06825588
      8.41666667	      0.02696888	      0.03160455	      0.07226996
      8.43333333	      0.02770688	      0.03203405	      0.07663162
      8.45000000	      0.02837970	      0.03242067	      0.08087108
      8.46666667	      0.02878474	      0.03265121	      0.08407776
      8.48333333	      0.02880928	      0.03266513	      0.08575655
      8.50000000	      0.02857550	      0.03253232	      0.08553081
      8.51666667	      0.02837329	      0.03241701	      0.08466432
      8.53333333	      0.02843761	      0.03245373	      0.08256553
      8.55000000	      0.02870260	      0.03260459	      0.08025223
      8.56666667	      0.02872225	      0.03261575	      0.07692622
      8.58333333	      0.02805773	      0.03223624	      0.07109623
      8.60000000	      0.02690767	      0.03156866	      0.07157137
      8.61666667	      0.02594851	      0.03100090	      0.07244504
      8.63333333	      0.02570872	      0.03085733	      0.07282837
      8.65000000	      0.02635852	      0.03124487	      0.07352259
      8.66666667	      0.02751607	      0.03192356	      0.07421431
      8.68333333	      0.02865999	      0.03258038	      0.07452163
      8.70000000	      0.02943333	      0.03301701	      0.07410661
      8.71666667	      0.02977031	      0.03320548	      0.07243057
      8.73333333	      0.02975177	      0.03319514	      0.07039824
      8.75000000	      0.02965314	      0.03314008	      0.06688799
      8.76666667	      0.02973885	      0.03318793	      0.06277603
      8.78333333	      0.03015940	      0.03342177	      0.06168895
      8.80000000	      0.03073987	      0.03374187	      0.06330105
      8.81666667	      0.03122451	      0.03400681	      0.06470963
      8.83333333	      0.03139462	      0.03409932	      0.06527627
      8.85000000	      0.03139300	      0.03409844	      0.06536698
      8.86666667	      0.03137592	      0.03408916	      0.06529329
      8.88333333	      0.03119395	      0.03399017	      0.06561372
      8.90000000	      0.03090925	      0.03383470	      0.06551723
      8.91666667	      0.03036695	      0.03353657	      0.06472440
      8.93333333	      0.02952966	      0.03307100	      0.06285627
      8.95000000	      0.02832914	      0.03239178	      0.05912499
      8.96666667	      0.02690756	      0.03156860	      0.05647633
      8.98333333	      0.02548929	      0.03072536	      0.05821903
      9.00000000	      0.02445415	      0.03009501	      0.06050029
      9.01666667	      0.02399762	      0.02981276	      0.06289424
      9.03333333	      0.02414243	      0.02990258	      0.06556993
      9.05000000	      0.02468842	      0.03023882	      0.06759389
      9.06666667	      0.02549044	      0.03072606	      0.06854490
      9.08333333	      0.02644581	      0.03129656	      0.06975451
      9.10000000	      0.02743390	      0.03187586	      0.07007140
      9.11666667	      0.02835081	      0.03240417	      0.07248643
      9.13333333	      0.02900465	      0.03277570	      0.07320509
      9.15000000	      0.02941842	      0.03300865	      0.07511806
      9.16666667	      0.02945286	      0.03302797	      0.07580445
      9.18333333	      0.02917597	      0.03287235	      0.07617100
      9.20000000	      0.02862389	      0.03255986	      0.07521228
      9.21666667	      0.02799007	      0.03219735	      0.07355632
      9.23333333	      0.02740716	      0.03186032	      0.07134364
      9.25000000	      0.02700322	      0.03162466	      0.06927486
      9.26666667	      0.02683452	      0.03152572	      0.06792187
      9.28333333	      0.02701067	      0.03162902	      0.06757149
      9.30000000	      0.02729164	      0.03179311	      0.06823248
      9.31666667	      0.02747460	      0.03189949	      0.06863750
      9.33333333	      0.02757974	      0.03196048	      0.07108281
      9.35000000	      0.02794910	      0.03217378	      0.07229362
      9.36666667	      0.02888856	      0.03271004	      0.07438735
      9.38333333	      0.03036043	      0.03353297	      0.07677947
      9.40000000	      0.03197602	      0.03441362	      0.07836762
      9.41666667	      0.03327726	      0.03510685	      0.07850851
      9.43333333	      0.03406735	      0.03552117	      0.07671781
      9.45000000	      0.03432424	      0.03565485	      0.07913037
      9.46666667	      0.03402668	      0.03549996	      0.08333299
      9.48333333	      0.03310921	      0.03501810	      0.08652598
      9.50000000	      0.03164689	      0.03423605	      0.08830186
      9.51666667	      0.02993076	      0.03329484	      0.08778429
      9.53333333	      0.02820126	      0.03231859	      0.08488875
      9.55000000	      0.02663508	      0.03140835	      0.07971887
      9.56666667	      0.02523575	      0.03057217	      0.07315719
      9.58333333	      0.02403416	      0.02983545	      0.06673562
      9.60000000	      0.02312501	      0.02926571	      0.06338174
      9.61666667	      0.02252114	      0.02888107	      0.06282081
      9.63333333	      0.02212088	      0.02862327	      0.06061873
      9.65000000	      0.02183117	      0.02843522	      0.05668660
      9.66666667	      0.02172342	      0.02836496	      0.05628766
      9.68333333	      0.02202057	      0.02855831	      0.05955759
      9.70000000	      0.02279048	      0.02905326	      0.06417846
      9.71666667	      0.02394578	      0.02978055	      0.06890290
      9.73333333	      0.02514078	      0.03051458	      0.07287696
      9.75000000	      0.02635160	      0.03124076	      0.07648391
      9.76666667	      0.02750835	      0.03191908	      0.07990461
      9.78333333	      0.02860194	      0.03254737	      0.08291302
      9.80000000	      0.02970272	      0.03316777	      0.08564658
      9.81666667	      0.03080233	      0.03377613	      0.08798442
      9.83333333	      0.03172328	      0.03427735	      0.08965323
      9.85000000	      0.03232241	      0.03459951	      0.09056228
      9.86666667	      0.03261198	      0.03475415	      0.09033948
      9.88333333	      0.03278957	      0.03484865	      0.08886021
      9.90000000	      0.03302355	      0.03497277	      0.08647532
      9.91666667	      0.03323906	      0.03508669	      0.08317584
      9.93333333	      0.03328662	      0.03511179	      0.07941969
      9.95000000	      0.03296537	      0.03494195	      0.07526217
      9.96666667	      0.03236655	      0.03462313	      0.07125055
      9.98333333	      0.03158411	      0.03420208	      0.06696367
     10.00000000	      0.03086011	      0.03380780	      0.06626284
     10.01666667	      0.03014609	      0.03341440	      0.06731586
     10.03333333	      0.02941899	      0.03300897	      0.06592083
     10.05000000	      0.02872670	      0.03261828	      0.06316108
     10.06666667	      0.02810460	      0.03226315	      0.05999307
     10.08333333	      0.02750643	      0.03191797	      0.05784949
     10.10000000	      0.02677430	      0.03149033	      0.05713360
     10.11666667	      0.02591062	      0.03097826	      0.05765746
     10.13333333	      0.02504655	      0.03045735	      0.05624952
     10.15000000	      0.02430980	      0.03000605	      0.05734288
     10.16666667	      0.02379462	      0.02968640	      0.05727171
     10.18333333	      0.02350199	      0.02950329	      0.05789888
     10.20000000	      0.02350626	      0.02950597	      0.05885411
     10.21666667	      0.02380668	      0.02969392	      0.06035229
     10.23333333	      0.02432551	      0.03001574	      0.06193699
     10.25000000	      0.02486033	      0.03034391	      0.06329284
     10.26666667	      0.02527143	      0.03059377	      0.06408203
     10.28333333	      0.02542820	      0.03068852	      0.06400012
     10.30000000	      0.02522483	      0.03056555	      0.06346238
     10.31666667	      0.02470894	      0.03025138	      0.06273850
     10.33333333	      0.02410734	      0.02988084	      0.06217628
     10.35000000	      0.02366656	      0.02960640	      0.06196661
     10.36666667	      0.02352657	      0.02951871	      0.06204668
     10.38333333	      0.02369383	      0.02962346	      0.06249875
     10.40000000	      0.02401850	      0.02982573	      0.06291294
     10.41666667	      0.02432468	      0.03001523	      0.06332268
     10.43333333	      0.02447440	      0.03010746	      0.06369011
     10.45000000	      0.02447857	      0.03011003	      0.06368600
     10.46666667	      0.02429512	      0.02999699	      0.06336521
     10.48333333	      0.02395428	      0.02978583	      0.06271213
     10.50000000	      0.02352417	      0.02951721	      0.06166925
     10.51666667	      0.02307270	      0.02923259	      0.06059917
     10.53333333	      0.02267663	      0.02898060	      0.05913175
     10.55000000	      0.02225289	      0.02870856	      0.05795655
     10.56666667	      0.02184740	      0.02844579	      0.05631898
     10.58333333	      0.02158081	      0.02827170	      0.05495819
     10.60000000	      0.02145244	      0.02818749	      0.05306130
     10.61666667	      0.02167372	      0.02833250	      0.05193914
     10.63333333	      0.02210537	      0.02861324	      0.05126632
     10.65000000	      0.02261828	      0.02894329	      0.05142358
     10.66666667	      0.02301625	      0.02919681	      0.05090371
     10.68333333	      0.02329621	      0.02937384	      0.05137970
     10.70000000	      0.02333667	      0.02939934	      0.05132767
     10.71666667	      0.02319319	      0.02930882	      0.05137526
     10.73333333	      0.02301684	      0.02919719	      0.05121000
     10.75000000	      0.02298624	      0.02917777	      0.05086965
     10.76666667	      0.02324936	      0.02934429	      0.05066438
     10.78333333	      0.02385805	      0.02972594	      0.05076305
     10.80000000	      0.02471852	      0.03025724	      0.05128821
     10.81666667	      0.02558439	      0.03078263	      0.05222439
     10.83333333	      0.02622909	      0.03116805	      0.05349604
     10.85000000	      0.02642676	      0.03128528	      0.05485836
     10.86666667	      0.02617812	      0.03113776	      0.05663148
     10.88333333	      0.02571835	      0.03086311	      0.05856133
     10.90000000	      0.02526378	      0.03058914	      0.06025621
     10.91666667	      0.02501553	      0.03043848	      0.06164909
     10.93333333	      0.02489879	      0.03036738	      0.06254736
     10.95000000	      0.02479674	      0.03030508	      0.06300209
     10.96666667	      0.02478193	      0.03029603	      0.06285865
     10.98333333	      0.02485989	      0.03034364	      0.06242641
     11.00000000	      0.02510089	      0.03049037	      0.06166991
     11.01666667	      0.02547073	      0.03071417	      0.06123889
     11.03333333	      0.02593667	      0.03099383	      0.06066865
     11.05000000	      0.02640860	      0.03127453	      0.06021801
     11.06666667	      0.02684622	      0.03153260	      0.05996925
     11.08333333	      0.02730235	      0.03179934	      0.05990400
     11.10000000	      0.02778969	      0.03208189	      0.05982621
     11.11666667	      0.02833187	      0.03239334	      0.06030877
     11.13333333	      0.02868755	      0.03259604	      0.05913847
     11.15000000	      0.02892903	      0.03273295	      0.05959260
     11.16666667	      0.02893877	      0.03273846	      0.05934169
     11.18333333	      0.02863610	      0.03256680	      0.05820621
     11.20000000	      0.02823438	      0.03233756	      0.05853312
     11.21666667	      0.02773790	      0.03205199	      0.05812083
     11.23333333	      0.02727519	      0.03178352	      0.05828071
     11.25000000	      0.02684211	      0.03153018	      0.05813564
     11.26666667	      0.02647127	      0.03131162	      0.05772170
     11.28333333	      0.02604448	      0.03105818	      0.05678110
     11.30000000	      0.02559506	      0.03078904	      0.05588208
     11.31666667	      0.02518079	      0.03053886	      0.05479213
     11.33333333	      0.02481367	      0.03031542	      0.05421387
     11.35000000	      0.02449335	      0.03011912	      0.05381005
     11.36666667	      0.02409972	      0.02987612	      0.05396941
     11.38333333	      0.02351680	      0.02951259	      0.05333250
     11.40000000	      0.02293868	      0.02914757	      0.05681822
     11.41666667	      0.02253423	      0.02888946	      0.06008443
     11.43333333	      0.02247949	      0.02885435	      0.06217993
     11.45000000	      0.02257837	      0.02891775	      0.06234864
     11.46666667	      0.02263937	      0.02895678	      0.06188325
     11.48333333	      0.02296446	      0.02916394	      0.06487157
     11.50000000	      0.02388065	      0.02974002	      0.06803972
     11.51666667	      0.02527731	      0.03059733	      0.07105078
     11.53333333	      0.02654309	      0.03135407	      0.07275644
     11.55000000	      0.02698422	      0.03161354	      0.07190219
     11.56666667	      0.02631673	      0.03122009	      0.06821548
     11.58333333	      0.02482882	      0.03032467	      0.06246520
     11.60000000	      0.02312290	      0.02926438	      0.06350639
     11.61666667	      0.02162377	      0.02829983	      0.06338248
     11.63333333	      0.02046924	      0.02753398	      0.06181364
     11.65000000	      0.01971780	      0.02702386	      0.05864295
     11.66666667	      0.01954618	      0.02690600	      0.05377518
     11.68333333	      0.02018290	      0.02734072	      0.05528592
     11.70000000	      0.02162966	      0.02830368	      0.05859693
     11.71666667	      0.02358168	      0.02955327	      0.05908944
     11.73333333	      0.02555158	      0.03076288	      0.06030564
     11.75000000	      0.02698790	      0.03161569	      0.06521964
     11.76666667	      0.02781051	      0.03209391	      0.06680565
     11.78333333	      0.02793716	      0.03216690	      0.06420667
     11.80000000	      0.02735312	      0.03182890	      0.05807707
     11.81666667	      0.02634060	      0.03123424	      0.06109808
     11.83333333	      0.02563689	      0.03081419	      0.06595521
     11.85000000	      0.02604962	      0.03106124	      0.07193307
     11.86666667	      0.02775982	      0.03206464	      0.07777332
     11.88333333	      0.03026859	      0.03348222	      0.08224139
     11.90000000	      0.03297936	      0.03494936	      0.08436013
     11.91666667	      0.03553240	      0.03627692	      0.08293174
     11.93333333	      0.03664960	      0.03684281	      0.07939596
     11.95000000	      0.03835937	      0.03769241	      0.07521542
     11.96666667	      0.03893065	      0.03797204	      0.07744419
     11.98333333	      0.03938593	      0.03819343	      0.08233354
     12.00000000	      0.03912442	      0.03806642	      0.08370438
     12.01666667	      0.03864531	      0.03783263	      0.08225533
     12.03333333	      0.03819051	      0.03760935	      0.08022587
     12.05000000	      0.03790261	      0.03746732	      0.07826597
     12.06666667	      0.03772398	      0.03737893	      0.07652494
     12.08333333	      0.03754777	      0.03729153	      0.07478223
     12.10000000	      0.03738020	      0.03720822	      0.07365246
     12.11666667	      0.03715676	      0.03709685	      0.07313080
     12.13333333	      0.03684864	      0.03694272	      0.07306014
     12.15000000	      0.03649345	      0.03676424	      0.07307636
     12.16666667	      0.03615135	      0.03659151	      0.07319400
     12.18333333	      0.03588518	      0.03645656	      0.07334098
     12.20000000	      0.03574299	      0.03638426	      0.07352015
     12.21666667	      0.03564329	      0.03633348	      0.07369190
     12.23333333	      0.03557792	      0.03630015	      0.07389812
     12.25000000	      0.03550896	      0.03626495	      0.07410963
     12.26666667	      0.03545428	      0.03623702	      0.07443812
     12.28333333	      0.03541026	      0.03621452	      0.07470469
     12.30000000	      0.03544528	      0.03623242	      0.07488630
     12.31666667	      0.03552659	      0.03627395	      0.07493798
     12.33333333	      0.03560297	      0.03631293	      0.07484847
     12.35000000	      0.03567326	      0.03634876	      0.07464837
     12.36666667	      0.03580377	      0.03641518	      0.07463742
     12.38333333	      0.03597790	      0.03650363	      0.07481926
     12.40000000	      0.03617045	      0.03660118	      0.07533806
     12.41666667	      0.03634622	      0.03669000	      0.07619294
     12.43333333	      0.03645863	      0.03674670	      0.07701008
     12.45000000	      0.03652395	      0.03677960	      0.07765667
     12.46666667	      0.03660217	      0.03681896	      0.07790797
     12.48333333	      0.03696599	      0.03700150	      0.07859654
     12.50000000	      0.03774602	      0.03738985	      0.07947475
     12.51666667	      0.03868558	      0.03785233	      0.08002711
     12.53333333	      0.03935564	      0.03817874	      0.07928292
     12.55000000	      0.03924024	      0.03812273	      0.07749577
     12.56666667	      0.03828641	      0.03765654	      0.07429114
     12.58333333	      0.03671353	      0.03687493	      0.06998949
     12.60000000	      0.03513701	      0.03607451	      0.06473587
     12.61666667	      0.03367479	      0.03531592	      0.06669355
     12.63333333	      0.03291094	      0.03491309	      0.07121082
     12.65000000	      0.03296268	      0.03494052	      0.07742008
     12.66666667	      0.03278247	      0.03484488	      0.06787830
     12.68333333	      0.03328849	      0.03511278	      0.06843657
     12.70000000	      0.03359159	      0.03527227	      0.06844700
     12.71666667	      0.03329488	      0.03511615	      0.06597454
     12.73333333	      0.03255731	      0.03472501	      0.06256210
     12.75000000	      0.03164594	      0.03423553	      0.05988224
     12.76666667	      0.03082997	      0.03379128	      0.06253880
     12.78333333	      0.02988820	      0.03327116	      0.06448362
     12.80000000	      0.02909449	      0.03282642	      0.06589385
     12.81666667	      0.02851191	      0.03249610	      0.06664524
     12.83333333	      0.02804843	      0.03223090	      0.06613185
     12.85000000	      0.02279106	      0.02905363	      0.04847357
     12.86666667	      0.02303147	      0.02920646	      0.05006764
     12.88333333	      0.02343673	      0.02946230	      0.05147242
     12.90000000	      0.02399420	      0.02981064	      0.05279732
     12.91666667	      0.02443736	      0.03008467	      0.05412680
     12.93333333	      0.02476460	      0.03028543	      0.05508993
     12.95000000	      0.02481830	      0.03031825	      0.05561341
     12.96666667	      0.02451610	      0.03013310	      0.05562364
     12.98333333	      0.02387502	      0.02973651	      0.05493073
