Model Marker Errors from IK
version=1
nRows=152
nColumns=4
inDegrees=no
endheader
time	total_squared_error	marker_error_RMS	marker_error_max
      0.00000000	      0.02090649	      0.02782651	      0.04886848
      0.02222222	      0.02050428	      0.02755754	      0.04979498
      0.04444444	      0.02094763	      0.02785387	      0.04983673
      0.06666667	      0.02136014	      0.02812679	      0.04913957
      0.08888889	      0.02176617	      0.02839286	      0.04798393
      0.11111111	      0.02234746	      0.02876949	      0.04730611
      0.13333333	      0.02321353	      0.02932167	      0.04741468
      0.15555556	      0.02440281	      0.03006340	      0.04931932
      0.17777778	      0.02571707	      0.03086234	      0.05253272
      0.20000000	      0.02678737	      0.03149801	      0.05510633
      0.22222222	      0.02736807	      0.03183759	      0.05582136
      0.24444444	      0.02731687	      0.03180780	      0.05473996
      0.26666667	      0.02669799	      0.03144542	      0.05233038
      0.28888889	      0.02597340	      0.03101577	      0.05268934
      0.31111111	      0.02546131	      0.03070849	      0.05354563
      0.33333333	      0.02529092	      0.03060557	      0.05477247
      0.35555556	      0.02532923	      0.03062874	      0.05568791
      0.37777778	      0.02566377	      0.03083034	      0.05592853
      0.40000000	      0.02632425	      0.03122454	      0.05612706
      0.42222222	      0.02721959	      0.03175111	      0.05670906
      0.44444444	      0.02805116	      0.03223246	      0.05919327
      0.46666667	      0.02857109	      0.03252981	      0.06050064
      0.48888889	      0.02868211	      0.03259295	      0.06079411
      0.51111111	      0.02842388	      0.03244590	      0.06055701
      0.53333333	      0.02825666	      0.03235032	      0.06054146
      0.55555556	      0.02831288	      0.03238248	      0.06115304
      0.57777778	      0.02852814	      0.03250535	      0.06202524
      0.60000000	      0.02864478	      0.03257173	      0.06271299
      0.62222222	      0.02872579	      0.03261776	      0.06313547
      0.64444444	      0.02894948	      0.03274451	      0.06371142
      0.66666667	      0.02951423	      0.03306236	      0.06440284
      0.68888889	      0.03041135	      0.03356109	      0.06521323
      0.71111111	      0.03148885	      0.03415046	      0.06572709
      0.73333333	      0.03225808	      0.03456506	      0.06646632
      0.75555556	      0.03276189	      0.03483394	      0.06659615
      0.77777778	      0.03295304	      0.03493541	      0.06734213
      0.80000000	      0.03301566	      0.03496859	      0.06774654
      0.82222222	      0.03289699	      0.03490569	      0.06809686
      0.84444444	      0.03250389	      0.03469651	      0.06826938
      0.86666667	      0.03196646	      0.03440847	      0.06830471
      0.88888889	      0.03155928	      0.03418863	      0.06829732
      0.91111111	      0.03132790	      0.03406307	      0.06806882
      0.93333333	      0.03108466	      0.03393057	      0.06774498
      0.95555556	      0.03081512	      0.03378314	      0.06696554
      0.97777778	      0.03059264	      0.03366097	      0.06609232
      1.00000000	      0.03044205	      0.03357802	      0.06544018
      1.02222222	      0.03049627	      0.03360791	      0.06492802
      1.04444444	      0.03063565	      0.03368462	      0.06451011
      1.06666667	      0.03069062	      0.03371483	      0.06415938
      1.08888889	      0.03069176	      0.03371545	      0.06413117
      1.11111111	      0.03062127	      0.03367671	      0.06438758
      1.13333333	      0.03047569	      0.03359656	      0.06461005
      1.15555556	      0.03022039	      0.03345555	      0.06458149
      1.17777778	      0.03007310	      0.03337392	      0.06406314
      1.20000000	      0.03025115	      0.03347257	      0.06389685
      1.22222222	      0.03086210	      0.03380889	      0.06411848
      1.24444444	      0.03168809	      0.03425833	      0.06530016
      1.26666667	      0.03255675	      0.03472471	      0.06649559
      1.28888889	      0.03328873	      0.03511290	      0.06814362
      1.31111111	      0.03369529	      0.03532667	      0.07000392
      1.33333333	      0.03390170	      0.03543471	      0.07137928
      1.35555556	      0.03408092	      0.03552825	      0.07288736
      1.37777778	      0.03426601	      0.03562459	      0.07380719
      1.40000000	      0.03422758	      0.03560461	      0.07401250
      1.42222222	      0.03397961	      0.03547540	      0.07390722
      1.44444444	      0.03370610	      0.03533234	      0.07389109
      1.46666667	      0.03351302	      0.03523099	      0.07391810
      1.48888889	      0.03350386	      0.03522618	      0.07383471
      1.51111111	      0.03360725	      0.03528049	      0.07376745
      1.53333333	      0.03365630	      0.03530622	      0.07369022
      1.55555556	      0.03358548	      0.03526906	      0.07363868
      1.57777778	      0.03344498	      0.03519521	      0.07368021
      1.60000000	      0.03328431	      0.03511057	      0.07370777
      1.62222222	      0.03314713	      0.03503814	      0.07376082
      1.64444444	      0.03298256	      0.03495105	      0.07390057
      1.66666667	      0.03290508	      0.03490998	      0.07419094
      1.68888889	      0.03297098	      0.03494492	      0.07461917
      1.71111111	      0.03320705	      0.03506980	      0.07509408
      1.73333333	      0.03355644	      0.03525381	      0.07549739
      1.75555556	      0.03385995	      0.03541288	      0.07580029
      1.77777778	      0.03399156	      0.03548164	      0.07579764
      1.80000000	      0.03383106	      0.03539777	      0.07528480
      1.82222222	      0.03335569	      0.03514820	      0.07438245
      1.84444444	      0.03275885	      0.03483232	      0.07337845
      1.86666667	      0.03216083	      0.03451292	      0.07244455
      1.88888889	      0.03156724	      0.03419294	      0.07155003
      1.91111111	      0.03097812	      0.03387237	      0.07060981
      1.93333333	      0.03055958	      0.03364277	      0.06940713
      1.95555556	      0.03046818	      0.03359242	      0.06842435
      1.97777778	      0.03082935	      0.03379094	      0.06775350
      2.00000000	      0.03147490	      0.03414289	      0.06754911
      2.02222222	      0.03237117	      0.03462560	      0.06757489
      2.04444444	      0.03321980	      0.03507653	      0.06760259
      2.06666667	      0.03395914	      0.03546471	      0.06715072
      2.08888889	      0.03438511	      0.03568645	      0.06661531
      2.11111111	      0.03450825	      0.03575029	      0.06688880
      2.13333333	      0.03439194	      0.03568999	      0.06807316
      2.15555556	      0.03433614	      0.03566103	      0.06881495
      2.17777778	      0.03458021	      0.03578755	      0.06952376
      2.20000000	      0.03511462	      0.03606302	      0.07012440
      2.22222222	      0.03574434	      0.03638495	      0.07054870
      2.24444444	      0.03633854	      0.03668613	      0.07052622
      2.26666667	      0.03672387	      0.03688012	      0.06976385
      2.28888889	      0.03659294	      0.03681432	      0.06851276
      2.31111111	      0.03566398	      0.03634403	      0.06664181
      2.33333333	      0.03424712	      0.03561477	      0.06404606
      2.35555556	      0.03265990	      0.03477968	      0.06118983
      2.37777778	      0.03136315	      0.03408223	      0.05937980
      2.40000000	      0.03034314	      0.03352343	      0.05860212
      2.42222222	      0.02955011	      0.03308245	      0.05776310
      2.44444444	      0.02905400	      0.03280357	      0.05739321
      2.46666667	      0.02872666	      0.03261825	      0.05753610
      2.48888889	      0.02843002	      0.03244940	      0.05781712
      2.51111111	      0.02801122	      0.03220951	      0.05781872
      2.53333333	      0.02758389	      0.03196288	      0.05743250
      2.55555556	      0.02728139	      0.03178713	      0.05680332
      2.57777778	      0.02718913	      0.03173334	      0.05604385
      2.60000000	      0.02736795	      0.03183752	      0.05522006
      2.62222222	      0.02782640	      0.03210308	      0.05464286
      2.64444444	      0.02847927	      0.03247749	      0.05568068
      2.66666667	      0.02923289	      0.03290440	      0.05701445
      2.68888889	      0.02994852	      0.03330472	      0.05814879
      2.71111111	      0.03040424	      0.03355716	      0.05936064
      2.73333333	      0.03062858	      0.03368073	      0.06014895
      2.75555556	      0.03067355	      0.03370545	      0.06059500
      2.77777778	      0.03068511	      0.03371180	      0.06083452
      2.80000000	      0.03074817	      0.03374642	      0.06063381
      2.82222222	      0.03092037	      0.03384079	      0.06037584
      2.84444444	      0.03123577	      0.03401294	      0.06038450
      2.86666667	      0.03174951	      0.03429151	      0.06094613
      2.88888889	      0.03244364	      0.03466434	      0.06188737
      2.91111111	      0.03307005	      0.03499738	      0.06315398
      2.93333333	      0.03349899	      0.03522362	      0.06459735
      2.95555556	      0.03353195	      0.03524094	      0.06584599
      2.97777778	      0.03324113	      0.03508779	      0.06672491
      3.00000000	      0.03283995	      0.03487542	      0.06689596
      3.02222222	      0.03235592	      0.03461745	      0.06631524
      3.04444444	      0.03196244	      0.03440631	      0.06527688
      3.06666667	      0.03171880	      0.03427492	      0.06433359
      3.08888889	      0.03169809	      0.03426373	      0.06363767
      3.11111111	      0.03179180	      0.03431434	      0.06380052
      3.13333333	      0.03198735	      0.03441972	      0.06394393
      3.15555556	      0.03223429	      0.03455232	      0.06417232
      3.17777778	      0.03245283	      0.03466925	      0.06455350
      3.20000000	      0.03256093	      0.03472694	      0.06492579
      3.22222222	      0.03244662	      0.03466593	      0.06497799
      3.24444444	      0.03206766	      0.03446289	      0.06473809
      3.26666667	      0.03172776	      0.03427976	      0.06452962
      3.28888889	      0.03154042	      0.03417841	      0.06424123
      3.31111111	      0.03165411	      0.03423995	      0.06411320
      3.33333333	      0.03225161	      0.03456160	      0.06416967
      3.35555556	      0.03359964	      0.03527649	      0.06451243
