Model Marker Errors from IK
version=1
nRows=267
nColumns=4
inDegrees=no
endheader
time	total_squared_error	marker_error_RMS	marker_error_max
      0.00000000	      0.01616143	      0.02446572	      0.04312029
      0.01666667	      0.01487405	      0.02347106	      0.04037955
      0.03333333	      0.01434174	      0.02304725	      0.03843039
      0.05000000	      0.01413275	      0.02287871	      0.03764590
      0.06666667	      0.01402396	      0.02279048	      0.03756956
      0.08333333	      0.01398105	      0.02275559	      0.03802770
      0.10000000	      0.01395672	      0.02273577	      0.03881789
      0.11666667	      0.01396829	      0.02274519	      0.03960658
      0.13333333	      0.01409010	      0.02284416	      0.04022999
      0.15000000	      0.01419544	      0.02292939	      0.04093078
      0.16666667	      0.01441423	      0.02310542	      0.04159318
      0.18333333	      0.01463529	      0.02328192	      0.04223835
      0.20000000	      0.01484757	      0.02345016	      0.04273128
      0.21666667	      0.01504907	      0.02360875	      0.04373646
      0.23333333	      0.01527096	      0.02378216	      0.04428546
      0.25000000	      0.01532479	      0.02382404	      0.04436255
      0.26666667	      0.01542161	      0.02389918	      0.04431224
      0.28333333	      0.01549029	      0.02395234	      0.04401405
      0.30000000	      0.01558244	      0.02402348	      0.04340108
      0.31666667	      0.01549913	      0.02395917	      0.04258484
      0.33333333	      0.01554010	      0.02399082	      0.04158713
      0.35000000	      0.01539557	      0.02387900	      0.04044132
      0.36666667	      0.01530376	      0.02380769	      0.03867392
      0.38333333	      0.01527384	      0.02378440	      0.03677589
      0.40000000	      0.01509383	      0.02364383	      0.03633361
      0.41666667	      0.01497962	      0.02355420	      0.03636409
      0.43333333	      0.01491479	      0.02350318	      0.03650277
      0.45000000	      0.01492171	      0.02350864	      0.03696564
      0.46666667	      0.01495904	      0.02353803	      0.03705389
      0.48333333	      0.01500626	      0.02357514	      0.03697325
      0.50000000	      0.01503231	      0.02359560	      0.03679451
      0.51666667	      0.01492059	      0.02350775	      0.03609529
      0.53333333	      0.01493725	      0.02352087	      0.03555927
      0.55000000	      0.01486799	      0.02346628	      0.03562788
      0.56666667	      0.01489646	      0.02348874	      0.03550463
      0.58333333	      0.01487945	      0.02347532	      0.03537621
      0.60000000	      0.01484554	      0.02344856	      0.03526677
      0.61666667	      0.01480478	      0.02341635	      0.03554518
      0.63333333	      0.01472425	      0.02335257	      0.03506184
      0.65000000	      0.01463214	      0.02327941	      0.03505449
      0.66666667	      0.01454033	      0.02320626	      0.03494084
      0.68333333	      0.01448922	      0.02316545	      0.03486158
      0.70000000	      0.01448199	      0.02315966	      0.03478397
      0.71666667	      0.01453242	      0.02319995	      0.03465548
      0.73333333	      0.01459882	      0.02325289	      0.03447217
      0.75000000	      0.01463073	      0.02327829	      0.03468990
      0.76666667	      0.01459265	      0.02324798	      0.03463380
      0.78333333	      0.01450592	      0.02317879	      0.03445854
      0.80000000	      0.01441037	      0.02310233	      0.03432397
      0.81666667	      0.01442830	      0.02311669	      0.03530161
      0.83333333	      0.01452441	      0.02319356	      0.03519573
      0.85000000	      0.01459353	      0.02324868	      0.03547488
      0.86666667	      0.01468894	      0.02332455	      0.03512665
      0.88333333	      0.01467671	      0.02331484	      0.03501397
      0.90000000	      0.01467440	      0.02331300	      0.03530860
      0.91666667	      0.01471117	      0.02334219	      0.03620862
      0.93333333	      0.01481143	      0.02342160	      0.03883689
      0.95000000	      0.01501784	      0.02358423	      0.04147908
      0.96666667	      0.01536976	      0.02385897	      0.04410277
      0.98333333	      0.01581376	      0.02420113	      0.04612112
      1.00000000	      0.01617642	      0.02447707	      0.04745164
      1.01666667	      0.01618307	      0.02448210	      0.04704929
      1.03333333	      0.01579255	      0.02418490	      0.04548626
      1.05000000	      0.01514658	      0.02368511	      0.04297800
      1.06666667	      0.01431887	      0.02302886	      0.04001524
      1.08333333	      0.01353824	      0.02239233	      0.03783764
      1.10000000	      0.01287049	      0.02183311	      0.03660942
      1.11666667	      0.01247915	      0.02149863	      0.03633469
      1.13333333	      0.01247381	      0.02149402	      0.03700543
      1.15000000	      0.01252035	      0.02153408	      0.03894160
      1.16666667	      0.01307341	      0.02200455	      0.04111187
      1.18333333	      0.01370961	      0.02253360	      0.04329810
      1.20000000	      0.01437015	      0.02307006	      0.04579170
      1.21666667	      0.01511258	      0.02365851	      0.04686610
      1.23333333	      0.01603477	      0.02436966	      0.04717442
      1.25000000	      0.01700940	      0.02509936	      0.04657710
      1.26666667	      0.01779467	      0.02567220	      0.04561222
      1.28333333	      0.01817414	      0.02594449	      0.04401869
      1.30000000	      0.01831984	      0.02604827	      0.04389843
      1.31666667	      0.01843110	      0.02612725	      0.04416930
      1.33333333	      0.01872321	      0.02633348	      0.04415875
      1.35000000	      0.01929471	      0.02673236	      0.04435528
      1.36666667	      0.02009072	      0.02727821	      0.04462732
      1.38333333	      0.02047183	      0.02753572	      0.04356841
      1.40000000	      0.02121577	      0.02803158	      0.04411665
      1.41666667	      0.02189607	      0.02847746	      0.04462413
      1.43333333	      0.02240580	      0.02880702	      0.04617581
      1.45000000	      0.02280611	      0.02906322	      0.04823132
      1.46666667	      0.02308668	      0.02924145	      0.04986876
      1.48333333	      0.02329624	      0.02937386	      0.05007254
      1.50000000	      0.02339751	      0.02943763	      0.04989336
      1.51666667	      0.02340710	      0.02944367	      0.04926945
      1.53333333	      0.02327198	      0.02935856	      0.04852892
      1.55000000	      0.02301984	      0.02919909	      0.04790729
      1.56666667	      0.02268549	      0.02898626	      0.04766226
      1.58333333	      0.02227580	      0.02872333	      0.04799952
      1.60000000	      0.02214516	      0.02863898	      0.04890439
      1.61666667	      0.02207534	      0.02859380	      0.05009078
      1.63333333	      0.02199154	      0.02853947	      0.05116789
      1.65000000	      0.02194750	      0.02851088	      0.05275075
      1.66666667	      0.02199515	      0.02854181	      0.05480022
      1.68333333	      0.02201125	      0.02855226	      0.05620550
      1.70000000	      0.02192963	      0.02849927	      0.05719703
      1.71666667	      0.02136672	      0.02813112	      0.05668140
      1.73333333	      0.02059986	      0.02762169	      0.05579801
      1.75000000	      0.01961344	      0.02695225	      0.05409276
      1.76666667	      0.01869788	      0.02631566	      0.05254810
      1.78333333	      0.01794990	      0.02578393	      0.05106463
      1.80000000	      0.01739416	      0.02538165	      0.04996146
      1.81666667	      0.01706249	      0.02513849	      0.05115698
      1.83333333	      0.01681924	      0.02495866	      0.04925161
      1.85000000	      0.01669632	      0.02486729	      0.04936267
      1.86666667	      0.01662231	      0.02481212	      0.04930671
      1.88333333	      0.01648637	      0.02471045	      0.04872680
      1.90000000	      0.01624037	      0.02452540	      0.04815416
      1.91666667	      0.01590640	      0.02427192	      0.04693161
      1.93333333	      0.01550368	      0.02396269	      0.04736783
      1.95000000	      0.01530151	      0.02380594	      0.04706570
      1.96666667	      0.01539110	      0.02387553	      0.04723541
      1.98333333	      0.01567734	      0.02409652	      0.04748152
      2.00000000	      0.01601942	      0.02435800	      0.04771985
      2.01666667	      0.01622486	      0.02451369	      0.04741144
      2.03333333	      0.01628219	      0.02455696	      0.04636731
      2.05000000	      0.01627920	      0.02455470	      0.04531293
      2.06666667	      0.01626661	      0.02454520	      0.04418778
      2.08333333	      0.01621567	      0.02450674	      0.04370700
      2.10000000	      0.01622653	      0.02451494	      0.04361886
      2.11666667	      0.01630779	      0.02457625	      0.04351107
      2.13333333	      0.01642658	      0.02466560	      0.04462611
      2.15000000	      0.01663932	      0.02482481	      0.04441970
      2.16666667	      0.01685780	      0.02498725	      0.04482005
      2.18333333	      0.01709256	      0.02516064	      0.04487820
      2.20000000	      0.01725505	      0.02527995	      0.04489536
      2.21666667	      0.01732271	      0.02532946	      0.04488053
      2.23333333	      0.01734043	      0.02534242	      0.04491879
      2.25000000	      0.01731786	      0.02532592	      0.04461938
      2.26666667	      0.01739813	      0.02538454	      0.04450177
      2.28333333	      0.01750957	      0.02546571	      0.04422520
      2.30000000	      0.01765294	      0.02556976	      0.04409282
      2.31666667	      0.01771651	      0.02561575	      0.04392232
      2.33333333	      0.01765050	      0.02556799	      0.04368656
      2.35000000	      0.01742405	      0.02540345	      0.04322465
      2.36666667	      0.01707847	      0.02515027	      0.04266109
      2.38333333	      0.01667799	      0.02485364	      0.04207451
      2.40000000	      0.01629101	      0.02456360	      0.04160488
      2.41666667	      0.01600291	      0.02434544	      0.04266774
      2.43333333	      0.01588673	      0.02425691	      0.04362729
      2.45000000	      0.01587030	      0.02424436	      0.04449745
      2.46666667	      0.01603046	      0.02436638	      0.04490775
      2.48333333	      0.01624509	      0.02452896	      0.04491061
      2.50000000	      0.01642445	      0.02466400	      0.04442734
      2.51666667	      0.01645562	      0.02468739	      0.04392285
      2.53333333	      0.01653375	      0.02474593	      0.04355902
      2.55000000	      0.01663047	      0.02481820	      0.04346568
      2.56666667	      0.01672164	      0.02488614	      0.04367854
      2.58333333	      0.01684103	      0.02497482	      0.04399762
      2.60000000	      0.01698220	      0.02507928	      0.04408549
      2.61666667	      0.01713276	      0.02519021	      0.04371053
      2.63333333	      0.01732517	      0.02533127	      0.04300750
      2.65000000	      0.01756601	      0.02550673	      0.04268606
      2.66666667	      0.01774449	      0.02563598	      0.04309181
      2.68333333	      0.01793941	      0.02577640	      0.04336466
      2.70000000	      0.01813068	      0.02591345	      0.04338115
      2.71666667	      0.01841252	      0.02611408	      0.04325953
      2.73333333	      0.01878621	      0.02637775	      0.04391287
      2.75000000	      0.01918018	      0.02665290	      0.04446484
      2.76666667	      0.01952348	      0.02689037	      0.04433693
      2.78333333	      0.01975053	      0.02704628	      0.04526303
      2.80000000	      0.01996420	      0.02719218	      0.04641377
      2.81666667	      0.02015724	      0.02732333	      0.04742786
      2.83333333	      0.02011796	      0.02729669	      0.04703575
      2.85000000	      0.02016077	      0.02732572	      0.04739505
      2.86666667	      0.01994830	      0.02718135	      0.04675319
      2.88333333	      0.01965796	      0.02698282	      0.04641642
      2.90000000	      0.01936320	      0.02677976	      0.04630052
      2.91666667	      0.01935052	      0.02677099	      0.04638181
      2.93333333	      0.01946479	      0.02684992	      0.04780093
      2.95000000	      0.01958996	      0.02693611	      0.04919474
      2.96666667	      0.01937309	      0.02678660	      0.04884267
      2.98333333	      0.01888362	      0.02644604	      0.04683871
      3.00000000	      0.01837278	      0.02608588	      0.04457398
      3.01666667	      0.01803475	      0.02584480	      0.04312676
      3.03333333	      0.01778440	      0.02566479	      0.04303948
      3.05000000	      0.01765302	      0.02556982	      0.04332887
      3.06666667	      0.01750442	      0.02546197	      0.04359617
      3.08333333	      0.01733520	      0.02533860	      0.04370848
      3.10000000	      0.01713207	      0.02518970	      0.04400883
      3.11666667	      0.01701276	      0.02510183	      0.04404130
      3.13333333	      0.01700826	      0.02509852	      0.04377707
      3.15000000	      0.01702643	      0.02511192	      0.04318237
      3.16666667	      0.01703975	      0.02512174	      0.04227457
      3.18333333	      0.01701564	      0.02510396	      0.04146292
      3.20000000	      0.01700043	      0.02509274	      0.04071628
      3.21666667	      0.01702846	      0.02511342	      0.04043088
      3.23333333	      0.01702090	      0.02510784	      0.03997891
      3.25000000	      0.01700434	      0.02509563	      0.03924931
      3.26666667	      0.01701957	      0.02510686	      0.03869603
      3.28333333	      0.01692280	      0.02503538	      0.03771618
      3.30000000	      0.01686378	      0.02499169	      0.03726437
      3.31666667	      0.01676769	      0.02492038	      0.03694333
      3.33333333	      0.01665722	      0.02483816	      0.03651364
      3.35000000	      0.01662468	      0.02481389	      0.03626064
      3.36666667	      0.01667660	      0.02485260	      0.03580331
      3.38333333	      0.01665686	      0.02483789	      0.03537831
      3.40000000	      0.01674032	      0.02490004	      0.03568305
      3.41666667	      0.01680917	      0.02495119	      0.03580067
      3.43333333	      0.01695527	      0.02505939	      0.03611462
      3.45000000	      0.01721435	      0.02525012	      0.03723208
      3.46666667	      0.01760759	      0.02553689	      0.03996106
      3.48333333	      0.01810207	      0.02589299	      0.04260328
      3.50000000	      0.01848130	      0.02616281	      0.04433277
      3.51666667	      0.01870485	      0.02632057	      0.04463350
      3.53333333	      0.01866828	      0.02629483	      0.04371177
      3.55000000	      0.01837988	      0.02609093	      0.04172968
      3.56666667	      0.01770416	      0.02560683	      0.03889813
      3.58333333	      0.01682301	      0.02496146	      0.03626004
      3.60000000	      0.01591424	      0.02427790	      0.03623992
      3.61666667	      0.01524874	      0.02376485	      0.03651589
      3.63333333	      0.01496803	      0.02354509	      0.03853704
      3.65000000	      0.01439424	      0.02308939	      0.03780094
      3.66666667	      0.01440723	      0.02309981	      0.03967077
      3.68333333	      0.01456342	      0.02322468	      0.04328327
      3.70000000	      0.01499396	      0.02356548	      0.04718545
      3.71666667	      0.01587008	      0.02424419	      0.05141156
      3.73333333	      0.01448024	      0.02315827	      0.04234252
      3.75000000	      0.01477664	      0.02339408	      0.04615415
      3.76666667	      0.01488013	      0.02347586	      0.04953656
      3.78333333	      0.01475539	      0.02337725	      0.05137382
      3.80000000	      0.01444202	      0.02312768	      0.05127604
      3.81666667	      0.01383744	      0.02263841	      0.04977059
      3.83333333	      0.01314201	      0.02206221	      0.04774557
      3.85000000	      0.01270358	      0.02169108	      0.04584906
      3.86666667	      0.01255725	      0.02156579	      0.04407411
      3.88333333	      0.01254650	      0.02155656	      0.04246796
      3.90000000	      0.01252632	      0.02153921	      0.04118752
      3.91666667	      0.01247297	      0.02149330	      0.04042575
      3.93333333	      0.01239915	      0.02142960	      0.03948367
      3.95000000	      0.01248015	      0.02149948	      0.03894208
      3.96666667	      0.01275875	      0.02173813	      0.03842680
      3.98333333	      0.01306593	      0.02199826	      0.03695837
      4.00000000	      0.01342349	      0.02229722	      0.03822651
      4.01666667	      0.01374303	      0.02256105	      0.03973376
      4.03333333	      0.01407311	      0.02283038	      0.04114903
      4.05000000	      0.01442906	      0.02311731	      0.04137652
      4.06666667	      0.01479721	      0.02341036	      0.04388510
      4.08333333	      0.01509583	      0.02364539	      0.04460742
      4.10000000	      0.01531393	      0.02381559	      0.04516028
      4.11666667	      0.01538339	      0.02386955	      0.04488635
      4.13333333	      0.01529783	      0.02380308	      0.04446580
      4.15000000	      0.01502448	      0.02358945	      0.04383481
      4.16666667	      0.01464367	      0.02328858	      0.04309203
      4.18333333	      0.01424806	      0.02297185	      0.04231591
      4.20000000	      0.01391192	      0.02269926	      0.04098425
      4.21666667	      0.01363223	      0.02246992	      0.03994111
      4.23333333	      0.01334587	      0.02223267	      0.03888473
      4.25000000	      0.01309068	      0.02201908	      0.03794734
      4.26666667	      0.01282951	      0.02179833	      0.03730302
      4.28333333	      0.01262630	      0.02162501	      0.03728396
      4.30000000	      0.01240395	      0.02143375	      0.03628184
      4.31666667	      0.01222386	      0.02127759	      0.03582421
      4.33333333	      0.01206859	      0.02114201	      0.03507183
      4.35000000	      0.01194823	      0.02103632	      0.03427372
      4.36666667	      0.01183355	      0.02093513	      0.03346070
      4.38333333	      0.01167549	      0.02079485	      0.03288614
      4.40000000	      0.01141831	      0.02056454	      0.03298346
      4.41666667	      0.01110219	      0.02027787	      0.03324415
      4.43333333	      0.01082891	      0.02002675	      0.03390598
