Model Marker Errors from IK
version=1
nRows=197
nColumns=4
inDegrees=no
endheader
time	total_squared_error	marker_error_RMS	marker_error_max
      0.00000000	      0.02179152	      0.02840939	      0.04457994
      0.01666667	      0.02246240	      0.02884338	      0.04592074
      0.03333333	      0.02286667	      0.02910178	      0.04662962
      0.05000000	      0.02295391	      0.02915724	      0.04664665
      0.06666667	      0.02275752	      0.02903224	      0.04628326
      0.08333333	      0.02234814	      0.02876993	      0.04626948
      0.10000000	      0.02171475	      0.02835930	      0.04569834
      0.11666667	      0.02102103	      0.02790263	      0.04501070
      0.13333333	      0.02040004	      0.02748740	      0.04475131
      0.15000000	      0.01990698	      0.02715319	      0.04481820
      0.16666667	      0.01952727	      0.02689298	      0.04525937
      0.18333333	      0.01933830	      0.02676254	      0.04577610
      0.20000000	      0.01928112	      0.02672294	      0.04645624
      0.21666667	      0.01939712	      0.02680320	      0.04798279
      0.23333333	      0.01951303	      0.02688317	      0.04919889
      0.25000000	      0.01956425	      0.02691843	      0.04998656
      0.26666667	      0.01962221	      0.02695827	      0.05055781
      0.28333333	      0.01979722	      0.02707822	      0.05087737
      0.30000000	      0.02009945	      0.02728413	      0.05112877
      0.31666667	      0.02043581	      0.02751148	      0.05118170
      0.33333333	      0.02068367	      0.02767782	      0.05090117
      0.35000000	      0.02069378	      0.02768458	      0.05010951
      0.36666667	      0.02055180	      0.02758945	      0.04891123
      0.38333333	      0.02033474	      0.02744337	      0.04738875
      0.40000000	      0.02010654	      0.02728895	      0.04551781
      0.41666667	      0.02004991	      0.02725049	      0.04404049
      0.43333333	      0.02009607	      0.02728184	      0.04294909
      0.45000000	      0.02022888	      0.02737184	      0.04273665
      0.46666667	      0.02026324	      0.02739508	      0.04320521
      0.48333333	      0.02006588	      0.02726134	      0.04406717
      0.50000000	      0.01972582	      0.02702935	      0.04551891
      0.51666667	      0.01941344	      0.02681448	      0.04695970
      0.53333333	      0.01930941	      0.02674254	      0.04841603
      0.55000000	      0.01931087	      0.02674355	      0.04931637
      0.56666667	      0.01958121	      0.02693010	      0.04988284
      0.58333333	      0.01997540	      0.02719981	      0.05017696
      0.60000000	      0.02036749	      0.02746546	      0.05052049
      0.61666667	      0.02072436	      0.02770504	      0.05074775
      0.63333333	      0.02087569	      0.02780600	      0.05092317
      0.65000000	      0.02079535	      0.02775245	      0.05110436
      0.66666667	      0.02048508	      0.02754463	      0.05137533
      0.68333333	      0.01996897	      0.02719543	      0.05210958
      0.70000000	      0.01953354	      0.02689730	      0.05193708
      0.71666667	      0.01919637	      0.02666415	      0.05154832
      0.73333333	      0.01896492	      0.02650291	      0.05089385
      0.75000000	      0.01880042	      0.02638772	      0.05005097
      0.76666667	      0.01873374	      0.02634089	      0.04948642
      0.78333333	      0.01875309	      0.02635448	      0.04931359
      0.80000000	      0.01895973	      0.02649929	      0.04989350
      0.81666667	      0.01931091	      0.02674357	      0.05079433
      0.83333333	      0.01977821	      0.02706522	      0.05206720
      0.85000000	      0.02033964	      0.02744668	      0.05353809
      0.86666667	      0.02106299	      0.02793046	      0.05527307
      0.88333333	      0.02185601	      0.02845139	      0.05700826
      0.90000000	      0.02249694	      0.02886555	      0.05844375
      0.91666667	      0.02304896	      0.02921755	      0.05966043
      0.93333333	      0.02322247	      0.02932731	      0.06030800
      0.95000000	      0.02332792	      0.02939383	      0.06087493
      0.96666667	      0.02328900	      0.02936930	      0.06116857
      0.98333333	      0.02281572	      0.02906934	      0.06083369
      1.00000000	      0.02240976	      0.02880956	      0.06033416
      1.01666667	      0.02201556	      0.02855505	      0.05984089
      1.03333333	      0.02182022	      0.02842809	      0.05936780
      1.05000000	      0.02209845	      0.02860876	      0.05899105
      1.06666667	      0.02249013	      0.02886118	      0.05852522
      1.08333333	      0.02270898	      0.02900127	      0.05791284
      1.10000000	      0.02264574	      0.02896086	      0.05709333
      1.11666667	      0.02243756	      0.02882743	      0.05608388
      1.13333333	      0.02239963	      0.02880305	      0.05491739
      1.15000000	      0.02307826	      0.02923612	      0.05397875
      1.16666667	      0.02486236	      0.03034515	      0.05305671
      1.18333333	      0.02761831	      0.03198281	      0.05631403
      1.20000000	      0.03054445	      0.03363445	      0.06211946
      1.21666667	      0.03276470	      0.03483543	      0.06475989
      1.23333333	      0.03369349	      0.03532573	      0.06930096
      1.25000000	      0.03300334	      0.03496206	      0.07018110
      1.26666667	      0.03130897	      0.03405278	      0.06722589
      1.28333333	      0.02924400	      0.03291066	      0.06102691
      1.30000000	      0.02745459	      0.03188788	      0.05751153
      1.31666667	      0.02619261	      0.03114637	      0.05858770
      1.33333333	      0.02542957	      0.03068934	      0.05974957
      1.35000000	      0.02504617	      0.03045712	      0.06094966
      1.36666667	      0.02489158	      0.03036298	      0.06210313
      1.38333333	      0.02485808	      0.03034254	      0.06304159
      1.40000000	      0.02492834	      0.03038539	      0.06352362
      1.41666667	      0.02494066	      0.03039290	      0.06342909
      1.43333333	      0.02492978	      0.03038626	      0.06260801
      1.45000000	      0.02469364	      0.03024201	      0.06118930
      1.46666667	      0.02430941	      0.03000581	      0.05928637
      1.48333333	      0.02384546	      0.02971809	      0.05718332
      1.50000000	      0.02338121	      0.02942738	      0.05488475
      1.51666667	      0.02299844	      0.02918551	      0.05275236
      1.53333333	      0.02282303	      0.02907400	      0.05090571
      1.55000000	      0.02274538	      0.02902450	      0.04909956
      1.56666667	      0.02255013	      0.02889966	      0.04769511
      1.58333333	      0.02218410	      0.02866415	      0.04617122
      1.60000000	      0.02176683	      0.02839329	      0.04556471
      1.61666667	      0.02162150	      0.02829834	      0.04585625
      1.63333333	      0.02200208	      0.02854631	      0.04695880
      1.65000000	      0.02295201	      0.02915604	      0.04797886
      1.66666667	      0.02443347	      0.03008228	      0.04874357
      1.68333333	      0.02636833	      0.03125068	      0.05338330
      1.70000000	      0.02823582	      0.03233838	      0.05602055
      1.71666667	      0.02946310	      0.03303371	      0.05663113
      1.73333333	      0.02969703	      0.03316459	      0.05746710
      1.75000000	      0.02888885	      0.03271020	      0.05596237
      1.76666667	      0.02752646	      0.03192959	      0.05710442
      1.78333333	      0.02624970	      0.03118030	      0.05845050
      1.80000000	      0.02547722	      0.03071809	      0.05995843
      1.81666667	      0.02519226	      0.03054581	      0.05988585
      1.83333333	      0.02529802	      0.03060986	      0.06036352
      1.85000000	      0.02560253	      0.03079354	      0.06106545
      1.86666667	      0.02593554	      0.03099316	      0.06130189
      1.88333333	      0.02617550	      0.03113620	      0.06111620
      1.90000000	      0.02628569	      0.03120167	      0.06044806
      1.91666667	      0.02629267	      0.03120581	      0.05989636
      1.93333333	      0.02636253	      0.03124724	      0.06126496
      1.95000000	      0.02656396	      0.03136639	      0.06178314
      1.96666667	      0.02696476	      0.03160213	      0.06299747
      1.98333333	      0.02746714	      0.03189517	      0.06395394
      2.00000000	      0.02801231	      0.03221014	      0.06457688
      2.01666667	      0.02860660	      0.03255002	      0.06449450
      2.03333333	      0.02902036	      0.03278457	      0.06361559
      2.05000000	      0.02889554	      0.03271399	      0.06266922
      2.06666667	      0.02814751	      0.03228777	      0.06179611
      2.08333333	      0.02703534	      0.03164347	      0.05992530
      2.10000000	      0.02614910	      0.03112050	      0.05761524
      2.11666667	      0.02606877	      0.03107266	      0.05500955
      2.13333333	      0.02712369	      0.03169513	      0.05418605
      2.15000000	      0.02911877	      0.03284011	      0.06141879
      2.16666667	      0.03166806	      0.03424750	      0.06859664
      2.18333333	      0.03390976	      0.03543892	      0.07339530
      2.20000000	      0.03494973	      0.03597825	      0.07398277
      2.21666667	      0.03422198	      0.03560169	      0.07034790
      2.23333333	      0.03175328	      0.03429355	      0.06402926
      2.25000000	      0.02815265	      0.03229072	      0.05772621
      2.26666667	      0.02450873	      0.03012857	      0.05041411
      2.28333333	      0.02185103	      0.02844815	      0.04525042
      2.30000000	      0.02043907	      0.02751368	      0.04209766
      2.31666667	      0.01992282	      0.02716399	      0.04095791
      2.33333333	      0.01982526	      0.02709740	      0.04247978
      2.35000000	      0.01991504	      0.02715868	      0.04439481
      2.36666667	      0.02028134	      0.02740731	      0.04728411
      2.38333333	      0.02110671	      0.02795944	      0.05312278
      2.40000000	      0.02233067	      0.02875868	      0.05932327
      2.41666667	      0.02361353	      0.02957322	      0.06466890
      2.43333333	      0.02464352	      0.03021131	      0.06865578
      2.45000000	      0.02531772	      0.03062178	      0.07138957
      2.46666667	      0.02552728	      0.03074825	      0.07175125
      2.48333333	      0.02538156	      0.03066036	      0.07019820
      2.50000000	      0.02502040	      0.03044144	      0.06945430
      2.51666667	      0.02445312	      0.03009437	      0.06645090
      2.53333333	      0.02393740	      0.02977533	      0.06502271
      2.55000000	      0.02322208	      0.02932707	      0.06246876
      2.56666667	      0.02241916	      0.02881561	      0.06164705
      2.58333333	      0.02156515	      0.02826144	      0.06146162
      2.60000000	      0.02109630	      0.02795254	      0.06225195
      2.61666667	      0.02131224	      0.02809524	      0.06367214
      2.63333333	      0.02205139	      0.02857828	      0.06497988
      2.65000000	      0.02272877	      0.02901390	      0.06549373
      2.66666667	      0.02283315	      0.02908044	      0.06414254
      2.68333333	      0.02227846	      0.02872504	      0.06090720
      2.70000000	      0.02126118	      0.02806156	      0.05492742
      2.71666667	      0.02043694	      0.02751225	      0.04755113
      2.73333333	      0.02016922	      0.02733145	      0.04042178
      2.75000000	      0.02054720	      0.02758636	      0.04144259
      2.76666667	      0.02132846	      0.02810592	      0.04486022
      2.78333333	      0.02229648	      0.02873666	      0.04931671
      2.80000000	      0.02318658	      0.02930465	      0.05189306
      2.81666667	      0.02382361	      0.02970447	      0.05299990
      2.83333333	      0.02416190	      0.02991463	      0.05299584
      2.85000000	      0.02430205	      0.03000127	      0.05272682
      2.86666667	      0.02422215	      0.02995190	      0.05204583
      2.88333333	      0.02376131	      0.02966561	      0.05075517
      2.90000000	      0.02308653	      0.02924135	      0.05287560
      2.91666667	      0.02239979	      0.02880315	      0.05494599
      2.93333333	      0.02181411	      0.02842411	      0.05654576
      2.95000000	      0.02131175	      0.02809491	      0.05751326
      2.96666667	      0.02085479	      0.02779208	      0.05784693
      2.98333333	      0.02043469	      0.02751073	      0.05782915
      3.00000000	      0.02011902	      0.02729742	      0.05722702
      3.01666667	      0.01987663	      0.02713248	      0.05723325
      3.03333333	      0.01976953	      0.02705928	      0.05672889
      3.05000000	      0.01973356	      0.02703466	      0.05701446
      3.06666667	      0.01982198	      0.02709515	      0.05686591
      3.08333333	      0.01986905	      0.02712731	      0.05729673
      3.10000000	      0.01995940	      0.02718892	      0.05741791
      3.11666667	      0.02001802	      0.02722881	      0.05766363
      3.13333333	      0.02004980	      0.02725042	      0.05793007
      3.15000000	      0.02009663	      0.02728222	      0.05811944
      3.16666667	      0.02014983	      0.02731831	      0.05822461
      3.18333333	      0.02022977	      0.02737244	      0.05814905
      3.20000000	      0.02037533	      0.02747074	      0.05770583
      3.21666667	      0.02043808	      0.02751302	      0.05762394
      3.23333333	      0.02034678	      0.02745149	      0.05789696
      3.25000000	      0.02008469	      0.02727412	      0.05842272
      3.26666667	      0.01964969	      0.02697714	      0.05957941
