Model Marker Errors from IK
version=1
nRows=295
nColumns=4
inDegrees=no
endheader
time	total_squared_error	marker_error_RMS	marker_error_max
      0.00000000	      0.02543543	      0.03069288	      0.04736026
      0.02127660	      0.02614775	      0.03111969	      0.05235567
      0.04255319	      0.02692422	      0.03157837	      0.05566385
      0.06382979	      0.02762238	      0.03198517	      0.05750739
      0.08510638	      0.02820607	      0.03232134	      0.05820614
      0.10638298	      0.02876068	      0.03263756	      0.05794058
      0.12765957	      0.02907789	      0.03281705	      0.05774910
      0.14893617	      0.02907247	      0.03281400	      0.05977513
      0.17021277	      0.02899299	      0.03276911	      0.06313996
      0.19148936	      0.02863953	      0.03256875	      0.06515334
      0.21276596	      0.02810190	      0.03226160	      0.06669816
      0.23404255	      0.02721155	      0.03174642	      0.06811242
      0.25531915	      0.02605013	      0.03106155	      0.06986090
      0.27659574	      0.02493631	      0.03039025	      0.07202728
      0.29787234	      0.02455129	      0.03015472	      0.07594742
      0.31914894	      0.02501337	      0.03043717	      0.08182720
      0.34042553	      0.02030708	      0.02742470	      0.04863376
      0.36170213	      0.02056730	      0.02759985	      0.05144489
      0.38297872	      0.02115806	      0.02799342	      0.05429163
      0.40425532	      0.02206187	      0.02858507	      0.05704786
      0.42553191	      0.02268722	      0.02898737	      0.05859951
      0.44680851	      0.02271608	      0.02900580	      0.05887574
      0.46808511	      0.02224961	      0.02870644	      0.05878117
      0.48936170	      0.02178977	      0.02840824	      0.05943814
      0.51063830	      0.02175146	      0.02838327	      0.06152566
      0.53191489	      0.02212443	      0.02862557	      0.06395320
      0.55319149	      0.02269037	      0.02898938	      0.06496236
      0.57446809	      0.02312912	      0.02926831	      0.06419244
      0.59574468	      0.02351644	      0.02951236	      0.06311671
      0.61702128	      0.02414779	      0.02990590	      0.06343681
      0.63829787	      0.02499421	      0.03042551	      0.06535183
      0.65957447	      0.02574347	      0.03087818	      0.06725776
      0.68085106	      0.02599880	      0.03103093	      0.06772625
      0.70212766	      0.02581716	      0.03092234	      0.06671724
      0.72340426	      0.02562972	      0.03080988	      0.06493489
      0.74468085	      0.02576525	      0.03089124	      0.06366084
      0.76595745	      0.02622708	      0.03116686	      0.06449406
      0.78723404	      0.02677918	      0.03149320	      0.06492723
      0.80851064	      0.02714007	      0.03170470	      0.06485404
      0.82978723	      0.02714787	      0.03170925	      0.06424905
      0.85106383	      0.02689075	      0.03155874	      0.06325575
      0.87234043	      0.02633464	      0.03123070	      0.06180883
      0.89361702	      0.02564706	      0.03082030	      0.05919487
      0.91489362	      0.02510447	      0.03049254	      0.05647154
      0.93617021	      0.02488542	      0.03035922	      0.05392817
      0.95744681	      0.02486182	      0.03034482	      0.05142703
      0.97872340	      0.02482304	      0.03032115	      0.05082762
      1.00000000	      0.02475380	      0.03027883	      0.05334362
      1.02127660	      0.02493240	      0.03038786	      0.05754108
      1.04255319	      0.02556360	      0.03077011	      0.06237188
      1.06382979	      0.02661928	      0.03139904	      0.06713189
      1.08510638	      0.02753550	      0.03193483	      0.07061998
      1.10638298	      0.02806494	      0.03224038	      0.07159583
      1.12765957	      0.02845137	      0.03246158	      0.07097446
      1.14893617	      0.02881151	      0.03266639	      0.06920807
      1.17021277	      0.02900172	      0.03277404	      0.06705955
      1.19148936	      0.02867513	      0.03258898	      0.06447118
      1.21276596	      0.02768178	      0.03201954	      0.06263554
      1.23404255	      0.02594907	      0.03100124	      0.06225704
      1.25531915	      0.02380008	      0.02968980	      0.06339126
      1.27659574	      0.02185120	      0.02844827	      0.06520331
      1.29787234	      0.02086558	      0.02779927	      0.06719310
      1.31914894	      0.02103491	      0.02791184	      0.06751339
      1.34042553	      0.02185902	      0.02845335	      0.06875427
      1.36170213	      0.02224902	      0.02870606	      0.06968208
      1.38297872	      0.02192814	      0.02849830	      0.07013107
      1.40425532	      0.02148928	      0.02821168	      0.06848579
      1.42553191	      0.02139594	      0.02815035	      0.06517852
      1.44680851	      0.02105493	      0.02792512	      0.06180218
      1.46808511	      0.02040255	      0.02748909	      0.05984977
      1.48936170	      0.02016491	      0.02732853	      0.05967864
      1.51063830	      0.02061381	      0.02763104	      0.05833466
      1.53191489	      0.02075840	      0.02772778	      0.05244110
      1.55319149	      0.01986928	      0.02712746	      0.04937042
      1.57446809	      0.01851122	      0.02618398	      0.04972431
      1.59574468	      0.01738390	      0.02537416	      0.05028992
      1.61702128	      0.01682368	      0.02496196	      0.05134391
      1.63829787	      0.01728343	      0.02530073	      0.05258263
      1.65957447	      0.01896722	      0.02650452	      0.05410746
      1.68085106	      0.02042141	      0.02750179	      0.05698266
      1.70212766	      0.02077709	      0.02774026	      0.05869202
      1.72340426	      0.02017876	      0.02733792	      0.05737577
      1.74468085	      0.01948153	      0.02686146	      0.05822342
      1.76595745	      0.01942580	      0.02682301	      0.05890261
      1.78723404	      0.02001065	      0.02722380	      0.05962584
      1.80851064	      0.02076824	      0.02773435	      0.06064172
      1.82978723	      0.02123426	      0.02804379	      0.06163381
      1.85106383	      0.02133497	      0.02811021	      0.06251420
      1.87234043	      0.02109639	      0.02795260	      0.06368646
      1.89361702	      0.02112096	      0.02796887	      0.06460053
      1.91489362	      0.02149181	      0.02821335	      0.06539716
      1.93617021	      0.02211710	      0.02862083	      0.06569991
      1.95744681	      0.02288108	      0.02911095	      0.06595824
      1.97872340	      0.02375808	      0.02966360	      0.06523770
      2.00000000	      0.02481447	      0.03031591	      0.06525130
      2.02127660	      0.02582933	      0.03092963	      0.06498796
      2.04255319	      0.02671566	      0.03145582	      0.06686694
      2.06382979	      0.02694623	      0.03159128	      0.06793687
      2.08510638	      0.02641732	      0.03127969	      0.06812741
      2.10638298	      0.02573025	      0.03087025	      0.06802679
      2.12765957	      0.02561500	      0.03080103	      0.06862992
      2.14893617	      0.02610209	      0.03109251	      0.06899323
      2.17021277	      0.02672224	      0.03145970	      0.06853508
      2.19148936	      0.02699894	      0.03162216	      0.06640825
      2.21276596	      0.02672788	      0.03146302	      0.06141477
      2.23404255	      0.02607591	      0.03107691	      0.05987290
      2.25531915	      0.02534148	      0.03063615	      0.05999484
      2.27659574	      0.02438853	      0.03005460	      0.06075160
      2.29787234	      0.02345219	      0.02947201	      0.06115818
      2.31914894	      0.02290578	      0.02912666	      0.06178857
      2.34042553	      0.02314789	      0.02928019	      0.06243209
      2.36170213	      0.02405218	      0.02984663	      0.06266500
      2.38297872	      0.02530126	      0.03061182	      0.06370620
      2.40425532	      0.02673206	      0.03146548	      0.06393501
      2.42553191	      0.02746875	      0.03189610	      0.06458983
      2.44680851	      0.02680166	      0.03150641	      0.06533414
      2.46808511	      0.02522403	      0.03056507	      0.06574135
      2.48936170	      0.02381680	      0.02970023	      0.06572128
      2.51063830	      0.02322372	      0.02932811	      0.06573041
      2.53191489	      0.02321137	      0.02932030	      0.06563352
      2.55319149	      0.02319873	      0.02931232	      0.06532757
      2.57446809	      0.02291026	      0.02912951	      0.06510231
      2.59574468	      0.02237975	      0.02879027	      0.06540235
      2.61702128	      0.02164405	      0.02831310	      0.06611196
      2.63829787	      0.02082923	      0.02777504	      0.06730467
      2.65957447	      0.02038104	      0.02747459	      0.06847805
      2.68085106	      0.02051295	      0.02756336	      0.06955084
      2.70212766	      0.02094228	      0.02785032	      0.07034176
      2.72340426	      0.02122344	      0.02803664	      0.07064763
      2.74468085	      0.02118394	      0.02801054	      0.07061580
      2.76595745	      0.02100637	      0.02789289	      0.07004298
      2.78723404	      0.02088257	      0.02781058	      0.06933832
      2.80851064	      0.02064529	      0.02765213	      0.06841163
      2.82978723	      0.02036200	      0.02746176	      0.06817908
      2.85106383	      0.02018101	      0.02733944	      0.06761507
      2.87234043	      0.02017463	      0.02733511	      0.06723419
      2.89361702	      0.02036189	      0.02746168	      0.06699446
      2.91489362	      0.02064379	      0.02765112	      0.06649160
      2.93617021	      0.02089878	      0.02782138	      0.06551568
      2.95744681	      0.02116342	      0.02799697	      0.06449408
      2.97872340	      0.02154100	      0.02824562	      0.06316352
      3.00000000	      0.02250916	      0.02887339	      0.06212823
      3.02127660	      0.02440796	      0.03006657	      0.06120531
      3.04255319	      0.02690009	      0.03156422	      0.06108708
      3.06382979	      0.02906230	      0.03280826	      0.06653757
      3.08510638	      0.03021127	      0.03345050	      0.06701211
      3.10638298	      0.03035878	      0.03353207	      0.06511834
      3.12765957	      0.02942387	      0.03301171	      0.05923136
      3.14893617	      0.02771526	      0.03203890	      0.05889208
      3.17021277	      0.02620039	      0.03115100	      0.05883885
      3.19148936	      0.02525787	      0.03058556	      0.05836284
      3.21276596	      0.02479119	      0.03030169	      0.05915335
      3.23404255	      0.02470706	      0.03025023	      0.05953125
      3.25531915	      0.02486379	      0.03034602	      0.06019045
      3.27659574	      0.02557137	      0.03077479	      0.06054393
      3.29787234	      0.02680872	      0.03151056	      0.06078964
      3.31914894	      0.02835180	      0.03240474	      0.06062949
      3.34042553	      0.02956282	      0.03308956	      0.06102694
      3.36170213	      0.02974524	      0.03319150	      0.06210424
      3.38297872	      0.02856666	      0.03252729	      0.06281207
      3.40425532	      0.02667467	      0.03143168	      0.06448489
      3.42553191	      0.02473021	      0.03026440	      0.06571633
      3.44680851	      0.02358348	      0.02955439	      0.06698707
      3.46808511	      0.02306663	      0.02922875	      0.06800567
      3.48936170	      0.02268297	      0.02898465	      0.06897309
      3.51063830	      0.02243340	      0.02882475	      0.07041215
      3.53191489	      0.02248677	      0.02885903	      0.07128409
      3.55319149	      0.02298446	      0.02917664	      0.07243330
      3.57446809	      0.02341922	      0.02945129	      0.07299800
      3.59574468	      0.02355795	      0.02953839	      0.07408537
      3.61702128	      0.02357828	      0.02955114	      0.07372407
      3.63829787	      0.02369322	      0.02962308	      0.07377062
      3.65957447	      0.02384729	      0.02971924	      0.07334779
      3.68085106	      0.02403563	      0.02983636	      0.07293455
      3.70212766	      0.02355219	      0.02953478	      0.07182242
      3.72340426	      0.02287323	      0.02910595	      0.07086077
      3.74468085	      0.02193888	      0.02850528	      0.06978541
      3.76595745	      0.02103527	      0.02791208	      0.06832962
      3.78723404	      0.02057226	      0.02760318	      0.06647442
      3.80851064	      0.02072613	      0.02770622	      0.06463379
      3.82978723	      0.02117980	      0.02800781	      0.06314130
      3.85106383	      0.02138821	      0.02814527	      0.06195159
      3.87234043	      0.02120941	      0.02802738	      0.06081439
      3.89361702	      0.02088606	      0.02781291	      0.05978503
      3.91489362	      0.02072281	      0.02770400	      0.05894634
      3.93617021	      0.02102649	      0.02790625	      0.05842506
      3.95744681	      0.02183924	      0.02844048	      0.05827054
      3.97872340	      0.02278773	      0.02905150	      0.06635408
      4.00000000	      0.02369019	      0.02962118	      0.07136460
      4.02127660	      0.02486934	      0.03034941	      0.07259676
      4.04255319	      0.02676676	      0.03148589	      0.07145680
      4.06382979	      0.02880645	      0.03266352	      0.06810345
      4.08510638	      0.02979797	      0.03322090	      0.06987760
      4.10638298	      0.02966464	      0.03314650	      0.06541098
      4.12765957	      0.02944831	      0.03302542	      0.05959764
      4.14893617	      0.02989068	      0.03327255	      0.05603029
      4.17021277	      0.02989997	      0.03327771	      0.05481019
      4.19148936	      0.03167372	      0.03425056	      0.05704902
      4.21276596	      0.03389067	      0.03542894	      0.06430490
      4.23404255	      0.03492636	      0.03596622	      0.06868376
      4.25531915	      0.03480523	      0.03590380	      0.07001640
      4.27659574	      0.03445468	      0.03572253	      0.07043079
      4.29787234	      0.03482059	      0.03591172	      0.07060205
      4.31914894	      0.03585232	      0.03643986	      0.07086915
      4.34042553	      0.03723579	      0.03713628	      0.07191272
      4.36170213	      0.03838559	      0.03770529	      0.07337341
      4.38297872	      0.03876834	      0.03789280	      0.07472731
      4.40425532	      0.03813958	      0.03758427	      0.07532109
      4.42553191	      0.03655646	      0.03679596	      0.07507494
      4.44680851	      0.03453894	      0.03576618	      0.07426443
      4.46808511	      0.03276953	      0.03483800	      0.07240437
      4.48936170	      0.03159700	      0.03420905	      0.06989275
      4.51063830	      0.03075637	      0.03375092	      0.06586265
      4.53191489	      0.02998478	      0.03332488	      0.05983909
      4.55319149	      0.02910456	      0.03283210	      0.05228225
      4.57446809	      0.02806278	      0.03223914	      0.05138644
      4.59574468	      0.02708350	      0.03167163	      0.05208551
      4.61702128	      0.02649900	      0.03132801	      0.05261864
      4.63829787	      0.02643466	      0.03128996	      0.05320304
      4.65957447	      0.02645446	      0.03130168	      0.05470326
      4.68085106	      0.02629194	      0.03120537	      0.05650573
      4.70212766	      0.02591684	      0.03098198	      0.05932179
      4.72340426	      0.02566986	      0.03083400	      0.06333998
      4.74468085	      0.02596004	      0.03100779	      0.06777364
      4.76595745	      0.02686084	      0.03154118	      0.07106818
      4.78723404	      0.02784703	      0.03211497	      0.07218483
      4.80851064	      0.02813126	      0.03227845	      0.07130960
      4.82978723	      0.02730011	      0.03179804	      0.06923683
      4.85106383	      0.02572220	      0.03086542	      0.06624833
      4.87234043	      0.02412480	      0.02989165	      0.06634208
      4.89361702	      0.02303907	      0.02921128	      0.06660302
      4.91489362	      0.02260655	      0.02893579	      0.06672131
      4.93617021	      0.02279455	      0.02905585	      0.06663800
      4.95744681	      0.02340862	      0.02944463	      0.06653468
      4.97872340	      0.02421499	      0.02994748	      0.06722656
      5.00000000	      0.02509341	      0.03048583	      0.06709557
      5.02127660	      0.02580590	      0.03091559	      0.06655922
      5.04255319	      0.02615442	      0.03112366	      0.06660005
      5.06382979	      0.02641035	      0.03127557	      0.06699386
      5.08510638	      0.02685938	      0.03154032	      0.06756795
      5.10638298	      0.02767319	      0.03201457	      0.06814881
      5.12765957	      0.02860049	      0.03254654	      0.06915164
      5.14893617	      0.02953155	      0.03307206	      0.07068418
      5.17021277	      0.03019705	      0.03344262	      0.07173573
      5.19148936	      0.03018243	      0.03343453	      0.07192622
      5.21276596	      0.02946122	      0.03303265	      0.07196546
      5.23404255	      0.02857793	      0.03253370	      0.07138271
      5.25531915	      0.02811144	      0.03226708	      0.07010288
      5.27659574	      0.02811385	      0.03226846	      0.06817756
      5.29787234	      0.02847813	      0.03247685	      0.06557618
      5.31914894	      0.02907429	      0.03281502	      0.06448712
      5.34042553	      0.02979113	      0.03321709	      0.06477829
      5.36170213	      0.03072676	      0.03373467	      0.06610026
      5.38297872	      0.03040582	      0.03355803	      0.06957918
      5.40425532	      0.03181390	      0.03432627	      0.07688408
      5.42553191	      0.02880674	      0.03266369	      0.06161784
      5.44680851	      0.02876983	      0.03264275	      0.05720253
      5.46808511	      0.02879263	      0.03265569	      0.05232574
      5.48936170	      0.02879291	      0.03265584	      0.05270016
      5.51063830	      0.02894845	      0.03274393	      0.05502894
      5.53191489	      0.02937584	      0.03298475	      0.05735351
      5.55319149	      0.02998036	      0.03332242	      0.05924004
      5.57446809	      0.03053000	      0.03362649	      0.06052279
      5.59574468	      0.03089508	      0.03382694	      0.06124128
      5.61702128	      0.03092617	      0.03384396	      0.06122382
      5.63829787	      0.03069194	      0.03371555	      0.06091540
      5.65957447	      0.03034621	      0.03352512	      0.06007168
      5.68085106	      0.03001619	      0.03334232	      0.05901741
      5.70212766	      0.02973410	      0.03318528	      0.05853317
      5.72340426	      0.02946311	      0.03303372	      0.05795574
      5.74468085	      0.02922514	      0.03290004	      0.05759873
      5.76595745	      0.02902118	      0.03278503	      0.05745967
      5.78723404	      0.02893599	      0.03273688	      0.05754873
      5.80851064	      0.02888573	      0.03270844	      0.05769676
      5.82978723	      0.02873535	      0.03262319	      0.05756923
      5.85106383	      0.02848909	      0.03248310	      0.05704960
      5.87234043	      0.02823960	      0.03234055	      0.05611334
      5.89361702	      0.02806574	      0.03224084	      0.05780894
      5.91489362	      0.02792099	      0.03215759	      0.05970351
      5.93617021	      0.02785308	      0.03211846	      0.06101710
      5.95744681	      0.02790921	      0.03215081	      0.06166580
      5.97872340	      0.02820740	      0.03232210	      0.06195883
      6.00000000	      0.02878781	      0.03265295	      0.06205586
      6.02127660	      0.02945365	      0.03302841	      0.06231946
      6.04255319	      0.03015836	      0.03342120	      0.06293588
      6.06382979	      0.03091642	      0.03383863	      0.06479886
      6.08510638	      0.03160350	      0.03421257	      0.06677446
      6.10638298	      0.03216437	      0.03451483	      0.06894674
      6.12765957	      0.03248962	      0.03468889	      0.06991123
      6.14893617	      0.03259503	      0.03474512	      0.06974739
      6.17021277	      0.03237404	      0.03462713	      0.06829416
      6.19148936	      0.03204794	      0.03445230	      0.06659253
      6.21276596	      0.03152058	      0.03416766	      0.06486436
      6.23404255	      0.03102473	      0.03389785	      0.06351795
      6.25531915	      0.03073283	      0.03373801	      0.06272219
