Coordinates
version=1
nRows=110
nColumns=63
inDegrees=yes

Units are S.I. units (second, meters, Newtons, ...)
If the header above contains a line with 'inDegrees', this indicates whether rotational values are in degrees (yes) or radians (no).

endheader
time	pelvis_tilt	pelvis_list	pelvis_rotation	pelvis_tx	pelvis_ty	pelvis_tz	hip_flexion_r	hip_adduction_r	hip_rotation_r	knee_angle_r	knee_angle_r_beta	ankle_angle_r	subtalar_angle_r	mtp_angle_r	hip_flexion_l	hip_adduction_l	hip_rotation_l	knee_angle_l	knee_angle_l_beta	ankle_angle_l	subtalar_angle_l	mtp_angle_l	L5_S1_Flex_Ext	L5_S1_Lat_Bending	L5_S1_axial_rotation	L4_L5_Flex_Ext	L4_L5_Lat_Bending	L4_L5_axial_rotation	L3_L4_Flex_Ext	L3_L4_Lat_Bending	L3_L4_axial_rotation	L2_L3_Flex_Ext	L2_L3_Lat_Bending	L2_L3_axial_rotation	L1_L2_Flex_Ext	L1_L2_Lat_Bending	L1_L2_axial_rotation	L1_T12_Flex_Ext	L1_T12_Lat_Bending	L1_T12_axial_rotation	Abs_r3	Abs_r2	Abs_r1	Abs_t1	Abs_t2	neck_flexion	neck_bending	neck_rotation	arm_flex_r	arm_add_r	arm_rot_r	elbow_flex_r	pro_sup_r	wrist_flex_r	wrist_dev_r	arm_flex_l	arm_add_l	arm_rot_l	elbow_flex_l	pro_sup_l	wrist_flex_l	wrist_dev_l
0.000000	-1.922729	-4.124581	89.629453	0.221026	0.826321	0.646920	5.809877	-2.602020	-3.487510	10.838046	0.189160	27.111153	7.197339	0.000000	3.872043	1.858364	-4.843290	3.978098	0.069431	25.227385	-0.688604	0.000000	0.208633	-0.034596	-0.177695	0.387452	-0.046013	-0.188800	0.342763	-0.084118	-0.188800	0.238447	-0.084118	-0.155483	0.193737	-0.070549	-0.144377	0.119213	-0.053590	-0.133271	1.490244	-0.391362	-0.988284	0.000000	0.000000	28.023670	-1.131992	3.549147	14.862889	-3.606504	67.112813	33.562799	69.090668	8.184391	7.218639	10.732882	-8.294388	62.810779	42.960662	44.535481	-4.063122	-3.527532
0.033333	-1.728686	-3.921283	89.296590	0.221695	0.826318	0.646532	5.403359	-2.179421	-1.567828	10.645770	0.185804	26.512916	4.442547	0.000000	3.188765	1.711861	-5.326161	3.183092	0.055555	25.343909	-0.097702	0.000000	0.189696	-0.014303	-0.122406	0.352285	-0.019023	-0.130057	0.311652	-0.034776	-0.130057	0.216804	-0.034776	-0.107106	0.176152	-0.029167	-0.099455	0.108392	-0.022155	-0.091805	1.354982	-0.161799	-0.680788	0.000000	0.000000	27.866182	-0.997020	4.041400	13.932815	-3.777272	63.983288	34.471308	68.810401	8.374087	8.842233	11.168769	-8.567748	64.253144	43.443851	41.105532	-3.464317	-1.724425
0.066667	-1.574555	-3.746077	88.970757	0.222349	0.826284	0.646178	5.016754	-1.838326	-0.006889	10.365229	0.180907	26.036036	2.324645	0.000000	2.598711	1.594742	-5.653752	2.514845	0.043892	25.392507	0.234748	0.000000	0.175564	0.001573	-0.066238	0.326041	0.002091	-0.070378	0.288435	0.003823	-0.070378	0.200652	0.003823	-0.057959	0.163029	0.003207	-0.053819	0.100317	0.002436	-0.049679	1.254038	0.017788	-0.368398	0.000000	0.000000	27.746323	-0.845108	4.475607	13.235172	-3.899094	61.673393	35.182709	68.264845	8.473442	10.159828	11.470838	-8.766232	65.204006	43.785529	38.683006	-2.994445	-0.203299
0.100000	-1.455866	-3.597327	88.653747	0.222987	0.826222	0.645859	4.651510	-1.570487	1.226315	10.009515	0.174699	25.670265	0.786148	0.000000	2.095715	1.503329	-5.837560	1.962990	0.034261	25.378604	0.330416	0.000000	0.165758	0.013560	-0.009654	0.307830	0.018034	-0.010257	0.272325	0.032969	-0.010257	0.189445	0.032969	-0.008447	0.153923	0.027651	-0.007844	0.094714	0.021004	-0.007240	1.183996	0.153388	-0.053691	0.000000	0.000000	27.660489	-0.679396	4.856326	12.747044	-3.977720	60.099218	35.712788	67.500416	8.488941	11.186393	11.652440	-8.897508	65.708734	43.999021	37.187497	-2.637335	1.046254
0.133333	-1.368145	-3.473397	88.347351	0.223605	0.826140	0.645578	4.309076	-1.367657	2.162797	9.591725	0.167407	25.405355	-0.230428	0.000000	1.673611	1.433946	-5.889084	1.517161	0.026479	25.307626	0.210971	0.000000	0.159800	0.022187	0.046884	0.296765	0.029509	0.049814	0.262536	0.053947	0.049814	0.182636	0.053947	0.041023	0.148391	0.045245	0.038093	0.091310	0.034368	0.035163	1.141438	0.250989	0.260753	0.000000	0.000000	27.605072	-0.503025	5.188113	12.445513	-4.018900	59.176857	36.077332	66.563526	8.427070	11.936902	11.726922	-8.969246	65.812698	44.097650	36.538599	-2.376815	2.034637
0.166667	-1.306923	-3.372651	88.053362	0.224201	0.826041	0.645335	3.990898	-1.221590	2.833564	9.124952	0.159260	25.231056	-0.782569	0.000000	1.326234	1.382915	-5.819821	1.166992	0.020368	25.184997	-0.101919	0.000000	0.157212	0.027986	0.102910	0.291958	0.037221	0.109342	0.258283	0.068044	0.109342	0.179677	0.068044	0.090046	0.145987	0.057068	0.083615	0.089831	0.043350	0.077183	1.122948	0.316578	0.572356	0.000000	0.000000	27.576468	-0.319137	5.475524	12.307665	-4.028384	58.822402	36.292127	65.500591	8.294318	12.426326	11.707635	-8.989113	65.561269	44.094738	36.655908	-2.196714	2.772257
0.200000	-1.267725	-3.293455	87.773571	0.224773	0.825932	0.645133	3.698426	-1.124038	3.269629	8.622290	0.150487	25.137120	-0.927761	0.000000	1.047418	1.346560	-5.641269	0.902116	0.015745	25.016144	-0.586583	0.000000	0.157514	0.031483	0.157962	0.292520	0.041873	0.167835	0.258780	0.076548	0.167835	0.180023	0.076548	0.138217	0.146268	0.064201	0.128344	0.090004	0.048768	0.118472	1.125109	0.356145	0.878539	0.000000	0.000000	27.571069	-0.130873	5.723117	12.310582	-4.011921	58.951946	36.372960	64.358026	8.097170	12.669635	11.607928	-8.964777	64.999816	44.003611	37.459017	-2.080862	3.269519
0.233333	-1.246082	-3.234173	87.509769	0.225317	0.825817	0.644973	3.433107	-1.066756	3.502000	8.096834	0.141316	25.113299	-0.723488	0.000000	0.830997	1.321202	-5.364928	0.712167	0.012430	24.806492	-1.221352	0.000000	0.160229	0.033210	0.211576	0.297562	0.044169	0.224800	0.263241	0.080747	0.224800	0.183126	0.080747	0.185129	0.148789	0.067722	0.171906	0.091555	0.051442	0.158682	1.144503	0.375678	1.176725	0.000000	0.000000	27.585271	0.058626	5.935447	12.431350	-3.975261	59.481582	36.335619	63.182244	7.842113	12.681803	11.441150	-8.903908	64.173710	43.837590	38.867522	-2.013085	3.536830
0.266667	-1.237519	-3.193169	87.263749	0.225830	0.825702	0.644858	3.196389	-1.041495	3.561687	7.561679	0.131976	25.149345	-0.227236	0.000000	0.670805	1.303165	-5.002295	0.586779	0.010241	24.561466	-1.984557	0.000000	0.164879	0.033695	0.263289	0.306197	0.044814	0.279744	0.270880	0.081926	0.279744	0.188440	0.081926	0.230378	0.153107	0.068711	0.213922	0.094212	0.052194	0.197467	1.177715	0.381164	1.464333	0.000000	0.000000	27.615466	0.246219	6.117072	12.647051	-3.924154	60.327401	36.195889	62.019660	7.535634	12.477800	11.220650	-8.814173	63.128322	43.610001	40.801016	-1.977213	3.584594
0.300000	-1.237567	-3.168807	87.037301	0.226311	0.825591	0.644788	2.989721	-1.040009	3.479702	7.029918	0.122695	25.235009	0.503511	0.000000	0.560678	1.288771	-4.564868	0.515586	0.008999	24.286491	-2.854528	0.000000	0.170985	0.033468	0.312636	0.317536	0.044512	0.332175	0.280911	0.081373	0.332175	0.195418	0.081373	0.273556	0.158776	0.068247	0.254016	0.097701	0.051841	0.234477	1.221326	0.378593	1.738786	0.000000	0.000000	27.658050	0.428764	6.272548	12.934770	-3.864349	61.405497	35.969558	60.916689	7.184220	12.072599	10.959778	-8.703240	61.909020	43.334166	43.179094	-1.957075	3.423218
0.333333	-1.241752	-3.159452	86.832219	0.226757	0.825491	0.644766	2.814550	-1.054051	3.287053	6.514647	0.113702	25.360042	1.411266	0.000000	0.494448	1.274345	-4.064145	0.488220	0.008521	23.986994	-3.809597	0.000000	0.178068	0.033057	0.359154	0.330690	0.043966	0.381601	0.292548	0.080376	0.381601	0.203514	0.080376	0.314259	0.165354	0.067411	0.291812	0.101748	0.051206	0.269365	1.271921	0.373952	1.997504	0.000000	0.000000	27.709415	0.603121	6.406432	13.271591	-3.801597	62.631963	35.672412	59.919745	6.794356	11.481170	10.671883	-8.578778	60.561176	43.023408	45.921350	-1.936499	3.063108
0.366667	-1.219122	-3.156761	86.625774	0.227168	0.825387	0.644787	2.673998	-1.044550	3.076383	6.053305	0.105650	25.538015	2.409166	0.000000	0.455289	1.230714	-3.447638	0.496857	0.008672	23.632266	-4.952484	0.000000	0.184770	0.036657	0.412131	0.343136	0.048754	0.437889	0.303558	0.089128	0.437889	0.211173	0.089128	0.360615	0.171577	0.074751	0.334856	0.105577	0.056782	0.309098	1.319790	0.414673	2.292149	0.000000	0.000000	27.758649	0.697875	6.508936	13.587343	-3.724545	63.758429	35.187264	59.539934	6.356037	10.568782	10.520663	-8.456208	59.563372	42.614087	48.362538	-1.777502	2.517210
0.400000	-1.189738	-3.169274	86.448745	0.227525	0.825306	0.644839	2.566591	-1.028946	2.831779	5.626072	0.098193	25.723237	3.468539	0.000000	0.439837	1.178450	-2.810021	0.501943	0.008761	23.294253	-6.093404	0.000000	0.191441	0.042295	0.457647	0.355525	0.056252	0.486250	0.314518	0.102835	0.486250	0.218798	0.102835	0.400441	0.177772	0.086247	0.371838	0.109389	0.065514	0.343236	1.367444	0.478446	2.545297	0.000000	0.000000	27.813808	0.788241	6.670387	13.926412	-3.665469	64.927613	34.645570	59.233810	5.828408	9.518926	10.309811	-8.332109	58.361242	42.209240	51.329972	-1.619453	1.662434
0.433333	-1.151624	-3.198506	86.286769	0.227864	0.825259	0.644939	2.506450	-0.989551	2.705460	5.261153	0.091824	25.881301	4.352497	0.000000	0.447884	1.115660	-2.171067	0.499434	0.008717	22.960535	-7.235852	0.000000	0.198067	0.049495	0.497735	0.367830	0.065829	0.528843	0.325404	0.120343	0.528843	0.226371	0.120343	0.435518	0.183925	0.100931	0.404410	0.113175	0.076668	0.373301	1.414771	0.559900	2.768252	0.000000	0.000000	27.871928	0.882733	6.833460	14.250374	-3.642369	66.060183	34.113211	59.154072	5.241334	8.271102	10.039860	-8.236512	56.990419	41.908129	54.697338	-1.470880	0.594819
0.466667	-1.108103	-3.241179	86.191633	0.228105	0.825267	0.645100	2.483429	-0.950897	2.473291	4.963003	0.086621	26.037531	5.277329	0.000000	0.486148	1.047096	-1.571037	0.502299	0.008767	22.655285	-8.238032	0.000000	0.203816	0.057616	0.521286	0.378507	0.076629	0.553866	0.334849	0.140087	0.553866	0.232941	0.140087	0.456125	0.189264	0.117490	0.423545	0.116460	0.089247	0.390965	1.455837	0.651762	2.899237	0.000000	0.000000	27.928300	0.975117	6.982367	14.529130	-3.664251	67.075142	33.658458	59.206796	4.706937	6.959124	9.705759	-8.183190	55.453813	41.773672	58.397645	-1.297508	-0.642678
0.500000	-1.050283	-3.289455	86.179702	0.228252	0.825353	0.645372	2.498576	-0.901813	2.129585	4.754125	0.082975	26.194324	6.181448	0.000000	0.547672	0.962524	-1.045748	0.503819	0.008793	22.375686	-9.032754	0.000000	0.206861	0.066912	0.524709	0.384161	0.088993	0.557503	0.339852	0.162689	0.557503	0.236421	0.162689	0.459120	0.192091	0.136446	0.426326	0.118200	0.103646	0.393532	1.477586	0.756919	2.918274	0.000000	0.000000	27.968896	1.089400	7.118120	14.744310	-3.739474	67.844766	33.364515	59.354809	4.240896	5.666780	9.324424	-8.180058	53.772768	41.820012	62.270061	-1.060075	-1.953323
0.533333	-0.983933	-3.347010	86.169639	0.228394	0.825505	0.645753	2.567438	-0.826612	1.963346	4.643099	0.081037	26.285589	6.744031	0.000000	0.628188	0.869538	-0.486886	0.499296	0.008714	22.059371	-9.881491	0.000000	0.207998	0.077150	0.529661	0.386273	0.102609	0.562765	0.341719	0.187582	0.562765	0.237721	0.187582	0.463453	0.193147	0.157324	0.430350	0.118850	0.119505	0.397246	1.485707	0.872735	2.945815	0.000000	0.000000	27.985715	1.243385	7.264948	14.766416	-3.862272	67.776401	33.342453	60.570279	3.921429	4.484518	8.950316	-8.206873	52.068569	42.003724	65.860218	-0.712681	-3.175967
0.566667	-0.922717	-3.404585	86.223003	0.228474	0.825734	0.646258	2.681348	-0.756520	1.765829	4.648230	0.081127	26.345324	7.148832	0.000000	0.728202	0.781703	0.048214	0.499966	0.008726	21.726216	-10.618627	0.000000	0.206138	0.085306	0.526599	0.382819	0.113456	0.559511	0.338665	0.207412	0.559511	0.235595	0.207412	0.460774	0.191420	0.173955	0.427861	0.117787	0.132138	0.394949	1.472425	0.964994	2.928783	0.000000	0.000000	27.978937	1.426269	7.366139	14.658474	-4.030767	67.167134	33.579571	61.592626	3.728935	3.484032	8.692119	-8.267452	50.644421	42.182775	69.214565	-0.320698	-4.446247
0.600000	-0.870033	-3.464246	86.328317	0.228501	0.826024	0.646862	2.842086	-0.702720	1.454703	4.765570	0.083175	26.401700	7.532804	0.000000	0.847172	0.703523	0.509977	0.504623	0.008807	21.417123	-11.179903	0.000000	0.202244	0.090559	0.515094	0.375587	0.120444	0.547287	0.332267	0.220185	0.547287	0.231145	0.220185	0.450707	0.187804	0.184668	0.418514	0.115562	0.140276	0.386320	1.444608	1.024422	2.864796	0.000000	0.000000	27.951351	1.617636	7.408760	14.479247	-4.223888	66.156086	33.999339	62.235377	3.603370	2.700956	8.556279	-8.326038	49.474242	42.251800	72.518922	0.050522	-5.784171
0.633333	-0.848477	-3.521910	86.464169	0.228568	0.826358	0.647520	3.043141	-0.680212	1.109513	4.995916	0.087195	26.444601	7.798442	0.000000	0.977762	0.651237	0.700224	0.514362	0.008977	21.204692	-11.292358	0.000000	0.196539	0.088989	0.502381	0.364992	0.118355	0.533780	0.322894	0.216368	0.533780	0.224624	0.216368	0.439583	0.182506	0.181466	0.408184	0.112302	0.137844	0.376786	1.403858	1.006661	2.794091	0.000000	0.000000	27.900684	1.831369	7.370641	14.249453	-4.407026	64.734020	34.537618	62.745366	3.565352	2.093390	8.541821	-8.387098	48.582780	42.200116	75.393500	0.452716	-6.987181
0.666667	-0.866722	-3.558672	86.674304	0.228641	0.826733	0.648197	3.239788	-0.701930	0.673171	5.308250	0.092646	26.457747	7.960700	0.000000	1.103782	0.636281	0.714416	0.538140	0.009392	21.064893	-11.040142	0.000000	0.187516	0.078637	0.482666	0.348236	0.104587	0.512833	0.308070	0.191197	0.512833	0.214312	0.191197	0.422333	0.174127	0.160356	0.392166	0.107147	0.121808	0.361999	1.339408	0.889554	2.684443	0.000000	0.000000	27.828546	2.041589	7.209780	13.989273	-4.582080	63.004443	35.212829	62.794940	3.603397	1.753615	8.668553	-8.456818	48.122893	42.008662	77.569883	0.764970	-8.043957
0.700000	-0.918305	-3.575732	86.923512	0.228743	0.827136	0.648892	3.435224	-0.756108	0.242883	5.698235	0.099453	26.421731	7.936265	0.000000	1.219563	0.656905	0.734482	0.572558	0.009993	20.915888	-10.767099	0.000000	0.177542	0.061193	0.456638	0.329713	0.081386	0.485178	0.291683	0.148784	0.485178	0.202912	0.148784	0.399558	0.164865	0.124784	0.371019	0.101447	0.094787	0.342479	1.268163	0.692223	2.539685	0.000000	0.000000	27.715018	2.270241	7.007221	13.759695	-4.759912	61.300022	36.006555	62.028419	3.652011	1.536732	8.860897	-8.511269	47.873068	41.663486	79.630664	1.026634	-8.949024
0.733333	-0.996959	-3.571727	87.194387	0.228893	0.827564	0.649552	3.609246	-0.834760	-0.133891	6.121522	0.106841	26.315418	7.712811	0.000000	1.317819	0.705573	0.711274	0.616641	0.010762	20.772505	-10.440051	0.000000	0.167979	0.037817	0.428870	0.311953	0.050296	0.455675	0.275972	0.091947	0.455675	0.191983	0.091947	0.375261	0.155985	0.077116	0.348457	0.095983	0.058578	0.321653	1.199855	0.427789	2.385248	0.000000	0.000000	27.565843	2.495149	6.768360	13.488635	-4.944510	59.453691	37.002087	60.642433	3.728771	1.536330	9.097213	-8.575156	47.841823	41.272677	81.435823	1.236771	-9.651734
0.766667	-1.111042	-3.543859	87.563109	0.228996	0.828033	0.650162	3.731352	-0.952962	-0.568286	6.538261	0.114114	26.133383	7.381787	0.000000	1.407110	0.788626	0.443951	0.686635	0.011984	20.720696	-9.637136	0.000000	0.158362	0.007486	0.382209	0.294094	0.009956	0.406097	0.260173	0.018201	0.406097	0.180992	0.018201	0.334433	0.147055	0.015265	0.310545	0.090488	0.011596	0.286657	1.131165	0.084683	2.125731	0.000000	0.000000	27.398321	2.686047	6.466897	13.181510	-5.129220	57.540223	38.224431	58.525107	3.879957	1.926631	9.349266	-8.679162	48.030851	40.957703	82.451002	1.342948	-10.059478
0.800000	-1.246850	-3.513970	87.915621	0.229169	0.828509	0.650807	3.851463	-1.086876	-0.872910	6.967434	0.121605	25.873500	6.877372	0.000000	1.506311	0.892654	0.036213	0.783459	0.013674	20.715903	-8.677740	0.000000	0.149987	-0.026544	0.330223	0.278542	-0.035303	0.350862	0.246414	-0.064539	0.350862	0.171421	-0.064539	0.288945	0.139278	-0.054128	0.268306	0.085703	-0.041117	0.247667	1.071345	-0.300270	1.836601	0.000000	0.000000	27.226576	2.883246	6.222637	12.919045	-5.295278	55.784397	39.534558	56.023404	4.283668	2.513514	9.564979	-8.796203	48.269577	40.717865	82.856441	1.388189	-10.337595
0.833333	-1.401611	-3.482229	88.342522	0.229306	0.828961	0.651471	3.944697	-1.245592	-1.244166	7.367690	0.128590	25.592961	6.390830	0.000000	1.624374	1.020032	-0.091613	0.914923	0.015968	20.654315	-8.037871	0.000000	0.142391	-0.064327	0.260311	0.264435	-0.085555	0.276581	0.233935	-0.156405	0.276581	0.162739	-0.156405	0.227772	0.132225	-0.131176	0.211503	0.081362	-0.099643	0.195233	1.017088	-0.727681	1.447772	0.000000	0.000000	27.062675	3.094782	5.990024	12.695530	-5.399257	54.125046	40.788125	53.690664	4.838540	3.169414	9.752702	-8.926697	48.478918	40.555764	82.930685	1.457192	-10.377682
0.866667	-1.561236	-3.452949	88.794546	0.229433	0.829333	0.652125	4.019044	-1.410073	-1.600695	7.726568	0.134854	25.327474	5.914451	0.000000	1.757865	1.152587	-0.228207	1.073828	0.018742	20.630284	-7.358218	0.000000	0.135711	-0.102916	0.186741	0.252029	-0.136879	0.198412	0.222960	-0.250231	0.198412	0.155104	-0.250231	0.163398	0.126021	-0.209867	0.151727	0.077545	-0.159418	0.140056	0.969372	-1.164212	1.038596	0.000000	0.000000	26.923774	3.290048	5.744253	12.508293	-5.430233	52.436796	41.850358	51.806893	5.475431	3.969263	9.929940	-9.048120	48.631447	40.460059	82.696773	1.444737	-10.113147
0.900000	-1.705875	-3.424519	89.231260	0.229543	0.829590	0.652696	4.064810	-1.569154	-2.052787	8.020378	0.139982	25.115275	5.699668	0.000000	1.889365	1.276236	-0.191703	1.246194	0.021750	20.592345	-6.957647	0.000000	0.130116	-0.138071	0.120566	0.241638	-0.183634	0.128102	0.213767	-0.335706	0.128102	0.148709	-0.335706	0.105496	0.120825	-0.281554	0.097960	0.074348	-0.213872	0.090425	0.929403	-1.561886	0.670554	0.000000	0.000000	26.819838	3.426347	5.507165	12.433001	-5.362947	51.294052	42.445618	50.101482	5.992921	4.519644	10.161652	-9.099918	48.941990	40.228077	82.319377	1.403205	-9.925608
0.933333	-1.780619	-3.415015	89.647009	0.229475	0.829610	0.653221	4.113653	-1.676420	-2.618887	8.263037	0.144217	24.994622	5.788636	0.000000	2.054930	1.341545	-0.054402	1.462806	0.025531	20.650632	-6.709562	0.000000	0.126341	-0.159918	0.073031	0.234628	-0.212691	0.077595	0.207566	-0.388825	0.077595	0.144395	-0.388825	0.063902	0.117320	-0.326105	0.059338	0.072191	-0.247713	0.054773	0.902442	-1.809026	0.406176	0.000000	0.000000	26.761173	3.425453	5.293283	12.304604	-5.442811	48.114864	42.937834	50.603618	6.012147	5.203929	10.457814	-9.001569	49.237143	39.803970	81.983142	1.308034	-9.667839
0.966667	-1.798131	-3.423457	90.007887	0.229344	0.829364	0.653702	4.164165	-1.731399	-3.193347	8.441449	0.147331	24.968854	6.075324	0.000000	2.245583	1.355774	0.200570	1.714912	0.029931	20.771396	-6.685142	0.000000	0.123599	-0.170032	0.050021	0.229536	-0.226143	0.053147	0.203061	-0.413417	0.053147	0.141261	-0.413417	0.043768	0.114774	-0.346730	0.040642	0.070624	-0.263380	0.037516	0.882855	-1.923440	0.278201	0.000000	0.000000	26.748534	3.302842	5.105938	12.454349	-5.342775	47.205820	42.489292	50.003688	5.946148	5.443251	10.847702	-8.791487	49.768397	39.217205	81.023577	1.083497	-9.299930
1.000000	-1.752473	-3.449875	90.279574	0.229158	0.828816	0.654099	4.209509	-1.719906	-3.643389	8.534884	0.148962	25.021666	6.410300	0.000000	2.451425	1.312796	0.551708	1.998492	0.034880	20.950091	-6.901774	0.000000	0.122746	-0.166815	0.059032	0.227952	-0.221865	0.062722	0.201659	-0.405595	0.062722	0.140286	-0.405595	0.051653	0.113982	-0.340170	0.047964	0.070137	-0.258397	0.044274	0.876763	-1.887050	0.328320	0.000000	0.000000	26.779719	3.071003	4.963465	12.816002	-5.122395	48.377373	41.172636	48.459855	5.693828	5.206089	11.323195	-8.447951	50.769931	38.438380	79.135874	0.689957	-8.984843
1.033333	-1.646475	-3.485723	90.470747	0.228911	0.827995	0.654430	4.239726	-1.654182	-4.147104	8.539029	0.149034	25.177081	7.006447	0.000000	2.666523	1.217751	1.012630	2.320724	0.040504	21.156555	-7.383494	0.000000	0.122113	-0.150565	0.091879	0.226776	-0.200252	0.097621	0.200619	-0.366084	0.097621	0.139563	-0.366084	0.080394	0.113394	-0.307032	0.074652	0.069775	-0.233225	0.068909	0.872240	-1.703223	0.511003	0.000000	0.000000	26.850400	2.748898	4.894159	13.389988	-4.833591	51.430290	39.135503	46.165431	5.213098	4.628239	11.823000	-8.022137	52.003988	37.569098	76.604489	0.207250	-8.552311
1.066667	-1.506330	-3.540531	90.603435	0.228631	0.826943	0.654715	4.261129	-1.550642	-4.612810	8.443836	0.147373	25.392902	7.691476	0.000000	2.897258	1.090315	1.538193	2.665366	0.046519	21.406008	-7.990762	0.000000	0.122569	-0.125195	0.138124	0.227623	-0.166509	0.146757	0.201368	-0.304399	0.146757	0.140084	-0.304399	0.120858	0.113817	-0.255297	0.112226	0.070036	-0.193927	0.103593	0.875497	-1.416229	0.768204	0.000000	0.000000	26.955285	2.424333	4.959037	14.098566	-4.497013	55.800990	36.594927	43.510018	4.491926	3.893589	12.314099	-7.526141	53.600201	36.659106	73.595902	-0.406510	-8.195402
1.100000	-1.354822	-3.608295	90.619524	0.228476	0.825734	0.654936	4.276770	-1.417839	-4.821862	8.263324	0.144222	25.595782	8.211953	0.000000	3.108372	0.946288	2.081961	2.979716	0.052006	21.646646	-8.741797	0.000000	0.123881	-0.096025	0.206383	0.230059	-0.127713	0.219282	0.203524	-0.233475	0.219282	0.141584	-0.233475	0.180585	0.115036	-0.195814	0.167686	0.070786	-0.148743	0.154787	0.884870	-1.086255	1.147838	0.000000	0.000000	27.087946	2.107972	5.012606	14.906180	-4.108123	61.413278	33.639967	40.517966	3.652522	2.855219	12.766454	-7.021099	55.394286	35.768709	70.096898	-1.008006	-7.769190
1.133333	-1.210518	-3.676785	90.530787	0.228465	0.824435	0.655109	4.274420	-1.275095	-4.806838	8.001863	0.139659	25.771684	8.585412	0.000000	3.282194	0.801640	2.607743	3.245950	0.056653	21.890369	-9.547988	0.000000	0.124521	-0.066183	0.295159	0.231249	-0.088023	0.313607	0.204576	-0.160917	0.313607	0.142316	-0.160917	0.258264	0.115631	-0.134960	0.239817	0.071152	-0.102517	0.221369	0.889444	-0.748672	1.641587	0.000000	0.000000	27.238457	1.806093	5.033827	15.767528	-3.702667	67.608525	30.513319	37.266977	2.818861	1.680851	13.223155	-6.509249	57.518835	34.850054	66.205299	-1.512540	-7.355930
1.166667	-1.089505	-3.745416	90.336179	0.228654	0.823115	0.655263	4.259218	-1.135585	-4.513594	7.666883	0.133812	25.909062	8.733415	0.000000	3.416847	0.669570	3.055103	3.450197	0.060217	22.114766	-10.346732	0.000000	0.124967	-0.038890	0.400120	0.232075	-0.051724	0.425127	0.205308	-0.094557	0.425127	0.142824	-0.094557	0.350105	0.116044	-0.079305	0.325097	0.071406	-0.060241	0.300090	0.892624	-0.439933	2.225345	0.000000	0.000000	27.392838	1.577584	5.033429	16.688230	-3.278066	73.984043	27.374750	33.884112	1.989419	0.284664	13.672664	-6.025432	59.737714	33.895344	62.308218	-1.901400	-6.923464
1.200000	-1.021304	-3.814461	90.046126	0.229056	0.821835	0.655367	4.231676	-1.031817	-3.956802	7.265092	0.126800	25.999689	8.674800	0.000000	3.510330	0.579643	3.419933	3.582744	0.062531	22.293287	-11.120181	0.000000	0.126709	-0.018917	0.520559	0.235312	-0.025160	0.553094	0.208171	-0.045995	0.553094	0.144816	-0.045995	0.455489	0.117662	-0.038576	0.422954	0.072402	-0.029303	0.390419	0.905073	-0.213993	2.895192	0.000000	0.000000	27.549872	1.433174	4.978932	17.617183	-2.787833	80.625059	24.179194	30.449508	1.148101	-1.383141	14.144855	-5.589400	62.079104	32.848641	58.490011	-2.138381	-6.509933
1.233333	-1.012804	-3.880481	89.652612	0.229668	0.820600	0.655397	4.194291	-0.971959	-3.087884	6.817720	0.118992	26.036409	8.350416	0.000000	3.554450	0.540719	3.638990	3.633582	0.063418	22.450604	-11.804897	0.000000	0.130124	-0.007525	0.658544	0.241654	-0.010008	0.699703	0.213781	-0.018296	0.699703	0.148719	-0.018296	0.576226	0.120833	-0.015345	0.535067	0.074353	-0.011656	0.493908	0.929465	-0.085123	3.662622	0.000000	0.000000	27.709326	1.333882	4.850126	18.546766	-2.239616	88.039870	20.874356	26.057958	0.158249	-3.063551	14.682681	-5.195297	64.647881	31.638900	55.080738	-2.361760	-6.186824
1.266667	-1.049472	-3.951479	89.159303	0.230459	0.819394	0.655292	4.152277	-0.942535	-1.943233	6.337241	0.110606	26.028613	7.800055	0.000000	3.553641	0.538517	3.706366	3.598041	0.062798	22.611886	-12.392571	0.000000	0.137317	-0.002829	0.809205	0.255011	-0.003762	0.859780	0.225598	-0.006878	0.859780	0.156939	-0.006878	0.708054	0.127512	-0.005768	0.657479	0.078463	-0.004382	0.606903	0.980841	-0.031999	4.500553	0.000000	0.000000	27.863719	1.296218	4.711332	19.455435	-1.651761	96.058785	17.496003	21.589482	-1.037492	-4.736204	15.205274	-4.812050	67.035390	30.288401	52.817137	-2.585267	-5.868050
1.300000	-1.139247	-4.014088	88.610835	0.231374	0.818275	0.655046	4.090096	-0.952543	-0.541248	5.843552	0.101989	25.982123	6.977228	0.000000	3.500661	0.579058	3.533310	3.483590	0.060800	22.792746	-12.686135	0.000000	0.146679	-0.006750	0.965077	0.272397	-0.008977	1.025394	0.240978	-0.016411	1.025394	0.167639	-0.016411	0.844442	0.136206	-0.013764	0.784125	0.083812	-0.010455	0.723808	1.047710	-0.076352	5.367469	0.000000	0.000000	27.995205	1.323331	4.540439	20.288532	-1.048754	104.342873	14.209516	17.164989	-2.358184	-6.371397	15.708903	-4.479101	69.259079	28.903233	51.361164	-2.821627	-5.469009
1.333333	-1.282663	-4.066791	88.026132	0.232368	0.817313	0.654704	4.011994	-1.000818	1.162394	5.354792	0.093459	25.863405	5.760794	0.000000	3.401959	0.671575	3.351851	3.297357	0.057550	22.892238	-13.030296	0.000000	0.158310	-0.019484	1.121389	0.293997	-0.025913	1.191476	0.260087	-0.047373	1.191476	0.180932	-0.047373	0.981215	0.147006	-0.039731	0.911128	0.090458	-0.030180	0.841042	1.130790	-0.220403	6.236828	0.000000	0.000000	28.092062	1.374039	4.327783	20.980967	-0.451594	112.589362	11.199485	12.752135	-3.683781	-7.880106	16.195826	-4.232163	71.360637	27.566271	50.833791	-3.216783	-5.252648
1.366667	-1.458529	-4.105300	87.413069	0.233408	0.816602	0.654306	3.918026	-1.066843	3.130705	4.882512	0.085216	25.647382	4.170436	0.000000	3.259687	0.796219	3.063807	3.048197	0.053201	22.922484	-13.290731	0.000000	0.170874	-0.037670	1.268796	0.317331	-0.050101	1.348095	0.280729	-0.091591	1.348095	0.195292	-0.091591	1.110196	0.158674	-0.076817	1.030896	0.097638	-0.058351	0.951597	1.220538	-0.426133	7.056660	0.000000	0.000000	28.145324	1.481690	4.181443	21.510321	0.121636	120.423904	8.638349	8.584533	-4.885073	-9.262153	16.538726	-4.083394	72.797048	26.482540	51.431000	-3.476933	-5.098052
1.400000	-1.658524	-4.135485	86.802395	0.234464	0.816209	0.653894	3.828490	-1.152901	5.079645	4.454212	0.077741	25.381831	2.572078	0.000000	3.092937	0.943785	2.629532	2.750861	0.048012	22.905182	-13.364371	0.000000	0.183812	-0.060421	1.401060	0.341357	-0.080360	1.488626	0.301985	-0.146908	1.488626	0.210079	-0.146908	1.225928	0.170688	-0.123211	1.138361	0.105030	-0.093592	1.050795	1.312951	-0.683496	7.792276	0.000000	0.000000	28.172333	1.619147	4.086597	21.837617	0.677414	127.689545	6.587629	4.801932	-5.754293	-10.450684	16.740370	-4.084037	73.644945	25.825579	52.624713	-3.576320	-5.071828
1.433333	-1.946389	-4.148310	86.262086	0.235675	0.816252	0.653575	3.746802	-1.321026	6.864930	4.089510	0.071375	25.084519	1.064377	0.000000	2.920141	1.168746	2.043999	2.432865	0.042462	22.801488	-13.152906	0.000000	0.194688	-0.097276	1.485109	0.361555	-0.129377	1.577928	0.319853	-0.236517	1.577928	0.222509	-0.236517	1.299470	0.180787	-0.198365	1.206651	0.111245	-0.150680	1.113831	1.390637	-1.100404	8.259728	0.000000	0.000000	28.171958	1.867790	4.144993	22.457070	1.834283	138.872516	3.486914	-1.217720	-5.164952	-12.817012	16.727665	-4.337666	73.679772	25.758695	54.090295	-3.528672	-5.099590
1.466667	-2.238370	-4.160637	85.775986	0.236775	0.816605	0.653350	3.700376	-1.509307	8.327828	3.815335	0.066590	24.815981	-0.119803	0.000000	2.756340	1.402161	1.328880	2.104472	0.036730	22.681543	-12.708094	0.000000	0.204041	-0.136076	1.546964	0.378924	-0.180981	1.643649	0.335218	-0.330855	1.643649	0.233198	-0.330855	1.353593	0.189472	-0.277486	1.256908	0.116589	-0.210782	1.160223	1.457441	-1.539318	8.603747	0.000000	0.000000	28.158763	2.151599	4.210371	22.751633	2.736956	146.214485	1.638361	-4.697148	-4.303388	-14.424885	16.564391	-4.717201	72.988435	26.256664	55.578756	-3.391873	-5.091539
1.500000	-2.508905	-4.160959	85.354206	0.237720	0.817273	0.653234	3.678438	-1.701494	9.368352	3.632238	0.063395	24.606857	-0.842520	0.000000	2.598324	1.625163	0.603063	1.777487	0.031023	22.507482	-12.217300	0.000000	0.209406	-0.172812	1.589554	0.388887	-0.229840	1.688902	0.344032	-0.420175	1.688902	0.239330	-0.420175	1.390860	0.194454	-0.352398	1.291513	0.119654	-0.267686	1.192166	1.495763	-1.954884	8.840625	0.000000	0.000000	28.135497	2.464463	4.305987	22.769117	3.372608	149.876919	0.972976	-5.666926	-3.307688	-15.432497	16.315401	-5.207752	71.744888	27.265775	56.993514	-3.260333	-5.218958
1.533333	-2.736853	-4.158201	84.992584	0.238480	0.818180	0.653203	3.699627	-1.876058	9.963272	3.553050	0.062012	24.484694	-1.066277	0.000000	2.456053	1.814757	-0.121344	1.456139	0.025414	22.313236	-11.678240	0.000000	0.212060	-0.204324	1.620031	0.393817	-0.271751	1.721283	0.348394	-0.496794	1.721283	0.242364	-0.496794	1.417528	0.196919	-0.416658	1.316276	0.121171	-0.316498	1.215024	1.514725	-2.311358	9.010129	0.000000	0.000000	28.110319	2.747692	4.372953	22.486184	3.746867	149.728871	1.423839	-4.046821	-2.180453	-15.669795	15.947726	-5.755733	69.801947	28.724685	58.507779	-3.037232	-5.244121
1.566667	-2.915214	-4.149405	84.717532	0.238988	0.819240	0.653280	3.754684	-2.031321	10.071074	3.565115	0.062223	24.458797	-0.786872	0.000000	2.339885	1.969238	-0.915227	1.165810	0.020347	22.152953	-10.957055	0.000000	0.211493	-0.228707	1.637997	0.392764	-0.304181	1.740371	0.347462	-0.556079	1.740371	0.241716	-0.556079	1.433247	0.196393	-0.466380	1.330872	0.120847	-0.354268	1.228497	1.510675	-2.587182	9.110045	0.000000	0.000000	28.077322	2.967080	4.425376	22.019985	3.841484	146.456505	2.823803	-1.156207	-1.125661	-15.139703	15.547668	-6.342566	67.619757	30.524931	59.249555	-2.906341	-5.118245
1.600000	-3.006264	-4.150279	84.517281	0.239202	0.820334	0.653466	3.864186	-2.127640	9.737996	3.676711	0.064171	24.536358	-0.054204	0.000000	2.279747	2.052046	-1.731618	0.942272	0.016446	22.069651	-10.142740	0.000000	0.209604	-0.240052	1.651722	0.389256	-0.319270	1.754955	0.344359	-0.583664	1.754955	0.239556	-0.583664	1.445257	0.194638	-0.489515	1.342024	0.119768	-0.371841	1.238792	1.497181	-2.715521	9.186384	0.000000	0.000000	28.043073	3.078393	4.475467	21.294107	3.622367	139.644519	5.117387	3.951680	-0.191256	-13.872693	15.096214	-6.861559	64.989037	32.466299	60.092308	-2.745452	-4.866749
1.633333	-3.046310	-4.147641	84.416886	0.239240	0.821458	0.653748	3.998032	-2.186678	9.089332	3.861366	0.067394	24.701054	0.941593	0.000000	2.253274	2.092989	-2.506248	0.775016	0.013527	22.009474	-9.293145	0.000000	0.205387	-0.245004	1.650065	0.381423	-0.325855	1.753194	0.337430	-0.595702	1.753194	0.234736	-0.595702	1.443807	0.190722	-0.499611	1.340678	0.117358	-0.379511	1.237548	1.467056	-2.771530	9.177165	0.000000	0.000000	28.000939	3.106718	4.494433	20.718410	3.431827	134.084894	7.414830	7.350663	1.023922	-12.561413	14.680486	-7.372550	62.538347	34.470764	59.936602	-2.643511	-4.623246
1.666667	-3.020132	-4.142948	84.415019	0.239074	0.822548	0.654072	4.143355	-2.191485	8.189443	4.097928	0.071522	24.932217	2.109253	0.000000	2.255640	2.077772	-3.196056	0.670157	0.011696	21.978038	-8.466937	0.000000	0.200143	-0.241725	1.635653	0.371685	-0.321494	1.737881	0.328814	-0.587730	1.737881	0.228743	-0.587730	1.431196	0.185852	-0.492926	1.328968	0.114361	-0.374432	1.226740	1.429598	-2.734441	9.097010	0.000000	0.000000	27.954535	3.068925	4.498454	20.029024	3.054487	126.940425	10.201556	11.834114	2.237843	-10.909116	14.264530	-7.826018	60.248997	36.461028	59.099792	-2.484210	-4.256719
1.700000	-2.956157	-4.132038	84.527455	0.238755	0.823609	0.654434	4.292196	-2.174758	6.946270	4.385385	0.076539	25.233925	3.544307	0.000000	2.281394	2.033490	-3.752481	0.626212	0.010929	21.955766	-7.700807	0.000000	0.193206	-0.234923	1.600136	0.358803	-0.312448	1.700144	0.317418	-0.571192	1.700144	0.220815	-0.571192	1.400119	0.179411	-0.479055	1.300110	0.110398	-0.363896	1.200102	1.380052	-2.657496	8.899474	0.000000	0.000000	27.905032	2.990403	4.481029	19.287170	2.514118	118.505217	13.414395	17.417318	3.309003	-9.089769	13.821097	-8.257624	58.003569	38.404119	57.950181	-2.153265	-3.713798
1.733333	-2.861464	-4.111760	84.703103	0.238409	0.824634	0.654797	4.431768	-2.122231	5.709968	4.702853	0.082080	25.513536	4.832382	0.000000	2.305249	1.957936	-4.282601	0.611003	0.010664	21.958118	-6.886213	0.000000	0.184934	-0.226463	1.553600	0.343440	-0.301196	1.650700	0.303828	-0.550623	1.650700	0.211361	-0.550623	1.359400	0.171729	-0.461804	1.262300	0.105671	-0.350792	1.165200	1.320963	-2.561799	8.640655	0.000000	0.000000	27.853992	2.898156	4.395092	18.523348	1.829629	109.116584	16.970626	23.858133	4.284845	-7.209561	13.421341	-8.682807	56.320348	40.270221	55.786628	-1.740697	-2.997631
1.766667	-2.741514	-4.083634	84.905729	0.238103	0.825584	0.655066	4.550641	-2.039297	4.515756	5.030069	0.087791	25.752521	5.975393	0.000000	2.303880	1.855227	-4.674048	0.592034	0.010333	21.936507	-6.225511	0.000000	0.177017	-0.217045	1.500038	0.328738	-0.288670	1.593791	0.290821	-0.527724	1.593791	0.202313	-0.527724	1.312534	0.164378	-0.442599	1.218781	0.101147	-0.336203	1.125029	1.264414	-2.455259	8.342764	0.000000	0.000000	27.803833	2.812351	4.255678	17.732243	1.039870	99.130502	20.749462	31.015194	5.180101	-5.351743	13.012498	-9.102272	54.838842	41.984789	53.732107	-1.105338	-2.230756
1.800000	-2.616322	-4.049087	85.131976	0.237829	0.826434	0.655237	4.646066	-1.948478	3.379556	5.356535	0.093489	25.972446	6.985425	0.000000	2.288841	1.746455	-5.007619	0.590752	0.010311	21.930124	-5.596434	0.000000	0.169907	-0.208551	1.442584	0.315535	-0.277372	1.532745	0.279141	-0.507070	1.532745	0.194187	-0.507070	1.262261	0.157776	-0.425276	1.172099	0.097085	-0.323045	1.081938	1.213632	-2.359167	8.023219	0.000000	0.000000	27.760922	2.735668	4.069467	16.938502	0.156344	88.718357	24.662674	38.949814	5.829071	-3.732140	12.644038	-9.504517	53.825866	43.511188	51.382426	-0.383024	-1.371075
1.833333	-2.486963	-4.015783	85.365947	0.237607	0.827153	0.655289	4.719436	-1.851062	2.355345	5.669239	0.098947	26.165250	7.821935	0.000000	2.263480	1.632504	-5.210658	0.595780	0.010398	21.896535	-5.129574	0.000000	0.164791	-0.200827	1.383559	0.306032	-0.267100	1.470031	0.270734	-0.488292	1.470031	0.188339	-0.488292	1.210614	0.153024	-0.409527	1.124141	0.094161	-0.311082	1.037669	1.177082	-2.271800	7.694938	0.000000	0.000000	27.725946	2.677434	3.850637	16.156671	-0.760458	78.531324	28.493207	46.928929	6.367045	-2.206040	12.282736	-9.891113	53.000922	44.809068	49.553331	0.506962	-0.584680
1.866667	-2.352138	-3.989042	85.606287	0.237412	0.827697	0.655186	4.770623	-1.749036	1.420162	5.958999	0.104004	26.325759	8.518216	0.000000	2.230569	1.512375	-5.263774	0.602083	0.010508	21.839643	-4.839980	0.000000	0.162523	-0.193295	1.328213	0.301822	-0.257083	1.411226	0.267010	-0.469978	1.411226	0.185748	-0.469978	1.162186	0.150919	-0.394168	1.079173	0.092866	-0.299414	0.996160	1.160888	-2.186595	7.387122	0.000000	0.000000	27.701118	2.612663	3.583063	15.370844	-1.659905	69.434552	31.965322	54.489931	6.704272	-0.697298	11.958962	-10.243694	52.503558	45.810535	48.515732	1.528999	0.027148
1.900000	-2.201601	-3.974278	85.818943	0.237235	0.828006	0.654904	4.807696	-1.630647	0.652723	6.227441	0.108689	26.450240	9.013369	0.000000	2.189535	1.375839	-5.178122	0.605593	0.010570	21.777376	-4.748125	0.000000	0.163794	-0.183447	1.284678	0.304182	-0.243984	1.364971	0.269097	-0.446032	1.364971	0.187200	-0.446032	1.124094	0.152099	-0.374084	1.043801	0.093592	-0.284159	0.963509	1.169965	-2.075184	7.144995	0.000000	0.000000	27.688050	2.522816	3.296784	14.591144	-2.544088	61.911558	34.969634	61.371822	6.716025	0.825465	11.679202	-10.525598	52.288111	46.460818	48.707474	2.555837	0.434263
1.933333	-2.030230	-3.964544	86.023243	0.237026	0.828088	0.654441	4.814294	-1.489254	0.054705	6.458029	0.112714	26.552555	9.302333	0.000000	2.135878	1.218562	-4.946660	0.607103	0.010596	21.719754	-4.836231	0.000000	0.167113	-0.170232	1.247709	0.310346	-0.226409	1.325691	0.274550	-0.413903	1.325691	0.190994	-0.413903	1.091746	0.155181	-0.347138	1.013764	0.095489	-0.263690	0.935782	1.193673	-1.925701	6.939385	0.000000	0.000000	27.685751	2.427609	3.015966	13.850271	-3.386947	55.959083	37.472813	67.634922	6.458781	2.186837	11.418862	-10.722803	52.137174	46.795345	50.218484	3.538716	0.728840
1.966667	-1.859549	-3.960325	86.169099	0.236871	0.828009	0.653812	4.810171	-1.342195	-0.330359	6.674903	0.116499	26.626901	9.376567	0.000000	2.067411	1.060492	-4.600539	0.605952	0.010576	21.617595	-5.151909	0.000000	0.173132	-0.156369	1.224703	0.321523	-0.207971	1.301247	0.284438	-0.380195	1.301247	0.197872	-0.380195	1.071615	0.160770	-0.318867	0.995071	0.098927	-0.242215	0.918527	1.236663	-1.768876	6.811429	0.000000	0.000000	27.696834	2.316244	2.734905	13.201911	-4.120641	51.821622	39.355552	72.899095	6.120328	3.176088	11.198811	-10.863051	52.195016	46.818730	52.428280	4.441788	0.626994
2.000000	-1.697019	-3.950618	86.292180	0.236759	0.827837	0.653070	4.771529	-1.193157	-0.484232	6.846834	0.119500	26.666602	9.171578	0.000000	1.980979	0.909272	-4.124971	0.604607	0.010552	21.462900	-5.668099	0.000000	0.179104	-0.143159	1.206537	0.332614	-0.190402	1.281946	0.294250	-0.348077	1.281946	0.204698	-0.348077	1.055720	0.166316	-0.291930	0.980312	0.102340	-0.221754	0.904903	1.279322	-1.619445	6.710399	0.000000	0.000000	27.715303	2.224141	2.478498	12.683893	-4.672917	49.716013	40.532221	77.101552	5.776478	3.667290	10.991760	-10.956825	52.246140	46.653699	55.321681	5.337982	0.423378
2.033333	-1.540745	-3.933649	86.400474	0.236692	0.827631	0.652274	4.707290	-1.044013	-0.560018	6.986397	0.121936	26.690898	8.886355	0.000000	1.881173	0.761434	-3.571665	0.605221	0.010563	21.270016	-6.294847	0.000000	0.184049	-0.129939	1.187058	0.341797	-0.172819	1.261249	0.302374	-0.315933	1.261249	0.210350	-0.315933	1.038676	0.170908	-0.264971	0.964485	0.105166	-0.201275	0.890294	1.314643	-1.469894	6.602062	0.000000	0.000000	27.733626	2.209619	2.335613	12.348616	-4.984210	49.811623	40.926237	79.979372	5.595194	3.610376	10.740731	-11.001802	52.025316	46.423807	58.551944	6.384371	0.336212
2.066667	-1.411572	-3.906815	86.508118	0.236689	0.827434	0.651472	4.627802	-0.922968	-0.756717	7.107122	0.124043	26.730185	8.786060	0.000000	1.773349	0.635134	-3.007104	0.607638	0.010605	21.068500	-6.914483	0.000000	0.187723	-0.119818	1.165089	0.348620	-0.159358	1.237907	0.308410	-0.291325	1.237907	0.214548	-0.291325	1.019452	0.174319	-0.244332	0.946634	0.107265	-0.185598	0.873816	1.340884	-1.355402	6.479873	0.000000	0.000000	27.748037	2.244135	2.242048	12.226724	-4.983163	52.376819	40.419984	81.323884	5.784578	2.900422	10.506887	-11.039211	51.807304	46.201021	61.554489	7.423489	0.333147
2.100000	-1.327938	-3.866230	86.623949	0.236770	0.827285	0.650688	4.522318	-0.844404	-0.973764	7.188184	0.125457	26.740710	8.719509	0.000000	1.657442	0.546960	-2.450319	0.612317	0.010687	20.870840	-7.479583	0.000000	0.190093	-0.115068	1.133034	0.353023	-0.153041	1.203848	0.312305	-0.279777	1.203848	0.217258	-0.279777	0.991405	0.176521	-0.234647	0.920590	0.108619	-0.178241	0.849775	1.357819	-1.301675	6.301594	0.000000	0.000000	27.753710	2.349286	2.239176	12.379137	-4.607522	57.406315	38.987772	80.874045	6.545846	1.463229	10.264312	-11.102578	51.496697	46.060907	64.283562	8.409709	0.451311
2.133333	-1.207445	-3.825714	86.744491	0.236631	0.827098	0.649906	4.401627	-0.743378	-1.279909	7.234847	0.126272	26.732375	8.791786	0.000000	1.541591	0.430209	-1.891423	0.615756	0.010747	20.745409	-8.005090	0.000000	0.191980	-0.103471	1.114344	0.356527	-0.137616	1.183991	0.315404	-0.251579	1.183991	0.219414	-0.251579	0.975051	0.178273	-0.210998	0.905405	0.109698	-0.160276	0.835758	1.371296	-1.170483	6.197649	0.000000	0.000000	27.765278	2.403526	2.175038	12.139158	-4.755566	57.417992	39.077153	82.838529	6.629745	1.528260	10.082647	-11.076964	51.245795	45.962557	66.694168	9.248040	0.629733
2.166667	-1.102822	-3.773546	86.875253	0.236464	0.826961	0.649171	4.255024	-0.657430	-1.565405	7.233433	0.126247	26.672398	8.855556	0.000000	1.422733	0.330390	-1.302032	0.616723	0.010764	20.626643	-8.561411	0.000000	0.192268	-0.093102	1.094041	0.357061	-0.123825	1.162418	0.315877	-0.226368	1.162418	0.219743	-0.226368	0.957286	0.178540	-0.189853	0.888908	0.109862	-0.144215	0.820531	1.373351	-1.053186	6.084727	0.000000	0.000000	27.773814	2.459940	2.132726	11.937590	-4.879824	57.368293	39.206295	84.002441	6.774466	1.793893	9.928977	-11.056130	50.984985	45.955866	69.016240	9.917664	0.739250
2.200000	-1.023851	-3.717150	87.018538	0.236252	0.826853	0.648476	4.097084	-0.600939	-1.889592	7.195426	0.125584	26.592492	8.986320	0.000000	1.309078	0.255332	-0.819963	0.616470	0.010759	20.579456	-8.917953	0.000000	0.192764	-0.084970	1.071734	0.357983	-0.113010	1.138718	0.316692	-0.206595	1.138718	0.220310	-0.206595	0.937768	0.179001	-0.173270	0.870784	0.110145	-0.131618	0.803801	1.376896	-0.961195	5.960665	0.000000	0.000000	27.780125	2.488994	2.092954	11.741157	-4.957373	57.117570	39.346369	84.318983	7.033182	2.456755	9.776585	-11.030766	50.669974	46.003718	71.136185	10.399436	0.869646
2.233333	-0.966923	-3.651617	87.159292	0.236008	0.826781	0.647819	3.916087	-0.564795	-2.140033	7.106468	0.124031	26.482130	9.048420	0.000000	1.193267	0.201913	-0.577651	0.615418	0.010741	20.628026	-8.929639	0.000000	0.193067	-0.078347	1.050730	0.358544	-0.104201	1.116401	0.317189	-0.190492	1.116401	0.220656	-0.190492	0.919389	0.179282	-0.159764	0.853718	0.110318	-0.121359	0.788048	1.379056	-0.886272	5.843846	0.000000	0.000000	27.783048	2.468312	2.062637	11.586400	-5.008999	56.896476	39.448376	83.421501	7.281137	3.356237	9.669854	-11.002489	50.498772	46.032031	72.765347	10.558940	0.809824
2.266667	-0.926827	-3.581669	87.310546	0.235719	0.826742	0.647194	3.722741	-0.542996	-2.314677	6.987150	0.121949	26.365223	9.030052	0.000000	1.080180	0.167272	-0.372448	0.612816	0.010696	20.711747	-8.886586	0.000000	0.193889	-0.072959	1.029086	0.360071	-0.097036	1.093404	0.318540	-0.177394	1.093404	0.221596	-0.177394	0.900450	0.180045	-0.148779	0.836132	0.110788	-0.113014	0.771814	1.384929	-0.825332	5.723467	0.000000	0.000000	27.788757	2.380213	2.022374	11.441314	-5.030016	56.578183	39.516975	82.080038	7.571628	4.276086	9.604663	-10.959371	50.393768	46.000514	74.406896	10.450144	0.401213
2.300000	-0.899404	-3.506421	87.494667	0.235373	0.826748	0.646602	3.515892	-0.532310	-2.429237	6.843768	0.119446	26.262799	8.935034	0.000000	0.970194	0.147319	-0.131725	0.609496	0.010638	20.803611	-8.861728	0.000000	0.195085	-0.068962	1.001340	0.362292	-0.091720	1.063924	0.320505	-0.167675	1.063924	0.222962	-0.167675	0.876172	0.181156	-0.140628	0.813589	0.111471	-0.106822	0.751005	1.393471	-0.780114	5.569152	0.000000	0.000000	27.795290	2.223043	1.957251	11.328627	-5.031540	56.277352	39.580102	80.313264	7.888390	5.137505	9.572978	-10.911631	50.318032	45.946123	76.059155	10.071760	-0.300194
2.333333	-0.900002	-3.427576	87.709548	0.234993	0.826796	0.646015	3.288971	-0.542183	-2.425522	6.664207	0.116312	26.170195	8.672031	0.000000	0.863172	0.154592	-0.127119	0.606720	0.010589	20.971171	-8.467646	0.000000	0.196633	-0.068665	0.967459	0.365167	-0.091324	1.027925	0.323048	-0.166951	1.027925	0.224732	-0.166951	0.846527	0.182593	-0.140021	0.786061	0.112356	-0.106361	0.725594	1.404529	-0.776748	5.380717	0.000000	0.000000	27.803989	2.030925	1.865956	11.221670	-5.004108	55.919198	39.647809	78.503560	8.103232	5.885978	9.561645	-10.891314	50.344458	45.925924	77.255664	9.426296	-1.023710
2.366667	-0.915720	-3.345267	87.947397	0.234569	0.826875	0.645456	3.054369	-0.567010	-2.403744	6.475678	0.113022	26.107148	8.370589	0.000000	0.759994	0.180073	-0.118207	0.605338	0.010565	21.150274	-8.061694	0.000000	0.197903	-0.070204	0.927923	0.367526	-0.093372	0.985918	0.325135	-0.170695	0.985918	0.226183	-0.170695	0.811932	0.183773	-0.143161	0.753937	0.113082	-0.108746	0.695942	1.413601	-0.794165	5.160827	0.000000	0.000000	27.814325	1.820604	1.768922	11.141968	-4.975038	55.625658	39.722327	76.779268	8.189903	6.477924	9.582323	-10.882342	50.443788	45.900762	78.288177	8.642241	-1.822589
2.400000	-0.934233	-3.267137	88.193580	0.234112	0.826957	0.644906	2.826729	-0.593965	-2.372703	6.294402	0.109858	26.061620	8.046541	0.000000	0.665264	0.209545	-0.140024	0.606484	0.010585	21.376295	-7.597388	0.000000	0.200262	-0.072067	0.886186	0.371907	-0.095849	0.941572	0.329011	-0.175224	0.941572	0.228880	-0.175224	0.775413	0.185963	-0.146959	0.720026	0.114430	-0.111632	0.664639	1.430452	-0.815238	4.928699	0.000000	0.000000	27.827173	1.614164	1.659653	11.071915	-4.953956	55.397998	39.804574	75.025605	8.206240	6.979503	9.622697	-10.879738	50.619187	45.893408	79.040405	7.722917	-2.568727
2.433333	-0.956530	-3.191983	88.429197	0.233642	0.827039	0.644358	2.606047	-0.625237	-2.347368	6.120872	0.106829	26.024224	7.734544	0.000000	0.573150	0.246153	-0.009742	0.606875	0.010592	21.578542	-7.354944	0.000000	0.203029	-0.074188	0.846155	0.377044	-0.098669	0.899040	0.333556	-0.180380	0.899040	0.232041	-0.180380	0.740386	0.188532	-0.151283	0.687501	0.116011	-0.114917	0.634616	1.450213	-0.839225	4.706061	0.000000	0.000000	27.843998	1.397974	1.547788	10.981281	-4.938760	55.135735	39.897493	73.518600	8.135534	7.350872	9.670687	-10.869690	50.780115	45.863842	79.884923	6.879367	-3.316671
2.466667	-0.984770	-3.125821	88.670132	0.233142	0.827121	0.643845	2.401058	-0.664931	-2.346293	5.961396	0.104046	25.990239	7.445170	0.000000	0.496857	0.290204	0.127901	0.613316	0.010704	21.785060	-7.102991	0.000000	0.206267	-0.076876	0.803916	0.383058	-0.102245	0.854160	0.338876	-0.186916	0.854160	0.235742	-0.186916	0.703426	0.191539	-0.156765	0.653181	0.117861	-0.119081	0.602937	1.473344	-0.869635	4.471138	0.000000	0.000000	27.867608	1.191805	1.450658	10.887019	-4.928368	54.888153	39.972550	72.214061	8.016814	7.549977	9.715541	-10.863958	50.945254	45.861556	80.445536	6.047102	-3.943462
2.500000	-1.004806	-3.069781	88.913615	0.232624	0.827177	0.643371	2.223786	-0.703829	-2.481930	5.839558	0.101920	25.982947	7.323481	0.000000	0.432814	0.327725	0.352486	0.614863	0.010731	21.964683	-6.970697	0.000000	0.210071	-0.078351	0.761017	0.390124	-0.104207	0.808580	0.345126	-0.190502	0.808580	0.240091	-0.190502	0.665890	0.195072	-0.159773	0.618326	0.120035	-0.121365	0.570762	1.500519	-0.886320	4.232546	0.000000	0.000000	27.893223	0.979191	1.345969	10.770398	-4.930474	54.603564	40.059874	70.728793	8.044664	7.862928	9.755123	-10.859640	51.058400	45.851386	81.343783	5.395596	-4.637938
2.533333	-1.022217	-3.018040	89.135730	0.232147	0.827216	0.642932	2.066521	-0.742163	-2.665550	5.742816	0.100231	25.992876	7.294940	0.000000	0.373119	0.361964	0.588136	0.614047	0.010717	22.110829	-6.891245	0.000000	0.213676	-0.079048	0.721562	0.396818	-0.105133	0.766660	0.351049	-0.192196	0.766660	0.244210	-0.192196	0.631367	0.198420	-0.161194	0.586269	0.122095	-0.122445	0.541172	1.526267	-0.894203	4.013114	0.000000	0.000000	27.917402	0.763431	1.276341	10.642261	-4.937614	54.333500	40.139175	69.237630	8.105116	8.183957	9.786392	-10.871152	51.184261	45.836705	82.310244	4.839188	-5.396161
2.566667	-1.038125	-2.972634	89.335393	0.231710	0.827235	0.642541	1.932323	-0.780152	-2.884621	5.668580	0.098935	26.024943	7.350523	0.000000	0.319617	0.393721	0.869593	0.610468	0.010655	22.215066	-6.910720	0.000000	0.217229	-0.079365	0.686722	0.403415	-0.105555	0.729643	0.356885	-0.192967	0.729643	0.248270	-0.192967	0.600882	0.201718	-0.161840	0.557962	0.124124	-0.122936	0.515042	1.551641	-0.897787	3.819344	0.000000	0.000000	27.942319	0.568977	1.208927	10.508078	-4.958670	54.075435	40.233912	68.013640	8.126793	8.420532	9.803857	-10.897039	51.277711	45.857553	83.186356	4.434987	-6.001856
2.600000	-1.052896	-2.931264	89.507516	0.231350	0.827245	0.642206	1.816608	-0.812731	-3.077901	5.606129	0.097845	26.081152	7.442904	0.000000	0.270950	0.422077	1.174974	0.604463	0.010550	22.261527	-7.036379	0.000000	0.220118	-0.079230	0.654437	0.408781	-0.105376	0.695340	0.361631	-0.192640	0.695340	0.251573	-0.192640	0.572633	0.204401	-0.161566	0.531730	0.125775	-0.122727	0.490828	1.572279	-0.896265	3.639783	0.000000	0.000000	27.963402	0.395140	1.197746	10.388139	-4.981102	53.809208	40.323186	67.351434	8.127888	8.494004	9.796113	-10.934534	51.310276	45.902946	83.850781	4.133596	-6.513470
2.633333	-1.070476	-2.898755	89.640776	0.231104	0.827249	0.641928	1.734038	-0.842071	-3.261066	5.572784	0.097263	26.164439	7.601072	0.000000	0.231366	0.448044	1.480390	0.597496	0.010428	22.243168	-7.256826	0.000000	0.223259	-0.079572	0.628403	0.414614	-0.105831	0.667679	0.366792	-0.193472	0.667679	0.255162	-0.193472	0.549853	0.207318	-0.162264	0.510578	0.127570	-0.123257	0.471303	1.594715	-0.900137	3.494991	0.000000	0.000000	27.980777	0.219618	1.198224	10.289166	-5.002132	53.556466	40.402265	67.057248	8.081024	8.434592	9.781389	-10.986515	51.343860	45.947897	84.368123	3.891622	-7.021109
2.666667	-1.079329	-2.866038	89.760291	0.230908	0.827261	0.641754	1.664267	-0.858078	-3.405450	5.544203	0.096765	26.272316	7.761050	0.000000	0.197370	0.461035	1.663047	0.591216	0.010319	22.224279	-7.340832	0.000000	0.224294	-0.078311	0.601846	0.416537	-0.104154	0.639461	0.368493	-0.190405	0.639461	0.256346	-0.190405	0.526615	0.208280	-0.159692	0.489000	0.128162	-0.121304	0.451384	1.602113	-0.885870	3.347286	0.000000	0.000000	27.986161	0.088343	1.285882	10.244706	-5.036652	53.370374	40.471088	67.136511	7.992009	8.298661	9.766441	-11.024989	51.320996	45.996575	84.707393	3.789235	-7.253947
2.700000	-1.085917	-2.830821	89.862071	0.230782	0.827279	0.641665	1.608953	-0.868036	-3.543718	5.529912	0.096515	26.393048	7.936804	0.000000	0.165033	0.467989	1.829658	0.585897	0.010226	22.202492	-7.444557	0.000000	0.223492	-0.076586	0.577501	0.415048	-0.101859	0.613595	0.367175	-0.186211	0.613595	0.255429	-0.186211	0.505313	0.207535	-0.156174	0.469220	0.127703	-0.118631	0.433126	1.596383	-0.866353	3.211887	0.000000	0.000000	27.983806	-0.012275	1.417389	10.232526	-5.076105	53.202188	40.535213	67.558906	7.865244	8.117139	9.750278	-11.060664	51.266662	46.057631	84.990541	3.749411	-7.311932
2.733333	-1.091567	-2.794284	89.945724	0.230721	0.827298	0.641639	1.564678	-0.874426	-3.675537	5.526530	0.096456	26.502366	8.114405	0.000000	0.134427	0.468339	1.857370	0.582480	0.010166	22.244933	-7.367961	0.000000	0.221615	-0.074396	0.556540	0.411560	-0.098947	0.591324	0.364091	-0.180887	0.591324	0.253283	-0.180887	0.486972	0.205791	-0.151709	0.452189	0.126631	-0.115240	0.417405	1.582971	-0.841587	3.095308	0.000000	0.000000	27.975422	-0.095823	1.577007	10.237065	-5.112183	53.013777	40.590336	68.297349	7.737391	7.917228	9.741497	-11.098864	51.227312	46.122207	85.174652	3.752057	-7.272212
2.766667	-1.096476	-2.754074	89.998726	0.230738	0.827319	0.641672	1.529044	-0.877055	-3.794977	5.536708	0.096634	26.587398	8.282642	0.000000	0.100971	0.464002	1.818338	0.580063	0.010124	22.314979	-7.235986	0.000000	0.218494	-0.071832	0.541291	0.405765	-0.095537	0.575122	0.358963	-0.174653	0.575122	0.249716	-0.174653	0.473630	0.202893	-0.146480	0.439799	0.124847	-0.111268	0.405968	1.560679	-0.812582	3.010499	0.000000	0.000000	27.962672	-0.145946	1.775583	10.251165	-5.137337	52.804938	40.622449	69.151128	7.676181	7.727802	9.734970	-11.142173	51.208163	46.185481	85.266254	3.780459	-7.247888
2.800000	-1.096421	-2.712176	90.028130	0.230808	0.827337	0.641765	1.498924	-0.871734	-3.894463	5.551646	0.096895	26.650607	8.415940	0.000000	0.068101	0.452338	1.753489	0.579926	0.010122	22.390553	-7.105711	0.000000	0.214669	-0.068488	0.530834	0.398662	-0.091090	0.564011	0.352680	-0.166523	0.564011	0.245345	-0.166523	0.464480	0.199342	-0.139661	0.431302	0.122662	-0.106088	0.398125	1.533361	-0.774754	2.952338	0.000000	0.000000	27.944648	-0.162169	1.990081	10.278645	-5.156972	52.651257	40.627367	69.792836	7.696300	7.607466	9.732259	-11.182984	51.210524	46.233939	85.335171	3.789452	-7.313123
2.833333	-1.089534	-2.666103	90.019611	0.230938	0.827348	0.641906	1.468797	-0.852253	-3.865981	5.562762	0.097089	26.680338	8.396313	0.000000	0.030558	0.433040	1.664773	0.581721	0.010153	22.462251	-7.009295	0.000000	0.209721	-0.063955	0.525780	0.389473	-0.085060	0.558641	0.344551	-0.155501	0.558641	0.239690	-0.155501	0.460057	0.194747	-0.130417	0.427196	0.119835	-0.099067	0.394335	1.498016	-0.723473	2.924229	0.000000	0.000000	27.913784	-0.112599	2.243419	10.324777	-5.171382	52.605285	40.599201	70.094481	7.786562	7.553218	9.712283	-11.217018	51.170497	46.276564	85.383263	3.809082	-7.460007
2.866667	-1.082170	-2.619090	89.986953	0.231101	0.827355	0.642068	1.438566	-0.826315	-3.716817	5.568832	0.097194	26.687455	8.233359	0.000000	-0.008802	0.413034	1.549962	0.584366	0.010199	22.512332	-6.915660	0.000000	0.204053	-0.058993	0.524724	0.378946	-0.078460	0.557519	0.335238	-0.143435	0.557519	0.233212	-0.143435	0.459134	0.189483	-0.120298	0.426338	0.116596	-0.091380	0.393543	1.457528	-0.667336	2.918358	0.000000	0.000000	27.865463	0.001897	2.520803	10.372183	-5.176621	52.607862	40.555616	70.278254	7.918105	7.516264	9.687497	-11.248077	51.162381	46.287533	85.299308	3.793353	-7.772811
2.900000	-1.065470	-2.568499	89.892523	0.231350	0.827374	0.642216	1.408792	-0.786881	-3.466623	5.574602	0.097295	26.689172	8.017809	0.000000	-0.056478	0.382403	1.316325	0.592044	0.010333	22.549384	-6.756193	0.000000	0.197155	-0.052505	0.536717	0.366137	-0.069832	0.570262	0.323906	-0.127661	0.570262	0.225328	-0.127661	0.469628	0.183078	-0.107068	0.436083	0.112654	-0.081330	0.402538	1.408259	-0.593946	2.985060	0.000000	0.000000	27.801140	0.160333	2.823163	10.447055	-5.194431	52.770509	40.498231	70.084233	8.049350	7.471322	9.694438	-11.276848	51.294063	46.238574	85.129213	3.654226	-8.327667
2.933333	-1.056259	-2.526557	89.803649	0.231631	0.827395	0.642320	1.375598	-0.747178	-3.087937	5.560060	0.097041	26.673530	7.640733	0.000000	-0.094831	0.359940	1.166072	0.604655	0.010553	22.508954	-6.736214	0.000000	0.190500	-0.047901	0.552322	0.353778	-0.063709	0.586842	0.312973	-0.116467	0.586842	0.217723	-0.116467	0.483282	0.176898	-0.097680	0.448762	0.108852	-0.074199	0.414242	1.360724	-0.541868	3.071850	0.000000	0.000000	27.730356	0.354970	3.083185	10.489120	-5.190204	52.853938	40.450080	69.968336	8.142440	7.405329	9.702435	-11.308990	51.398935	46.194654	85.203701	3.479142	-8.943352
2.966667	-1.042189	-2.488654	89.682558	0.231951	0.827438	0.642386	1.344494	-0.700045	-2.612247	5.540844	0.096706	26.656109	7.214347	0.000000	-0.129550	0.333720	0.975665	0.627155	0.010946	22.428796	-6.730141	0.000000	0.183013	-0.042727	0.575612	0.339873	-0.056827	0.611588	0.300672	-0.103887	0.611588	0.209165	-0.103887	0.503661	0.169946	-0.087129	0.467685	0.104573	-0.066184	0.431709	1.307242	-0.483338	3.201383	0.000000	0.000000	27.658935	0.577777	3.351490	10.541013	-5.194895	52.975414	40.411580	69.758798	8.209902	7.341644	9.723175	-11.330829	51.512610	46.145464	85.318108	3.286568	-9.575064
3.000000	-1.036422	-2.456042	89.567706	0.232285	0.827504	0.642390	1.302739	-0.658013	-2.072521	5.497027	0.095941	26.636496	6.727464	0.000000	-0.154509	0.314329	0.606260	0.664981	0.011606	22.377911	-6.467241	0.000000	0.175572	-0.039394	0.599028	0.326056	-0.052394	0.636468	0.288448	-0.095782	0.636468	0.200662	-0.095782	0.524150	0.163037	-0.080332	0.486710	0.100322	-0.061021	0.449271	1.254097	-0.445629	3.331615	0.000000	0.000000	27.591416	0.818036	3.580174	10.601517	-5.197930	53.159510	40.382343	69.425542	8.156187	7.270897	9.746890	-11.368721	51.646686	46.164592	85.096817	3.166208	-9.920929
3.033333	-1.020463	-2.432241	89.453044	0.232596	0.827578	0.642337	1.266668	-0.611494	-1.570062	5.455359	0.095214	26.629957	6.326100	0.000000	-0.165685	0.290146	0.446550	0.717759	0.012527	22.274257	-6.521139	0.000000	0.169160	-0.034804	0.620582	0.314146	-0.046289	0.659369	0.277912	-0.084622	0.659369	0.193332	-0.084622	0.543010	0.157082	-0.070972	0.504223	0.096658	-0.053911	0.465437	1.208290	-0.393706	3.451493	0.000000	0.000000	27.534848	1.080382	3.827261	10.646998	-5.203427	53.226785	40.375589	69.747169	8.110999	7.127711	9.737016	-11.377228	51.583553	46.216332	85.219813	3.240437	-10.083206
3.066667	-0.998484	-2.412040	89.350952	0.232877	0.827665	0.642222	1.226010	-0.564802	-1.145505	5.411292	0.094445	26.607186	6.033426	0.000000	-0.165580	0.261577	0.351379	0.791198	0.013809	22.185342	-6.638182	0.000000	0.163813	-0.029721	0.637336	0.304218	-0.039529	0.677169	0.269129	-0.072264	0.677169	0.187222	-0.072264	0.557669	0.152117	-0.060608	0.517835	0.093603	-0.046038	0.478002	1.170102	-0.336213	3.544670	0.000000	0.000000	27.489811	1.336381	4.065522	10.689686	-5.206583	53.241378	40.380720	70.449172	8.031643	6.955472	9.688272	-11.369598	51.363358	46.329615	85.321831	3.482416	-9.993031
3.100000	-0.976114	-2.390467	89.254148	0.233133	0.827758	0.642054	1.176647	-0.523549	-0.755842	5.368073	0.093691	26.573787	5.809701	0.000000	-0.160053	0.238046	0.399751	0.882895	0.015409	22.060608	-6.961239	0.000000	0.159427	-0.025132	0.649090	0.296072	-0.033425	0.689658	0.261923	-0.061105	0.689658	0.182209	-0.061105	0.567954	0.148044	-0.051248	0.527385	0.091097	-0.038929	0.486817	1.138773	-0.284294	3.610043	0.000000	0.000000	27.458624	1.592120	4.277597	10.729205	-5.204866	53.239908	40.390118	71.381982	7.914080	6.759441	9.607751	-11.350096	50.999124	46.505546	85.391736	3.861016	-9.617904
3.133333	-0.944532	-2.365799	89.177923	0.233337	0.827860	0.641865	1.124244	-0.481583	-0.470571	5.341884	0.093233	26.550779	5.727179	0.000000	-0.148790	0.206185	0.396506	0.991532	0.017306	21.967998	-7.183968	0.000000	0.155671	-0.019724	0.649208	0.289096	-0.026233	0.689784	0.255751	-0.047958	0.689784	0.177916	-0.047958	0.568057	0.144556	-0.040222	0.527482	0.088950	-0.030553	0.486906	1.111940	-0.223126	3.610703	0.000000	0.000000	27.436705	1.868649	4.505786	10.786593	-5.194600	53.296020	40.361912	72.382629	7.825085	6.535186	9.485598	-11.313775	50.492800	46.745585	85.199909	4.305600	-8.980672
3.166667	-0.914253	-2.330096	89.093335	0.233529	0.827970	0.641660	1.064680	-0.448818	-0.247658	5.334605	0.093106	26.539438	5.770111	0.000000	-0.141456	0.177248	0.314203	1.119758	0.019543	21.910615	-7.309431	0.000000	0.151651	-0.014375	0.642466	0.281632	-0.019118	0.682620	0.249148	-0.034951	0.682620	0.173322	-0.034951	0.562158	0.140823	-0.029313	0.522004	0.086654	-0.022267	0.481850	1.083230	-0.162610	3.573204	0.000000	0.000000	27.418655	2.164996	4.754644	10.849668	-5.166808	53.375249	40.309521	73.390402	7.736082	6.318878	9.338736	-11.277482	49.938850	47.029839	84.748227	4.636571	-8.257902
3.200000	-0.887988	-2.286668	89.000648	0.233724	0.828085	0.641441	0.996217	-0.422027	-0.005237	5.339506	0.093192	26.509815	5.816998	0.000000	-0.140706	0.154653	0.281671	1.254489	0.021895	21.827468	-7.520279	0.000000	0.147959	-0.009508	0.629675	0.274775	-0.012645	0.669030	0.243082	-0.023117	0.669030	0.169102	-0.023117	0.550966	0.137395	-0.019388	0.511611	0.084544	-0.014727	0.472257	1.056856	-0.107551	3.502066	0.000000	0.000000	27.406201	2.475639	5.029506	10.931849	-5.120843	53.539682	40.223666	74.100119	7.641284	6.114626	9.160006	-11.235052	49.293342	47.337598	84.209742	4.834780	-7.503670
3.233333	-0.863759	-2.246948	88.919322	0.233887	0.828185	0.641220	0.931251	-0.400768	0.220321	5.362962	0.093601	26.441896	5.863892	0.000000	-0.137553	0.138109	0.419262	1.385106	0.024175	21.692986	-7.954127	0.000000	0.146157	-0.005056	0.610597	0.271428	-0.006724	0.648759	0.240121	-0.012293	0.648759	0.167043	-0.012293	0.534272	0.135721	-0.010310	0.496110	0.083514	-0.007832	0.457947	1.043984	-0.057194	3.395955	0.000000	0.000000	27.402939	2.785483	5.287281	11.014397	-5.057146	53.713570	40.125074	74.492568	7.546552	5.968066	8.960628	-11.180854	48.547741	47.662763	83.866341	4.867154	-6.684260
3.266667	-0.833922	-2.200794	88.868993	0.234001	0.828289	0.640994	0.852844	-0.375863	0.406032	5.398151	0.094216	26.333064	5.914894	0.000000	-0.146772	0.116012	0.556976	1.500329	0.026186	21.557630	-8.338318	0.000000	0.144810	0.000297	0.583067	0.268927	0.000395	0.619509	0.237909	0.000721	0.619509	0.165504	0.000721	0.510184	0.134471	0.000605	0.473742	0.082745	0.000460	0.437300	1.034365	0.003357	3.242843	0.000000	0.000000	27.408626	3.054233	5.565555	11.111125	-4.978365	53.916979	40.005583	74.465103	7.463972	5.903871	8.767782	-11.105232	47.818468	47.933479	83.381251	4.667740	-5.971872
3.300000	-0.837349	-2.145759	88.807395	0.234164	0.828380	0.640787	0.768183	-0.381494	0.653273	5.455897	0.095223	26.174547	5.841289	0.000000	-0.175523	0.123922	0.479596	1.599514	0.027917	21.502148	-8.391966	0.000000	0.142376	0.000909	0.555438	0.264406	0.001209	0.590153	0.233909	0.002209	0.590153	0.162721	0.002209	0.486008	0.132210	0.001853	0.451293	0.081354	0.001408	0.416578	1.016977	0.010279	3.089179	0.000000	0.000000	27.429598	3.290754	5.804498	11.228105	-4.867328	54.188786	39.861797	73.938348	7.344890	5.794010	8.585967	-11.060042	47.112265	48.233071	83.384516	3.987096	-5.382708
3.333333	-0.821068	-2.073511	88.753375	0.234280	0.828468	0.640635	0.678008	-0.374212	0.747484	5.524189	0.096415	26.058929	5.944611	0.000000	-0.218381	0.111654	0.374602	1.697069	0.029619	21.514882	-8.402515	0.000000	0.141649	0.004595	0.518908	0.263056	0.006112	0.551340	0.232715	0.011173	0.551340	0.161891	0.011173	0.454045	0.131535	0.009371	0.421613	0.080938	0.007118	0.389181	1.011784	0.051982	2.886012	0.000000	0.000000	27.464770	3.460799	6.076580	11.397775	-4.752642	54.627547	39.659495	73.133659	7.237909	5.746030	8.405313	-10.978665	46.497348	48.409106	82.729967	3.325110	-4.866103
3.366667	-0.794306	-2.004868	88.729085	0.234339	0.828530	0.640553	0.594900	-0.356332	0.785313	5.581728	0.097420	25.947658	6.038049	0.000000	-0.264148	0.087487	0.307293	1.765872	0.030820	21.534071	-8.407326	0.000000	0.141044	0.009608	0.478434	0.261933	0.012779	0.508336	0.231722	0.023362	0.508336	0.161200	0.023362	0.418629	0.130974	0.019593	0.388727	0.080593	0.014883	0.358825	1.007465	0.108692	2.660905	0.000000	0.000000	27.498296	3.613429	6.333583	11.580003	-4.640556	55.079630	39.462058	72.005336	7.132944	5.782163	8.251989	-10.880088	45.950435	48.517578	81.978435	2.594929	-4.409617
3.400000	-0.753641	-1.943575	88.741850	0.234327	0.828559	0.640557	0.522961	-0.323513	0.762351	5.621027	0.098105	25.845457	6.109185	0.000000	-0.310523	0.047540	0.298014	1.798568	0.031391	21.552494	-8.422355	0.000000	0.140434	0.016374	0.434586	0.260800	0.021777	0.461748	0.230719	0.039811	0.461748	0.160502	0.039811	0.380263	0.130407	0.033389	0.353101	0.080244	0.025363	0.325940	1.003105	0.185223	2.417039	0.000000	0.000000	27.526562	3.750935	6.569502	11.771413	-4.536447	55.525699	39.280352	70.550160	7.031554	5.919351	8.135454	-10.762238	45.491140	48.546344	81.132176	1.825819	-4.022212
3.433333	-0.695651	-1.893373	88.798995	0.234233	0.828549	0.640666	0.466298	-0.271417	0.674187	5.634599	0.098342	25.757049	6.145603	0.000000	-0.355206	-0.012068	0.367108	1.787799	0.031203	21.562930	-8.463557	0.000000	0.139690	0.025317	0.387938	0.259418	0.033672	0.412184	0.229496	0.061556	0.412184	0.159651	0.061556	0.339446	0.129716	0.051626	0.315200	0.079819	0.039216	0.290954	0.997789	0.286391	2.157595	0.000000	0.000000	27.545952	3.875608	6.778334	11.968628	-4.445690	55.946418	39.125242	68.764909	6.935297	6.174534	8.065165	-10.623042	45.139080	48.483264	80.193440	1.047051	-3.712853
3.466667	-0.616914	-1.858006	88.907843	0.234042	0.828492	0.640895	0.429014	-0.195706	0.516412	5.614956	0.097999	25.687158	6.134885	0.000000	-0.395895	-0.095218	0.534920	1.726208	0.030128	21.558158	-8.546889	0.000000	0.138684	0.036864	0.339061	0.257549	0.049029	0.360252	0.227843	0.089631	0.360252	0.158502	0.089631	0.296678	0.128782	0.075173	0.275487	0.079244	0.057102	0.254295	0.990604	0.417012	1.885753	0.000000	0.000000	27.552854	3.989739	6.954071	12.168269	-4.373662	56.322451	39.007595	66.646361	6.845731	6.564654	8.050579	-10.460430	44.913871	48.316196	79.164481	0.287892	-3.490504
3.500000	-0.514008	-1.841216	89.075720	0.233744	0.828383	0.641262	0.415214	-0.092040	0.284615	5.554612	0.096946	25.640507	6.064613	0.000000	-0.430290	-0.205792	0.821794	1.606438	0.028038	21.530957	-8.688307	0.000000	0.137288	0.051440	0.288526	0.254957	0.068415	0.306559	0.225550	0.125071	0.306559	0.156906	0.125071	0.252460	0.127485	0.104896	0.234427	0.078446	0.079681	0.216395	0.980633	0.581899	1.604695	0.000000	0.000000	27.543653	4.095619	7.090709	12.366961	-4.325740	56.634461	38.938275	64.191297	6.764414	7.106650	8.101154	-10.272328	44.835127	48.032998	78.047551	-0.422389	-3.364129
3.533333	-0.383511	-1.846746	89.309949	0.233324	0.828213	0.641784	0.429002	0.043919	-0.025613	5.446079	0.095052	25.621818	5.922372	0.000000	-0.456089	-0.347669	1.248075	1.421132	0.024803	21.474104	-8.903766	0.000000	0.135374	0.069471	0.236906	0.251403	0.092396	0.251713	0.222406	0.168912	0.251713	0.154719	0.168912	0.207293	0.125708	0.141665	0.192486	0.077353	0.107611	0.177680	0.966964	0.785870	1.317601	0.000000	0.000000	27.514736	4.195538	7.182244	12.561326	-4.307298	56.863111	38.928149	61.396493	6.692905	7.817465	8.226348	-10.056665	44.922465	47.621529	76.844903	-1.054523	-3.342692
3.566667	-0.222000	-1.878340	89.617855	0.232772	0.827977	0.642478	0.474483	0.216511	-0.418682	5.281869	0.092186	25.635816	5.695743	0.000000	-0.470993	-0.524732	1.834107	1.162932	0.020297	21.380380	-9.209223	0.000000	0.132814	0.091383	0.184773	0.246650	0.121539	0.196321	0.218201	0.222188	0.196321	0.151794	0.222188	0.161676	0.123332	0.186347	0.150128	0.075890	0.141552	0.138580	0.948681	1.033738	1.027651	0.000000	0.000000	27.462487	4.291788	7.222670	12.747987	-4.323714	56.989066	38.988082	58.258730	6.632761	8.714039	8.435619	-9.811367	45.195500	47.069646	75.558790	-1.579242	-3.435157
3.600000	-0.026054	-1.939741	90.006763	0.232074	0.827668	0.643361	0.555760	0.430073	-0.899002	5.054496	0.088218	25.687222	5.372309	0.000000	-0.472699	-0.740860	2.600235	0.824482	0.014390	21.242564	-9.620634	0.000000	0.129481	0.117600	0.132698	0.240459	0.156408	0.140992	0.212724	0.285934	0.140992	0.147984	0.285934	0.116111	0.120236	0.239811	0.107817	0.073985	0.182163	0.099523	0.924869	1.330319	0.738026	0.000000	0.000000	27.383294	4.386659	7.205982	12.923567	-4.380363	56.992988	39.128939	54.774786	6.585540	9.813312	8.738423	-9.534362	45.673848	46.365208	74.191463	-1.967277	-3.650488
3.633333	0.207749	-2.034690	90.483996	0.231217	0.827279	0.644449	0.676939	0.688946	-1.470983	4.756473	0.083016	25.780760	4.939653	0.000000	-0.458908	-0.999935	3.566802	0.398424	0.006954	21.053432	-10.153955	0.000000	0.125245	0.148550	0.081253	0.232593	0.197572	0.086332	0.205766	0.361185	0.086332	0.143143	0.361185	0.071097	0.116303	0.302923	0.066018	0.071565	0.230104	0.060940	0.894615	1.680428	0.451907	0.000000	0.000000	27.273543	4.482443	7.126175	13.084688	-4.482622	56.855541	39.361587	50.941440	6.552801	11.132226	9.144220	-9.223579	46.377125	45.496073	72.745177	-2.189360	-3.997649
