Model Marker Errors from IK
version=1
nRows=216
nColumns=4
inDegrees=no
endheader
time	total_squared_error	marker_error_RMS	marker_error_max
      0.00000000	      0.03676325	      0.03689989	      0.08354165
      0.01666667	      0.03838354	      0.03770428	      0.08273805
      0.03333333	      0.04010858	      0.03854222	      0.08203061
      0.05000000	      0.04155045	      0.03922889	      0.08163272
      0.06666667	      0.04247535	      0.03966309	      0.08082216
      0.08333333	      0.04292540	      0.03987267	      0.07990071
      0.10000000	      0.04296579	      0.03989142	      0.07905800
      0.11666667	      0.04271296	      0.03977388	      0.07862305
      0.13333333	      0.04237618	      0.03961677	      0.07878171
      0.15000000	      0.04205108	      0.03946451	      0.07946557
      0.16666667	      0.04172117	      0.03930939	      0.07997369
      0.18333333	      0.04138568	      0.03915103	      0.08036937
      0.20000000	      0.04116109	      0.03904465	      0.08118017
      0.21666667	      0.04101367	      0.03897467	      0.08200980
      0.23333333	      0.04100326	      0.03896972	      0.08267893
      0.25000000	      0.04107583	      0.03900419	      0.08304966
      0.26666667	      0.04116402	      0.03904604	      0.08304348
      0.28333333	      0.04124980	      0.03908670	      0.08280225
      0.30000000	      0.04122691	      0.03907586	      0.08204167
      0.31666667	      0.04103766	      0.03898607	      0.08116746
      0.33333333	      0.04029133	      0.03862993	      0.07939162
      0.35000000	      0.03910725	      0.03805807	      0.07810784
      0.36666667	      0.03752635	      0.03728089	      0.07769784
      0.38333333	      0.03561375	      0.03631842	      0.07839868
      0.40000000	      0.03379193	      0.03537729	      0.08028018
      0.41666667	      0.03211213	      0.03448678	      0.08315144
      0.43333333	      0.03072283	      0.03373252	      0.08664833
      0.45000000	      0.02982519	      0.03323608	      0.08971480
      0.46666667	      0.02962097	      0.03312209	      0.09093772
      0.48333333	      0.02978542	      0.03321391	      0.09005702
      0.50000000	      0.02939201	      0.03299383	      0.08720551
      0.51666667	      0.02777273	      0.03207210	      0.08318625
      0.53333333	      0.02536621	      0.03065109	      0.07880697
      0.55000000	      0.02333114	      0.02939585	      0.07483162
      0.56666667	      0.02239115	      0.02879760	      0.07163674
      0.58333333	      0.02261258	      0.02893964	      0.06913258
      0.60000000	      0.02353740	      0.02952551	      0.06659297
      0.61666667	      0.02458081	      0.03017284	      0.06258323
      0.63333333	      0.02513040	      0.03050829	      0.06138715
      0.65000000	      0.02469375	      0.03024208	      0.06243454
      0.66666667	      0.02318464	      0.02930342	      0.06120670
      0.68333333	      0.02107187	      0.02793635	      0.05948819
      0.70000000	      0.01918735	      0.02665788	      0.05678186
      0.71666667	      0.01814585	      0.02592428	      0.05432730
      0.73333333	      0.01819471	      0.02595916	      0.05349110
      0.75000000	      0.01902622	      0.02654571	      0.05396457
      0.76666667	      0.02011832	      0.02729694	      0.05510211
      0.78333333	      0.02104142	      0.02791615	      0.05599883
      0.80000000	      0.02171512	      0.02835955	      0.05642969
      0.81666667	      0.02223684	      0.02869820	      0.05631501
      0.83333333	      0.02271595	      0.02900572	      0.05562358
      0.85000000	      0.02335631	      0.02941171	      0.05543569
      0.86666667	      0.02428191	      0.02998883	      0.05554645
      0.88333333	      0.02530419	      0.03061360	      0.05950315
      0.90000000	      0.02595955	      0.03100749	      0.06265585
      0.91666667	      0.02581682	      0.03092214	      0.06357016
      0.93333333	      0.02487905	      0.03035533	      0.06263647
      0.95000000	      0.02353829	      0.02952606	      0.06240871
      0.96666667	      0.02201173	      0.02855257	      0.06107427
      0.98333333	      0.02035093	      0.02745429	      0.05696255
      1.00000000	      0.01887980	      0.02644337	      0.05186583
      1.01666667	      0.01815513	      0.02593091	      0.04906993
      1.03333333	      0.01810238	      0.02589322	      0.04932743
      1.05000000	      0.01861664	      0.02625843	      0.05173093
      1.06666667	      0.01918567	      0.02665671	      0.05344745
      1.08333333	      0.01955995	      0.02691547	      0.05368302
      1.10000000	      0.01974662	      0.02704360	      0.05269553
      1.11666667	      0.01988632	      0.02713910	      0.05135560
      1.13333333	      0.02005027	      0.02725074	      0.04960931
      1.15000000	      0.02027336	      0.02740192	      0.04897080
      1.16666667	      0.02072341	      0.02770440	      0.04886646
      1.18333333	      0.02139230	      0.02814796	      0.05207062
      1.20000000	      0.02221517	      0.02868421	      0.05551756
      1.21666667	      0.02319515	      0.02931006	      0.05997187
      1.23333333	      0.02447229	      0.03010616	      0.06165571
      1.25000000	      0.02588831	      0.03096492	      0.06310651
      1.26666667	      0.02679413	      0.03150199	      0.06621740
      1.28333333	      0.02657464	      0.03137269	      0.06722457
      1.30000000	      0.02507808	      0.03047651	      0.06437818
      1.31666667	      0.02273303	      0.02901662	      0.05813027
      1.33333333	      0.02036062	      0.02746083	      0.05166181
      1.35000000	      0.01843531	      0.02613024	      0.04666371
      1.36666667	      0.01762101	      0.02554662	      0.04637221
      1.38333333	      0.01802679	      0.02583910	      0.04876806
      1.40000000	      0.01937978	      0.02679122	      0.05265729
      1.41666667	      0.02070347	      0.02769107	      0.05511061
      1.43333333	      0.02140283	      0.02815488	      0.05630712
      1.45000000	      0.02134534	      0.02811705	      0.05513315
      1.46666667	      0.02086800	      0.02780088	      0.05175424
      1.48333333	      0.02031927	      0.02743293	      0.05119463
      1.50000000	      0.01994228	      0.02717725	      0.05035015
      1.51666667	      0.02005905	      0.02725670	      0.04886308
      1.53333333	      0.02087464	      0.02780530	      0.04884361
      1.55000000	      0.02229912	      0.02873836	      0.05731501
      1.56666667	      0.02376705	      0.02966920	      0.06395313
      1.58333333	      0.02469414	      0.03024231	      0.06698023
      1.60000000	      0.02482668	      0.03032337	      0.06696165
      1.61666667	      0.02418291	      0.02992763	      0.06486059
      1.63333333	      0.02298035	      0.02917403	      0.06091277
      1.65000000	      0.02140737	      0.02815787	      0.05632776
      1.66666667	      0.01967376	      0.02699366	      0.05306386
      1.68333333	      0.01823938	      0.02599101	      0.04968933
      1.70000000	      0.01748680	      0.02544915	      0.04832053
      1.71666667	      0.01752988	      0.02548048	      0.05006481
      1.73333333	      0.01826139	      0.02600669	      0.05259139
      1.75000000	      0.01930751	      0.02674122	      0.05541147
      1.76666667	      0.01996346	      0.02719168	      0.05628919
      1.78333333	      0.01976722	      0.02705770	      0.05405371
      1.80000000	      0.01895490	      0.02649591	      0.04907881
      1.81666667	      0.01823495	      0.02598785	      0.04937440
      1.83333333	      0.01821163	      0.02597123	      0.05065914
      1.85000000	      0.01920464	      0.02666989	      0.05050258
      1.86666667	      0.02107523	      0.02793858	      0.05060440
      1.88333333	      0.02317589	      0.02929789	      0.05706693
      1.90000000	      0.02472964	      0.03026405	      0.06456735
      1.91666667	      0.02529955	      0.03061079	      0.06742257
      1.93333333	      0.02480534	      0.03031033	      0.06663588
      1.95000000	      0.02337040	      0.02942058	      0.06302273
      1.96666667	      0.02152794	      0.02823705	      0.05882691
      1.98333333	      0.01966160	      0.02698532	      0.05277370
      2.00000000	      0.01804607	      0.02585291	      0.04719679
      2.01666667	      0.01704462	      0.02512533	      0.04755471
      2.03333333	      0.01696806	      0.02506884	      0.04785090
      2.05000000	      0.01770968	      0.02561082	      0.04915534
      2.06666667	      0.01877657	      0.02637098	      0.05292120
      2.08333333	      0.01961033	      0.02695011	      0.05477570
      2.10000000	      0.01988842	      0.02714053	      0.05415373
      2.11666667	      0.01986584	      0.02712511	      0.05153576
      2.13333333	      0.01989360	      0.02714406	      0.05124106
      2.15000000	      0.02036113	      0.02746117	      0.05157359
      2.16666667	      0.02151696	      0.02822985	      0.05193079
      2.18333333	      0.02323359	      0.02933434	      0.05486681
      2.20000000	      0.02503506	      0.03045036	      0.06185067
      2.21666667	      0.02639458	      0.03126623	      0.06601807
      2.23333333	      0.02686345	      0.03154271	      0.06650942
      2.25000000	      0.02619361	      0.03114697	      0.06343648
      2.26666667	      0.02455570	      0.03015742	      0.06180247
      2.28333333	      0.02239086	      0.02879742	      0.06113626
      2.30000000	      0.01998965	      0.02720951	      0.05628278
      2.31666667	      0.01777099	      0.02565511	      0.04903265
      2.33333333	      0.01632504	      0.02458925	      0.04817486
      2.35000000	      0.01595531	      0.02430921	      0.04730103
      2.36666667	      0.01654396	      0.02475357	      0.04682484
      2.38333333	      0.01767675	      0.02558700	      0.04915023
      2.40000000	      0.01859412	      0.02624254	      0.05138858
      2.41666667	      0.01876447	      0.02636248	      0.05119459
      2.43333333	      0.01816302	      0.02593655	      0.05052654
      2.45000000	      0.01729601	      0.02530994	      0.05123461
      2.46666667	      0.01686753	      0.02499446	      0.05156018
      2.48333333	      0.01723172	      0.02526286	      0.05195553
      2.50000000	      0.01839414	      0.02610104	      0.05167225
      2.51666667	      0.01999641	      0.02721411	      0.05171763
      2.53333333	      0.02153810	      0.02824371	      0.05341502
      2.55000000	      0.02273646	      0.02901881	      0.05533928
      2.56666667	      0.02342176	      0.02945289	      0.05521192
      2.58333333	      0.02339836	      0.02943817	      0.05384007
      2.60000000	      0.02264847	      0.02896260	      0.05288239
      2.61666667	      0.02152053	      0.02823220	      0.05598755
      2.63333333	      0.02011418	      0.02729413	      0.05514474
      2.65000000	      0.01839934	      0.02610473	      0.05031514
      2.66666667	      0.01687332	      0.02499875	      0.04958933
      2.68333333	      0.01614758	      0.02445523	      0.04926209
      2.70000000	      0.01626423	      0.02454341	      0.04927505
      2.71666667	      0.01684805	      0.02498003	      0.05035522
      2.73333333	      0.01739585	      0.02538288	      0.05245668
      2.75000000	      0.01753508	      0.02548426	      0.05323667
      2.76666667	      0.01725295	      0.02527841	      0.05285162
      2.78333333	      0.01677799	      0.02492803	      0.05266302
      2.80000000	      0.01658369	      0.02478327	      0.05266114
      2.81666667	      0.01708689	      0.02515646	      0.05244106
      2.83333333	      0.01846899	      0.02615409	      0.05230150
      2.85000000	      0.02056460	      0.02759804	      0.05190646
      2.86666667	      0.02287402	      0.02910646	      0.05586695
      2.88333333	      0.02490124	      0.03036887	      0.06227399
      2.90000000	      0.02644142	      0.03129396	      0.06475214
      2.91666667	      0.02752094	      0.03192639	      0.06285665
      2.93333333	      0.02838221	      0.03242211	      0.05819940
      2.95000000	      0.02928643	      0.03293452	      0.06089458
      2.96666667	      0.03018951	      0.03343845	      0.06494592
      2.98333333	      0.03110604	      0.03394224	      0.07039350
      3.00000000	      0.03200539	      0.03442942	      0.07601205
      3.01666667	      0.03293233	      0.03492443	      0.08105874
      3.03333333	      0.03334822	      0.03514427	      0.08235017
      3.05000000	      0.03313319	      0.03503077	      0.08056516
      3.06666667	      0.03225050	      0.03456100	      0.08148496
      3.08333333	      0.03130024	      0.03404803	      0.08367047
      3.10000000	      0.03095813	      0.03386145	      0.08610106
      3.11666667	      0.03189125	      0.03436797	      0.08909158
      3.13333333	      0.03449316	      0.03574247	      0.09274431
      3.15000000	      0.03874476	      0.03788128	      0.09733719
      3.16666667	      0.04420466	      0.04046245	      0.10317219
      3.18333333	      0.05024813	      0.04313979	      0.10988911
      3.20000000	      0.05637748	      0.04569524	      0.11716276
      3.21666667	      0.06218154	      0.04798979	      0.12385193
      3.23333333	      0.06683761	      0.04975406	      0.12866642
      3.25000000	      0.06960582	      0.05077394	      0.13029352
      3.26666667	      0.07044150	      0.05107783	      0.12866382
      3.28333333	      0.07000064	      0.05091774	      0.12479354
      3.30000000	      0.06886598	      0.05050338	      0.11986270
      3.31666667	      0.06712704	      0.04986168	      0.11517690
      3.33333333	      0.06426511	      0.04878718	      0.10986299
      3.35000000	      0.06068343	      0.04740817	      0.10481291
      3.36666667	      0.05692859	      0.04591804	      0.09897641
      3.38333333	      0.05362355	      0.04456520	      0.09356603
      3.40000000	      0.05133807	      0.04360516	      0.08973439
      3.41666667	      0.04989839	      0.04298940	      0.08495816
      3.43333333	      0.04939715	      0.04277294	      0.08165926
      3.45000000	      0.04958808	      0.04285552	      0.07919416
      3.46666667	      0.05004741	      0.04305355	      0.07832564
      3.48333333	      0.05036083	      0.04318815	      0.07758193
      3.50000000	      0.05034375	      0.04318082	      0.07779683
      3.51666667	      0.04999385	      0.04303050	      0.07769933
      3.53333333	      0.04939735	      0.04277302	      0.07776642
      3.55000000	      0.04848959	      0.04237819	      0.07739765
      3.56666667	      0.04737457	      0.04188811	      0.07711087
      3.58333333	      0.04611461	      0.04132733	      0.07504590
