Model Marker Errors from IK
version=1
nRows=580
nColumns=4
inDegrees=no
endheader
time	total_squared_error	marker_error_RMS	marker_error_max
      0.00000000	      0.03084470	      0.03379935	      0.06686407
      0.01666667	      0.03129979	      0.03404778	      0.06812196
      0.03333333	      0.03198566	      0.03441880	      0.06917124
      0.05000000	      0.03253201	      0.03471151	      0.06999195
      0.06666667	      0.03300018	      0.03496039	      0.07062561
      0.08333333	      0.03334314	      0.03514158	      0.07105856
      0.10000000	      0.03360188	      0.03527767	      0.07169641
      0.11666667	      0.03364602	      0.03530084	      0.07155305
      0.13333333	      0.03373897	      0.03534956	      0.07160954
      0.15000000	      0.03377862	      0.03537033	      0.07177096
      0.16666667	      0.03379339	      0.03537806	      0.07184316
      0.18333333	      0.03376852	      0.03536504	      0.07177662
      0.20000000	      0.03383372	      0.03539916	      0.07167911
      0.21666667	      0.03387479	      0.03542064	      0.07163638
      0.23333333	      0.03392215	      0.03544539	      0.07162247
      0.25000000	      0.03394316	      0.03545637	      0.07179273
      0.26666667	      0.03378516	      0.03537375	      0.07212966
      0.28333333	      0.03362443	      0.03528950	      0.07265933
      0.30000000	      0.03346726	      0.03520693	      0.07330830
      0.31666667	      0.03342444	      0.03518440	      0.07395188
      0.33333333	      0.03341281	      0.03517828	      0.07462253
      0.35000000	      0.03357585	      0.03526400	      0.07520717
      0.36666667	      0.03390322	      0.03543550	      0.07574260
      0.38333333	      0.03440971	      0.03569921	      0.07630186
      0.40000000	      0.03505843	      0.03603415	      0.07687248
      0.41666667	      0.03571029	      0.03636761	      0.07723745
      0.43333333	      0.03618625	      0.03660917	      0.07735026
      0.45000000	      0.03637434	      0.03670419	      0.07714682
      0.46666667	      0.03622492	      0.03662873	      0.07673579
      0.48333333	      0.03581749	      0.03642216	      0.07624341
      0.50000000	      0.03533023	      0.03617357	      0.07567696
      0.51666667	      0.03468085	      0.03583959	      0.07543423
      0.53333333	      0.03416016	      0.03556953	      0.07527224
      0.55000000	      0.03378429	      0.03537329	      0.07518608
      0.56666667	      0.03357981	      0.03526608	      0.07521273
      0.58333333	      0.03352813	      0.03523894	      0.07507486
      0.60000000	      0.03358266	      0.03526758	      0.07497383
      0.61666667	      0.03367855	      0.03531790	      0.07484821
      0.63333333	      0.03372685	      0.03534321	      0.07460938
      0.65000000	      0.03367255	      0.03531475	      0.07446007
      0.66666667	      0.03347975	      0.03521350	      0.07414452
      0.68333333	      0.03318042	      0.03505573	      0.07383187
      0.70000000	      0.03286337	      0.03488784	      0.07371054
      0.71666667	      0.03257204	      0.03473286	      0.07363276
      0.73333333	      0.03233652	      0.03460706	      0.07365489
      0.75000000	      0.03215911	      0.03451200	      0.07386630
      0.76666667	      0.03202606	      0.03444053	      0.07406308
      0.78333333	      0.03191739	      0.03438205	      0.07420899
      0.80000000	      0.03180399	      0.03432092	      0.07429184
      0.81666667	      0.03166943	      0.03424824	      0.07404251
      0.83333333	      0.03152177	      0.03416830	      0.07370794
      0.85000000	      0.03132981	      0.03406411	      0.07320982
      0.86666667	      0.03105765	      0.03391583	      0.07272370
      0.88333333	      0.03071100	      0.03372602	      0.07217311
      0.90000000	      0.03035623	      0.03353066	      0.07158588
      0.91666667	      0.03010040	      0.03338906	      0.07110214
      0.93333333	      0.03000933	      0.03333852	      0.07063358
      0.95000000	      0.03010492	      0.03339157	      0.07004055
      0.96666667	      0.03039018	      0.03354940	      0.06983837
      0.98333333	      0.03077215	      0.03375958	      0.06960450
      1.00000000	      0.03125661	      0.03402429	      0.06963567
      1.01666667	      0.03171430	      0.03427249	      0.06969247
      1.03333333	      0.03202453	      0.03443971	      0.06972382
      1.05000000	      0.03206066	      0.03445913	      0.06975814
      1.06666667	      0.03179407	      0.03431557	      0.06991904
      1.08333333	      0.03125750	      0.03402477	      0.07018937
      1.10000000	      0.03060429	      0.03366738	      0.07049787
      1.11666667	      0.02998526	      0.03332514	      0.07065796
      1.13333333	      0.02951071	      0.03306039	      0.07076494
      1.15000000	      0.02920201	      0.03288702	      0.07079306
      1.16666667	      0.02909137	      0.03282466	      0.07094719
      1.18333333	      0.02923945	      0.03290809	      0.07128684
      1.20000000	      0.02968313	      0.03315683	      0.07190576
      1.21666667	      0.03037858	      0.03354299	      0.07264132
      1.23333333	      0.03106782	      0.03392138	      0.07336971
      1.25000000	      0.03135741	      0.03407911	      0.07375534
      1.26666667	      0.03090373	      0.03383168	      0.07338836
      1.28333333	      0.02999914	      0.03333285	      0.07214483
      1.30000000	      0.02891854	      0.03272701	      0.06987527
      1.31666667	      0.02772324	      0.03204351	      0.06661525
      1.33333333	      0.02626886	      0.03119168	      0.06251884
      1.35000000	      0.02455273	      0.03015560	      0.05778677
      1.36666667	      0.02289265	      0.02911831	      0.05294657
      1.38333333	      0.02167752	      0.02833498	      0.05209602
      1.40000000	      0.02114558	      0.02798517	      0.05058869
      1.41666667	      0.02118233	      0.02800948	      0.04867917
      1.43333333	      0.02139761	      0.02815145	      0.04702115
      1.45000000	      0.02131334	      0.02809596	      0.04524139
      1.46666667	      0.02071236	      0.02769701	      0.04395986
      1.48333333	      0.02001380	      0.02722594	      0.04270629
      1.50000000	      0.01997390	      0.02719879	      0.04394758
      1.51666667	      0.02086363	      0.02779797	      0.05061363
      1.53333333	      0.02216883	      0.02865428	      0.05583084
      1.55000000	      0.02325993	      0.02935096	      0.05655508
      1.56666667	      0.02404560	      0.02984255	      0.05724794
      1.58333333	      0.02436115	      0.03003772	      0.05525462
      1.60000000	      0.02494828	      0.03039754	      0.05543403
      1.61666667	      0.02512173	      0.03050302	      0.05465472
      1.63333333	      0.02461993	      0.03019684	      0.05210479
      1.65000000	      0.02377485	      0.02967407	      0.05103967
      1.66666667	      0.02312667	      0.02926676	      0.04967593
      1.68333333	      0.02330010	      0.02937630	      0.04913664
      1.70000000	      0.02428717	      0.02999208	      0.04903974
      1.71666667	      0.02567181	      0.03083517	      0.04988906
      1.73333333	      0.02673625	      0.03146794	      0.05365127
      1.75000000	      0.02723294	      0.03175889	      0.05480808
      1.76666667	      0.02722709	      0.03175548	      0.05389573
      1.78333333	      0.02694812	      0.03159238	      0.05434917
      1.80000000	      0.02658218	      0.03137714	      0.05500498
      1.81666667	      0.02623494	      0.03117153	      0.05462761
      1.83333333	      0.02603729	      0.03105389	      0.05349148
      1.85000000	      0.02586581	      0.03095146	      0.05278662
      1.86666667	      0.02577252	      0.03089560	      0.05251745
      1.88333333	      0.02337280	      0.02942209	      0.05032315
      1.90000000	      0.02279461	      0.02905589	      0.04884638
      1.91666667	      0.02222713	      0.02869193	      0.04736589
      1.93333333	      0.02175605	      0.02838626	      0.04612862
      1.95000000	      0.02146664	      0.02819682	      0.04544765
      1.96666667	      0.02147519	      0.02820243	      0.04552816
      1.98333333	      0.02193043	      0.02849979	      0.04595757
      2.00000000	      0.02288518	      0.02911356	      0.05095769
      2.01666667	      0.02427332	      0.02998353	      0.05687395
      2.03333333	      0.02571504	      0.03086112	      0.06346683
      2.05000000	      0.02669777	      0.03144529	      0.06829967
      2.06666667	      0.02657854	      0.03137500	      0.06818797
      2.08333333	      0.02499297	      0.03042475	      0.06704679
      2.10000000	      0.02248260	      0.02885635	      0.06141577
      2.11666667	      0.02006369	      0.02725985	      0.05408545
      2.13333333	      0.01880872	      0.02639355	      0.04632518
      2.15000000	      0.01909866	      0.02659620	      0.04299932
      2.16666667	      0.02045380	      0.02752359	      0.04490882
      2.18333333	      0.02200774	      0.02854998	      0.05093831
      2.20000000	      0.02327131	      0.02935814	      0.05419515
      2.21666667	      0.02452999	      0.03014164	      0.05527839
      2.23333333	      0.02639335	      0.03126550	      0.05994517
      2.25000000	      0.02857198	      0.03253032	      0.06761650
      2.26666667	      0.03147453	      0.03414269	      0.07889297
      2.28333333	      0.03549367	      0.03625714	      0.08977447
      2.30000000	      0.04080204	      0.03887398	      0.09995413
      2.31666667	      0.04715149	      0.04178937	      0.11035777
      2.33333333	      0.05392831	      0.04469166	      0.12061187
      2.35000000	      0.06051249	      0.04734135	      0.13012565
      2.36666667	      0.06634274	      0.04956953	      0.13809500
      2.38333333	      0.07104409	      0.05129583	      0.14420336
      2.40000000	      0.07455444	      0.05254784	      0.14784534
      2.41666667	      0.07689549	      0.05336648	      0.14894410
      2.43333333	      0.07812867	      0.05379270	      0.14755527
      2.45000000	      0.07818333	      0.05381151	      0.14417655
      2.46666667	      0.07837183	      0.05387634	      0.13986814
      2.48333333	      0.07395320	      0.05233553	      0.13683480
      2.50000000	      0.07742101	      0.05354853	      0.13399042
      2.51666667	      0.08074672	      0.05468655	      0.13919872
      2.53333333	      0.01237769	      0.02141105	      0.04156343
      2.55000000	      0.01304214	      0.02197822	      0.03918652
      2.56666667	      0.01379388	      0.02260275	      0.03709068
      2.58333333	      0.01445923	      0.02314146	      0.03618223
      2.60000000	      0.01477269	      0.02339095	      0.03628138
      2.61666667	      0.01477376	      0.02339180	      0.03755497
      2.63333333	      0.01475732	      0.02337878	      0.03885034
      2.65000000	      0.01482745	      0.02343426	      0.03966455
      2.66666667	      0.01493264	      0.02351725	      0.03969016
      2.68333333	      0.01502251	      0.02358791	      0.04073122
      2.70000000	      0.01527660	      0.02378655	      0.04315526
      2.71666667	      0.01594342	      0.02430015	      0.04602012
      2.73333333	      0.01707753	      0.02514958	      0.04902160
      2.75000000	      0.01844109	      0.02613433	      0.05167531
      2.76666667	      0.01975402	      0.02704866	      0.05335287
      2.78333333	      0.02075922	      0.02772833	      0.05464609
      2.80000000	      0.02119325	      0.02801670	      0.05423822
      2.81666667	      0.02109693	      0.02795296	      0.05434764
      2.83333333	      0.02078270	      0.02774400	      0.05266103
      2.85000000	      0.02073929	      0.02771501	      0.05216995
      2.86666667	      0.02130233	      0.02808870	      0.05216362
      2.88333333	      0.02241433	      0.02881251	      0.05224177
      2.90000000	      0.02367692	      0.02961289	      0.05156256
      2.91666667	      0.02449939	      0.03012283	      0.04992768
      2.93333333	      0.02418158	      0.02992681	      0.04914125
      2.95000000	      0.02243405	      0.02882517	      0.04977329
      2.96666667	      0.01965886	      0.02698344	      0.04403732
      2.98333333	      0.01683461	      0.02497006	      0.04272953
      3.00000000	      0.01482766	      0.02343443	      0.04203837
      3.01666667	      0.01412588	      0.02287315	      0.04200853
      3.03333333	      0.01450736	      0.02317994	      0.04246353
      3.05000000	      0.01574360	      0.02414738	      0.04304880
      3.06666667	      0.01777209	      0.02565590	      0.04389714
      3.08333333	      0.02019899	      0.02735161	      0.04761173
      3.10000000	      0.02219682	      0.02867236	      0.04859643
      3.11666667	      0.02342192	      0.02945299	      0.04860724
      3.13333333	      0.02405000	      0.02984528	      0.04943465
      3.15000000	      0.02429710	      0.02999821	      0.04928790
      3.16666667	      0.02416821	      0.02991854	      0.05086139
      3.18333333	      0.02455384	      0.03015628	      0.05315250
      3.20000000	      0.02556122	      0.03076868	      0.05457749
      3.21666667	      0.02718950	      0.03173355	      0.05569756
      3.23333333	      0.02869581	      0.03260073	      0.05645626
      3.25000000	      0.02920458	      0.03288846	      0.05837218
      3.26666667	      0.02852657	      0.03250446	      0.06184835
      3.28333333	      0.02729177	      0.03179318	      0.06400273
      3.30000000	      0.02607637	      0.03107719	      0.06498501
      3.31666667	      0.02520733	      0.03055495	      0.06505057
      3.33333333	      0.02467179	      0.03022863	      0.06465553
      3.35000000	      0.02427739	      0.02998604	      0.06378675
      3.36666667	      0.02400635	      0.02981818	      0.06283169
      3.38333333	      0.02381930	      0.02970179	      0.06184330
      3.40000000	      0.02369767	      0.02962586	      0.06086652
      3.41666667	      0.02382719	      0.02970671	      0.06002378
      3.43333333	      0.02429311	      0.02999575	      0.05936468
      3.45000000	      0.02505226	      0.03046082	      0.05891044
      3.46666667	      0.02585838	      0.03094702	      0.05867109
      3.48333333	      0.02673924	      0.03146970	      0.05860073
      3.50000000	      0.02748793	      0.03190723	      0.05837885
      3.51666667	      0.02815239	      0.03229057	      0.05814483
      3.53333333	      0.02854022	      0.03251223	      0.05766316
      3.55000000	      0.02864030	      0.03256919	      0.05718863
      3.56666667	      0.02848284	      0.03247953	      0.05685767
      3.58333333	      0.02826488	      0.03235502	      0.05721999
      3.60000000	      0.02813314	      0.03227953	      0.05783143
      3.61666667	      0.02809601	      0.03225822	      0.05794302
      3.63333333	      0.02805739	      0.03223604	      0.05828158
      3.65000000	      0.02782316	      0.03210121	      0.05882448
      3.66666667	      0.02740282	      0.03185780	      0.05922959
      3.68333333	      0.02683658	      0.03152693	      0.05933479
      3.70000000	      0.02620397	      0.03115313	      0.05914250
      3.71666667	      0.02556848	      0.03077305	      0.05874673
      3.73333333	      0.02509078	      0.03048423	      0.05841406
      3.75000000	      0.02480410	      0.03030957	      0.05821738
      3.76666667	      0.02473853	      0.03026949	      0.05804115
      3.78333333	      0.02496930	      0.03041034	      0.05792792
      3.80000000	      0.02567361	      0.03083625	      0.05781087
      3.81666667	      0.02646659	      0.03130885	      0.05772047
      3.83333333	      0.02698245	      0.03161250	      0.05783554
      3.85000000	      0.02727341	      0.03178248	      0.05820954
      3.86666667	      0.02758947	      0.03196611	      0.05886898
      3.88333333	      0.02798408	      0.03219391	      0.05978270
      3.90000000	      0.02858427	      0.03253731	      0.06087754
      3.91666667	      0.02946030	      0.03303214	      0.06209431
      3.93333333	      0.03035201	      0.03352833	      0.06322406
      3.95000000	      0.03115077	      0.03396664	      0.06397559
      3.96666667	      0.03203804	      0.03444697	      0.06399153
      3.98333333	      0.03314551	      0.03503729	      0.06317508
      4.00000000	      0.03462400	      0.03581020	      0.06163571
      4.01666667	      0.03625039	      0.03664160	      0.06509296
      4.03333333	      0.03770847	      0.03737124	      0.06862245
      4.05000000	      0.03832522	      0.03767563	      0.06995093
      4.06666667	      0.03731687	      0.03717669	      0.06945676
      4.08333333	      0.03448884	      0.03574023	      0.06800736
      4.10000000	      0.03091265	      0.03383656	      0.06665231
      4.11666667	      0.02902405	      0.03278666	      0.06621972
      4.13333333	      0.03100386	      0.03388645	      0.06658388
      4.15000000	      0.03675095	      0.03689372	      0.07539375
      4.16666667	      0.04435200	      0.04052982	      0.09983237
      4.18333333	      0.05317461	      0.04437826	      0.12268236
      4.20000000	      0.06198374	      0.04791340	      0.13971028
      4.21666667	      0.06894461	      0.05053221	      0.14809808
      4.23333333	      0.07397250	      0.05234235	      0.14854130
      4.25000000	      0.07840225	      0.05388680	      0.14492608
      4.26666667	      0.08306496	      0.05546602	      0.14102290
      4.28333333	      0.08754568	      0.05694236	      0.14011069
      4.30000000	      0.02400270	      0.02981591	      0.04559124
      4.31666667	      0.02405678	      0.02984948	      0.04715815
      4.33333333	      0.02462360	      0.03019909	      0.04812852
      4.35000000	      0.02497489	      0.03041375	      0.04829016
      4.36666667	      0.02444041	      0.03008655	      0.04872014
      4.38333333	      0.02304454	      0.02921475	      0.04822755
      4.40000000	      0.02136476	      0.02812983	      0.04834777
      4.41666667	      0.02013292	      0.02730684	      0.04933674
      4.43333333	      0.01977396	      0.02706232	      0.05089812
      4.45000000	      0.02031003	      0.02742669	      0.05230072
      4.46666667	      0.02154816	      0.02825031	      0.05322676
      4.48333333	      0.02329202	      0.02937120	      0.05405463
      4.50000000	      0.02496792	      0.03040950	      0.05410292
      4.51666667	      0.02608595	      0.03108289	      0.05453326
      4.53333333	      0.02695329	      0.03159541	      0.06055922
      4.55000000	      0.02840823	      0.03243696	      0.07101815
      4.56666667	      0.03087787	      0.03381752	      0.08247929
      4.58333333	      0.03460848	      0.03580217	      0.09593376
      4.60000000	      0.03845096	      0.03773738	      0.10963476
      4.61666667	      0.03999568	      0.03848794	      0.11655927
      4.63333333	      0.03784309	      0.03743789	      0.11213822
      4.65000000	      0.03331938	      0.03512907	      0.09914935
      4.66666667	      0.02933423	      0.03296139	      0.08586377
      4.68333333	      0.02742771	      0.03187226	      0.07629127
      4.70000000	      0.02720692	      0.03174372	      0.06840568
      4.71666667	      0.02772799	      0.03204625	      0.06096665
      4.73333333	      0.02812272	      0.03227355	      0.05523748
      4.75000000	      0.02787234	      0.03212956	      0.05489500
      4.76666667	      0.02701899	      0.03163389	      0.05379540
      4.78333333	      0.02605510	      0.03106451	      0.05298352
      4.80000000	      0.02534052	      0.03063556	      0.05490280
      4.81666667	      0.02478125	      0.03029561	      0.05623353
      4.83333333	      0.02423035	      0.02995698	      0.05673564
      4.85000000	      0.02369442	      0.02962383	      0.05671110
      4.86666667	      0.02320421	      0.02931579	      0.05592105
      4.88333333	      0.02290632	      0.02912700	      0.05450107
      4.90000000	      0.02280630	      0.02906334	      0.05282757
      4.91666667	      0.02300596	      0.02919028	      0.05202485
      4.93333333	      0.02370535	      0.02963066	      0.05264269
      4.95000000	      0.02508280	      0.03047938	      0.05441553
      4.96666667	      0.02713453	      0.03170146	      0.05886771
      4.98333333	      0.02953471	      0.03307383	      0.06990309
      5.00000000	      0.03172781	      0.03427979	      0.07757598
      5.01666667	      0.03300021	      0.03496041	      0.07945955
      5.03333333	      0.03275514	      0.03483035	      0.07506522
      5.05000000	      0.03110565	      0.03394203	      0.06547034
      5.06666667	      0.02897717	      0.03276017	      0.05265372
      5.08333333	      0.02750918	      0.03191956	      0.04927040
      5.10000000	      0.02719238	      0.03173523	      0.05146539
      5.11666667	      0.02702303	      0.03163626	      0.05008346
      5.13333333	      0.02781887	      0.03209873	      0.05068458
      5.15000000	      0.02879469	      0.03265685	      0.05139816
      5.16666667	      0.02946802	      0.03303646	      0.05243314
      5.18333333	      0.03008668	      0.03338145	      0.05346079
      5.20000000	      0.03002749	      0.03334860	      0.05471748
      5.21666667	      0.02935967	      0.03297567	      0.05615547
      5.23333333	      0.02746592	      0.03189446	      0.05794329
      5.25000000	      0.02547742	      0.03071821	      0.06061090
      5.26666667	      0.02408672	      0.02986806	      0.06323659
      5.28333333	      0.02364462	      0.02959268	      0.06588267
      5.30000000	      0.02478133	      0.03029566	      0.06894173
      5.31666667	      0.02747037	      0.03189704	      0.07237175
      5.33333333	      0.03114927	      0.03396581	      0.07576195
      5.35000000	      0.03485536	      0.03592964	      0.07875906
      5.36666667	      0.03774974	      0.03739169	      0.08106496
      5.38333333	      0.03891213	      0.03796301	      0.08290386
      5.40000000	      0.03777818	      0.03740577	      0.08443776
      5.41666667	      0.03506480	      0.03603743	      0.08581906
      5.43333333	      0.03249048	      0.03468935	      0.08673093
      5.45000000	      0.03126160	      0.03402701	      0.08740819
      5.46666667	      0.03124898	      0.03402014	      0.08771507
      5.48333333	      0.03209349	      0.03447677	      0.08751047
      5.50000000	      0.03329909	      0.03511837	      0.08622065
      5.51666667	      0.03368163	      0.03531951	      0.08318501
      5.53333333	      0.03252890	      0.03470986	      0.07799608
      5.55000000	      0.03032440	      0.03351307	      0.07084568
      5.56666667	      0.02758138	      0.03196142	      0.06634403
      5.58333333	      0.02541839	      0.03068260	      0.06517315
      5.60000000	      0.02409032	      0.02987029	      0.06357923
      5.61666667	      0.02351343	      0.02951047	      0.06590601
      5.63333333	      0.02363079	      0.02958402	      0.06770201
      5.65000000	      0.02452670	      0.03013961	      0.06997059
      5.66666667	      0.02604580	      0.03105897	      0.07158515
      5.68333333	      0.02792093	      0.03215756	      0.07327183
      5.70000000	      0.02975279	      0.03319571	      0.07461333
      5.71666667	      0.03122113	      0.03400497	      0.07544312
      5.73333333	      0.03228048	      0.03457706	      0.07588230
      5.75000000	      0.03304618	      0.03498475	      0.07612457
      5.76666667	      0.03355267	      0.03525183	      0.07615193
      5.78333333	      0.03373244	      0.03534614	      0.07663536
      5.80000000	      0.03354660	      0.03524864	      0.07821160
      5.81666667	      0.03301143	      0.03496635	      0.07878427
      5.83333333	      0.03233722	      0.03460744	      0.07883784
      5.85000000	      0.03144976	      0.03412925	      0.07790845
      5.86666667	      0.03023218	      0.03346207	      0.07560718
      5.88333333	      0.02885841	      0.03269297	      0.07247827
      5.90000000	      0.02782633	      0.03210303	      0.07147811
      5.91666667	      0.02749556	      0.03191166	      0.07114572
      5.93333333	      0.02788181	      0.03213502	      0.07055904
      5.95000000	      0.02887895	      0.03270460	      0.06960203
      5.96666667	      0.03016155	      0.03342296	      0.06842972
      5.98333333	      0.03139870	      0.03410154	      0.06657527
      6.00000000	      0.03251771	      0.03470389	      0.06436399
      6.01666667	      0.03367951	      0.03531840	      0.06169480
      6.03333333	      0.03466371	      0.03583073	      0.06280563
      6.05000000	      0.03518263	      0.03609793	      0.06390287
      6.06666667	      0.03571278	      0.03636888	      0.06387610
      6.08333333	      0.03679725	      0.03691695	      0.06383547
      6.10000000	      0.03820923	      0.03761857	      0.07081068
      6.11666667	      0.03928801	      0.03814592	      0.07661713
      6.13333333	      0.03952140	      0.03825906	      0.07969734
      6.15000000	      0.03854357	      0.03778280	      0.08040263
      6.16666667	      0.03646197	      0.03674838	      0.08027618
      6.18333333	      0.03399537	      0.03548363	      0.07931930
      6.20000000	      0.03178388	      0.03431007	      0.07729022
      6.21666667	      0.03036524	      0.03353563	      0.07400813
      6.23333333	      0.03008060	      0.03337808	      0.07119050
      6.25000000	      0.03075636	      0.03375092	      0.07113601
      6.26666667	      0.03198523	      0.03441857	      0.07355396
      6.28333333	      0.03352784	      0.03523878	      0.07776766
      6.30000000	      0.03539683	      0.03620764	      0.08234866
      6.31666667	      0.03757085	      0.03730299	      0.08789252
      6.33333333	      0.03950116	      0.03824926	      0.09601419
      6.35000000	      0.04055728	      0.03875721	      0.10341305
      6.36666667	      0.04055381	      0.03875555	      0.10987993
      6.38333333	      0.04031327	      0.03864044	      0.11497713
      6.40000000	      0.04059055	      0.03877310	      0.11890151
      6.41666667	      0.04162814	      0.03926554	      0.12099942
      6.43333333	      0.04302713	      0.03991989	      0.12080752
      6.45000000	      0.04372053	      0.04024027	      0.11581477
      6.46666667	      0.04361769	      0.04019291	      0.10826590
      6.48333333	      0.04276063	      0.03979607	      0.09863645
      6.50000000	      0.04161218	      0.03925802	      0.09137183
      6.51666667	      0.04069574	      0.03882331	      0.09322976
      6.53333333	      0.04038144	      0.03867310	      0.09404724
      6.55000000	      0.04058535	      0.03877062	      0.09277075
      6.56666667	      0.04064288	      0.03879809	      0.08816366
      6.58333333	      0.03990156	      0.03844263	      0.08071202
      6.60000000	      0.03824545	      0.03763640	      0.07136999
      6.61666667	      0.03605270	      0.03654155	      0.07293831
      6.63333333	      0.03375586	      0.03535841	      0.07189683
      6.65000000	      0.03161937	      0.03422116	      0.06654195
      6.66666667	      0.02992839	      0.03329353	      0.05786456
      6.68333333	      0.02913953	      0.03285182	      0.05226720
      6.70000000	      0.02954355	      0.03307878	      0.05208239
      6.71666667	      0.03094274	      0.03385303	      0.05317866
      6.73333333	      0.03190402	      0.03437485	      0.05441041
      6.75000000	      0.03060192	      0.03366607	      0.05449344
      6.76666667	      0.02886037	      0.03269407	      0.05295625
      6.78333333	      0.02691772	      0.03157455	      0.05017299
      6.80000000	      0.02484455	      0.03033428	      0.04803024
      6.81666667	      0.02294891	      0.02915407	      0.04768373
      6.83333333	      0.02141361	      0.02816197	      0.04481926
      6.85000000	      0.02033286	      0.02744210	      0.04437205
      6.86666667	      0.01987093	      0.02712859	      0.04437697
      6.88333333	      0.02028256	      0.02740814	      0.04448013
      6.90000000	      0.02153859	      0.02824404	      0.04636666
      6.91666667	      0.02323640	      0.02933611	      0.05024923
      6.93333333	      0.02482034	      0.03031950	      0.05414657
      6.95000000	      0.02599722	      0.03102999	      0.05703431
      6.96666667	      0.02671878	      0.03145766	      0.05835840
      6.98333333	      0.02721493	      0.03174839	      0.05880032
      7.00000000	      0.02776140	      0.03206556	      0.05837812
      7.01666667	      0.02869862	      0.03260233	      0.05851634
      7.03333333	      0.02981101	      0.03322817	      0.06088491
      7.05000000	      0.03083043	      0.03379153	      0.06396436
      7.06666667	      0.03116122	      0.03397233	      0.06438319
      7.08333333	      0.03087323	      0.03381498	      0.06190548
      7.10000000	      0.03014846	      0.03341571	      0.05710037
      7.11666667	      0.02914872	      0.03285700	      0.05570279
      7.13333333	      0.02776483	      0.03206754	      0.05319645
      7.15000000	      0.02642022	      0.03128141	      0.05068377
      7.16666667	      0.02513082	      0.03050854	      0.04844515
      7.18333333	      0.02403192	      0.02983406	      0.04603196
      7.20000000	      0.02328726	      0.02936820	      0.04430875
      7.21666667	      0.02307837	      0.02923618	      0.04531389
      7.23333333	      0.02336598	      0.02941779	      0.04596987
      7.25000000	      0.02394435	      0.02977966	      0.04870490
      7.26666667	      0.02429147	      0.02999474	      0.04893113
      7.28333333	      0.02440664	      0.03006576	      0.04695605
      7.30000000	      0.02454431	      0.03015043	      0.04679476
      7.31666667	      0.02536040	      0.03064758	      0.04665935
      7.33333333	      0.02678665	      0.03149759	      0.04896107
      7.35000000	      0.02856960	      0.03252896	      0.05214476
      7.36666667	      0.03021394	      0.03345198	      0.05441080
      7.38333333	      0.03149540	      0.03415401	      0.05604663
      7.40000000	      0.03240148	      0.03464181	      0.05732584
      7.41666667	      0.03311385	      0.03502055	      0.05878944
      7.43333333	      0.03363818	      0.03529672	      0.06057944
      7.45000000	      0.03502759	      0.03601830	      0.06244405
      7.46666667	      0.03708294	      0.03705998	      0.06359941
      7.48333333	      0.03929533	      0.03814948	      0.06348014
      7.50000000	      0.04099880	      0.03896760	      0.06260221
      7.51666667	      0.04181182	      0.03935208	      0.06690787
      7.53333333	      0.04217852	      0.03952427	      0.06988751
      7.55000000	      0.04256791	      0.03970629	      0.07061672
      7.56666667	      0.04312195	      0.03996385	      0.06728886
      7.58333333	      0.04335302	      0.04007078	      0.06699070
      7.60000000	      0.04203959	      0.03945912	      0.06138152
      7.61666667	      0.03970670	      0.03834864	      0.06142367
      7.63333333	      0.03736049	      0.03719841	      0.06055274
      7.65000000	      0.03512291	      0.03606728	      0.05907179
      7.66666667	      0.03358034	      0.03526636	      0.05754668
      7.68333333	      0.03309416	      0.03501013	      0.05860488
      7.70000000	      0.03387314	      0.03541978	      0.05971698
      7.71666667	      0.03429876	      0.03564161	      0.05919012
      7.73333333	      0.03605231	      0.03654136	      0.06095453
      7.75000000	      0.03714478	      0.03709087	      0.06585500
      7.76666667	      0.03709569	      0.03706635	      0.06866479
      7.78333333	      0.03584925	      0.03643830	      0.07046724
      7.80000000	      0.03382978	      0.03539710	      0.07040638
      7.81666667	      0.03155360	      0.03418555	      0.06842818
      7.83333333	      0.02938797	      0.03299157	      0.06506172
      7.85000000	      0.02770016	      0.03203017	      0.06127029
      7.86666667	      0.02686519	      0.03154373	      0.05820236
      7.88333333	      0.02682846	      0.03152216	      0.05559656
      7.90000000	      0.02716128	      0.03171708	      0.05401741
      7.91666667	      0.02740256	      0.03185764	      0.05251191
      7.93333333	      0.02733091	      0.03181597	      0.05086215
      7.95000000	      0.02723310	      0.03175899	      0.04806061
      7.96666667	      0.02751518	      0.03192304	      0.04624428
      7.98333333	      0.02856731	      0.03252766	      0.04619541
      8.00000000	      0.03039474	      0.03355192	      0.05186654
      8.01666667	      0.03255480	      0.03472367	      0.05677936
      8.03333333	      0.03427276	      0.03562810	      0.05916866
      8.05000000	      0.03494051	      0.03597350	      0.05963906
      8.06666667	      0.03465142	      0.03582438	      0.05910895
      8.08333333	      0.03394161	      0.03545556	      0.05615169
      8.10000000	      0.03327967	      0.03510812	      0.05419804
      8.11666667	      0.03283681	      0.03487375	      0.05800897
      8.13333333	      0.03264669	      0.03477264	      0.06214083
      8.15000000	      0.03259709	      0.03474622	      0.06467949
      8.16666667	      0.03276787	      0.03483712	      0.06573607
      8.18333333	      0.03311872	      0.03502312	      0.06552588
      8.20000000	      0.03327269	      0.03510444	      0.06107811
      8.21666667	      0.03323438	      0.03508423	      0.05480377
      8.23333333	      0.03300525	      0.03496308	      0.05526952
      8.25000000	      0.03269260	      0.03479708	      0.05696001
      8.26666667	      0.03232351	      0.03460010	      0.05881520
      8.28333333	      0.03190318	      0.03437440	      0.06015679
      8.30000000	      0.03138070	      0.03409176	      0.06097147
      8.31666667	      0.03094038	      0.03385174	      0.06114783
      8.33333333	      0.03090487	      0.03383230	      0.06052449
      8.35000000	      0.03165541	      0.03424065	      0.05943680
      8.36666667	      0.03324447	      0.03508955	      0.05845912
      8.38333333	      0.03510672	      0.03605896	      0.05792852
      8.40000000	      0.03628231	      0.03665773	      0.05787571
      8.41666667	      0.03616006	      0.03659592	      0.05808500
      8.43333333	      0.03500435	      0.03600635	      0.05818644
      8.45000000	      0.03340752	      0.03517550	      0.05797233
      8.46666667	      0.03231338	      0.03459468	      0.05715677
      8.48333333	      0.03194701	      0.03439800	      0.05559187
      8.50000000	      0.03203943	      0.03444772	      0.05327465
      8.51666667	      0.03203984	      0.03444794	      0.05391288
      8.53333333	      0.03179629	      0.03431676	      0.05478561
      8.55000000	      0.03155603	      0.03418687	      0.05963445
      8.56666667	      0.03137263	      0.03408738	      0.06641988
      8.58333333	      0.03121934	      0.03400400	      0.07176649
      8.60000000	      0.03114841	      0.03396535	      0.07502114
      8.61666667	      0.03126983	      0.03403148	      0.07649697
      8.63333333	      0.03163297	      0.03422852	      0.07588398
      8.65000000	      0.03214927	      0.03450672	      0.07283553
      8.66666667	      0.03276022	      0.03483305	      0.06875634
      8.68333333	      0.03341329	      0.03517853	      0.06520614
      8.70000000	      0.03406096	      0.03551784	      0.06294980
      8.71666667	      0.03448727	      0.03573942	      0.06378285
      8.73333333	      0.03453799	      0.03576569	      0.06478944
      8.75000000	      0.03408314	      0.03552941	      0.06397445
      8.76666667	      0.03349060	      0.03521921	      0.06566847
      8.78333333	      0.03292727	      0.03492175	      0.06823249
      8.80000000	      0.03254354	      0.03471766	      0.07063701
      8.81666667	      0.03200628	      0.03442989	      0.07009399
      8.83333333	      0.03151397	      0.03416408	      0.06863992
      8.85000000	      0.03095606	      0.03386031	      0.06581614
      8.86666667	      0.03038150	      0.03354461	      0.06189410
      8.88333333	      0.02988067	      0.03326697	      0.05838684
      8.90000000	      0.02957790	      0.03309800	      0.05772270
      8.91666667	      0.02946947	      0.03303728	      0.05735607
      8.93333333	      0.02487326	      0.03035180	      0.04862932
      8.95000000	      0.02510672	      0.03049391	      0.04909156
      8.96666667	      0.02521255	      0.03055811	      0.04967098
      8.98333333	      0.02534411	      0.03063773	      0.04984887
      9.00000000	      0.02539274	      0.03066711	      0.05054574
      9.01666667	      0.02542616	      0.03068729	      0.05100015
      9.03333333	      0.02564532	      0.03081926	      0.05150609
      9.05000000	      0.02601545	      0.03104086	      0.05242698
      9.06666667	      0.02647535	      0.03131403	      0.05324068
      9.08333333	      0.02696321	      0.03160123	      0.05434827
      9.10000000	      0.02734283	      0.03182291	      0.05536814
      9.11666667	      0.02764167	      0.03199634	      0.05634292
      9.13333333	      0.02795131	      0.03217505	      0.05723495
      9.15000000	      0.02842898	      0.03244881	      0.05805351
      9.16666667	      0.02897472	      0.03275878	      0.05896980
      9.18333333	      0.02970273	      0.03316777	      0.05973131
      9.20000000	      0.03041765	      0.03356456	      0.06037632
      9.21666667	      0.03098971	      0.03387871	      0.06077143
      9.23333333	      0.03137334	      0.03408776	      0.06104005
      9.25000000	      0.03159521	      0.03420808	      0.06106927
      9.26666667	      0.03174730	      0.03429032	      0.06111817
      9.28333333	      0.03189109	      0.03436789	      0.06115443
      9.30000000	      0.03206885	      0.03446353	      0.06120699
      9.31666667	      0.03223867	      0.03455466	      0.06127533
      9.33333333	      0.03233655	      0.03460708	      0.06120467
      9.35000000	      0.03226041	      0.03456631	      0.06091491
      9.36666667	      0.03199961	      0.03442631	      0.06059011
      9.38333333	      0.03142538	      0.03411602	      0.06014965
      9.40000000	      0.03070940	      0.03372514	      0.05963183
      9.41666667	      0.02994144	      0.03330079	      0.05940380
      9.43333333	      0.02934594	      0.03296796	      0.05926279
      9.45000000	      0.02902532	      0.03278737	      0.05922822
      9.46666667	      0.02884881	      0.03268753	      0.05926896
      9.48333333	      0.02872601	      0.03261788	      0.05924042
      9.50000000	      0.02847415	      0.03247458	      0.05921822
      9.51666667	      0.02804051	      0.03222635	      0.05915854
      9.53333333	      0.02750112	      0.03191489	      0.05906217
      9.55000000	      0.02703154	      0.03164124	      0.05909717
      9.56666667	      0.02671668	      0.03145642	      0.05907806
      9.58333333	      0.02654370	      0.03135443	      0.05888303
      9.60000000	      0.02664472	      0.03141403	      0.05947801
      9.61666667	      0.02728011	      0.03178639	      0.05964288
      9.63333333	      0.02849503	      0.03248648	      0.05984969
      9.65000000	      0.03051219	      0.03361668	      0.05993243
