Model Marker Errors from IK
version=1
nRows=218
nColumns=4
inDegrees=no
endheader
time	total_squared_error	marker_error_RMS	marker_error_max
      0.00000000	      0.02466213	      0.03022271	      0.05114584
      0.01666667	      0.02307936	      0.02923681	      0.04922100
      0.03333333	      0.02262109	      0.02894509	      0.04901329
      0.05000000	      0.02233023	      0.02875840	      0.04877338
      0.06666667	      0.02208473	      0.02859987	      0.04861712
      0.08333333	      0.02191301	      0.02848847	      0.04860202
      0.10000000	      0.02179792	      0.02841356	      0.04860575
      0.11666667	      0.02171562	      0.02835987	      0.04895377
      0.13333333	      0.02152681	      0.02823631	      0.04899055
      0.15000000	      0.02132271	      0.02810214	      0.04913283
      0.16666667	      0.02112565	      0.02797198	      0.04886902
      0.18333333	      0.02106550	      0.02793213	      0.04844090
      0.20000000	      0.02111769	      0.02796671	      0.04826494
      0.21666667	      0.02126701	      0.02806541	      0.04795859
      0.23333333	      0.02141402	      0.02816224	      0.04786714
      0.25000000	      0.02152281	      0.02823368	      0.04761133
      0.26666667	      0.02158010	      0.02827124	      0.04754396
      0.28333333	      0.02168182	      0.02833779	      0.04731804
      0.30000000	      0.02174930	      0.02838186	      0.04676284
      0.31666667	      0.02192603	      0.02849693	      0.04656497
      0.33333333	      0.02186768	      0.02845899	      0.04641988
      0.35000000	      0.02159637	      0.02828189	      0.04691996
      0.36666667	      0.02114491	      0.02798472	      0.04685222
      0.38333333	      0.02078079	      0.02774272	      0.04813181
      0.40000000	      0.02069462	      0.02768515	      0.04946894
      0.41666667	      0.02095398	      0.02785809	      0.05159960
      0.43333333	      0.02137554	      0.02813693	      0.05367693
      0.45000000	      0.02139517	      0.02814984	      0.05525243
      0.46666667	      0.02083463	      0.02777864	      0.05543285
      0.48333333	      0.01976437	      0.02705575	      0.05343075
      0.50000000	      0.01846838	      0.02615367	      0.04962201
      0.51666667	      0.01709826	      0.02516483	      0.04529333
      0.53333333	      0.01563965	      0.02406753	      0.04239528
      0.55000000	      0.01433119	      0.02303877	      0.03956503
      0.56666667	      0.01370125	      0.02252673	      0.03897942
      0.58333333	      0.01368673	      0.02251479	      0.03941975
      0.60000000	      0.01401443	      0.02278273	      0.04063186
      0.61666667	      0.01488997	      0.02348362	      0.04285493
      0.63333333	      0.01636785	      0.02462147	      0.04630061
      0.65000000	      0.01800626	      0.02582438	      0.05064816
      0.66666667	      0.01924359	      0.02669692	      0.05479044
      0.68333333	      0.01969829	      0.02701049	      0.05723081
      0.70000000	      0.01919841	      0.02666556	      0.05707755
      0.71666667	      0.01790162	      0.02574924	      0.05367273
      0.73333333	      0.01633660	      0.02459795	      0.04858238
      0.75000000	      0.01505697	      0.02361495	      0.04333879
      0.76666667	      0.01443278	      0.02312028	      0.03900324
      0.78333333	      0.01441722	      0.02310781	      0.03857087
      0.80000000	      0.01496220	      0.02354051	      0.03956379
      0.81666667	      0.01574033	      0.02414488	      0.04207207
      0.83333333	      0.01642313	      0.02466301	      0.04426379
      0.85000000	      0.01676019	      0.02491481	      0.04609714
      0.86666667	      0.01674732	      0.02490524	      0.04684742
      0.88333333	      0.01667867	      0.02485415	      0.04749994
      0.90000000	      0.01672776	      0.02489069	      0.04684138
      0.91666667	      0.01698704	      0.02508286	      0.04651437
      0.93333333	      0.01730906	      0.02531949	      0.04566785
      0.95000000	      0.01766009	      0.02557494	      0.04558660
      0.96666667	      0.01809114	      0.02588518	      0.04641018
      0.98333333	      0.01848262	      0.02616375	      0.04726304
      1.00000000	      0.01887039	      0.02643678	      0.04767469
      1.01666667	      0.01920542	      0.02667043	      0.04795341
      1.03333333	      0.01952273	      0.02688985	      0.04818450
      1.05000000	      0.01975714	      0.02705081	      0.04804400
      1.06666667	      0.01990032	      0.02714864	      0.04756408
      1.08333333	      0.02009087	      0.02727831	      0.04882944
      1.10000000	      0.02027558	      0.02740342	      0.04984254
      1.11666667	      0.02039263	      0.02748240	      0.04901709
      1.13333333	      0.02046718	      0.02753259	      0.05093323
      1.15000000	      0.02040301	      0.02748940	      0.05006200
      1.16666667	      0.02024321	      0.02738154	      0.04934005
      1.18333333	      0.01993641	      0.02717325	      0.04755198
      1.20000000	      0.01954048	      0.02690207	      0.04767044
      1.21666667	      0.01927050	      0.02671558	      0.04729441
      1.23333333	      0.01907188	      0.02657755	      0.04705359
      1.25000000	      0.01889687	      0.02645532	      0.04718854
      1.26666667	      0.01863771	      0.02627329	      0.04711823
      1.28333333	      0.01822592	      0.02598142	      0.04653940
      1.30000000	      0.01782161	      0.02569162	      0.04613663
      1.31666667	      0.01749712	      0.02545666	      0.04580408
      1.33333333	      0.01743205	      0.02540928	      0.04528538
      1.35000000	      0.01764093	      0.02556106	      0.04463068
      1.36666667	      0.01802382	      0.02583697	      0.04392037
      1.38333333	      0.01847771	      0.02616027	      0.04486093
      1.40000000	      0.01890074	      0.02645803	      0.04772983
      1.41666667	      0.01932708	      0.02675477	      0.05023801
      1.43333333	      0.01984856	      0.02711331	      0.05227313
      1.45000000	      0.02053260	      0.02757656	      0.05437958
      1.46666667	      0.02136955	      0.02813298	      0.05687892
      1.48333333	      0.02221919	      0.02868681	      0.05775650
      1.50000000	      0.02286471	      0.02910054	      0.05878454
      1.51666667	      0.02309389	      0.02924601	      0.05802249
      1.53333333	      0.02284388	      0.02908727	      0.05737033
      1.55000000	      0.02220658	      0.02867867	      0.05632509
      1.56666667	      0.02131767	      0.02809881	      0.05440384
      1.58333333	      0.02042481	      0.02750408	      0.05336072
      1.60000000	      0.01973815	      0.02703780	      0.05242103
      1.61666667	      0.01953656	      0.02689937	      0.05218611
      1.63333333	      0.01985568	      0.02711818	      0.05129626
      1.65000000	      0.02040478	      0.02749059	      0.04970642
      1.66666667	      0.02075294	      0.02772413	      0.04888006
      1.68333333	      0.02060606	      0.02762585	      0.04999046
      1.70000000	      0.01974705	      0.02704390	      0.04809958
      1.71666667	      0.01840421	      0.02610819	      0.04721473
      1.73333333	      0.01728421	      0.02530131	      0.04728636
      1.75000000	      0.01691797	      0.02503181	      0.04688872
      1.76666667	      0.01728095	      0.02529892	      0.04624386
      1.78333333	      0.01796112	      0.02579199	      0.04545535
      1.80000000	      0.01835732	      0.02607491	      0.04495917
      1.81666667	      0.01808626	      0.02588168	      0.04408054
      1.83333333	      0.01732363	      0.02533014	      0.04377368
      1.85000000	      0.01662694	      0.02481557	      0.04447613
      1.86666667	      0.01644016	      0.02467579	      0.04522042
      1.88333333	      0.01698741	      0.02508313	      0.04633122
      1.90000000	      0.01794753	      0.02578223	      0.04725219
      1.91666667	      0.01877087	      0.02636697	      0.04750209
      1.93333333	      0.01903740	      0.02655351	      0.04699387
      1.95000000	      0.01878323	      0.02637565	      0.04627867
      1.96666667	      0.01832702	      0.02605338	      0.04535654
      1.98333333	      0.01807366	      0.02587267	      0.04460834
      2.00000000	      0.01806609	      0.02586725	      0.04418508
      2.01666667	      0.01813515	      0.02591664	      0.04413920
      2.03333333	      0.01810097	      0.02589221	      0.04401508
      2.05000000	      0.01791989	      0.02576237	      0.04408797
      2.06666667	      0.01761142	      0.02553967	      0.04385553
      2.08333333	      0.01734600	      0.02534649	      0.04369342
      2.10000000	      0.01725115	      0.02527709	      0.04380174
      2.11666667	      0.01736722	      0.02536199	      0.04375405
      2.13333333	      0.01766636	      0.02557948	      0.04395991
      2.15000000	      0.01802942	      0.02584098	      0.04385560
      2.16666667	      0.01834962	      0.02606944	      0.04396026
      2.18333333	      0.01855119	      0.02621223	      0.04402231
      2.20000000	      0.01865214	      0.02628346	      0.04375183
      2.21666667	      0.01871465	      0.02632746	      0.04383193
      2.23333333	      0.01869246	      0.02631185	      0.04344498
      2.25000000	      0.01853040	      0.02619754	      0.04357160
      2.26666667	      0.01828085	      0.02602054	      0.04420153
      2.28333333	      0.01815057	      0.02592766	      0.04351771
      2.30000000	      0.01859349	      0.02624210	      0.04349890
      2.31666667	      0.01964911	      0.02697675	      0.04439161
      2.33333333	      0.02092781	      0.02784069	      0.04993132
      2.35000000	      0.02197460	      0.02852848	      0.05591432
      2.36666667	      0.02251128	      0.02887475	      0.05881060
      2.38333333	      0.02254541	      0.02889663	      0.05898217
      2.40000000	      0.02215468	      0.02864513	      0.05625508
      2.41666667	      0.02156183	      0.02825927	      0.05368776
      2.43333333	      0.02099889	      0.02788793	      0.05578533
      2.45000000	      0.02049367	      0.02755040	      0.05720809
      2.46666667	      0.02020597	      0.02735634	      0.05788584
      2.48333333	      0.02025732	      0.02739108	      0.05753415
      2.50000000	      0.02060687	      0.02762639	      0.05625895
      2.51666667	      0.02109429	      0.02795120	      0.05451946
      2.53333333	      0.02180829	      0.02842032	      0.05324625
      2.55000000	      0.02286372	      0.02909991	      0.05296104
      2.56666667	      0.02427073	      0.02998193	      0.05347595
      2.58333333	      0.02579773	      0.03091070	      0.05784592
      2.60000000	      0.02711444	      0.03168972	      0.06154620
      2.61666667	      0.02794966	      0.03217410	      0.06455419
      2.63333333	      0.02803833	      0.03222509	      0.06508170
      2.65000000	      0.02734058	      0.03182160	      0.06285361
      2.66666667	      0.02601313	      0.03103948	      0.05812747
      2.68333333	      0.02445492	      0.03009548	      0.05600849
      2.70000000	      0.02317842	      0.02929949	      0.05771311
      2.71666667	      0.02267329	      0.02897846	      0.06045633
      2.73333333	      0.02309176	      0.02924466	      0.06365782
      2.75000000	      0.02389908	      0.02975149	      0.06616884
      2.76666667	      0.02452130	      0.03013629	      0.06769565
      2.78333333	      0.02472363	      0.03026037	      0.06801655
      2.80000000	      0.02451141	      0.03013022	      0.06707988
      2.81666667	      0.02400732	      0.02981879	      0.06455099
      2.83333333	      0.02355563	      0.02953694	      0.06114042
      2.85000000	      0.02335961	      0.02941378	      0.05742688
      2.86666667	      0.02346997	      0.02948319	      0.05407490
      2.88333333	      0.02381139	      0.02969686	      0.05162737
      2.90000000	      0.02435798	      0.03003577	      0.05029913
      2.91666667	      0.02513179	      0.03050913	      0.05006159
      2.93333333	      0.02605245	      0.03106293	      0.05046199
      2.95000000	      0.02685874	      0.03153995	      0.05127620
      2.96666667	      0.02720848	      0.03174463	      0.05284697
      2.98333333	      0.02703543	      0.03164352	      0.05293819
      3.00000000	      0.02648247	      0.03131824	      0.05226099
      3.01666667	      0.02591030	      0.03097807	      0.05085009
      3.03333333	      0.02551945	      0.03074353	      0.04984883
      3.05000000	      0.02546314	      0.03070959	      0.04809260
      3.06666667	      0.02575983	      0.03088799	      0.04785109
      3.08333333	      0.02634825	      0.03123878	      0.04761720
      3.10000000	      0.02705732	      0.03165632	      0.04780222
      3.11666667	      0.02782703	      0.03210344	      0.04917237
      3.13333333	      0.02862409	      0.03255997	      0.05043986
      3.15000000	      0.02929442	      0.03293901	      0.05157715
      3.16666667	      0.02974151	      0.03318941	      0.05230625
      3.18333333	      0.02984680	      0.03324811	      0.05305812
      3.20000000	      0.02982009	      0.03323323	      0.05375063
      3.21666667	      0.02938425	      0.03298948	      0.05400166
      3.23333333	      0.02873579	      0.03262344	      0.05462380
      3.25000000	      0.02798964	      0.03219710	      0.05452700
      3.26666667	      0.02712564	      0.03169627	      0.05353862
      3.28333333	      0.02646135	      0.03130575	      0.05283384
      3.30000000	      0.02592571	      0.03098728	      0.05215322
      3.31666667	      0.02543047	      0.03068989	      0.05082468
      3.33333333	      0.02482934	      0.03032499	      0.04978785
      3.35000000	      0.02408336	      0.02986597	      0.04865810
      3.36666667	      0.02329346	      0.02937211	      0.04771746
      3.38333333	      0.02261974	      0.02894422	      0.04727822
      3.40000000	      0.02212862	      0.02862828	      0.04687596
      3.41666667	      0.02179140	      0.02840931	      0.04768954
      3.43333333	      0.02138908	      0.02814584	      0.04798464
      3.45000000	      0.02099556	      0.02788572	      0.04838755
      3.46666667	      0.02068845	      0.02768102	      0.04860721
      3.48333333	      0.02057785	      0.02760693	      0.04866429
      3.50000000	      0.02070622	      0.02769291	      0.04920327
      3.51666667	      0.02096182	      0.02786331	      0.04966717
      3.53333333	      0.02134336	      0.02811574	      0.05029457
      3.55000000	      0.02195973	      0.02851882	      0.05100836
      3.56666667	      0.02266309	      0.02897195	      0.05195261
      3.58333333	      0.02345322	      0.02947266	      0.05300368
      3.60000000	      0.02441960	      0.03007374	      0.05333371
      3.61666667	      0.02571550	      0.03086140	      0.05360649
