Coordinates
version=1
nRows=136
nColumns=63
inDegrees=yes

Units are S.I. units (second, meters, Newtons, ...)
If the header above contains a line with 'inDegrees', this indicates whether rotational values are in degrees (yes) or radians (no).

endheader
time	pelvis_tilt	pelvis_list	pelvis_rotation	pelvis_tx	pelvis_ty	pelvis_tz	hip_flexion_r	hip_adduction_r	hip_rotation_r	knee_angle_r	knee_angle_r_beta	ankle_angle_r	subtalar_angle_r	mtp_angle_r	hip_flexion_l	hip_adduction_l	hip_rotation_l	knee_angle_l	knee_angle_l_beta	ankle_angle_l	subtalar_angle_l	mtp_angle_l	L5_S1_Flex_Ext	L5_S1_Lat_Bending	L5_S1_axial_rotation	L4_L5_Flex_Ext	L4_L5_Lat_Bending	L4_L5_axial_rotation	L3_L4_Flex_Ext	L3_L4_Lat_Bending	L3_L4_axial_rotation	L2_L3_Flex_Ext	L2_L3_Lat_Bending	L2_L3_axial_rotation	L1_L2_Flex_Ext	L1_L2_Lat_Bending	L1_L2_axial_rotation	L1_T12_Flex_Ext	L1_T12_Lat_Bending	L1_T12_axial_rotation	Abs_r3	Abs_r2	Abs_r1	Abs_t1	Abs_t2	neck_flexion	neck_bending	neck_rotation	arm_flex_r	arm_add_r	arm_rot_r	elbow_flex_r	pro_sup_r	wrist_flex_r	wrist_dev_r	arm_flex_l	arm_add_l	arm_rot_l	elbow_flex_l	pro_sup_l	wrist_flex_l	wrist_dev_l
0.000000	5.018320	-4.208092	88.855975	0.412884	0.708769	0.781293	9.230785	1.134733	3.463341	1.721165	0.030040	24.917594	-9.394083	0.000000	9.871482	0.720054	10.064693	2.671942	0.046634	27.547807	-8.165744	0.000000	0.412193	-0.150269	-0.357773	0.765484	-0.199858	-0.380134	0.677192	-0.365365	-0.380134	0.471096	-0.365365	-0.313052	0.382763	-0.306430	-0.290691	0.235527	-0.232767	-0.268330	2.944256	-1.699878	-1.989828	0.000000	0.000000	28.059944	3.702009	-18.899228	13.245533	-8.431660	70.841472	37.737670	86.969932	6.504459	4.359959	1.088505	-11.555058	40.823547	50.028492	78.255265	2.366199	5.985751
0.019608	5.526251	-4.039874	88.614178	0.412359	0.709550	0.780067	9.387700	1.633681	4.545164	2.271718	0.039649	25.019740	-10.412245	0.000000	9.316338	0.251634	10.731601	2.367191	0.041315	27.220444	-9.528497	0.000000	0.399223	-0.080208	-0.354477	0.741397	-0.106676	-0.376632	0.655883	-0.195017	-0.376632	0.456272	-0.195017	-0.310167	0.370718	-0.163559	-0.288012	0.228116	-0.124241	-0.265858	2.851610	-0.907324	-1.971494	0.000000	0.000000	28.122304	3.690840	-19.197947	13.068637	-8.901090	69.583586	38.092048	82.735823	6.442910	4.090406	1.019019	-11.023851	40.243084	49.773474	78.603431	2.235820	5.648841
0.039216	5.975368	-3.891015	88.485476	0.411869	0.710142	0.779008	9.501881	2.067056	5.292841	2.729256	0.047634	25.147065	-11.164543	0.000000	8.847383	-0.158554	11.309650	2.104010	0.036722	26.971900	-10.590185	0.000000	0.387479	-0.020741	-0.361765	0.719588	-0.027585	-0.384375	0.636590	-0.050430	-0.384375	0.442850	-0.050430	-0.316544	0.359813	-0.042295	-0.293934	0.221406	-0.032128	-0.271323	2.767727	-0.234626	-2.012026	0.000000	0.000000	28.154676	3.697027	-19.412452	12.903815	-9.310973	68.485583	38.435431	78.639127	6.431173	4.015119	0.957562	-10.581226	39.727565	49.570386	78.853919	2.195856	5.465404
0.058824	6.369282	-3.758384	88.460015	0.411407	0.710566	0.778092	9.576580	2.438828	5.737169	3.105604	0.054203	25.298910	-11.675087	0.000000	8.455714	-0.513935	11.803980	1.879919	0.032811	26.796441	-11.374453	0.000000	0.376882	0.028945	-0.378512	0.699908	0.038497	-0.402169	0.619180	0.070377	-0.402169	0.430739	0.070377	-0.331198	0.349973	0.059025	-0.307541	0.215351	0.044836	-0.283884	2.692034	0.327434	-2.105172	0.000000	0.000000	28.160261	3.719970	-19.551934	12.748372	-9.665710	67.533104	38.766205	74.703655	6.464580	4.111404	0.904242	-10.219329	39.277089	49.412823	79.022097	2.234025	5.414364
0.078431	6.711604	-3.638851	88.527943	0.410963	0.710845	0.777295	9.615050	2.752966	5.908945	3.412589	0.059561	25.474617	-11.967990	0.000000	8.132430	-0.817934	12.219728	1.692435	0.029539	26.688330	-11.904947	0.000000	0.367352	0.069666	-0.403595	0.682209	0.092656	-0.428820	0.603522	0.169386	-0.428820	0.419846	0.169386	-0.353146	0.341123	0.142063	-0.327921	0.209905	0.107913	-0.302696	2.623956	0.788077	-2.244676	0.000000	0.000000	28.142261	3.759069	-19.625583	12.599612	-9.969702	66.711789	39.082754	70.953220	6.538459	4.356567	0.859166	-9.930304	38.891756	49.294382	79.123333	2.338047	5.474646
0.098039	7.005942	-3.529285	88.679405	0.410530	0.711001	0.776591	9.620545	3.013440	5.838965	3.662037	0.063915	25.673528	-12.067363	0.000000	7.868627	-1.073977	12.562034	1.539076	0.026862	26.641833	-12.205313	0.000000	0.358806	0.102237	-0.435889	0.666340	0.135975	-0.463132	0.589483	0.248578	-0.463132	0.410080	0.248578	-0.381403	0.333188	0.208481	-0.354160	0.205022	0.158364	-0.326917	2.562919	1.156520	-2.424286	0.000000	0.000000	28.103877	3.813725	-19.642589	12.454841	-10.227350	66.007280	39.383464	67.411632	6.648139	4.727913	0.822440	-9.706297	38.571662	49.208658	79.172993	2.495641	5.625176
0.117647	7.255907	-3.426556	88.904548	0.410100	0.711057	0.775956	9.596317	3.224218	5.558026	3.865776	0.067471	25.894984	-11.997317	0.000000	7.655404	-1.285488	12.836035	1.417360	0.024738	26.651214	-12.299197	0.000000	0.351167	0.127472	-0.474270	0.652152	0.169537	-0.503912	0.576932	0.309935	-0.503912	0.401348	0.309935	-0.414986	0.326093	0.259940	-0.385344	0.200657	0.197454	-0.355702	2.508349	1.441985	-2.637747	0.000000	0.000000	28.048310	3.883337	-19.612141	12.311363	-10.443052	65.405217	39.666718	64.102703	6.788950	5.202747	0.794171	-9.539451	38.316907	49.149247	79.186444	2.694524	5.844877
0.137255	7.465110	-3.327533	89.193520	0.409664	0.711035	0.775367	9.545620	3.389270	5.096925	4.035630	0.070435	26.138328	-11.781963	0.000000	7.483856	-1.455892	13.046871	1.324805	0.023122	26.710738	-12.210245	0.000000	0.344352	0.146186	-0.517612	0.639496	0.194428	-0.549963	0.565736	0.355438	-0.549963	0.393560	0.355438	-0.452911	0.319765	0.298103	-0.420560	0.196763	0.226443	-0.388209	2.459671	1.653690	-2.878805	0.000000	0.000000	27.978762	3.967305	-19.543430	12.166484	-10.621211	64.891243	39.930902	61.050244	6.956222	5.758374	0.774466	-9.421913	38.127590	49.109745	79.179053	2.922417	6.112675
0.156863	7.637161	-3.229086	89.536466	0.409215	0.710957	0.774798	9.471705	3.512565	4.486458	4.183428	0.073015	26.402900	-11.445413	0.000000	7.345081	-1.588615	13.199679	1.258929	0.021972	26.814669	-11.962103	0.000000	0.338282	0.159196	-0.564793	0.628223	0.211730	-0.600092	0.555763	0.387068	-0.600092	0.386622	0.387068	-0.494194	0.314128	0.324632	-0.458894	0.193294	0.246594	-0.423595	2.416313	1.800854	-3.141208	0.000000	0.000000	27.898435	4.065030	-19.445647	12.017507	-10.766227	64.450996	40.174400	58.278067	7.145283	6.372101	0.763431	-9.345826	38.003810	49.083748	79.166187	3.167037	6.407494
0.176471	7.775669	-3.128084	89.923534	0.408746	0.710847	0.774225	9.377827	3.598074	3.757422	4.320994	0.075416	26.688042	-11.011777	0.000000	7.230178	-1.687081	13.299599	1.217251	0.021245	26.957271	-11.578415	0.000000	0.332876	0.167315	-0.614686	0.618184	0.222529	-0.653104	0.546882	0.406809	-0.653104	0.380444	0.406809	-0.537850	0.309108	0.341188	-0.499433	0.190205	0.259170	-0.461015	2.377698	1.892697	-3.418700	0.000000	0.000000	27.810529	4.175912	-19.327980	11.861737	-10.882500	64.070120	40.395597	55.809982	7.351463	7.021231	0.761174	-9.303335	37.945664	49.064852	79.163214	3.416104	6.708260
0.196078	7.884245	-3.021396	90.344869	0.408246	0.710727	0.773624	9.267238	3.649764	2.940613	4.460156	0.077844	26.993097	-10.505169	0.000000	7.130243	-1.754716	13.351768	1.197287	0.020897	27.132810	-11.082829	0.000000	0.328054	0.171358	-0.666168	0.609228	0.227906	-0.707804	0.538959	0.416640	-0.707804	0.374933	0.416640	-0.582897	0.304631	0.349434	-0.541262	0.187450	0.265434	-0.499626	2.343255	1.938439	-3.705029	0.000000	0.000000	27.718246	4.299351	-19.199621	11.696481	-10.974431	63.734254	40.592879	53.669802	7.570091	7.683072	0.767801	-9.286586	37.953251	49.046652	79.185500	3.657336	6.993896
0.215686	7.980328	-2.885963	90.801344	0.407682	0.710720	0.772819	9.115073	3.691128	2.150760	4.580916	0.079952	27.325012	-10.036223	0.000000	7.001791	-1.811869	13.403855	1.173910	0.020489	27.340166	-10.528269	0.000000	0.324780	0.172980	-0.720679	0.603148	0.230063	-0.765722	0.533581	0.420583	-0.765722	0.371191	0.420583	-0.630594	0.301590	0.352740	-0.585552	0.185579	0.267945	-0.540509	2.319869	1.956780	-4.008202	0.000000	0.000000	27.647070	4.474453	-19.177955	11.485149	-11.048145	63.415116	40.763895	51.742228	7.741157	8.287202	0.756834	-9.281051	38.049908	49.008372	79.369475	3.761320	7.123364
0.235294	8.052788	-2.729447	91.261274	0.407075	0.710770	0.771855	8.933621	3.709516	1.385487	4.731134	0.082574	27.639715	-9.592022	0.000000	6.847998	-1.843856	13.462435	1.161083	0.020265	27.545543	-9.994817	0.000000	0.322368	0.172599	-0.771920	0.598669	0.229557	-0.820165	0.529618	0.419657	-0.820165	0.368434	0.419657	-0.675430	0.299350	0.351964	-0.627185	0.184201	0.267356	-0.578940	2.302639	1.952476	-4.293185	0.000000	0.000000	27.583326	4.679699	-19.127075	11.239948	-11.123183	63.005867	40.953365	50.469940	7.999415	8.959605	0.748041	-9.281501	38.175048	48.975114	79.817893	3.891831	7.227697
0.254902	8.105032	-2.554531	91.724055	0.406409	0.710887	0.770762	8.749468	3.700909	0.557914	4.951921	0.086427	27.986711	-9.061148	0.000000	6.677316	-1.852794	13.409574	1.171547	0.020447	27.781854	-9.325770	0.000000	0.319563	0.170683	-0.821803	0.593461	0.227008	-0.873166	0.525010	0.414998	-0.873166	0.365229	0.414998	-0.719078	0.296746	0.348056	-0.667715	0.182598	0.264387	-0.616353	2.282607	1.930796	-4.570624	0.000000	0.000000	27.531207	4.906939	-19.078967	10.982492	-11.189129	62.536391	41.128537	50.110212	8.284386	9.535018	0.757357	-9.296015	38.388638	48.944096	80.340132	3.969069	7.274954
0.274510	8.142469	-2.360755	92.167460	0.405688	0.711081	0.769568	8.572255	3.671376	-0.304747	5.253063	0.091683	28.379941	-8.450073	0.000000	6.487412	-1.845813	13.247510	1.204794	0.021028	28.035423	-8.552956	0.000000	0.315394	0.168637	-0.870428	0.585718	0.224287	-0.924830	0.518161	0.410023	-0.924830	0.360464	0.410023	-0.761624	0.292875	0.343884	-0.707223	0.180216	0.261218	-0.652821	2.252827	1.907652	-4.841059	0.000000	0.000000	27.486356	5.141724	-19.004514	10.752947	-11.254978	62.155573	41.273513	50.423074	8.540939	9.910045	0.786655	-9.310554	38.697395	48.895539	80.792755	3.977413	7.246666
0.294118	8.158807	-2.180053	92.572065	0.404917	0.711295	0.768314	8.444242	3.615860	-1.064576	5.636615	0.098377	28.772728	-7.943159	0.000000	6.309635	-1.812427	13.115850	1.256134	0.021924	28.266235	-7.907268	0.000000	0.313720	0.166497	-0.906147	0.582609	0.221441	-0.962782	0.515410	0.404820	-0.962782	0.358550	0.404820	-0.792879	0.291320	0.339520	-0.736245	0.179259	0.257903	-0.679610	2.240869	1.883443	-5.039719	0.000000	0.000000	27.455134	5.322231	-18.935019	10.456048	-11.315257	61.608946	41.379610	50.936297	8.867516	10.266848	0.845237	-9.283697	39.081355	48.773003	81.285242	4.018807	7.089453
0.313725	8.144722	-2.000657	92.934363	0.404086	0.711540	0.767077	8.374018	3.519596	-1.770710	6.132565	0.107033	29.216105	-7.465052	0.000000	6.140794	-1.742925	12.929946	1.340789	0.023401	28.501607	-7.272470	0.000000	0.311278	0.163305	-0.936940	0.578074	0.217196	-0.995499	0.511398	0.397061	-0.995499	0.355759	0.397061	-0.819823	0.289053	0.333012	-0.761264	0.177864	0.252960	-0.702705	2.223427	1.847343	-5.210980	0.000000	0.000000	27.415010	5.456618	-18.848781	10.203079	-11.360997	61.256338	41.412762	51.531250	9.125142	10.380956	0.931751	-9.229395	39.561067	48.585708	81.546177	4.039442	6.820040
0.333333	8.118035	-1.823755	93.257291	0.403186	0.711810	0.765900	8.364228	3.401610	-2.411614	6.727492	0.117417	29.696100	-7.051081	0.000000	5.980760	-1.657488	12.721693	1.447945	0.025271	28.743159	-6.666822	0.000000	0.307743	0.161077	-0.959691	0.571510	0.214233	-1.019672	0.505591	0.391644	-1.019672	0.351720	0.391644	-0.839730	0.285770	0.328469	-0.779749	0.175844	0.249509	-0.719768	2.198178	1.822140	-5.337513	0.000000	0.000000	27.361435	5.540338	-18.762851	9.958149	-11.386355	61.005719	41.342013	52.204300	9.284805	10.212071	1.049613	-9.119965	40.101485	48.317736	81.569175	4.032814	6.456811
0.352941	8.076959	-1.643965	93.535475	0.402231	0.712103	0.764864	8.416564	3.257290	-3.055199	7.424446	0.129581	30.240957	-6.588561	0.000000	5.825840	-1.551870	12.599755	1.577227	0.027528	28.940039	-6.259471	0.000000	0.301429	0.159254	-0.964819	0.559783	0.211808	-1.025120	0.495217	0.387211	-1.025120	0.344503	0.387211	-0.844217	0.279907	0.324752	-0.783915	0.172236	0.246685	-0.723614	2.153075	1.801518	-5.366033	0.000000	0.000000	27.283051	5.519937	-18.794468	9.726980	-11.379876	60.894166	41.106270	52.254765	9.370275	9.874443	1.298423	-8.988931	40.899989	47.935630	80.989256	4.086526	6.069481
0.372549	8.026546	-1.473891	93.797594	0.401160	0.712364	0.764020	8.549654	3.085621	-3.738587	8.235620	0.143739	30.854760	-6.075349	0.000000	5.706359	-1.428905	12.388725	1.754314	0.030619	29.168051	-5.762144	0.000000	0.293688	0.159367	-0.966661	0.545408	0.211958	-1.027077	0.482500	0.387485	-1.027077	0.335656	0.387485	-0.845828	0.272719	0.324981	-0.785412	0.167813	0.246859	-0.724996	2.097784	1.802791	-5.376277	0.000000	0.000000	27.184995	5.390109	-18.867807	9.549077	-11.344276	61.029785	40.702650	51.849552	9.355486	9.320297	1.601891	-8.813809	41.659757	47.517214	80.313930	4.177529	5.747873
0.392157	7.968764	-1.305724	94.026637	0.400013	0.712582	0.763376	8.739318	2.899479	-4.324664	9.124403	0.159251	31.476565	-5.680555	0.000000	5.607089	-1.289898	12.282821	1.969662	0.034377	29.354532	-5.475272	0.000000	0.283684	0.162701	-0.969185	0.526830	0.216392	-1.029759	0.466065	0.395590	-1.029759	0.324223	0.395590	-0.848036	0.263429	0.331779	-0.787462	0.162097	0.252023	-0.726888	2.026327	1.840501	-5.390314	0.000000	0.000000	27.042015	5.134129	-18.885695	9.485896	-11.281851	61.631870	40.134839	50.705764	9.150236	8.639709	1.928314	-8.597481	42.292965	47.084568	79.565406	4.278961	5.480674
0.411765	7.919438	-1.151532	94.251763	0.398762	0.712714	0.762953	8.985668	2.710492	-4.866753	10.063506	0.175641	32.104595	-5.367679	0.000000	5.552642	-1.152295	12.200725	2.234914	0.039007	29.533826	-5.231941	0.000000	0.272450	0.171632	-0.978850	0.505966	0.228270	-1.040028	0.447608	0.417305	-1.040028	0.311383	0.417305	-0.856493	0.252997	0.349991	-0.795315	0.155678	0.265857	-0.734137	1.946081	1.941530	-5.444068	0.000000	0.000000	26.870663	4.785636	-18.741024	9.495151	-11.196557	62.425816	39.394226	49.278397	8.835607	7.925507	2.257531	-8.336511	42.716464	46.657059	78.844436	4.342295	5.307429
0.431373	7.879376	-1.014895	94.463854	0.397451	0.712764	0.762758	9.271560	2.527927	-5.329782	11.008178	0.192129	32.705068	-5.155403	0.000000	5.536969	-1.019978	12.113900	2.527375	0.044111	29.701086	-4.998270	0.000000	0.259737	0.185588	-1.001421	0.482357	0.246832	-1.064010	0.426722	0.451238	-1.064010	0.296853	0.451238	-0.876244	0.241192	0.378451	-0.813655	0.148414	0.287476	-0.751066	1.855274	2.099407	-5.569605	0.000000	0.000000	26.641883	4.343500	-18.444139	9.713030	-11.095395	63.947076	38.434244	47.104725	8.309022	7.024684	2.552999	-8.043246	42.823456	46.238282	78.272677	4.329612	5.145040
0.450980	7.849730	-0.904883	94.678553	0.396109	0.712710	0.762759	9.574339	2.355252	-5.719461	11.902491	0.207738	33.254651	-5.043086	0.000000	5.567593	-0.897603	12.036285	2.838362	0.049539	29.853372	-4.768042	0.000000	0.246530	0.203953	-1.036960	0.457831	0.271257	-1.101770	0.405025	0.495891	-1.101770	0.281760	0.495891	-0.907340	0.228928	0.415901	-0.842530	0.140867	0.315923	-0.777720	1.760942	2.307156	-5.767260	0.000000	0.000000	26.367864	3.820055	-17.979410	9.997381	-10.975209	65.430778	37.335665	45.227867	7.655628	6.130368	2.813267	-7.740853	42.627808	45.838054	77.836617	4.155178	4.964635
0.470588	7.819994	-0.827322	94.868322	0.394819	0.712567	0.762931	9.888276	2.188593	-6.095375	12.732733	0.222228	33.770514	-4.907955	0.000000	5.644340	-0.781412	11.849902	3.161879	0.055185	30.020509	-4.406142	0.000000	0.233787	0.224132	-1.081709	0.434167	0.298095	-1.149316	0.384089	0.544954	-1.149316	0.267196	0.544954	-0.946495	0.217095	0.457049	-0.878888	0.133586	0.347180	-0.811282	1.669920	2.535423	-6.016140	0.000000	0.000000	26.041612	3.242682	-17.372245	10.330096	-10.849029	66.718107	36.178526	43.845225	6.855604	5.338600	3.025524	-7.455235	42.133949	45.453439	77.620630	3.696787	4.682790
0.490196	7.785418	-0.775874	95.020303	0.393656	0.712380	0.763194	10.182649	2.034006	-6.389614	13.457327	0.234875	34.214369	-4.822425	0.000000	5.740924	-0.671053	11.639404	3.463376	0.060447	30.166452	-4.046746	0.000000	0.221724	0.243789	-1.131154	0.411764	0.324239	-1.201851	0.364270	0.592748	-1.201851	0.253408	0.592748	-0.989760	0.205893	0.497134	-0.919063	0.126693	0.377629	-0.848366	1.583753	2.757787	-6.291140	0.000000	0.000000	25.659065	2.630322	-16.680636	10.649068	-10.723920	67.546971	35.049964	43.366913	5.926433	4.659718	3.183182	-7.219463	41.395870	45.062012	77.620775	2.868261	4.184077
0.509804	7.753236	-0.741156	95.078049	0.392749	0.712214	0.763487	10.439978	1.904716	-6.671544	14.062755	0.245441	34.614722	-4.586440	0.000000	5.826407	-0.586525	11.218109	3.712108	0.064788	30.334927	-3.487878	0.000000	0.211007	0.262668	-1.172889	0.391862	0.349349	-1.246195	0.346664	0.638652	-1.246195	0.241160	0.638652	-1.026278	0.195941	0.535634	-0.952972	0.120570	0.406873	-0.879667	1.507205	2.971358	-6.523257	0.000000	0.000000	25.197523	2.063989	-15.870521	10.955262	-10.643800	68.021005	34.025470	43.722201	4.677116	4.039748	3.316285	-7.090805	40.622726	44.643123	77.612029	1.571987	3.505798
0.529412	7.695638	-0.713341	95.144457	0.391984	0.712095	0.763759	10.612492	1.768290	-6.914894	14.485027	0.252811	34.920753	-4.363638	0.000000	5.910127	-0.487296	10.777373	3.935042	0.068679	30.483752	-2.881583	0.000000	0.200380	0.275051	-1.220726	0.372125	0.365818	-1.297021	0.329204	0.668760	-1.297021	0.229014	0.668760	-1.068135	0.186073	0.560885	-0.991840	0.114497	0.426054	-0.915544	1.431293	3.111435	-6.789310	0.000000	0.000000	24.665010	1.482935	-15.124622	11.173287	-10.623485	67.969571	33.192584	45.004180	3.164939	3.610405	3.378589	-7.081815	39.688795	44.174745	78.079259	-0.150831	2.439970
0.549020	7.633773	-0.682292	95.157591	0.391481	0.712080	0.763950	10.677623	1.655835	-7.141474	14.698416	0.256536	35.138757	-4.025752	0.000000	5.956535	-0.406556	10.303433	4.094332	0.071460	30.612758	-2.258934	0.000000	0.190267	0.283455	-1.254099	0.353346	0.376995	-1.332480	0.312590	0.689192	-1.332480	0.217457	0.689192	-1.097337	0.176682	0.578021	-1.018955	0.108719	0.439072	-0.940574	1.359061	3.206498	-6.974922	0.000000	0.000000	24.055363	0.933278	-14.408704	11.217490	-10.694644	67.248958	32.591737	47.350635	1.411261	3.294489	3.450519	-7.252475	38.908760	43.673346	78.851020	-2.253201	1.273784
0.568627	7.576136	-0.637741	95.113057	0.391252	0.712212	0.764005	10.603167	1.586986	-7.217609	14.658567	0.255840	35.216823	-3.728232	0.000000	5.947017	-0.353677	9.855894	4.181019	0.072973	30.700749	-1.707987	0.000000	0.180432	0.288925	-1.276167	0.335081	0.384270	-1.355927	0.296432	0.702492	-1.355927	0.206216	0.702492	-1.116646	0.167549	0.589176	-1.036886	0.103099	0.447545	-0.957125	1.288809	3.268375	-7.097657	0.000000	0.000000	23.368449	0.438760	-13.677237	11.161941	-10.907607	66.306600	32.210310	50.066247	-0.560979	2.948009	3.493192	-7.607886	38.210440	43.169062	79.923167	-4.550750	0.173223
0.588235	7.532232	-0.586471	95.005227	0.391294	0.712489	0.763915	10.397730	1.568454	-7.173855	14.362829	0.250679	35.154355	-3.435349	0.000000	5.885611	-0.338409	9.371798	4.188542	0.073104	30.755310	-1.142528	0.000000	0.170937	0.292893	-1.283304	0.317448	0.389548	-1.363510	0.280833	0.712141	-1.363510	0.195364	0.712141	-1.122891	0.158732	0.597268	-1.042684	0.097674	0.453692	-0.962478	1.220988	3.313268	-7.137349	0.000000	0.000000	22.642633	0.003158	-12.914263	10.986129	-11.283643	65.154887	32.034062	52.961734	-2.519837	2.536971	3.511178	-8.133385	37.598625	42.658844	81.221112	-6.914754	-0.699226
0.607843	7.510273	-0.522271	94.795794	0.391648	0.712918	0.763598	10.046266	1.611154	-6.960649	13.798409	0.240828	34.935873	-3.145728	0.000000	5.751724	-0.370080	8.942665	4.107691	0.071693	30.740380	-0.752559	0.000000	0.161954	0.297005	-1.269323	0.300765	0.395017	-1.348656	0.266075	0.722138	-1.348656	0.185098	0.722138	-1.110658	0.150391	0.605653	-1.031325	0.092541	0.460061	-0.951992	1.156823	3.359781	-7.059594	0.000000	0.000000	21.853328	-0.349305	-12.057560	10.678535	-11.827477	63.825420	32.051017	56.165561	-4.384299	2.047363	3.466747	-8.790367	36.977476	42.133734	82.751932	-9.145051	-1.207096
0.627451	7.501860	-0.455710	94.479195	0.392302	0.713467	0.763084	9.584222	1.691174	-6.780596	13.017906	0.227205	34.628163	-2.589666	0.000000	5.563701	-0.437305	8.463144	3.953097	0.068995	30.679733	-0.412278	0.000000	0.153716	0.299565	-1.232953	0.285465	0.398421	-1.310013	0.252539	0.728362	-1.310013	0.175682	0.728362	-1.078834	0.142740	0.610872	-1.001775	0.087833	0.464026	-0.924715	1.097976	3.388737	-6.857317	0.000000	0.000000	21.024567	-0.638159	-11.187324	10.296381	-12.527125	62.528122	32.214423	59.214377	-6.024596	1.474936	3.351409	-9.555594	36.311426	41.582529	84.381065	-11.204094	-1.357372
0.647059	7.497473	-0.389366	94.068839	0.393243	0.714095	0.762393	9.019648	1.800642	-6.383086	12.041193	0.210158	34.148495	-2.168108	0.000000	5.331873	-0.526249	7.972707	3.738217	0.065244	30.567686	-0.175714	0.000000	0.146134	0.298852	-1.172648	0.271386	0.397473	-1.245938	0.240084	0.726629	-1.245938	0.167017	0.726629	-1.026067	0.135700	0.609419	-0.952776	0.083501	0.462922	-0.879486	1.043821	3.380676	-6.521914	0.000000	0.000000	20.182344	-0.855604	-10.350025	9.817423	-13.341697	61.094263	32.497253	62.225990	-7.271439	0.895584	3.189186	-10.410990	35.662213	40.967347	85.847209	-13.083276	-1.280803
0.666667	7.484882	-0.319032	93.559995	0.394455	0.714776	0.761567	8.376665	1.922771	-5.755049	10.930102	0.190766	33.506542	-1.926264	0.000000	5.054737	-0.619558	7.536837	3.471429	0.060588	30.383903	-0.151959	0.000000	0.138406	0.292736	-1.090525	0.257034	0.389339	-1.158683	0.227388	0.711759	-1.158683	0.158185	0.711759	-0.954209	0.128524	0.596948	-0.886052	0.079085	0.453449	-0.817894	0.988622	3.311493	-6.065173	0.000000	0.000000	19.353939	-0.999659	-9.593952	9.359695	-14.251588	59.916881	32.849247	64.654927	-8.100183	0.331516	2.962303	-11.323523	34.988339	40.259503	87.078042	-14.830520	-1.175977
0.686275	7.451125	-0.253275	92.986308	0.395893	0.715445	0.760676	7.700985	2.036173	-4.948741	9.757930	0.170308	32.749247	-1.877294	0.000000	4.757349	-0.697317	7.195319	3.178042	0.055467	30.132595	-0.356646	0.000000	0.131112	0.279235	-0.985524	0.243488	0.371383	-1.047119	0.215404	0.678932	-1.047119	0.149848	0.678932	-0.862333	0.121750	0.569416	-0.800738	0.074917	0.432535	-0.739143	0.936519	3.158763	-5.481187	0.000000	0.000000	18.575896	-1.070865	-8.948151	8.837663	-15.196288	58.613701	33.245317	67.138154	-8.431994	-0.150240	2.714163	-12.280086	34.390702	39.405550	88.058187	-16.426556	-1.191083
0.705882	7.394574	-0.172897	92.343551	0.397528	0.716103	0.759813	7.011333	2.134811	-3.997690	8.593217	0.149980	31.913082	-1.994173	0.000000	4.428597	-0.755975	6.931932	2.876525	0.050205	29.827998	-0.760510	0.000000	0.120497	0.258009	-0.857193	0.223774	0.343153	-0.910768	0.197964	0.627324	-0.910768	0.137716	0.627324	-0.750044	0.111893	0.526133	-0.696470	0.068852	0.399657	-0.642895	0.860695	2.918655	-4.767452	0.000000	0.000000	17.848913	-1.093832	-8.471299	8.359005	-16.161340	57.614776	33.643528	69.096061	-8.402710	-0.504578	2.469332	-13.277417	33.916824	38.430605	88.619910	-17.949392	-1.351095
0.725490	7.338451	-0.081140	91.654326	0.399280	0.716711	0.759031	6.338979	2.247332	-2.783182	7.481465	0.130576	30.999892	-2.483482	0.000000	4.077838	-0.813348	6.860511	2.571848	0.044887	29.457076	-1.474987	0.000000	0.106559	0.232982	-0.699911	0.197891	0.309866	-0.743655	0.175066	0.566472	-0.743655	0.121786	0.566472	-0.612422	0.098951	0.475096	-0.568677	0.060888	0.360889	-0.524933	0.761140	2.635536	-3.892693	0.000000	0.000000	17.197617	-1.125283	-8.206553	7.835372	-17.122409	56.670337	33.986218	70.961179	-8.057780	-0.698036	2.275085	-14.284479	33.639742	37.354756	88.814578	-19.369742	-1.593933
0.745098	7.283617	0.026405	90.948223	0.401039	0.717263	0.758404	5.720826	2.360367	-1.499820	6.495994	0.113376	30.117587	-3.116599	0.000000	3.719233	-0.863788	6.917862	2.291622	0.039996	29.061062	-2.363155	0.000000	0.088031	0.206080	-0.520540	0.163482	0.274086	-0.553074	0.144626	0.501062	-0.553074	0.100611	0.501062	-0.455473	0.081746	0.420238	-0.422939	0.050301	0.319218	-0.390405	0.628797	2.331216	-2.895090	0.000000	0.000000	16.618255	-1.207623	-8.131018	7.332681	-18.044563	56.096463	34.148996	72.531252	-7.570796	-0.756103	2.116619	-15.260610	33.383374	36.269363	88.657235	-20.560589	-1.783073
0.764706	7.252797	0.136931	90.273135	0.402621	0.717713	0.757937	5.196943	2.482971	-0.246895	5.685546	0.099231	29.327458	-3.822404	0.000000	3.386546	-0.920722	7.001221	2.066106	0.036060	28.703201	-3.244555	0.000000	0.067651	0.183437	-0.342979	0.125634	0.243971	-0.364415	0.111144	0.446008	-0.364415	0.077318	0.446008	-0.300107	0.062821	0.374064	-0.278671	0.038656	0.284143	-0.257234	0.483223	2.075073	-1.907548	0.000000	0.000000	16.114686	-1.360539	-8.079371	6.937251	-18.937362	56.276153	34.095092	73.456800	-7.128543	-0.701982	1.867999	-16.125187	32.763716	35.300129	88.661704	-21.539448	-1.816666
0.784314	7.262848	0.259302	89.649333	0.403924	0.718083	0.757603	4.776259	2.622202	0.841526	5.083693	0.088727	28.694247	-4.439783	0.000000	3.071208	-0.998410	7.105948	1.890921	0.033003	28.389625	-4.096754	0.000000	0.044824	0.168970	-0.170382	0.083243	0.224730	-0.181031	0.073642	0.410833	-0.181031	0.051230	0.410833	-0.149084	0.041624	0.344563	-0.138435	0.025613	0.261734	-0.127786	0.320175	1.911421	-0.947613	0.000000	0.000000	15.675270	-1.636041	-8.063574	6.615844	-19.790271	57.086710	33.772242	73.870929	-6.815568	-0.619442	1.563656	-16.848334	31.891792	34.413329	88.552453	-22.302748	-1.720635
0.803922	7.332535	0.377442	89.129103	0.404831	0.718336	0.757375	4.481974	2.783869	1.660931	4.710065	0.082206	28.256134	-4.898087	0.000000	2.802421	-1.114331	7.095167	1.777161	0.031017	28.179030	-4.686050	0.000000	0.022336	0.166491	-0.018456	0.041481	0.221433	-0.019609	0.036696	0.404806	-0.019609	0.025528	0.404806	-0.016149	0.020742	0.339509	-0.014995	0.012763	0.257895	-0.013842	0.159546	1.883380	-0.102646	0.000000	0.000000	15.327806	-2.005818	-7.982141	6.275037	-20.582410	57.991977	33.210227	74.237466	-6.578559	-0.501567	1.178140	-17.387242	30.701331	33.581934	88.464675	-22.812562	-1.580206
0.823529	7.428267	0.511800	88.723119	0.405397	0.718499	0.757223	4.299752	2.938629	2.192567	4.591084	0.080130	28.037400	-5.200955	0.000000	2.543066	-1.235097	7.117328	1.693741	0.029561	28.032879	-5.213919	0.000000	-0.002056	0.169668	0.100247	-0.003818	0.225659	0.106513	-0.003377	0.412531	0.106513	-0.002349	0.412531	0.087716	-0.001909	0.345987	0.081451	-0.001175	0.262816	0.075185	-0.014683	1.919321	0.557544	0.000000	0.000000	15.023674	-2.435328	-7.909807	6.049518	-21.281895	59.402225	32.391701	74.274855	-6.599420	-0.507945	0.372216	-17.829961	24.164472	33.581318	92.664681	-23.503028	-1.089536
0.843137	7.576885	0.642771	88.429109	0.405531	0.718580	0.757023	4.226039	3.106698	2.382836	4.700543	0.082040	28.038937	-5.268930	0.000000	2.314514	-1.388800	6.947629	1.660618	0.028983	28.026863	-5.396393	0.000000	-0.024077	0.183648	0.189084	-0.044714	0.244252	0.200902	-0.039556	0.446521	0.200902	-0.027518	0.446521	0.165449	-0.022358	0.374495	0.153631	-0.013758	0.284470	0.141813	-0.171981	2.077461	1.051629	0.000000	0.000000	14.770987	-2.962922	-7.835600	5.681447	-21.905241	60.085625	31.522800	75.140325	-6.702706	-0.345937	-0.255658	-18.007074	20.627071	32.878809	94.246396	-23.881020	-0.998403
0.862745	7.743881	0.779595	88.236562	0.405347	0.718585	0.756716	4.251306	3.267298	2.300080	5.048472	0.088112	28.266702	-5.175091	0.000000	2.093205	-1.546126	6.642605	1.661705	0.029002	28.147034	-5.321899	0.000000	-0.044643	0.201361	0.243759	-0.082906	0.267810	0.258994	-0.073343	0.489590	0.258994	-0.051022	0.489590	0.213289	-0.041455	0.410616	0.198054	-0.025509	0.311909	0.182819	-0.318877	2.277839	1.355715	0.000000	0.000000	14.549209	-3.534518	-7.830907	5.242917	-22.426134	60.295755	30.661801	76.579929	-6.972289	-0.064985	-0.762080	-18.015019	19.637307	31.604534	93.612650	-24.041896	-1.327598
0.882353	7.905738	0.929547	88.132824	0.404956	0.718508	0.756264	4.365245	3.405105	1.974775	5.635211	0.098353	28.726152	-4.930484	0.000000	1.859066	-1.687189	6.241990	1.681004	0.029339	28.385080	-5.059297	0.000000	-0.065212	0.217635	0.269430	-0.121106	0.289455	0.286269	-0.107137	0.529159	0.286269	-0.074531	0.529159	0.235751	-0.060556	0.443802	0.218911	-0.037262	0.337117	0.202072	-0.465806	2.461935	1.498486	0.000000	0.000000	14.352875	-4.134483	-7.973209	4.678700	-22.820596	59.830295	29.889862	78.724685	-7.419588	0.338440	-1.171763	-17.939560	21.022897	29.858108	90.888057	-23.982371	-2.035858
0.901961	8.033522	1.100327	88.113280	0.404461	0.718358	0.755680	4.556904	3.506259	1.498123	6.454088	0.112645	29.396910	-4.628276	0.000000	1.606049	-1.788048	5.751260	1.722685	0.030067	28.742797	-4.596953	0.000000	-0.087488	0.227194	0.268122	-0.162475	0.302168	0.284880	-0.143735	0.552400	0.284880	-0.099991	0.552400	0.234607	-0.081242	0.463294	0.217849	-0.049991	0.351924	0.201092	-0.624921	2.570064	1.491216	0.000000	0.000000	14.157426	-4.722042	-8.266323	4.011933	-23.080250	58.851569	29.221716	81.278849	-8.132638	0.790325	-1.503438	-17.870920	24.292656	27.751542	86.582942	-23.734137	-2.998368
0.921569	8.100548	1.287415	88.196159	0.403881	0.718132	0.754969	4.813774	3.542177	0.860368	7.471866	0.130409	30.262646	-4.252078	0.000000	1.349062	-1.820210	5.164144	1.800960	0.031433	29.214695	-3.891662	0.000000	-0.111266	0.225660	0.237484	-0.206631	0.300127	0.252327	-0.182798	0.548669	0.252327	-0.127166	0.548669	0.207799	-0.103321	0.460165	0.192956	-0.063577	0.349547	0.178113	-0.794760	2.552706	1.320816	0.000000	0.000000	13.957608	-5.273587	-8.739231	3.246081	-23.213733	57.487072	28.673550	83.818505	-8.990698	1.256469	-1.809399	-17.848073	28.869181	25.391217	81.113141	-23.243519	-4.109433
0.941176	8.121695	1.507300	88.310900	0.403359	0.717893	0.754106	5.097210	3.542781	0.146898	8.638328	0.150767	31.283842	-3.783831	0.000000	1.046059	-1.811248	4.496222	1.870387	0.032644	29.774192	-2.993641	0.000000	-0.138272	0.215455	0.199493	-0.256785	0.286555	0.211962	-0.227167	0.523857	0.211962	-0.158031	0.523857	0.174557	-0.128400	0.439355	0.162088	-0.079009	0.333739	0.149620	-0.987664	2.437268	1.109521	0.000000	0.000000	13.738590	-5.774344	-9.328623	2.348371	-23.220621	55.727001	28.212387	85.917862	-9.916079	1.637836	-2.045944	-17.915563	34.655379	22.892469	74.675601	-22.416009	-4.963224
0.960784	8.089406	1.756140	88.477078	0.402876	0.717648	0.753096	5.372304	3.505428	-0.508342	9.874642	0.172345	32.371063	-3.408560	0.000000	0.704692	-1.749919	3.845078	1.926973	0.033632	30.364566	-2.028494	0.000000	-0.167877	0.195878	0.143101	-0.311764	0.260518	0.152045	-0.275805	0.476259	0.152045	-0.191866	0.476259	0.125213	-0.155890	0.399435	0.116270	-0.095925	0.303416	0.107326	-1.199126	2.215815	0.795885	0.000000	0.000000	13.519846	-6.184893	-9.967695	1.435695	-23.125969	54.011120	27.807562	86.856231	-10.821510	1.803185	-2.309807	-18.046280	41.138566	20.331737	67.481917	-21.152567	-5.491106
0.980392	8.011263	2.021414	88.675303	0.402466	0.717399	0.751969	5.623101	3.441572	-1.076071	11.119412	0.194070	33.464485	-3.131037	0.000000	0.342866	-1.650110	3.108358	1.973650	0.034447	30.997998	-0.860673	0.000000	-0.198695	0.168408	0.075611	-0.368996	0.223983	0.080337	-0.326436	0.409467	0.080337	-0.227088	0.409467	0.066160	-0.184508	0.343418	0.061434	-0.113534	0.260864	0.056708	-1.419258	1.905066	0.420526	0.000000	0.000000	13.327408	-6.487150	-10.615530	0.487191	-22.941715	52.222898	27.464768	86.707644	-11.537936	1.789399	-2.601575	-18.221505	48.178436	17.750775	59.675715	-19.501079	-5.655567
1.000000	7.900959	2.282877	88.896397	0.402123	0.717135	0.750720	5.822398	3.343181	-1.701338	12.279037	0.214310	34.536427	-2.725975	0.000000	-0.017261	-1.523086	2.440061	2.009191	0.035067	31.641140	0.299357	0.000000	-0.226957	0.135153	0.000187	-0.421482	0.179754	0.000198	-0.372868	0.328611	0.000198	-0.259390	0.328611	0.000163	-0.210753	0.275604	0.000152	-0.129683	0.209352	0.000140	-1.621133	1.528880	0.001038	0.000000	0.000000	13.153874	-6.676299	-11.286784	-0.496379	-22.663466	50.226639	27.229107	85.792129	-12.013108	1.667789	-2.933792	-18.424411	55.375094	15.204169	51.684721	-17.631323	-5.563398
1.019608	7.737563	2.535181	89.143162	0.401856	0.716881	0.749534	5.983317	3.186311	-2.329627	13.357013	0.233124	35.526656	-2.294404	0.000000	-0.357882	-1.348595	1.814847	2.032502	0.035474	32.252625	1.497883	0.000000	-0.255414	0.093342	-0.087661	-0.474329	0.124145	-0.093140	-0.419619	0.226951	-0.093140	-0.291912	0.226951	-0.076704	-0.237177	0.190343	-0.071225	-0.145943	0.144586	-0.065746	-1.824395	1.055901	-0.487547	0.000000	0.000000	13.020123	-6.739677	-11.995008	-1.381258	-22.307071	48.279016	27.093068	83.981880	-12.212851	1.477607	-3.289133	-18.654237	62.424896	12.727204	43.853144	-15.671728	-5.329186
1.039216	7.534317	2.744291	89.380875	0.401744	0.716600	0.748446	6.100954	2.997659	-2.675976	14.256111	0.248816	36.301422	-2.211544	0.000000	-0.642564	-1.138487	1.424404	2.042737	0.035652	32.778959	2.415433	0.000000	-0.279500	0.044837	-0.175322	-0.519060	0.059634	-0.186280	-0.459191	0.109017	-0.186280	-0.319441	0.109017	-0.153407	-0.259544	0.091432	-0.142449	-0.159706	0.069453	-0.131492	-1.996443	0.507208	-0.975091	0.000000	0.000000	12.953698	-6.668171	-12.734001	-2.231449	-21.861717	46.010030	27.125722	81.983885	-12.021909	1.354339	-3.634196	-18.918643	69.247216	10.373087	36.284542	-13.885590	-5.206457
1.058824	7.301014	2.895653	89.569431	0.401851	0.716309	0.747572	6.189683	2.785267	-2.886218	14.951402	0.260951	36.889066	-2.218377	0.000000	-0.848720	-0.905866	1.196703	2.048499	0.035753	33.214259	3.091379	0.000000	-0.298469	-0.009152	-0.254315	-0.554288	-0.012172	-0.270209	-0.490355	-0.022252	-0.270209	-0.341121	-0.022252	-0.222525	-0.277159	-0.018662	-0.206631	-0.170545	-0.014176	-0.190736	-2.131937	-0.103528	-1.414422	0.000000	0.000000	12.955134	-6.481670	-13.522020	-2.966815	-21.362618	43.714595	27.323290	79.746222	-11.495086	1.258686	-3.936528	-19.226401	75.685397	8.183056	29.271250	-12.450550	-5.329817
1.078431	7.045847	2.983257	89.690562	0.402209	0.716028	0.747015	6.253790	2.563593	-2.922048	15.411601	0.268983	37.276460	-2.346200	0.000000	-0.965308	-0.659003	1.181425	2.049616	0.035773	33.525748	3.423074	0.000000	-0.312568	-0.066672	-0.318066	-0.580469	-0.088674	-0.337945	-0.513517	-0.162106	-0.337945	-0.357233	-0.162106	-0.278308	-0.290250	-0.135957	-0.258429	-0.178601	-0.103275	-0.238550	-2.232638	-0.754206	-1.768988	0.000000	0.000000	13.017319	-6.190449	-14.290163	-3.614520	-20.839507	41.316944	27.684251	77.765119	-10.711464	1.167140	-4.142683	-19.592299	81.563815	6.208457	23.025378	-11.417886	-5.709645
1.098039	6.784212	2.997816	89.724566	0.402796	0.715773	0.746852	6.310332	2.345045	-2.802698	15.628704	0.272772	37.475163	-2.526471	0.000000	-0.975929	-0.414721	1.285575	2.055399	0.035873	33.719195	3.504439	0.000000	-0.321201	-0.124382	-0.362280	-0.596502	-0.165429	-0.384922	-0.527701	-0.302424	-0.384922	-0.367100	-0.302424	-0.316995	-0.298267	-0.253641	-0.294352	-0.183534	-0.192668	-0.271710	-2.294305	-1.407039	-2.014893	0.000000	0.000000	13.124161	-5.849907	-15.032006	-4.157192	-20.304799	38.958168	28.190813	76.111291	-9.769683	1.107608	-4.238345	-20.015116	86.637625	4.569531	17.662117	-10.795487	-6.277436
1.117647	6.539944	2.935676	89.680064	0.403515	0.715550	0.747131	6.371747	2.152322	-2.524257	15.602667	0.272318	37.503013	-2.763893	0.000000	-0.873026	-0.193636	1.501681	2.063931	0.036022	33.786149	3.337919	0.000000	-0.324022	-0.176786	-0.388708	-0.601741	-0.235125	-0.413002	-0.532335	-0.429837	-0.413002	-0.370324	-0.429837	-0.340119	-0.300887	-0.360502	-0.315825	-0.185146	-0.273841	-0.291531	-2.314454	-1.999837	-2.161876	0.000000	0.000000	13.269288	-5.516779	-15.668178	-4.593289	-19.802036	36.750384	28.804009	74.914516	-8.783209	1.035902	-4.208787	-20.474070	90.608743	3.357276	13.324231	-10.487741	-6.879045
1.137255	6.329454	2.806578	89.559342	0.404292	0.715388	0.747872	6.448742	1.986071	-2.334911	15.368526	0.268231	37.452186	-2.714785	0.000000	-0.660404	-0.012672	1.662750	2.084984	0.036390	33.762197	3.134500	0.000000	-0.322182	-0.220214	-0.402581	-0.598325	-0.292884	-0.427742	-0.529313	-0.535427	-0.427742	-0.368222	-0.535427	-0.352258	-0.299178	-0.449060	-0.327097	-0.184095	-0.341111	-0.301936	-2.301315	-2.491101	-2.239033	0.000000	0.000000	13.450439	-5.207924	-16.117523	-4.868276	-19.358050	34.962005	29.457586	74.159325	-7.887170	0.949257	-4.091209	-20.935206	92.998143	2.667341	10.213201	-10.321150	-7.344143
1.156863	6.176416	2.613155	89.370525	0.405030	0.715282	0.749023	6.549396	1.863559	-2.242884	14.955070	0.261015	37.325773	-2.394436	0.000000	-0.345151	0.107676	1.745694	2.114237	0.036900	33.634456	2.896934	0.000000	-0.314643	-0.250098	-0.409132	-0.584323	-0.332630	-0.434703	-0.516927	-0.608089	-0.434703	-0.359605	-0.608089	-0.357991	-0.292177	-0.510000	-0.332420	-0.179787	-0.387402	-0.306849	-2.247462	-2.829160	-2.275472	0.000000	0.000000	13.682116	-4.950070	-16.321633	-4.978912	-19.037655	33.639209	30.138270	73.886591	-7.201338	0.819273	-3.906798	-21.381714	93.518674	2.513151	8.524349	-10.238267	-7.604969
1.176471	6.079907	2.367353	89.135676	0.405654	0.715229	0.750501	6.672041	1.768013	-2.376710	14.406603	0.251443	37.155524	-1.682523	0.000000	0.059369	0.168267	1.575246	2.158827	0.037679	33.458074	2.884531	0.000000	-0.302111	-0.266062	-0.412256	-0.561051	-0.353862	-0.438022	-0.496339	-0.646903	-0.438022	-0.345283	-0.646903	-0.360724	-0.280540	-0.542553	-0.334958	-0.172626	-0.412130	-0.309192	-2.157950	-3.009744	-2.292844	0.000000	0.000000	13.989478	-4.757480	-16.270166	-4.945979	-18.862916	32.698353	30.852983	74.099765	-6.774455	0.624998	-3.648024	-21.812498	92.071756	2.862804	8.364409	-10.224379	-7.591276
1.196078	6.038674	2.077429	88.863434	0.406164	0.715216	0.752171	6.807413	1.713299	-2.559433	13.749520	0.239974	36.898069	-0.872794	0.000000	0.525338	0.177539	1.453904	2.201758	0.038428	33.146855	2.666956	0.000000	-0.284141	-0.269473	-0.413807	-0.527678	-0.358400	-0.439670	-0.466815	-0.655197	-0.439670	-0.324745	-0.655197	-0.362081	-0.263853	-0.549510	-0.336219	-0.162358	-0.417414	-0.310356	-2.029589	-3.048336	-2.301473	0.000000	0.000000	14.371964	-4.627844	-16.010612	-4.774960	-18.832596	32.092353	31.598260	74.794053	-6.602245	0.374775	-3.347001	-22.237783	88.280398	3.683702	10.100886	-10.269811	-7.312825
1.215686	6.035619	1.767442	88.571755	0.406566	0.715241	0.753906	6.944629	1.680766	-2.805535	13.045151	0.227681	36.567743	-0.024565	0.000000	1.012275	0.153924	1.432732	2.235454	0.039016	32.695431	2.205059	0.000000	-0.263855	-0.264048	-0.419257	-0.490005	-0.351184	-0.445461	-0.433488	-0.642007	-0.445461	-0.301560	-0.642007	-0.366850	-0.245016	-0.538447	-0.340646	-0.150767	-0.409011	-0.314443	-1.884691	-2.986966	-2.331782	0.000000	0.000000	14.838233	-4.535768	-15.558462	-4.411868	-18.936327	32.013371	32.341736	75.904461	-6.716799	0.101851	-3.030841	-22.662886	81.917436	4.922352	13.975049	-10.407826	-6.718594
1.235294	6.088130	1.431676	88.259381	0.406795	0.715289	0.755504	7.084417	1.690487	-3.072322	12.315854	0.214952	36.160055	0.792592	0.000000	1.513194	0.081142	1.369047	2.270705	0.039631	32.154337	1.680631	0.000000	-0.238470	-0.247188	-0.421090	-0.442863	-0.328760	-0.447408	-0.391783	-0.601013	-0.447408	-0.272547	-0.601013	-0.368454	-0.221443	-0.504066	-0.342136	-0.136262	-0.382894	-0.315818	-1.703368	-2.796241	-2.341976	0.000000	0.000000	15.389382	-4.528215	-14.964549	-3.994658	-19.166726	31.999345	33.128490	77.506137	-6.926526	-0.089614	-2.157901	-22.972379	81.081934	5.195765	13.266574	-10.128498	-6.471224
1.254902	6.152357	1.100799	87.946172	0.406990	0.715314	0.756866	7.223643	1.709562	-3.319468	11.639500	0.203148	35.726775	1.487188	0.000000	1.977708	0.002250	1.529929	2.288108	0.039935	31.485608	0.781699	0.000000	-0.211869	-0.228332	-0.420226	-0.393461	-0.303682	-0.446490	-0.348079	-0.555167	-0.446490	-0.242145	-0.555167	-0.367698	-0.196741	-0.465615	-0.341434	-0.121062	-0.353687	-0.315170	-1.513357	-2.582939	-2.337172	0.000000	0.000000	16.027252	-4.536424	-14.298473	-3.515716	-19.442973	32.101267	33.876267	79.503196	-7.218338	-0.212349	-1.163264	-23.336861	79.989405	5.558614	12.889819	-9.849922	-6.173656
1.274510	6.209111	0.795827	87.632131	0.407186	0.715308	0.757902	7.358464	1.730326	-3.460520	11.061261	0.193055	35.289756	1.951568	0.000000	2.377558	-0.067093	1.634718	2.292436	0.040011	30.792385	-0.079776	0.000000	-0.185872	-0.210859	-0.414307	-0.345182	-0.280442	-0.440201	-0.305369	-0.512682	-0.440201	-0.212433	-0.512682	-0.362519	-0.172600	-0.429983	-0.336624	-0.106207	-0.326620	-0.310730	-1.327663	-2.385276	-2.304252	0.000000	0.000000	16.748268	-4.560074	-13.576109	-2.989983	-19.731672	32.346054	34.512782	81.643616	-7.613364	-0.330971	-0.050834	-23.753812	79.258334	5.928856	12.373692	-9.623997	-5.880225
1.294118	6.254634	0.541282	87.313381	0.407400	0.715281	0.758537	7.479376	1.757085	-3.447642	10.621007	0.185372	34.881028	2.136273	0.000000	2.677975	-0.123301	1.658929	2.278908	0.039774	30.110169	-0.836875	0.000000	-0.162761	-0.195719	-0.402476	-0.302263	-0.260306	-0.427630	-0.267399	-0.475871	-0.427630	-0.186019	-0.475871	-0.352166	-0.151139	-0.399110	-0.327011	-0.093001	-0.303169	-0.301857	-1.162583	-2.214012	-2.238449	0.000000	0.000000	17.542967	-4.608481	-12.802866	-2.408483	-20.013692	32.841229	34.970025	83.644570	-8.114068	-0.461060	1.130212	-24.209196	78.610554	6.266016	12.036725	-9.493364	-5.693373
1.313725	6.283257	0.357407	87.013040	0.407580	0.715251	0.758685	7.573471	1.768105	-3.406932	10.349101	0.180626	34.551965	2.194543	0.000000	2.851638	-0.156169	1.774949	2.239828	0.039092	29.428982	-1.654181	0.000000	-0.142133	-0.183784	-0.381730	-0.263955	-0.244432	-0.405588	-0.233510	-0.446851	-0.405588	-0.162444	-0.446851	-0.334014	-0.131985	-0.374771	-0.310155	-0.081215	-0.284681	-0.286297	-1.015241	-2.078996	-2.123066	0.000000	0.000000	18.343671	-4.685680	-12.020089	-1.829705	-20.254247	33.495468	35.183764	85.290366	-8.669579	-0.642323	2.356488	-24.697061	77.672132	6.613314	12.168798	-9.504538	-5.602884
1.333333	6.311924	0.270417	86.736189	0.407658	0.715251	0.758316	7.616914	1.788774	-3.236261	10.264211	0.179144	34.287669	1.987860	0.000000	2.867855	-0.181852	1.733269	2.171839	0.037906	28.827233	-2.163943	0.000000	-0.127115	-0.171353	-0.355150	-0.236065	-0.227899	-0.377347	-0.208837	-0.416627	-0.377347	-0.145280	-0.416627	-0.310756	-0.118039	-0.349422	-0.288560	-0.072634	-0.265425	-0.266363	-0.907970	-1.938375	-1.975239	0.000000	0.000000	19.161988	-4.851334	-11.173533	-1.232661	-20.493583	34.393112	35.179827	86.567763	-9.295488	-0.788022	3.600925	-25.159116	77.232425	6.863677	12.061618	-9.575384	-5.610834
1.352941	6.326855	0.260578	86.513644	0.407598	0.715293	0.757473	7.616768	1.797356	-3.023558	10.330775	0.180306	34.093894	1.594630	0.000000	2.762615	-0.189061	1.532497	2.089453	0.036468	28.328274	-2.299236	0.000000	-0.112925	-0.160859	-0.323626	-0.209713	-0.213943	-0.343853	-0.185525	-0.391114	-0.343853	-0.129062	-0.391114	-0.283173	-0.104862	-0.328025	-0.262946	-0.064525	-0.249171	-0.242719	-0.806614	-1.819674	-1.799911	0.000000	0.000000	19.938731	-5.046402	-10.323136	-0.601407	-20.705755	35.628603	34.892182	87.339405	-10.050749	-1.015173	4.858122	-25.579573	76.939883	7.067563	11.902523	-9.714390	-5.741403
1.372549	6.350858	0.334769	86.353678	0.407342	0.715418	0.756171	7.563855	1.817412	-2.736315	10.547094	0.184082	33.944966	0.962040	0.000000	2.530519	-0.196294	1.245213	1.993373	0.034791	27.953146	-2.128072	0.000000	-0.101255	-0.148146	-0.285920	-0.188041	-0.197034	-0.303790	-0.166352	-0.360202	-0.303790	-0.115725	-0.360202	-0.250180	-0.094026	-0.302099	-0.232310	-0.057857	-0.229478	-0.214440	-0.723257	-1.675856	-1.590199	0.000000	0.000000	20.670301	-5.347658	-9.453282	0.012643	-20.934007	37.000507	34.447750	87.734062	-10.834058	-1.235434	6.150655	-25.896658	77.169809	7.176314	11.619618	-9.954473	-5.943807
1.392157	6.395046	0.474735	86.255869	0.406876	0.715657	0.754468	7.465783	1.843194	-2.512581	10.879872	0.189890	33.862810	0.297183	0.000000	2.194025	-0.210674	1.036985	1.881484	0.032838	27.680870	-1.873409	0.000000	-0.091118	-0.131221	-0.241678	-0.169215	-0.174524	-0.256783	-0.149698	-0.319050	-0.256783	-0.104139	-0.319050	-0.211468	-0.084612	-0.267585	-0.196364	-0.052065	-0.203261	-0.181259	-0.650847	-1.484395	-1.344142	0.000000	0.000000	21.325779	-5.769368	-8.547468	0.558556	-21.176868	38.216474	33.957974	87.983177	-11.536555	-1.362352	7.488187	-26.073535	77.836209	7.165258	11.409363	-10.300488	-6.203159
1.411765	6.447242	0.696526	86.224380	0.406209	0.716098	0.752468	7.312180	1.870501	-2.262067	11.325266	0.197663	33.821729	-0.495335	0.000000	1.745110	-0.222664	0.718951	1.754825	0.030627	27.544504	-1.280374	0.000000	-0.087602	-0.111817	-0.199894	-0.162686	-0.148717	-0.212388	-0.143922	-0.271872	-0.212388	-0.100121	-0.271872	-0.174908	-0.081347	-0.228018	-0.162414	-0.050056	-0.173205	-0.149921	-0.625734	-1.264898	-1.111753	0.000000	0.000000	21.852620	-6.316282	-7.587912	1.117039	-21.452311	39.493317	33.446418	87.775974	-12.189242	-1.462576	8.868146	-26.126566	78.845774	7.069398	11.222603	-10.806131	-6.604633
1.431373	6.523807	0.959214	86.224530	0.405433	0.716718	0.750182	7.114019	1.925310	-1.974627	11.798414	0.205921	33.801513	-1.364341	0.000000	1.229422	-0.248032	0.543901	1.616672	0.028216	27.512955	-0.774962	0.000000	-0.084962	-0.088046	-0.149631	-0.157784	-0.117101	-0.158983	-0.139585	-0.214074	-0.158983	-0.097104	-0.214074	-0.130928	-0.078896	-0.179542	-0.121576	-0.048548	-0.136383	-0.112224	-0.606878	-0.995989	-0.832205	0.000000	0.000000	22.225000	-6.968024	-6.583947	1.554353	-21.724630	40.374896	33.028380	87.418485	-12.587681	-1.436787	10.294446	-26.029694	80.513163	6.827004	10.870484	-11.423701	-7.148084
1.450980	6.623025	1.257584	86.257330	0.404583	0.717541	0.747788	6.880404	2.008010	-1.649304	12.279930	0.214325	33.788798	-2.276624	0.000000	0.669468	-0.290112	0.450773	1.473949	0.025725	27.587121	-0.294011	0.000000	-0.085379	-0.060463	-0.096003	-0.158558	-0.080416	-0.102003	-0.140270	-0.147009	-0.102003	-0.097580	-0.147009	-0.084003	-0.079283	-0.123296	-0.078003	-0.048786	-0.093657	-0.072002	-0.609856	-0.683968	-0.533941	0.000000	0.000000	22.414403	-7.700202	-5.534706	1.916259	-22.010741	41.003180	32.729427	86.778753	-12.737172	-1.314279	11.786334	-25.783084	82.722050	6.430102	10.434289	-12.100597	-7.847009
1.470588	6.745380	1.564767	86.310705	0.403677	0.718519	0.745508	6.651516	2.116246	-1.317550	12.761072	0.222723	33.781336	-3.156804	0.000000	0.114289	-0.352333	0.394733	1.339629	0.023381	27.768145	0.190299	0.000000	-0.088929	-0.028362	-0.044497	-0.165151	-0.037721	-0.047278	-0.146102	-0.068959	-0.047278	-0.101637	-0.068959	-0.038935	-0.082580	-0.057835	-0.036154	-0.050814	-0.043932	-0.033373	-0.635214	-0.320834	-0.247478	0.000000	0.000000	22.454516	-8.482682	-4.402893	2.243163	-22.333730	41.424693	32.591649	85.961921	-12.627001	-1.114383	13.345138	-25.390323	85.265463	5.918635	9.842110	-12.827934	-8.769095
1.490196	6.872739	1.843086	86.347651	0.402816	0.719582	0.743555	6.481438	2.236364	-1.006176	13.240847	0.231096	33.773764	-3.910878	0.000000	-0.379059	-0.423194	0.281774	1.224305	0.021368	28.038283	0.726303	0.000000	-0.093367	0.005674	0.013352	-0.173391	0.007546	0.014187	-0.153392	0.013795	0.014187	-0.106709	0.013795	0.011683	-0.086700	0.011569	0.010849	-0.053350	0.008788	0.010014	-0.666908	0.064180	0.074260	0.000000	0.000000	22.362567	-9.294219	-3.258335	2.476584	-22.660967	41.404580	32.687837	85.365349	-12.295849	-0.820428	14.981182	-24.851169	88.175564	5.294002	8.991693	-13.484608	-9.877938
1.509804	7.000978	2.064223	86.340975	0.402054	0.720670	0.742097	6.403538	2.371446	-0.678387	13.707883	0.239248	33.736796	-4.559295	0.000000	-0.764358	-0.502223	0.126554	1.143801	0.019963	28.356123	1.223965	0.000000	-0.097030	0.041473	0.079065	-0.180195	0.055159	0.084006	-0.159411	0.100838	0.084006	-0.110896	0.100838	0.069182	-0.090102	0.084572	0.064240	-0.055443	0.064242	0.059299	-0.693079	0.469153	0.439735	0.000000	0.000000	22.176279	-10.166785	-2.144253	2.639656	-23.019752	41.067809	33.048699	84.941347	-11.881046	-0.516885	16.660669	-24.163039	91.321489	4.564448	7.902822	-13.923272	-11.126985
1.529412	7.134934	2.219130	86.299229	0.401363	0.721742	0.741265	6.433472	2.514020	-0.425316	14.170245	0.247317	33.651527	-5.027047	0.000000	-1.020792	-0.597091	-0.123577	1.103211	0.019255	28.705895	1.767175	0.000000	-0.100517	0.079878	0.150456	-0.186671	0.106237	0.159859	-0.165140	0.194215	0.159859	-0.114881	0.194215	0.131649	-0.093340	0.162887	0.122245	-0.057436	0.123731	0.112842	-0.717985	0.903593	0.836788	0.000000	0.000000	21.954065	-11.067229	-1.072030	2.802609	-23.467757	40.616086	33.681563	84.584375	-11.482535	-0.287910	18.424142	-23.399834	94.012758	4.124687	6.664361	-14.358170	-12.460813
1.549020	7.250619	2.280847	86.214538	0.400814	0.722727	0.741092	6.600137	2.651663	-0.188581	14.628721	0.255319	33.490886	-5.400180	0.000000	-1.117426	-0.686291	-0.379807	1.102542	0.019243	29.028248	2.210581	0.000000	-0.101145	0.116439	0.230296	-0.187837	0.154864	0.244689	-0.166171	0.283110	0.244689	-0.115599	0.283110	0.201509	-0.093923	0.237443	0.187115	-0.057794	0.180364	0.172722	-0.722470	1.317185	1.280837	0.000000	0.000000	21.748708	-11.958920	-0.139319	2.978188	-23.974392	40.094542	34.574092	84.361726	-11.213069	-0.217351	20.205502	-22.508628	96.614127	3.732586	5.319851	-14.382528	-13.720714
1.568627	7.346897	2.241223	86.082877	0.400411	0.723581	0.741587	6.913539	2.781189	0.020060	15.090741	0.263383	33.252767	-5.676983	0.000000	-1.042863	-0.769780	-0.607611	1.150807	0.020085	29.308142	2.499608	0.000000	-0.099786	0.150868	0.319578	-0.185312	0.200654	0.339552	-0.163938	0.366820	0.339552	-0.114045	0.366820	0.279631	-0.092661	0.307650	0.259658	-0.057018	0.233694	0.239684	-0.712759	1.706646	1.777400	0.000000	0.000000	21.630307	-12.847511	0.625909	3.171548	-24.524782	39.441434	35.748309	84.275513	-11.047416	-0.279960	21.996287	-21.495803	99.209394	3.382238	3.954307	-13.994937	-14.848938
1.588235	7.421913	2.092574	85.922132	0.400164	0.724263	0.742720	7.367258	2.909990	0.308171	15.528517	0.271024	32.916590	-6.037225	0.000000	-0.796086	-0.841369	-0.524756	1.231575	0.021495	29.444224	2.257802	0.000000	-0.095941	0.181813	0.413705	-0.178173	0.241811	0.439562	-0.157622	0.442060	0.439562	-0.109651	0.442060	0.361992	-0.089091	0.370753	0.336136	-0.054821	0.281628	0.310279	-0.685300	2.056704	2.300905	0.000000	0.000000	21.617329	-13.692524	1.224467	3.392287	-25.085842	38.637021	37.201361	84.294484	-10.941119	-0.410541	23.773113	-20.386513	101.769450	3.073337	2.823484	-13.167430	-15.847748
1.607843	7.462287	1.830533	85.762555	0.400060	0.724724	0.744492	7.966334	3.009263	0.550437	15.945328	0.278298	32.530746	-6.350082	0.000000	-0.361369	-0.890889	-0.321051	1.360145	0.023739	29.486666	1.778772	0.000000	-0.090197	0.206476	0.510430	-0.167505	0.274613	0.542332	-0.148185	0.502025	0.542332	-0.103086	0.502025	0.446626	-0.083757	0.421045	0.414724	-0.051539	0.319831	0.382822	-0.644269	2.335695	2.838857	0.000000	0.000000	21.741435	-14.474952	1.638214	3.599418	-25.600047	37.502026	38.937141	84.401472	-10.798450	-0.504767	25.550834	-19.197723	104.500989	2.796303	1.886330	-11.818010	-16.747537
1.627451	7.476356	1.461056	85.617765	0.400087	0.724951	0.746814	8.680918	3.084920	0.748349	16.303015	0.284541	32.095994	-6.622351	0.000000	0.252231	-0.924293	0.029885	1.537699	0.026838	29.437117	1.038333	0.000000	-0.081657	0.224604	0.609213	-0.151644	0.298723	0.647288	-0.134154	0.546101	0.647288	-0.093325	0.546101	0.533061	-0.075826	0.458012	0.494985	-0.046659	0.347911	0.456909	-0.583265	2.540762	3.388258	0.000000	0.000000	21.983702	-15.151683	1.860802	3.795189	-26.039784	36.034562	40.889158	84.571412	-10.618068	-0.540410	27.301580	-17.924725	107.546339	2.553397	1.291115	-10.438773	-17.580488
1.647059	7.474064	1.027416	85.491716	0.400248	0.724966	0.749579	9.447918	3.142870	0.895374	16.578824	0.289355	31.646103	-6.826263	0.000000	0.985476	-0.950490	0.488920	1.750929	0.030559	29.328691	0.116398	0.000000	-0.075226	0.236414	0.706582	-0.139701	0.314430	0.750743	-0.123588	0.574816	0.750743	-0.085975	0.574816	0.618259	-0.069854	0.482095	0.574098	-0.042984	0.366205	0.529936	-0.537329	2.674358	3.929796	0.000000	0.000000	22.351377	-15.686921	1.905017	4.044456	-26.384016	34.356830	42.939986	84.879503	-10.402719	-0.522895	29.006841	-16.561457	110.867624	2.327383	1.088380	-9.121400	-18.441386
1.666667	7.454601	0.538802	85.400329	0.400512	0.724768	0.752616	10.236201	3.180542	1.008600	16.745353	0.292262	31.195729	-6.986827	0.000000	1.823952	-0.969798	0.758538	2.010341	0.035087	29.255871	-0.533970	0.000000	-0.067997	0.241755	0.793638	-0.126277	0.321534	0.843240	-0.111712	0.587802	0.843240	-0.077714	0.587802	0.694433	-0.063142	0.492986	0.644831	-0.038854	0.374478	0.595229	-0.485696	2.734777	4.413977	0.000000	0.000000	22.839989	-16.056622	1.829301	4.421599	-26.610375	32.721483	44.935716	85.441022	-10.319890	-0.511684	30.612199	-15.089280	115.185103	2.063991	0.839475	-8.594067	-19.341943
1.686275	7.449564	0.033736	85.346264	0.400820	0.724408	0.755715	10.980299	3.221653	1.049265	16.779716	0.292861	30.758493	-7.056184	0.000000	2.695276	-1.004807	1.085371	2.282500	0.039837	29.162509	-1.227611	0.000000	-0.060825	0.245306	0.871516	-0.112959	0.326258	0.925986	-0.099930	0.596438	0.925986	-0.069517	0.596438	0.762576	-0.056482	0.500229	0.708107	-0.034756	0.379980	0.653637	-0.434469	2.774955	4.847110	0.000000	0.000000	23.422739	-16.299467	1.638726	4.939547	-26.713465	31.188265	46.759975	86.370722	-10.401763	-0.483818	32.068602	-13.481061	120.047368	1.775627	0.834316	-8.707997	-20.294236
1.705882	7.531357	-0.422963	85.342364	0.400814	0.724029	0.758777	11.604374	3.316429	0.910767	16.684789	0.291205	30.318724	-6.917501	0.000000	3.517203	-1.111549	1.485735	2.551655	0.044535	29.060303	-1.936292	0.000000	-0.057237	0.257451	0.972821	-0.106294	0.342410	1.033622	-0.094034	0.625967	1.033622	-0.065416	0.625967	0.851218	-0.053150	0.524995	0.790417	-0.032705	0.398792	0.729615	-0.408836	2.912340	5.410537	0.000000	0.000000	24.036454	-16.602592	1.062183	5.491537	-26.813435	29.573115	48.353118	87.585429	-10.629579	-0.458107	33.951721	-10.808862	129.977371	-0.768961	-2.714622	-6.875027	-22.691690
1.725490	7.582298	-0.893876	85.411975	0.401053	0.723444	0.761264	12.127338	3.388344	0.879349	16.427478	0.286714	29.902500	-6.953839	0.000000	4.305687	-1.195451	1.801751	2.776656	0.048462	28.968245	-2.412142	0.000000	-0.041717	0.262035	1.023491	-0.077472	0.348507	1.087460	-0.068537	0.637112	1.087460	-0.047678	0.637112	0.895555	-0.038738	0.534342	0.831587	-0.023837	0.405892	0.767619	-0.297980	2.964193	5.692352	0.000000	0.000000	24.695840	-16.641920	0.676359	6.345897	-26.656147	28.804687	49.476955	88.375692	-10.999627	-0.470963	35.218470	-8.613576	136.861851	-1.988451	-3.689771	-5.264089	-24.280491
1.745098	7.601228	-1.358877	85.591159	0.401461	0.722729	0.763003	12.498344	3.423113	0.861438	15.967285	0.278682	29.512952	-7.069326	0.000000	5.025734	-1.251896	2.245122	2.944783	0.051396	28.839567	-2.872857	0.000000	-0.011897	0.259536	1.025138	-0.022093	0.345183	1.089209	-0.019545	0.631036	1.089209	-0.013597	0.631036	0.896995	-0.011047	0.529246	0.832924	-0.006798	0.402021	0.768853	-0.084977	2.935922	5.701508	0.000000	0.000000	25.333348	-16.395372	0.518860	7.459907	-26.218681	28.931077	50.061372	88.476497	-11.429127	-0.613174	35.976987	-6.872455	140.685770	-1.989842	-2.566847	-3.753209	-25.089957
1.764706	7.623321	-1.751994	85.889171	0.401937	0.722002	0.763790	12.624285	3.459130	0.935216	15.282236	0.266725	29.117202	-7.360764	0.000000	5.582084	-1.308806	2.882418	3.032254	0.052923	28.667012	-3.410447	0.000000	0.024777	0.256832	0.975360	0.046013	0.341586	1.036320	0.040706	0.624461	1.036320	0.028318	0.624461	0.853440	0.023008	0.523732	0.792480	0.014158	0.397833	0.731520	0.176979	2.905333	5.424658	0.000000	0.000000	25.960202	-15.972706	0.733659	8.768419	-25.562457	29.905999	50.239879	87.775667	-11.742862	-0.767239	36.312814	-5.529398	142.345307	-0.977757	-0.280946	-2.322615	-25.077520
1.784314	7.646172	-2.058485	86.338526	0.402415	0.721338	0.763477	12.462852	3.488840	1.041170	14.332321	0.250146	28.714681	-7.766728	0.000000	5.953078	-1.364013	3.713927	3.039166	0.053043	28.463702	-3.973682	0.000000	0.068856	0.253395	0.868734	0.127873	0.337015	0.923030	0.113124	0.616104	0.923030	0.078696	0.616104	0.760142	0.063940	0.516723	0.705846	0.039344	0.392508	0.651550	0.491832	2.866452	4.831636	0.000000	0.000000	26.531797	-15.357842	1.359007	10.173210	-24.695457	31.621544	50.037995	86.204129	-11.781348	-0.879306	36.186501	-4.575558	141.788882	0.967921	2.901758	-0.975497	-24.188219
1.803922	7.671056	-2.232950	86.940836	0.402852	0.720839	0.762024	11.978018	3.514751	1.140422	13.149633	0.229504	28.317926	-8.238220	0.000000	6.087609	-1.420645	4.680909	2.963076	0.051715	28.267270	-4.472045	0.000000	0.113477	0.250432	0.703582	0.210739	0.333074	0.747556	0.186432	0.608900	0.747556	0.129693	0.608900	0.615634	0.105375	0.510681	0.571660	0.064841	0.387919	0.527686	0.810558	2.832936	3.913111	0.000000	0.000000	27.019764	-14.586171	2.445444	11.678878	-23.645297	34.245358	49.505279	83.570966	-11.513818	-1.025784	35.619470	-4.012469	139.223317	3.769619	6.562678	0.094498	-22.610786
1.823529	7.685809	-2.292636	87.683529	0.403273	0.720513	0.759484	11.207740	3.531255	1.235874	11.774750	0.205508	27.920956	-8.793121	0.000000	6.008658	-1.465985	5.950325	2.810955	0.049060	28.025685	-5.180040	0.000000	0.161191	0.245414	0.499678	0.299348	0.326401	0.530908	0.264821	0.596700	0.530908	0.184226	0.596700	0.437218	0.149682	0.500449	0.405989	0.092105	0.380147	0.374759	1.151374	2.776174	2.779060	0.000000	0.000000	27.408993	-13.734539	3.782160	13.111724	-22.450191	37.409605	48.770045	80.034239	-10.865015	-1.028944	34.679780	-3.762027	135.203182	7.167209	10.303299	0.952615	-20.383076
1.843137	7.693078	-2.241378	88.522095	0.403727	0.720367	0.756000	10.196456	3.545298	1.333228	10.276184	0.179353	27.528267	-9.404254	0.000000	5.732234	-1.508640	7.323824	2.597751	0.045339	27.805755	-5.872009	0.000000	0.208890	0.240289	0.258255	0.387929	0.319584	0.274396	0.343185	0.584238	0.274396	0.238740	0.584238	0.225973	0.193975	0.489996	0.209832	0.119360	0.372207	0.193691	1.492078	2.718193	1.436336	0.000000	0.000000	27.716498	-12.760260	5.509518	14.514839	-21.143258	41.331631	47.811210	75.897712	-9.921053	-1.090218	33.319570	-3.796700	129.483301	11.088786	14.253588	1.433038	-17.696865
1.862745	7.680617	-2.104134	89.421540	0.404260	0.720368	0.751753	9.012233	3.548943	1.329105	8.721007	0.152210	27.177434	-9.908670	0.000000	5.299329	-1.538997	8.711676	2.338524	0.040815	27.625553	-6.482054	0.000000	0.257563	0.233830	-0.000326	0.478320	0.310993	-0.000346	0.423150	0.568533	-0.000346	0.294368	0.568533	-0.000285	0.239173	0.476825	-0.000265	0.147171	0.362202	-0.000245	1.839744	2.645127	-0.001813	0.000000	0.000000	27.960419	-11.760838	7.502411	15.837964	-19.773027	45.975827	46.667073	71.281547	-8.755399	-1.225897	31.675595	-4.067998	122.595506	15.379144	17.965746	1.408698	-14.651997
1.882353	7.634875	-1.919669	90.316607	0.404977	0.720474	0.746871	7.735373	3.537868	1.359730	7.171180	0.125161	26.842256	-10.434645	0.000000	4.757880	-1.545650	10.075819	2.040819	0.035619	27.480762	-7.059306	0.000000	0.309569	0.225188	-0.255562	0.574900	0.299500	-0.271534	0.508591	0.547523	-0.271534	0.353806	0.547523	-0.223616	0.287466	0.459204	-0.207644	0.176888	0.348816	-0.191671	2.211220	2.547374	-1.421356	0.000000	0.000000	28.127621	-10.729526	9.776024	16.965799	-18.347336	51.101164	45.335690	66.610339	-7.486585	-1.484278	29.717745	-4.501760	114.545862	19.837642	21.969637	1.167318	-11.214236
1.901961	7.563298	-1.720356	91.190898	0.405856	0.720637	0.741559	6.437183	3.514465	1.394467	5.680989	0.099152	26.535256	-10.943186	0.000000	4.165039	-1.535383	11.364495	1.729029	0.030177	27.391986	-7.561328	0.000000	0.364585	0.216587	-0.493239	0.677071	0.288061	-0.524067	0.598977	0.526611	-0.524067	0.416684	0.526611	-0.431584	0.338554	0.441665	-0.400757	0.208324	0.335494	-0.369929	2.604194	2.450080	-2.743248	0.000000	0.000000	28.238945	-9.732076	12.314549	17.849123	-16.923183	56.572252	43.824655	61.909565	-6.155092	-1.915037	27.558236	-5.049857	105.645796	24.346919	26.231933	0.804872	-7.517104
1.921569	7.468743	-1.547832	92.014352	0.406886	0.720770	0.736127	5.213290	3.474389	1.421099	4.315704	0.075323	26.261557	-11.412722	0.000000	3.584372	-1.508208	12.528366	1.408427	0.024582	27.378580	-7.942217	0.000000	0.422691	0.208133	-0.697053	0.784979	0.276817	-0.740618	0.694438	0.506054	-0.740618	0.483093	0.506054	-0.609921	0.392510	0.424425	-0.566355	0.241525	0.322398	-0.522789	3.019236	2.354441	-3.876797	0.000000	0.000000	28.314299	-8.785624	15.016908	18.490102	-15.562539	62.314108	42.167456	57.314212	-4.837520	-2.548477	25.334839	-5.672801	96.156796	28.839124	30.716888	0.399074	-3.709699
1.941176	7.339688	-1.446265	92.742304	0.408126	0.720785	0.730892	4.155956	3.416623	1.543705	3.117527	0.054411	26.024629	-11.921487	0.000000	3.088381	-1.451687	13.545467	1.097451	0.019154	27.429115	-8.248466	0.000000	0.484220	0.196962	-0.855276	0.899246	0.261960	-0.908731	0.795526	0.478894	-0.908731	0.553415	0.478894	-0.748367	0.449647	0.401645	-0.694912	0.276683	0.305094	-0.641457	3.458737	2.228075	-4.756789	0.000000	0.000000	28.367056	-7.934315	17.712720	18.916417	-14.222252	68.377411	40.408769	52.886242	-3.709664	-3.412493	23.094201	-6.239909	87.293684	32.731275	35.204853	0.380723	0.015363
1.960784	7.198414	-1.443832	93.373927	0.409469	0.720604	0.726178	3.329174	3.345874	1.739175	2.110084	0.036828	25.828325	-12.451156	0.000000	2.736315	-1.379219	14.475923	0.815803	0.014238	27.528242	-8.573683	0.000000	0.547638	0.185425	-0.962513	1.017019	0.246616	-1.022670	0.899715	0.450843	-1.022670	0.625896	0.450843	-0.842198	0.508537	0.378119	-0.782041	0.312921	0.287224	-0.721884	3.911726	2.097569	-5.353206	0.000000	0.000000	28.414146	-7.248334	20.285964	19.049433	-13.010183	74.042073	38.708860	49.571418	-2.774857	-4.236437	20.941006	-6.732140	79.301237	36.027883	39.836572	0.554413	3.429505
1.980392	7.053782	-1.578257	93.916553	0.410871	0.720165	0.722243	2.792674	3.262423	1.954326	1.293909	0.022583	25.682387	-12.946912	0.000000	2.591822	-1.294396	15.246683	0.573957	0.010017	27.680860	-8.805343	0.000000	0.615056	0.173382	-1.016946	1.142220	0.230598	-1.080505	1.010475	0.421560	-1.080505	0.702947	0.421560	-0.889828	0.571141	0.353560	-0.826269	0.351443	0.268568	-0.762710	4.393280	1.961328	-5.655949	0.000000	0.000000	28.441535	-6.734747	22.618304	18.864485	-11.935361	78.980922	37.147461	47.707051	-1.949834	-4.917146	18.946310	-7.114239	72.666478	38.622500	44.608514	0.846985	6.388218
2.000000	6.914632	-1.849462	94.365722	0.412277	0.719461	0.719317	2.564191	3.168042	2.200113	0.675039	0.011782	25.570111	-13.432786	0.000000	2.675594	-1.201263	15.861918	0.389052	0.006790	27.863602	-8.981612	0.000000	0.681104	0.162187	-1.016643	1.264879	0.215708	-1.080183	1.118986	0.394341	-1.080183	0.778434	0.394341	-0.889563	0.632474	0.330731	-0.826023	0.389183	0.251227	-0.762482	4.865060	1.834688	-5.654264	0.000000	0.000000	28.456269	-6.365696	24.698560	18.393893	-11.015885	83.088903	35.782315	47.144830	-1.209607	-5.394955	17.186819	-7.322507	67.789940	40.421515	49.366010	1.002356	8.706403
2.019608	6.803555	-2.246422	94.698134	0.413645	0.718522	0.717537	2.631538	3.081978	2.477177	0.234648	0.004095	25.469392	-13.886141	0.000000	2.980819	-1.121066	16.295910	0.265621	0.004636	28.061825	-9.099869	0.000000	0.740649	0.155872	-0.965431	1.375460	0.207310	-1.025770	1.216813	0.378987	-1.025770	0.846488	0.378987	-0.844752	0.687767	0.317854	-0.784412	0.423207	0.241446	-0.724073	5.290384	1.763254	-5.369435	0.000000	0.000000	28.460123	-6.086872	26.609042	17.764604	-10.272550	86.585890	34.594860	47.534203	-0.579972	-5.682895	15.702077	-7.278025	65.096205	41.331524	53.498951	0.543778	10.183076
2.039216	6.733946	-2.770291	94.894229	0.414980	0.717332	0.716978	2.994833	3.019228	2.763010	-0.040320	-0.000704	25.391128	-14.256396	0.000000	3.505013	-1.069680	16.517141	0.200087	0.003492	28.270694	-9.128700	0.000000	0.793010	0.156466	-0.863610	1.472699	0.208100	-0.917586	1.302836	0.380431	-0.917586	0.906331	0.380431	-0.755659	0.736389	0.319065	-0.701683	0.453126	0.242366	-0.647708	5.664390	1.769974	-4.803142	0.000000	0.000000	28.462846	-5.850714	28.355589	17.028221	-9.716247	89.386815	33.564878	48.990930	-0.079219	-5.811589	14.565036	-6.923211	64.850424	41.275327	56.824540	-0.366723	10.698599
2.058824	6.705210	-3.425217	94.946864	0.416263	0.715900	0.717637	3.647139	2.982372	3.070732	-0.173036	-0.003020	25.317329	-14.549318	0.000000	4.248378	-1.047665	16.577615	0.194443	0.003394	28.435142	-9.174257	0.000000	0.839947	0.165160	-0.715866	1.559866	0.219662	-0.760607	1.379949	0.401569	-0.760607	0.959976	0.401569	-0.626382	0.779975	0.336794	-0.581641	0.479946	0.255832	-0.536899	5.999660	1.868319	-3.981430	0.000000	0.000000	28.465727	-5.639104	29.962638	16.225334	-9.334207	91.444557	32.649370	51.404204	0.209663	-5.769617	13.793149	-6.195439	67.298378	40.182040	59.086827	-1.783501	10.195502
2.078431	6.724817	-4.181974	94.848161	0.417494	0.714270	0.719450	4.538983	2.984874	3.409765	-0.191416	-0.003341	25.242535	-14.754793	0.000000	5.161499	-1.063916	16.506155	0.225039	0.003928	28.533143	-9.281545	0.000000	0.879422	0.183602	-0.526669	1.633175	0.244191	-0.559586	1.444803	0.446410	-0.559586	1.005092	0.446410	-0.460836	0.816631	0.374401	-0.427919	0.502502	0.284400	-0.395002	6.281624	2.076943	-2.929177	0.000000	0.000000	28.468824	-5.462192	31.384237	15.426491	-9.112488	92.843308	31.827322	54.392153	0.333933	-5.596070	13.464501	-5.060283	72.303967	37.982436	59.910197	-2.587122	8.553867
2.098039	6.774610	-5.021399	94.606132	0.418730	0.712471	0.722238	5.627749	3.016356	3.814785	-0.119845	-0.002092	25.159391	-14.916566	0.000000	6.208383	-1.108669	16.295216	0.277858	0.004850	28.555731	-9.440488	0.000000	0.912974	0.208983	-0.309834	1.695484	0.277947	-0.329199	1.499925	0.508120	-0.329199	1.043438	0.508120	-0.271105	0.847788	0.426157	-0.251740	0.521673	0.323714	-0.232376	6.521283	2.364054	-1.723205	0.000000	0.000000	28.473021	-5.278309	32.610108	14.703555	-9.018681	93.713756	31.092380	57.447116	0.337463	-5.378953	13.585465	-3.544068	79.522625	34.679817	59.047672	-1.905629	5.811774
2.117647	6.733739	-5.975689	94.280986	0.420476	0.710385	0.725542	6.894368	2.985134	4.422942	-0.014284	-0.000249	25.098544	-15.251539	0.000000	7.391596	-1.084660	16.073231	0.327487	0.005716	28.461550	-9.748649	0.000000	0.951392	0.223741	-0.140879	1.766830	0.297575	-0.149684	1.563042	0.544003	-0.149684	1.087346	0.544003	-0.123269	0.883463	0.456252	-0.114464	0.543625	0.346574	-0.105659	6.795697	2.531000	-0.783528	0.000000	0.000000	28.485155	-4.754239	34.124501	14.293148	-8.798645	94.649929	30.348094	59.987189	0.284370	-5.210038	13.218813	-3.185373	80.938865	33.915743	62.396410	-2.602185	4.248720
2.137255	6.690215	-6.915213	93.880947	0.422309	0.708296	0.729379	8.184492	2.959775	5.080907	0.086012	0.001501	25.019343	-15.565166	0.000000	8.580117	-1.068583	15.824876	0.379332	0.006621	28.270606	-10.175762	0.000000	0.978763	0.240506	0.019665	1.817661	0.319873	0.020894	1.608010	0.584766	0.020894	1.118629	0.584766	0.017207	0.908880	0.490439	0.015978	0.559265	0.372543	0.014749	6.991209	2.720649	0.109370	0.000000	0.000000	28.494197	-4.101362	35.628193	14.081956	-8.672392	95.319171	29.790331	62.008352	0.215721	-5.121344	13.155591	-3.009550	82.594788	33.357865	64.148081	-3.282996	2.422370
2.156863	6.629064	-7.805237	93.418761	0.424241	0.706284	0.733512	9.431814	2.933800	5.825380	0.145613	0.002541	24.900676	-15.894686	0.000000	9.725507	-1.055049	15.505386	0.430524	0.007514	28.012982	-10.628780	0.000000	0.995975	0.256648	0.162148	1.849626	0.341342	0.172283	1.636288	0.624015	0.172283	1.138300	0.624015	0.141880	0.924863	0.523357	0.131746	0.569100	0.397548	0.121611	7.114152	2.903258	0.901821	0.000000	0.000000	28.499273	-3.328149	37.092629	14.068260	-8.607264	95.757230	29.457180	63.402372	0.206458	-5.051422	13.215446	-3.027707	83.787348	33.117412	65.555516	-3.746359	0.769865
2.176471	6.547830	-8.618846	92.950704	0.426215	0.704414	0.737661	10.590642	2.902747	6.586004	0.167997	0.002932	24.775258	-16.218458	0.000000	10.789495	-1.038343	15.145874	0.478243	0.008347	27.721646	-11.064663	0.000000	1.005783	0.270854	0.273326	1.867840	0.360236	0.290409	1.652401	0.658554	0.290409	1.149509	0.658554	0.239161	0.933970	0.552325	0.222078	0.574704	0.419553	0.204995	7.184208	3.063953	1.520160	0.000000	0.000000	28.499951	-2.473526	38.460159	14.199795	-8.590805	95.883624	29.372485	64.278270	0.382077	-4.978242	13.310917	-3.237691	84.456786	33.219178	66.280360	-4.157441	-0.632139
2.196078	6.444588	-9.318207	92.451627	0.428297	0.702782	0.741616	11.620271	2.876265	7.370306	0.176169	0.003075	24.670383	-16.502903	0.000000	11.716577	-1.027846	14.710477	0.519237	0.009062	27.430475	-11.445226	0.000000	1.006693	0.282692	0.360015	1.869530	0.375980	0.382516	1.653897	0.687337	0.382516	1.150550	0.687337	0.315013	0.934815	0.576466	0.292512	0.575225	0.437890	0.270011	7.190710	3.197869	2.002296	0.000000	0.000000	28.497197	-1.562075	39.714800	14.509800	-8.615675	95.927983	29.532984	64.378829	0.676239	-4.913559	13.424763	-3.613597	84.589260	33.635518	66.715584	-4.559532	-1.852190
2.215686	6.312931	-9.890290	91.934400	0.430505	0.701431	0.745133	12.496222	2.849242	8.167222	0.179344	0.003130	24.618424	-16.740867	0.000000	12.478589	-1.017843	14.231437	0.550432	0.009607	27.151625	-11.783589	0.000000	1.001736	0.289864	0.428711	1.860324	0.385519	0.455505	1.645752	0.704775	0.455505	1.144884	0.704775	0.375122	0.930212	0.591090	0.348327	0.572392	0.448999	0.321533	7.155301	3.278998	2.384359	0.000000	0.000000	28.491757	-0.634172	40.758987	14.912587	-8.669953	95.788807	29.909059	63.910201	1.024135	-4.768504	13.530139	-4.095008	84.209620	34.258122	66.979642	-4.907500	-2.808101
2.235294	6.167404	-10.323693	91.417816	0.432866	0.700392	0.747963	13.193025	2.836811	8.954875	0.179756	0.003137	24.642607	-16.907388	0.000000	13.052438	-1.023624	13.657314	0.572461	0.009991	26.964057	-11.937147	0.000000	0.992584	0.294325	0.469050	1.843328	0.391452	0.498366	1.630716	0.715622	0.498366	1.134424	0.715622	0.410419	0.921713	0.600188	0.381103	0.567162	0.455910	0.351787	7.089928	3.329464	2.608715	0.000000	0.000000	28.484361	0.372568	41.782756	15.454038	-8.680011	95.872901	30.331188	62.732521	1.423826	-4.730884	13.518510	-4.662019	83.153704	35.047805	67.332938	-5.282416	-3.403900
2.254902	6.001564	-10.619637	90.916012	0.435382	0.699653	0.749973	13.702604	2.830457	9.671267	0.178260	0.003111	24.781208	-16.928293	0.000000	13.432763	-1.035849	13.060786	0.583900	0.010191	26.868063	-11.976451	0.000000	0.981661	0.294237	0.497775	1.823042	0.391335	0.528886	1.612771	0.715408	0.528886	1.121940	0.715408	0.435553	0.911570	0.600008	0.404442	0.560921	0.455773	0.373331	7.011905	3.328468	2.768475	0.000000	0.000000	28.475515	1.363832	42.673565	16.003373	-8.666238	95.868775	30.765265	61.319935	1.761172	-4.658869	13.508172	-5.256777	81.851830	35.870828	67.659402	-5.555570	-3.550053
2.274510	5.826507	-10.793317	90.416838	0.438070	0.699181	0.751081	14.034388	2.838443	10.434586	0.174965	0.003054	25.001101	-16.954844	0.000000	13.630180	-1.061922	12.470059	0.584195	0.010196	26.881444	-11.943410	0.000000	0.970931	0.291629	0.516386	1.803116	0.387866	0.548660	1.595143	0.709066	0.548660	1.109677	0.709066	0.451838	0.901607	0.594689	0.419564	0.554790	0.451733	0.387290	6.935264	3.298961	2.871986	0.000000	0.000000	28.466074	2.369710	43.539882	16.520163	-8.603242	95.797551	31.115111	59.852407	1.980220	-4.578416	13.402849	-5.816359	80.021737	36.605928	68.598190	-5.419913	-3.177740
2.294118	5.651775	-10.851060	89.928231	0.440897	0.698951	0.751338	14.194448	2.862850	11.166637	0.170557	0.002977	25.316829	-16.890260	0.000000	13.655314	-1.104483	11.898621	0.573578	0.010011	27.014379	-11.842845	0.000000	0.960548	0.287343	0.534152	1.783833	0.382166	0.567537	1.578084	0.698645	0.567537	1.097810	0.698645	0.467383	0.891965	0.585950	0.433999	0.548857	0.445094	0.400614	6.861097	3.250480	2.970793	0.000000	0.000000	28.457027	3.294111	44.280951	17.012246	-8.488760	95.809365	31.334078	58.470610	1.956084	-4.550830	13.343424	-6.290487	78.210336	37.132841	69.768308	-4.863301	-2.465361
2.313725	5.480421	-10.845763	89.465019	0.443812	0.698853	0.750758	14.236190	2.898559	11.886285	0.165247	0.002884	25.697666	-16.802914	0.000000	13.567468	-1.158364	11.382680	0.552387	0.009641	27.254194	-11.702428	0.000000	0.959423	0.280465	0.544408	1.781745	0.373018	0.578434	1.576236	0.681923	0.578434	1.096525	0.681923	0.476357	0.890920	0.571924	0.442332	0.548214	0.434440	0.408306	6.853064	3.172676	3.027835	0.000000	0.000000	28.449031	4.172401	44.811517	17.475856	-8.313802	96.029683	31.433792	57.073633	1.673112	-4.578501	13.212305	-6.699383	76.196095	37.474139	71.323647	-3.901575	-1.466610
2.333333	5.328616	-10.771220	89.045188	0.446728	0.698901	0.749460	14.156653	2.951963	12.553871	0.159801	0.002789	26.115628	-16.690256	0.000000	13.369283	-1.229874	10.937539	0.521796	0.009107	27.577864	-11.534881	0.000000	0.964979	0.273006	0.554893	1.792062	0.363098	0.589574	1.585363	0.663787	0.589574	1.102874	0.663787	0.485532	0.896079	0.556714	0.450851	0.551389	0.422887	0.416170	6.892746	3.088300	3.086151	0.000000	0.000000	28.442766	4.911108	45.077165	17.879393	-8.089853	96.323345	31.396860	56.339548	1.028405	-4.668577	13.148926	-6.980659	74.566168	37.532075	73.137753	-2.706369	-0.463058
2.352941	5.206322	-10.653894	88.696477	0.449533	0.699042	0.747498	13.984248	3.020474	13.170666	0.154413	0.002695	26.541153	-16.607466	0.000000	13.094959	-1.317176	10.692439	0.483356	0.008436	27.943046	-11.477993	0.000000	0.980705	0.266925	0.566171	1.821267	0.355010	0.601557	1.611200	0.649001	0.601557	1.120847	0.649001	0.495400	0.910682	0.544313	0.460014	0.560375	0.413467	0.424628	7.005076	3.019507	3.148874	0.000000	0.000000	28.438676	5.444068	45.079546	18.099030	-7.864742	96.188231	31.293845	56.756326	0.218843	-4.621008	13.074740	-7.137192	73.094337	37.360386	75.444941	-1.298091	0.597074
2.372549	5.132950	-10.493641	88.412634	0.452186	0.699299	0.744984	13.723877	3.119969	13.675203	0.149401	0.002608	26.974053	-16.469875	0.000000	12.748859	-1.437050	10.524647	0.438945	0.007661	28.361240	-11.382040	0.000000	1.003997	0.266287	0.584417	1.864524	0.354162	0.620943	1.649467	0.647451	0.620943	1.147469	0.647451	0.511365	0.932312	0.543013	0.474839	0.573684	0.412479	0.438313	7.171454	3.012296	3.250350	0.000000	0.000000	28.437066	5.765527	44.937923	18.163946	-7.631679	95.854814	31.090112	57.956132	-0.627018	-4.547786	13.075681	-7.137237	72.182190	36.959570	77.939008	0.081448	1.570349
2.392157	5.099404	-10.284038	88.187048	0.454652	0.699677	0.742100	13.379151	3.238756	14.166206	0.144913	0.002529	27.375124	-16.405316	0.000000	12.332389	-1.576450	10.506263	0.391278	0.006829	28.767365	-11.397581	0.000000	1.028640	0.271848	0.608822	1.910287	0.361558	0.646873	1.689952	0.660971	0.646873	1.175632	0.660971	0.532719	0.955195	0.554352	0.494668	0.587765	0.421093	0.456616	7.347471	3.075199	3.386084	0.000000	0.000000	28.437794	5.880445	44.806087	18.121150	-7.390205	95.510550	30.802830	59.486244	-1.415673	-4.401539	13.107456	-7.002090	71.644355	36.366537	80.345837	1.368849	2.400330
2.411765	5.100155	-10.029985	88.021831	0.456933	0.700165	0.739049	12.966728	3.370938	14.551075	0.140902	0.002459	27.762626	-16.283719	0.000000	11.862267	-1.729905	10.544038	0.344264	0.006009	29.163221	-11.414077	0.000000	1.051045	0.282855	0.642281	1.951896	0.376197	0.682424	1.726762	0.687733	0.682424	1.201240	0.687733	0.561996	0.976001	0.576797	0.521853	0.600567	0.438142	0.481711	7.507512	3.199708	3.572174	0.000000	0.000000	28.440459	5.789852	44.742360	18.003622	-7.124027	95.293056	30.397295	61.137442	-2.138761	-4.266306	13.221989	-6.745310	71.629901	35.646704	82.358579	2.467390	3.075547
2.431373	5.120220	-9.744947	87.930220	0.459037	0.700721	0.736018	12.509511	3.502316	14.825771	0.137544	0.002401	28.139395	-16.116141	0.000000	11.365002	-1.883183	10.621440	0.302577	0.005281	29.528151	-11.396294	0.000000	1.069859	0.296575	0.687809	1.986834	0.394444	0.730797	1.757671	0.721091	0.730797	1.222741	0.721091	0.601832	0.993471	0.604775	0.558844	0.611317	0.459394	0.515856	7.641893	3.354911	3.825385	0.000000	0.000000	28.444454	5.483152	44.713671	17.786567	-6.858769	94.981315	29.920276	63.182029	-2.803485	-4.113363	13.411255	-6.409308	71.931769	34.871587	84.396011	3.433192	3.679989
2.450980	5.131074	-9.411793	87.893730	0.461007	0.701381	0.733181	11.998635	3.609727	15.044090	0.134473	0.002347	28.481683	-15.947394	0.000000	10.833177	-2.011498	10.687370	0.270573	0.004722	29.832598	-11.349838	0.000000	1.078482	0.309906	0.749874	2.002849	0.412174	0.796741	1.771838	0.753504	0.796741	1.232597	0.753504	0.656140	1.001478	0.631959	0.609272	0.616245	0.480044	0.562405	7.703490	3.505713	4.170573	0.000000	0.000000	28.449079	4.930206	44.711105	17.517449	-6.600477	94.579799	29.400630	65.569347	-3.391183	-3.891202	13.672807	-6.040908	72.409953	34.064640	86.673411	4.189262	4.199684
2.470588	5.124705	-9.081055	87.941640	0.462821	0.702030	0.730490	11.465746	3.680394	15.096828	0.131805	0.002300	28.775114	-15.755893	0.000000	10.316622	-2.099636	10.825203	0.255095	0.004452	30.056572	-11.352248	0.000000	1.082831	0.322485	0.813409	2.010925	0.428904	0.864247	1.778983	0.784089	0.864247	1.237567	0.784089	0.711733	1.005517	0.657611	0.660895	0.618729	0.499529	0.610057	7.734552	3.648010	4.523939	0.000000	0.000000	28.454213	4.295900	44.711837	17.232878	-6.364410	94.330819	28.911936	68.093266	-4.029839	-3.698095	14.160660	-5.568235	73.862243	33.224347	87.125312	4.749377	4.323261
2.490196	5.080021	-8.734574	88.088686	0.464512	0.702711	0.728093	10.913888	3.695885	15.019113	0.129806	0.002266	29.033908	-15.561123	0.000000	9.811221	-2.130244	10.999582	0.245267	0.004281	30.214082	-11.329266	0.000000	1.079094	0.329963	0.886892	2.003986	0.438851	0.942323	1.772844	0.802273	0.942323	1.233297	0.802273	0.776031	1.002047	0.672861	0.720600	0.616595	0.511113	0.665169	7.707863	3.732611	4.932630	0.000000	0.000000	28.457831	3.537459	44.701548	16.950943	-6.194919	94.082419	28.504075	70.432355	-4.650829	-3.568098	14.778624	-5.061243	75.800368	32.448557	87.052524	5.088235	4.296415
2.509804	4.983974	-8.378185	88.345082	0.466087	0.703408	0.726093	10.354710	3.642922	14.801137	0.128572	0.002244	29.254486	-15.368024	0.000000	9.331133	-2.089574	11.206787	0.240938	0.004205	30.294710	-11.272166	0.000000	1.065887	0.330466	0.971150	1.979459	0.439520	1.031847	1.751146	0.803496	1.031847	1.218202	0.803496	0.849756	0.989783	0.673887	0.789059	0.609048	0.511892	0.728363	7.613524	3.738300	5.401246	0.000000	0.000000	28.459170	2.669169	44.680525	16.689531	-6.111008	93.835066	28.212846	72.440568	-5.248854	-3.522323	15.533635	-4.534498	78.230702	31.779138	86.437381	5.174785	4.118643
2.529412	4.823516	-8.017722	88.721041	0.467548	0.704108	0.724596	9.799862	3.508226	14.433091	0.128195	0.002237	29.433267	-15.181536	0.000000	8.890519	-1.963874	11.443093	0.241957	0.004223	30.288039	-11.172224	0.000000	1.041822	0.322118	1.067009	1.934768	0.428417	1.133697	1.711610	0.783197	1.133697	1.190698	0.783197	0.933633	0.967436	0.656863	0.866945	0.595297	0.498960	0.800257	7.441631	3.643861	5.934386	0.000000	0.000000	28.457467	1.705315	44.649055	16.466527	-6.131682	93.589227	28.074045	73.971857	-5.818616	-3.581886	16.432630	-4.002566	81.159621	31.257958	85.262221	4.977976	3.789446
2.549020	4.585600	-7.659022	89.226775	0.468902	0.704796	0.723706	9.260990	3.278518	13.905165	0.128771	0.002247	29.566673	-15.006598	0.000000	8.503539	-1.739396	11.704778	0.248174	0.004331	30.183652	-11.020714	0.000000	1.005514	0.303042	1.175297	1.867340	0.403047	1.248753	1.651959	0.736817	1.248753	1.149202	0.736817	1.028385	0.933720	0.617964	0.954929	0.574551	0.469413	0.881473	7.182285	3.428077	6.536651	0.000000	0.000000	28.451960	0.660183	44.607426	16.299816	-6.275944	93.345370	28.123469	74.880176	-6.354816	-3.767899	17.482544	-3.480013	84.593500	30.926885	83.509378	4.466756	3.308323
2.568627	4.257176	-7.307919	89.872497	0.470153	0.705458	0.723529	8.749746	2.940519	13.207549	0.130393	0.002276	29.651125	-14.848151	0.000000	8.184355	-1.402390	11.988120	0.259437	0.004528	29.971132	-10.808912	0.000000	0.955576	0.271365	1.296841	1.774600	0.360915	1.377893	1.569916	0.659796	1.377893	1.092128	0.659796	1.134736	0.887348	0.553367	1.053683	0.546016	0.420344	0.972631	6.825584	3.069733	7.212640	0.000000	0.000000	28.441885	-0.451942	44.555923	16.207284	-6.562799	93.103964	28.396916	75.019478	-6.852155	-4.101476	18.690313	-2.981407	88.538714	30.827788	81.161188	3.610074	2.674773
2.588235	3.825197	-6.970248	90.668420	0.471305	0.706079	0.724168	8.277777	2.480950	12.330434	0.133156	0.002324	29.683044	-14.711133	0.000000	7.947126	-0.939105	12.289396	0.275597	0.004810	29.640061	-10.528092	0.000000	0.890623	0.225209	1.432467	1.653975	0.299528	1.521996	1.463204	0.547574	1.521996	1.017893	0.547574	1.253409	0.827032	0.459247	1.163880	0.508902	0.348849	1.074350	6.361628	2.547612	7.966953	0.000000	0.000000	28.426481	-1.616775	44.494836	16.206817	-7.011250	92.865474	28.930183	74.243715	-7.305335	-4.603731	20.062874	-2.521314	93.001639	31.002533	78.199986	2.376878	1.888295
2.607843	3.276615	-6.651844	91.624756	0.472365	0.706645	0.725729	7.856732	1.886533	11.264012	0.137153	0.002394	29.658850	-14.600485	0.000000	7.806013	-0.335793	12.604884	0.296503	0.005175	29.180023	-10.169528	0.000000	0.809267	0.162700	1.583003	1.502890	0.216391	1.681941	1.329545	0.395589	1.681941	0.924911	0.395589	1.385128	0.751486	0.331778	1.286190	0.462415	0.252023	1.187253	5.780515	1.840498	8.804190	0.000000	0.000000	28.404985	-2.820030	44.424450	16.316301	-7.640302	92.630370	29.759068	72.406842	-7.709057	-5.295777	21.607163	-2.114299	97.988650	31.492989	74.608109	0.736118	0.948389
2.627451	2.598383	-6.358542	92.751718	0.473336	0.707141	0.728316	7.498260	1.143989	9.998471	0.142481	0.002487	29.574964	-14.521146	0.000000	7.775176	0.421296	12.930860	0.322003	0.005620	28.580600	-9.724496	0.000000	0.710124	0.081962	1.749276	1.318771	0.109010	1.858606	1.166662	0.199283	1.858606	0.811601	0.199283	1.530617	0.659421	0.167138	1.421287	0.405765	0.126960	1.311957	5.072344	0.927175	9.728951	0.000000	0.000000	28.376633	-4.047422	44.345053	16.553620	-8.468958	92.399118	30.919366	69.362810	-8.058022	-6.198729	23.330114	-1.774930	103.506122	32.341025	70.367891	-1.343258	-0.145447
2.647059	1.777451	-6.096177	94.059519	0.474223	0.707554	0.732033	7.214010	0.240039	8.524004	0.149232	0.002605	29.427808	-14.478056	0.000000	7.868776	1.345913	13.263602	0.351948	0.006143	27.831376	-9.184271	0.000000	0.591806	-0.018880	1.932113	1.099044	-0.025110	2.052871	0.972279	-0.045905	2.052871	0.676376	-0.045905	1.690599	0.549551	-0.038500	1.569842	0.338158	-0.029245	1.449085	4.227214	-0.213573	10.745835	0.000000	0.000000	28.340664	-5.284667	44.256932	16.936661	-9.516222	92.172186	32.446877	64.965573	-8.346932	-7.333701	25.238666	-1.517772	109.560431	33.588507	65.461669	-3.892301	-1.393712
