Model Marker Errors from IK
version=1
nRows=188
nColumns=4
inDegrees=no
endheader
time	total_squared_error	marker_error_RMS	marker_error_max
      0.00000000	      0.01779397	      0.02567170	      0.04735931
      0.01960784	      0.01720955	      0.02524660	      0.03984486
      0.03921569	      0.01703134	      0.02511554	      0.04845765
      0.05882353	      0.01668676	      0.02486017	      0.05286799
      0.07843137	      0.01609837	      0.02441795	      0.05382276
      0.09803922	      0.01538501	      0.02387080	      0.05248071
      0.11764706	      0.01484471	      0.02344790	      0.04977207
      0.13725490	      0.01425834	      0.02298014	      0.04649871
      0.15686275	      0.01372760	      0.02254838	      0.04243923
      0.17647059	      0.01341458	      0.02228983	      0.03821939
      0.19607843	      0.01304970	      0.02198459	      0.03691101
      0.21568627	      0.01285053	      0.02181617	      0.03715899
      0.23529412	      0.01293994	      0.02189194	      0.04232534
      0.25490196	      0.01390293	      0.02269192	      0.04804936
      0.27450980	      0.01554411	      0.02399391	      0.05080337
      0.29411765	      0.01656388	      0.02476847	      0.04867906
      0.31372549	      0.01630401	      0.02457341	      0.05139805
      0.33333333	      0.01562175	      0.02405376	      0.04843562
      0.35294118	      0.01534944	      0.02384319	      0.05136053
      0.37254902	      0.01576713	      0.02416543	      0.05440876
      0.39215686	      0.01687213	      0.02499787	      0.05562079
      0.41176471	      0.01834986	      0.02606961	      0.05493837
      0.43137255	      0.01977267	      0.02706143	      0.05198285
      0.45098039	      0.02066091	      0.02766259	      0.05225818
      0.47058824	      0.02051900	      0.02756743	      0.05391901
      0.49019608	      0.01953368	      0.02689739	      0.05500110
      0.50980392	      0.01863096	      0.02626853	      0.05522099
      0.52941176	      0.01816325	      0.02593671	      0.05485680
      0.54901961	      0.01866236	      0.02629065	      0.05429053
      0.56862745	      0.02032056	      0.02743380	      0.05330686
      0.58823529	      0.02241320	      0.02881178	      0.05228941
      0.60784314	      0.02391223	      0.02975967	      0.05491861
      0.62745098	      0.02430069	      0.03000043	      0.05271147
      0.64705882	      0.02331954	      0.02938855	      0.05502322
      0.66666667	      0.02194545	      0.02850955	      0.06016480
      0.68627451	      0.02099629	      0.02788620	      0.06294461
      0.70588235	      0.02023629	      0.02737686	      0.06383257
      0.72549020	      0.01956487	      0.02691886	      0.06348459
      0.74509804	      0.01888150	      0.02644456	      0.06194697
      0.76470588	      0.01869729	      0.02631525	      0.05871932
      0.78431373	      0.01951154	      0.02688214	      0.05565216
      0.80392157	      0.02136218	      0.02812813	      0.05293801
      0.82352941	      0.02407585	      0.02986132	      0.06746472
      0.84313725	      0.02678515	      0.03149671	      0.07840321
      0.86274510	      0.02840957	      0.03243773	      0.08548369
      0.88235294	      0.02889138	      0.03271164	      0.08997879
      0.90196078	      0.02900387	      0.03277525	      0.09374945
      0.92156863	      0.02939347	      0.03299465	      0.09940564
      0.94117647	      0.02993129	      0.03329514	      0.10314006
      0.96078431	      0.03013433	      0.03340788	      0.10116492
      0.98039216	      0.03134583	      0.03407282	      0.10241406
      1.00000000	      0.03262384	      0.03476047	      0.10210679
      1.01960784	      0.03352832	      0.03523904	      0.10084717
      1.03921569	      0.03401382	      0.03549325	      0.09902170
      1.05882353	      0.03426963	      0.03562647	      0.09668139
      1.07843137	      0.03451955	      0.03575614	      0.09458951
      1.09803922	      0.03450333	      0.03574774	      0.09071826
      1.11764706	      0.03478859	      0.03589521	      0.08637523
      1.13725490	      0.03488317	      0.03594398	      0.08016771
      1.15686275	      0.03418856	      0.03558431	      0.07162140
      1.17647059	      0.03247454	      0.03468084	      0.06685608
      1.19607843	      0.03041511	      0.03356316	      0.07382124
      1.21568627	      0.02872498	      0.03261730	      0.07963799
      1.23529412	      0.02695489	      0.03159635	      0.08333802
      1.25490196	      0.02471522	      0.03025522	      0.08374064
      1.27450980	      0.02223417	      0.02869648	      0.07943061
      1.29411765	      0.02122796	      0.02803963	      0.07741928
      1.31372549	      0.02281323	      0.02906776	      0.08085090
      1.33333333	      0.02694657	      0.03159147	      0.09053764
      1.35294118	      0.03152630	      0.03417076	      0.09378779
      1.37254902	      0.03613711	      0.03658431	      0.09999806
      1.39215686	      0.04045650	      0.03870903	      0.10855696
      1.41176471	      0.04411205	      0.04042004	      0.11460089
      1.43137255	      0.04674298	      0.04160795	      0.11864326
      1.45098039	      0.04824980	      0.04227327	      0.12107638
      1.47058824	      0.04889626	      0.04255552	      0.12230963
      1.49019608	      0.04882198	      0.04252319	      0.12227635
      1.50980392	      0.04809170	      0.04220396	      0.12097883
      1.52941176	      0.04714433	      0.04178620	      0.11917971
      1.54901961	      0.04674375	      0.04160829	      0.11804978
      1.56862745	      0.04730475	      0.04185723	      0.11798449
      1.58823529	      0.04873003	      0.04248312	      0.11875880
      1.60784314	      0.05082863	      0.04338827	      0.11967335
      1.62745098	      0.05348778	      0.04450875	      0.12043435
      1.64705882	      0.05638790	      0.04569946	      0.12090591
      1.66666667	      0.05930702	      0.04686743	      0.12083349
      1.68627451	      0.06209594	      0.04795675	      0.12102794
      1.70588235	      0.06454679	      0.04889399	      0.12196888
      1.72549020	      0.06662275	      0.04967403	      0.12440068
      1.74509804	      0.06830733	      0.05029812	      0.12784888
      1.76470588	      0.07006346	      0.05094058	      0.13255617
      1.78431373	      0.07266489	      0.05187766	      0.13867869
      1.80392157	      0.07666223	      0.05328547	      0.14623937
      1.82352941	      0.08204353	      0.05512394	      0.15447046
      1.84313725	      0.08840838	      0.05722224	      0.16244337
      1.86274510	      0.09506436	      0.05933719	      0.16940004
      1.88235294	      0.10089743	      0.06113053	      0.17428771
      1.90196078	      0.10505083	      0.06237605	      0.17585458
      1.92156863	      0.10776825	      0.06317766	      0.17397012
      1.94117647	      0.11019439	      0.06388485	      0.17004954
      1.96078431	      0.11346867	      0.06482703	      0.16606593
      1.98039216	      0.11789098	      0.06607823	      0.16271904
      2.00000000	      0.12324360	      0.06756166	      0.16062076
      2.01960784	      0.12913607	      0.06915792	      0.16026433
      2.03921569	      0.13527661	      0.07078308	      0.16202090
      2.05882353	      0.14126279	      0.07233226	      0.17714805
      2.07843137	      0.14605177	      0.07354811	      0.19555543
      2.09803922	      0.14958089	      0.07443140	      0.20945907
      2.11764706	      0.15188226	      0.07500179	      0.21716640
      2.13725490	      0.15375148	      0.07546191	      0.21951859
      2.15686275	      0.15672418	      0.07618792	      0.21916052
      2.17647059	      0.16228497	      0.07752777	      0.21923845
      2.19607843	      0.17064650	      0.07949994	      0.22132130
      2.21568627	      0.18072002	      0.08181280	      0.22560667
      2.23529412	      0.19093764	      0.08409378	      0.23056580
      2.25490196	      0.20007692	      0.08608285	      0.23528949
      2.27450980	      0.20754879	      0.08767549	      0.23948119
      2.29411765	      0.21247972	      0.08871087	      0.24246773
      2.31372549	      0.21410012	      0.08904849	      0.24411105
      2.33333333	      0.21244574	      0.08870378	      0.24467910
      2.35294118	      0.20819799	      0.08781251	      0.24434567
      2.37254902	      0.20257169	      0.08661787	      0.24333193
      2.39215686	      0.19690225	      0.08539717	      0.24167283
      2.41176471	      0.19212851	      0.08435562	      0.23977352
      2.43137255	      0.18909041	      0.08368601	      0.23783338
      2.45098039	      0.18913769	      0.08369647	      0.23604409
      2.47058824	      0.19298756	      0.08454400	      0.23575161
      2.49019608	      0.19961888	      0.08598425	      0.23630360
      2.50980392	      0.20729105	      0.08762104	      0.23758452
      2.52941176	      0.21518689	      0.08927421	      0.24055617
      2.54901961	      0.22345939	      0.09097403	      0.24550671
      2.56862745	      0.23249131	      0.09279434	      0.25268151
      2.58823529	      0.24170672	      0.09461554	      0.26067768
      2.60784314	      0.24955635	      0.09613963	      0.26823808
      2.62745098	      0.25469420	      0.09712424	      0.27406688
      2.64705882	      0.25644976	      0.09745840	      0.27763961
      2.66666667	      0.25429459	      0.09704802	      0.27895095
      2.68627451	      0.24792052	      0.09582401	      0.27746385
      2.70588235	      0.23817383	      0.09392152	      0.27293855
      2.72549020	      0.22623680	      0.09153765	      0.26637865
      2.74509804	      0.21199793	      0.08861024	      0.25755939
      2.76470588	      0.19433714	      0.08483909	      0.24659175
      2.78431373	      0.17323335	      0.08010025	      0.23276113
      2.80392157	      0.15093588	      0.07476776	      0.21603673
      2.82352941	      0.13054000	      0.06953283	      0.19684387
      2.84313725	      0.11471380	      0.06518174	      0.17657972
      2.86274510	      0.10396719	      0.06205350	      0.17532979
      2.88235294	      0.09613766	      0.05967122	      0.18471368
      2.90196078	      0.08772906	      0.05700197	      0.18657752
      2.92156863	      0.07676279	      0.05332041	      0.17817066
      2.94117647	      0.06337011	      0.04844627	      0.16047374
      2.96078431	      0.04891474	      0.04256357	      0.13637062
      2.98039216	      0.03548209	      0.03625122	      0.11089822
      3.00000000	      0.02287906	      0.02910967	      0.09245776
      3.01960784	      0.01656760	      0.02477125	      0.06435850
      3.03921569	      0.01651746	      0.02473374	      0.04353292
      3.05882353	      0.02041344	      0.02749642	      0.05120488
      3.07843137	      0.02600310	      0.03103350	      0.06080558
      3.09803922	      0.03018299	      0.03343484	      0.06322326
      3.11764706	      0.03186868	      0.03435581	      0.06902167
      3.13725490	      0.03255072	      0.03472150	      0.07264309
      3.15686275	      0.03300138	      0.03496103	      0.07463537
      3.17647059	      0.03398977	      0.03548070	      0.07484345
      3.19607843	      0.03488377	      0.03594428	      0.07428575
      3.21568627	      0.03534314	      0.03618018	      0.07403835
      3.23529412	      0.03476892	      0.03588507	      0.07432994
      3.25490196	      0.03369814	      0.03532816	      0.07284085
      3.27450980	      0.03240189	      0.03464203	      0.07125341
      3.29411765	      0.03044248	      0.03357826	      0.06836715
      3.31372549	      0.02780296	      0.03208955	      0.06410497
      3.33333333	      0.02508923	      0.03048329	      0.05960709
      3.35294118	      0.02282787	      0.02907708	      0.05600805
      3.37254902	      0.02144084	      0.02817987	      0.05365420
      3.39215686	      0.02050682	      0.02755925	      0.05232379
      3.41176471	      0.01976233	      0.02705435	      0.05082429
      3.43137255	      0.01907657	      0.02658082	      0.04791906
      3.45098039	      0.01893187	      0.02647981	      0.04436115
      3.47058824	      0.01911329	      0.02660639	      0.04093574
      3.49019608	      0.01970415	      0.02701450	      0.04028697
      3.50980392	      0.02046985	      0.02753439	      0.04848555
      3.52941176	      0.02020123	      0.02735313	      0.04134858
      3.54901961	      0.01970886	      0.02701773	      0.05129631
      3.56862745	      0.02003141	      0.02723792	      0.06534300
      3.58823529	      0.01476979	      0.02338866	      0.03806151
      3.60784314	      0.01424430	      0.02296882	      0.03607667
      3.62745098	      0.01444971	      0.02313384	      0.03373099
      3.64705882	      0.01510736	      0.02365443	      0.03596837
      3.66666667	      0.01796546	      0.02579510	      0.03787706
