Model Marker Errors from IK
version=1
nRows=225
nColumns=4
inDegrees=no
endheader
time	total_squared_error	marker_error_RMS	marker_error_max
      0.00000000	      0.02603976	      0.03105537	      0.06140740
      0.01694915	      0.02650472	      0.03133139	      0.06053299
      0.03389831	      0.02696173	      0.03160035	      0.05969019
      0.05084746	      0.02708886	      0.03167477	      0.05908517
      0.06779661	      0.02696050	      0.03159964	      0.05837898
      0.08474576	      0.02667118	      0.03142963	      0.05806289
      0.10169492	      0.02634577	      0.03123731	      0.06002760
      0.11864407	      0.02597304	      0.03101555	      0.06155563
      0.13559322	      0.02559072	      0.03078643	      0.06227975
      0.15254237	      0.02527283	      0.03059462	      0.06257957
      0.16949153	      0.02511587	      0.03049947	      0.06245876
      0.18644068	      0.02516173	      0.03052730	      0.06230463
      0.20338983	      0.02536509	      0.03065042	      0.06248006
      0.22033898	      0.02564584	      0.03081957	      0.06288068
      0.23728814	      0.02592140	      0.03098470	      0.06356797
      0.25423729	      0.02621215	      0.03115799	      0.06428737
      0.27118644	      0.02659607	      0.03138534	      0.06491109
      0.28813559	      0.02722373	      0.03175353	      0.06555408
      0.30508475	      0.02817379	      0.03230284	      0.06647654
      0.32203390	      0.02954615	      0.03308023	      0.06833383
      0.33898305	      0.03114452	      0.03396323	      0.07129682
      0.35593220	      0.03304378	      0.03498348	      0.07339899
      0.37288136	      0.03551238	      0.03626670	      0.07524403
      0.38983051	      0.03814180	      0.03758536	      0.07620933
      0.40677966	      0.04030767	      0.03863776	      0.07690389
      0.42372881	      0.04158055	      0.03924309	      0.07758941
      0.44067797	      0.04188328	      0.03938569	      0.07835796
      0.45762712	      0.04168359	      0.03929169	      0.07982810
      0.47457627	      0.04148534	      0.03919814	      0.08100707
      0.49152542	      0.04181583	      0.03935396	      0.08321174
      0.50847458	      0.04247853	      0.03966458	      0.08569715
      0.52542373	      0.04291725	      0.03986888	      0.08772602
      0.54237288	      0.04272318	      0.03977864	      0.08890333
      0.55932203	      0.03919726	      0.03810184	      0.07552241
      0.57627119	      0.03797092	      0.03750107	      0.07244993
      0.59322034	      0.03683745	      0.03693711	      0.06911512
      0.61016949	      0.03590779	      0.03646804	      0.06601023
      0.62711864	      0.03508891	      0.03604982	      0.06370847
      0.64406780	      0.03427554	      0.03562955	      0.06242995
      0.66101695	      0.03342582	      0.03518513	      0.06215637
      0.67796610	      0.03258110	      0.03473769	      0.06190554
      0.69491525	      0.03178285	      0.03430951	      0.06156744
      0.71186441	      0.03105417	      0.03391393	      0.06087514
      0.72881356	      0.03036201	      0.03353384	      0.05971077
      0.74576271	      0.02967362	      0.03315152	      0.05849489
      0.76271186	      0.02894543	      0.03274222	      0.05767302
      0.77966102	      0.02807256	      0.03224476	      0.05687283
      0.79661017	      0.02714170	      0.03170565	      0.05713552
      0.81355932	      0.02613581	      0.03111259	      0.05711328
      0.83050847	      0.02524341	      0.03057681	      0.05717001
      0.84745763	      0.02455412	      0.03015646	      0.05775227
      0.86440678	      0.02408491	      0.02986693	      0.05872264
      0.88135593	      0.02390645	      0.02975608	      0.06061376
      0.89830508	      0.02410077	      0.02987677	      0.06329554
      0.91525424	      0.02488119	      0.03035664	      0.06762407
      0.93220339	      0.02644693	      0.03129722	      0.07385185
      0.94915254	      0.02869833	      0.03260216	      0.08107527
      0.96610169	      0.03120903	      0.03399838	      0.08719744
      0.98305085	      0.03355773	      0.03525449	      0.09370762
      1.00000000	      0.03560888	      0.03631594	      0.09924302
      1.01694915	      0.03797385	      0.03750252	      0.10364838
      1.03389831	      0.04121735	      0.03907133	      0.10660540
      1.05084746	      0.04588540	      0.04122450	      0.11431618
      1.06779661	      0.05272289	      0.04418936	      0.12461627
      1.08474576	      0.06211128	      0.04796267	      0.13606103
      1.10169492	      0.07380648	      0.05228359	      0.14831193
      1.11864407	      0.08745754	      0.05691369	      0.16122632
      1.13559322	      0.10248638	      0.06161000	      0.17449461
      1.15254237	      0.11792389	      0.06608745	      0.18689138
      1.16949153	      0.13316822	      0.07022931	      0.19884784
      1.18644068	      0.14760742	      0.07393877	      0.20967061
      1.20338983	      0.16030732	      0.07705393	      0.21810994
      1.22033898	      0.16967656	      0.07927368	      0.22200671
      1.23728814	      0.17422516	      0.08032922	      0.22043252
      1.25423729	      0.17383112	      0.08023833	      0.21425374
      1.27118644	      0.16981898	      0.07930695	      0.20537988
      1.28813559	      0.16422188	      0.07798905	      0.19535981
      1.30508475	      0.15995356	      0.07696886	      0.18642819
      1.32203390	      0.16062549	      0.07713036	      0.17911178
      1.33898305	      0.16965113	      0.07926774	      0.17528804
      1.35593220	      0.18702088	      0.08322679	      0.17497854
      1.37288136	      0.20904416	      0.08799077	      0.18069903
      1.38983051	      0.23169614	      0.09263552	      0.19815583
      1.40677966	      0.25252697	      0.09671014	      0.21956434
      1.42372881	      0.26989853	      0.09998121	      0.23277777
      1.44067797	      0.28119291	      0.10205171	      0.23929699
      1.45762712	      0.28458624	      0.10266563	      0.24003347
      1.47457627	      0.27999800	      0.10183465	      0.23595815
      1.49152542	      0.26933591	      0.09987694	      0.22862980
      1.50847458	      0.25512130	      0.09720564	      0.22022053
      1.52542373	      0.24034006	      0.09434767	      0.21869391
      1.54237288	      0.22753068	      0.09179903	      0.21794914
      1.55932203	      0.21783833	      0.08982253	      0.21429490
      1.57627119	      0.21073763	      0.08834646	      0.20813497
      1.59322034	      0.20468730	      0.08706900	      0.20227348
      1.61016949	      0.19900949	      0.08585291	      0.19981174
      1.62711864	      0.19412215	      0.08479215	      0.20127818
      1.64406780	      0.19083451	      0.08407107	      0.20516936
      1.66101695	      0.18987048	      0.08385845	      0.20950996
      1.67796610	      0.19074357	      0.08405104	      0.21233845
      1.69491525	      0.19287275	      0.08451885	      0.21232995
      1.71186441	      0.19595013	      0.08519045	      0.20891319
      1.72881356	      0.20024617	      0.08611925	      0.20178487
      1.74576271	      0.20619868	      0.08738986	      0.19144693
      1.76271186	      0.21388230	      0.08900318	      0.18584423
      1.77966102	      0.22290778	      0.09086167	      0.19567699
      1.79661017	      0.23216975	      0.09273014	      0.20765698
      1.81355932	      0.23958164	      0.09419869	      0.21931548
      1.83050847	      0.24273906	      0.09481738	      0.22829926
      1.84745763	      0.24009353	      0.09429927	      0.23326418
      1.86440678	      0.23223434	      0.09274304	      0.23388881
      1.88135593	      0.22106412	      0.09048514	      0.23122109
      1.89830508	      0.20856051	      0.08788893	      0.22537775
      1.91525424	      0.19655611	      0.08532207	      0.21742894
      1.93220339	      0.18651346	      0.08311381	      0.20812837
      1.94915254	      0.17933067	      0.08149771	      0.19831336
      1.96610169	      0.17509504	      0.08052951	      0.18862339
      1.98305085	      0.17314914	      0.08008078	      0.18748002
      2.00000000	      0.17268459	      0.07997328	      0.19782093
      2.01694915	      0.17314614	      0.08008008	      0.20683247
      2.03389831	      0.17422849	      0.08032999	      0.21446033
      2.05084746	      0.17530661	      0.08057814	      0.21958637
      2.06779661	      0.17581889	      0.08069579	      0.22081599
      2.08474576	      0.17562648	      0.08065162	      0.21766498
      2.10169492	      0.17530269	      0.08057724	      0.21119635
      2.11864407	      0.17596557	      0.08072945	      0.20387094
      2.13559322	      0.17838850	      0.08128334	      0.19756279
      2.15254237	      0.18219121	      0.08214513	      0.19274909
      2.16949153	      0.18580837	      0.08295656	      0.19804690
      2.18644068	      0.18737887	      0.08330641	      0.20500653
      2.20338983	      0.18593503	      0.08298483	      0.20972767
      2.22033898	      0.18122030	      0.08192596	      0.21150693
      2.23728814	      0.17432658	      0.08035260	      0.21064177
      2.25423729	      0.16751436	      0.07876697	      0.20727905
      2.27118644	      0.16256914	      0.07759561	      0.20307164
      2.28813559	      0.16070178	      0.07714867	      0.19897630
      2.30508475	      0.16146872	      0.07733255	      0.19588742
      2.32203390	      0.16331062	      0.07777237	      0.19355532
      2.33898305	      0.16417109	      0.07797699	      0.19136989
      2.35593220	      0.16284153	      0.07766059	      0.18810744
      2.37288136	      0.15905263	      0.07675180	      0.18395611
      2.38983051	      0.15367181	      0.07544235	      0.17940504
      2.40677966	      0.14833814	      0.07412156	      0.17485165
      2.42372881	      0.14453296	      0.07316469	      0.17148638
      2.44067797	      0.14316040	      0.07281646	      0.16977785
      2.45762712	      0.14435313	      0.07311916	      0.17044373
      2.47457627	      0.14797964	      0.07403193	      0.17371970
      2.49152542	      0.15386140	      0.07548888	      0.17962194
      2.50847458	      0.16185962	      0.07742610	      0.18775833
      2.52542373	      0.17135892	      0.07966572	      0.19727851
      2.54237288	      0.18147002	      0.08198239	      0.20636657
      2.55932203	      0.19074610	      0.08405159	      0.21333318
      2.57627119	      0.19751528	      0.08553000	      0.21679211
      2.59322034	      0.20015069	      0.08609871	      0.21565370
      2.61016949	      0.19744217	      0.08551417	      0.20937910
      2.62711864	      0.18954988	      0.08378762	      0.19840473
      2.64406780	      0.17828049	      0.08125873	      0.18526150
      2.66101695	      0.16577069	      0.07835595	      0.17198203
      2.67796610	      0.15288200	      0.07524823	      0.16400160
      2.69491525	      0.13924127	      0.07181284	      0.16077208
      2.71186441	      0.12495186	      0.06802828	      0.15634050
      2.72881356	      0.11143852	      0.06424448	      0.14896628
      2.74576271	      0.10060380	      0.06104152	      0.13964091
      2.76271186	      0.09347288	      0.05883841	      0.13088573
      2.77966102	      0.08971873	      0.05764474	      0.12393594
      2.79661017	      0.08816371	      0.05714300	      0.11938657
      2.81355932	      0.08835652	      0.05720545	      0.11707432
      2.83050847	      0.09019045	      0.05779608	      0.11734108
      2.84745763	      0.09447060	      0.05915159	      0.12048154
      2.86440678	      0.09847120	      0.06039107	      0.12555988
      2.88135593	      0.09749444	      0.06009081	      0.13107648
      2.89830508	      0.08876111	      0.05733628	      0.13601594
      2.91525424	      0.08055426	      0.05462134	      0.14043433
      2.93220339	      0.09079039	      0.05798799	      0.14512868
      2.94915254	      0.14915638	      0.07432571	      0.14488740
      2.96610169	      0.26334737	      0.09876035	      0.18449340
      2.98305085	      0.35901244	      0.11531157	      0.25982472
      3.00000000	      0.40635683	      0.12267947	      0.29419181
      3.01694915	      0.42305144	      0.12517417	      0.30060772
      3.03389831	      0.42829168	      0.12594703	      0.29973490
      3.05084746	      0.43345340	      0.12670371	      0.29927931
      3.06779661	      0.44322677	      0.12812418	      0.29948746
      3.08474576	      0.45507642	      0.12982558	      0.29815025
      3.10169492	      0.45408641	      0.12968429	      0.28802398
      3.11864407	      0.41528272	      0.12401952	      0.25305870
      3.13559322	      0.32661601	      0.10998586	      0.21321979
      3.15254237	      0.22566015	      0.09142091	      0.17543019
      3.16949153	      0.16310697	      0.07772386	      0.17374387
      3.18644068	      0.14051298	      0.07214003	      0.16865375
      3.20338983	      0.12875620	      0.06905612	      0.16135758
      3.22033898	      0.11589656	      0.06551691	      0.15436357
      3.23728814	      0.09577062	      0.05955720	      0.14700971
      3.25423729	      0.07538123	      0.05283841	      0.13896053
      3.27118644	      0.06136548	      0.04767384	      0.13010321
      3.28813559	      0.04913290	      0.04265838	      0.14179134
      3.30508475	      0.04420185	      0.04046116	      0.13059140
      3.32203390	      0.04146998	      0.03919088	      0.12068435
      3.33898305	      0.04082113	      0.03888308	      0.11417234
      3.35593220	      0.04198733	      0.03943458	      0.10968440
      3.37288136	      0.04472577	      0.04070025	      0.10620985
      3.38983051	      0.04832667	      0.04230693	      0.11753144
      3.40677966	      0.05167018	      0.04374597	      0.12762379
      3.42372881	      0.05372839	      0.04460875	      0.13341574
      3.44067797	      0.05372363	      0.04460677	      0.13528719
      3.45762712	      0.04605591	      0.04130102	      0.13350944
      3.47457627	      0.04287009	      0.03984697	      0.13113988
      3.49152542	      0.03954872	      0.03827228	      0.12754734
      3.50847458	      0.03698911	      0.03701307	      0.12199191
      3.52542373	      0.03540774	      0.03621323	      0.11455924
      3.54237288	      0.03444717	      0.03571864	      0.10484959
      3.55932203	      0.03381746	      0.03539065	      0.09378674
      3.57627119	      0.03352186	      0.03523564	      0.08257739
      3.59322034	      0.03374409	      0.03535224	      0.07297387
      3.61016949	      0.03461983	      0.03580804	      0.06561334
      3.62711864	      0.03634262	      0.03668819	      0.06961272
      3.64406780	      0.03856645	      0.03779401	      0.07278128
      3.66101695	      0.04063297	      0.03879336	      0.07387142
      3.67796610	      0.04199345	      0.03943746	      0.07247902
      3.69491525	      0.04262632	      0.03973352	      0.06960135
      3.71186441	      0.04268552	      0.03976110	      0.07091088
      3.72881356	      0.04206259	      0.03946991	      0.07082346
      3.74576271	      0.04118663	      0.03905676	      0.06940464
      3.76271186	      0.04018101	      0.03857701	      0.06856304
      3.77966102	      0.03926452	      0.03813452	      0.06849971
      3.79661017	      0.03891830	      0.03796602	      0.07024844
