Model Marker Errors from IK
version=1
nRows=304
nColumns=4
inDegrees=no
endheader
time	total_squared_error	marker_error_RMS	marker_error_max
      0.00000000	      0.01768404	      0.02559228	      0.05731350
      0.01694915	      0.01669894	      0.02486924	      0.05269365
      0.03389831	      0.01605385	      0.02438415	      0.04945415
      0.05084746	      0.01556119	      0.02400709	      0.04883848
      0.06779661	      0.01509856	      0.02364753	      0.04892295
      0.08474576	      0.01464537	      0.02328994	      0.04869650
      0.10169492	      0.01403305	      0.02279787	      0.04845692
      0.11864407	      0.01346256	      0.02232966	      0.04833549
      0.13559322	      0.01305815	      0.02199170	      0.04823501
      0.15254237	      0.01286857	      0.02183149	      0.04800664
      0.16949153	      0.01290711	      0.02186415	      0.04779966
      0.18644068	      0.01311895	      0.02204284	      0.04754931
      0.20338983	      0.01338409	      0.02226448	      0.04703310
      0.22033898	      0.01362346	      0.02246269	      0.04596131
      0.23728814	      0.01374362	      0.02256153	      0.04580937
      0.25423729	      0.01371458	      0.02253769	      0.04585662
      0.27118644	      0.01359635	      0.02244033	      0.04563220
      0.28813559	      0.01353583	      0.02239033	      0.04633782
      0.30508475	      0.01360556	      0.02244793	      0.04772047
      0.32203390	      0.01389442	      0.02268497	      0.04968975
      0.33898305	      0.01430458	      0.02301737	      0.05136508
      0.35593220	      0.01475921	      0.02338028	      0.05283556
      0.37288136	      0.01510959	      0.02365617	      0.05295735
      0.38983051	      0.01535323	      0.02384613	      0.05272753
      0.40677966	      0.01551523	      0.02397161	      0.05231533
      0.42372881	      0.01566102	      0.02408397	      0.05185686
      0.44067797	      0.01585400	      0.02423191	      0.05156626
      0.45762712	      0.01612596	      0.02443886	      0.05192643
      0.47457627	      0.01642854	      0.02466708	      0.05249370
      0.49152542	      0.01680144	      0.02494545	      0.05300093
      0.50847458	      0.01722553	      0.02525832	      0.05337024
      0.52542373	      0.01770305	      0.02560602	      0.05384735
      0.54237288	      0.01815470	      0.02593060	      0.05403918
      0.55932203	      0.01843808	      0.02613220	      0.05546402
      0.57627119	      0.01859775	      0.02624510	      0.05582024
      0.59322034	      0.01882987	      0.02640838	      0.05503343
      0.61016949	      0.01933033	      0.02675702	      0.05737904
      0.62711864	      0.02008764	      0.02727612	      0.05838547
      0.64406780	      0.02108272	      0.02794354	      0.05982568
      0.66101695	      0.02207971	      0.02859662	      0.06029854
      0.67796610	      0.02297363	      0.02916977	      0.06145199
      0.69491525	      0.02367038	      0.02960880	      0.06119466
      0.71186441	      0.02415387	      0.02990966	      0.05974397
      0.72881356	      0.02431239	      0.03000765	      0.05860161
      0.74576271	      0.02407934	      0.02986348	      0.05794653
      0.76271186	      0.02353842	      0.02952615	      0.05577164
      0.77966102	      0.02312756	      0.02926732	      0.05543915
      0.79661017	      0.02301345	      0.02919503	      0.05520430
      0.81355932	      0.02317440	      0.02929695	      0.05548148
      0.83050847	      0.02324609	      0.02934223	      0.05489528
      0.84745763	      0.02317068	      0.02929460	      0.05437671
      0.86440678	      0.02274750	      0.02902585	      0.05391791
      0.88135593	      0.02210827	      0.02861512	      0.05211187
      0.89830508	      0.02184471	      0.02844404	      0.05108336
      0.91525424	      0.02234039	      0.02876494	      0.05093473
      0.93220339	      0.02355374	      0.02953575	      0.05280230
      0.94915254	      0.02497747	      0.03041531	      0.05535856
      0.96610169	      0.02489523	      0.03036520	      0.05574873
      0.98305085	      0.02582111	      0.03092471	      0.05576550
      1.00000000	      0.02661838	      0.03139850	      0.05586546
      1.01694915	      0.02722548	      0.03175454	      0.05587103
      1.03389831	      0.02754414	      0.03193984	      0.05562970
      1.05084746	      0.02760726	      0.03197641	      0.05523055
      1.06779661	      0.02762158	      0.03198470	      0.05448865
      1.08474576	      0.02760943	      0.03197767	      0.05470953
      1.10169492	      0.02768807	      0.03202318	      0.05539262
      1.11864407	      0.02784906	      0.03211614	      0.05612312
      1.13559322	      0.02799778	      0.03220178	      0.05675375
      1.15254237	      0.02813015	      0.03227781	      0.05724756
      1.16949153	      0.02818836	      0.03231119	      0.05760629
      1.18644068	      0.02819510	      0.03231506	      0.05782270
      1.20338983	      0.02818538	      0.03230949	      0.05791798
      1.22033898	      0.02818466	      0.03230907	      0.05806922
      1.23728814	      0.02825908	      0.03235170	      0.05811153
      1.25423729	      0.02832672	      0.03239040	      0.05813477
      1.27118644	      0.02833938	      0.03239763	      0.05808420
      1.28813559	      0.02827352	      0.03235997	      0.05807808
      1.30508475	      0.02801531	      0.03221186	      0.05804434
      1.32203390	      0.02757533	      0.03195792	      0.05774712
      1.33898305	      0.02710101	      0.03168188	      0.05729922
      1.35593220	      0.02675962	      0.03148170	      0.05654478
      1.37288136	      0.02661775	      0.03139813	      0.05572569
      1.38983051	      0.02664008	      0.03141130	      0.05482148
      1.40677966	      0.02671724	      0.03145675	      0.05397457
      1.42372881	      0.02683218	      0.03152435	      0.05327352
      1.44067797	      0.02698697	      0.03161515	      0.05289426
      1.45762712	      0.02716117	      0.03171702	      0.05297105
      1.47457627	      0.02727347	      0.03178252	      0.05357795
      1.49152542	      0.02727355	      0.03178257	      0.05466426
      1.50847458	      0.02722602	      0.03175486	      0.05568757
      1.52542373	      0.02704652	      0.03165001	      0.05662337
      1.54237288	      0.02687842	      0.03155150	      0.05795186
      1.55932203	      0.02665612	      0.03142076	      0.05729901
      1.57627119	      0.02659634	      0.03138550	      0.05770187
      1.59322034	      0.02679794	      0.03150423	      0.05815207
      1.61016949	      0.02731012	      0.03180387	      0.05888054
      1.62711864	      0.02784946	      0.03211637	      0.05954655
      1.64406780	      0.02842543	      0.03244678	      0.06065126
      1.66101695	      0.02881834	      0.03267026	      0.06219777
      1.67796610	      0.02887045	      0.03269979	      0.06376472
      1.69491525	      0.02850417	      0.03249169	      0.06479182
      1.71186441	      0.02783751	      0.03210948	      0.06483808
      1.72881356	      0.02708951	      0.03167515	      0.06388776
      1.74576271	      0.02646816	      0.03130978	      0.06229072
      1.76271186	      0.02611252	      0.03109872	      0.06057745
      1.77966102	      0.02602340	      0.03104560	      0.05930759
      1.79661017	      0.02630033	      0.03121035	      0.05866916
      1.81355932	      0.02662956	      0.03140509	      0.05874053
      1.83050847	      0.02701419	      0.03163109	      0.05926913
      1.84745763	      0.02726085	      0.03177516	      0.05980723
      1.86440678	      0.02725441	      0.03177141	      0.06013849
      1.88135593	      0.02709988	      0.03168121	      0.05997517
      1.89830508	      0.02687043	      0.03154681	      0.05949890
      1.91525424	      0.02670270	      0.03144819	      0.05904879
      1.93220339	      0.02670944	      0.03145216	      0.05873788
      1.94915254	      0.02686145	      0.03154153	      0.05849240
      1.96610169	      0.02707732	      0.03166802	      0.05841056
      1.98305085	      0.02726200	      0.03177583	      0.05825765
      2.00000000	      0.02738804	      0.03184921	      0.05808657
      2.01694915	      0.02747832	      0.03190166	      0.05794813
      2.03389831	      0.02757925	      0.03196019	      0.05807082
      2.05084746	      0.02772676	      0.03204555	      0.05840142
      2.06779661	      0.02788647	      0.03213770	      0.05896810
      2.08474576	      0.02810045	      0.03226077	      0.05959477
      2.10169492	      0.02836092	      0.03240994	      0.06018339
      2.11864407	      0.02867344	      0.03258803	      0.06066112
      2.13559322	      0.02904772	      0.03280002	      0.06111579
      2.15254237	      0.02949709	      0.03305276	      0.06141358
      2.16949153	      0.03001563	      0.03334202	      0.06168867
      2.18644068	      0.03047737	      0.03359749	      0.06203156
      2.20338983	      0.03075521	      0.03375029	      0.06227574
      2.22033898	      0.03083265	      0.03379275	      0.06225444
      2.23728814	      0.03054368	      0.03363402	      0.06273764
      2.25423729	      0.03019926	      0.03344385	      0.06269016
      2.27118644	      0.02985341	      0.03325180	      0.06250451
      2.28813559	      0.02959115	      0.03310542	      0.06213745
      2.30508475	      0.02951126	      0.03306070	      0.06167360
      2.32203390	      0.02967506	      0.03315232	      0.06109170
      2.33898305	      0.02984720	      0.03324834	      0.06115326
      2.35593220	      0.03026905	      0.03348247	      0.06055389
      2.37288136	      0.03063384	      0.03368362	      0.06103903
      2.38983051	      0.03106857	      0.03392179	      0.06111689
      2.40677966	      0.03150780	      0.03416073	      0.06145154
      2.42372881	      0.03193805	      0.03439318	      0.06182319
      2.44067797	      0.03233281	      0.03460508	      0.06215492
      2.45762712	      0.03267054	      0.03478534	      0.06246294
      2.47457627	      0.03291552	      0.03491552	      0.06275486
      2.49152542	      0.03305491	      0.03498937	      0.06299943
      2.50847458	      0.03310209	      0.03501433	      0.06302645
      2.52542373	      0.03306836	      0.03499649	      0.06304565
      2.54237288	      0.03296345	      0.03494093	      0.06289372
      2.55932203	      0.03279446	      0.03485125	      0.06272801
      2.57627119	      0.03257112	      0.03473237	      0.06253849
      2.59322034	      0.03227595	      0.03457464	      0.06236639
      2.61016949	      0.03191433	      0.03438040	      0.06226944
      2.62711864	      0.03151067	      0.03416229	      0.06223680
      2.64406780	      0.03109180	      0.03393447	      0.06221391
      2.66101695	      0.03066817	      0.03370250	      0.06216340
      2.67796610	      0.03030455	      0.03350210	      0.06229937
      2.69491525	      0.03011002	      0.03339440	      0.06244578
      2.71186441	      0.03013834	      0.03341010	      0.06281392
      2.72881356	      0.03038367	      0.03354581	      0.06318021
      2.74576271	      0.03080247	      0.03377621	      0.06370147
      2.76271186	      0.03131376	      0.03405538	      0.06440370
      2.77966102	      0.03182100	      0.03433010	      0.06513573
      2.79661017	      0.03226926	      0.03457106	      0.06572320
      2.81355932	      0.03244728	      0.03466628	      0.06662368
      2.83050847	      0.03248365	      0.03468570	      0.06716925
      2.84745763	      0.03237170	      0.03462588	      0.06732339
      2.86440678	      0.03219961	      0.03453373	      0.06698148
      2.88135593	      0.03202067	      0.03443764	      0.06588743
      2.89830508	      0.03186622	      0.03435448	      0.06428293
      2.91525424	      0.03173915	      0.03428592	      0.06254788
      2.93220339	      0.03159904	      0.03421016	      0.06085379
      2.94915254	      0.03144179	      0.03412493	      0.05947446
      2.96610169	      0.03125737	      0.03402470	      0.05842996
      2.98305085	      0.03106595	      0.03392036	      0.05809020
      3.00000000	      0.03090374	      0.03383168	      0.05823562
      3.01694915	      0.03074547	      0.03374494	      0.05800916
      3.03389831	      0.03065953	      0.03369775	      0.05808944
      3.05084746	      0.03062231	      0.03367729	      0.05825266
      3.06779661	      0.03067766	      0.03370771	      0.05902894
      3.08474576	      0.03074743	      0.03374602	      0.05966814
      3.10169492	      0.03077008	      0.03375845	      0.05958230
      3.11864407	      0.03077472	      0.03376099	      0.05882247
      3.13559322	      0.03081358	      0.03378230	      0.05764102
      3.15254237	      0.03093310	      0.03384775	      0.05736803
      3.16949153	      0.03110092	      0.03393945	      0.05765543
      3.18644068	      0.03118788	      0.03398686	      0.05836426
      3.20338983	      0.03116385	      0.03397376	      0.05955236
      3.22033898	      0.03103484	      0.03390337	      0.06077313
      3.23728814	      0.03081759	      0.03378449	      0.06188602
      3.25423729	      0.03053608	      0.03362984	      0.06255498
      3.27118644	      0.03018384	      0.03343531	      0.06265531
      3.28813559	      0.02979145	      0.03321727	      0.06200370
      3.30508475	      0.02946677	      0.03303576	      0.06098214
      3.32203390	      0.02929378	      0.03293865	      0.06001043
      3.33898305	      0.02932930	      0.03295862	      0.05948208
      3.35593220	      0.02952400	      0.03306783	      0.05943725
      3.37288136	      0.02994986	      0.03330547	      0.05971795
      3.38983051	      0.03031512	      0.03350794	      0.06046336
      3.40677966	      0.03090428	      0.03383198	      0.06113293
      3.42372881	      0.03156836	      0.03419354	      0.06170331
      3.44067797	      0.03223108	      0.03455060	      0.06233544
      3.45762712	      0.03287166	      0.03489224	      0.06267360
      3.47457627	      0.03349507	      0.03522156	      0.06291859
      3.49152542	      0.03409218	      0.03553412	      0.06335292
      3.50847458	      0.03460418	      0.03579995	      0.06382055
      3.52542373	      0.03495016	      0.03597847	      0.06447588
      3.54237288	      0.03506762	      0.03603888	      0.06505357
      3.55932203	      0.03500886	      0.03600867	      0.06564487
      3.57627119	      0.03481011	      0.03590631	      0.06605931
      3.59322034	      0.03449572	      0.03574380	      0.06622393
      3.61016949	      0.03411740	      0.03554725	      0.06610907
      3.62711864	      0.03376712	      0.03536431	      0.06561316
      3.64406780	      0.03352633	      0.03523799	      0.06513550
      3.66101695	      0.03339194	      0.03516729	      0.06482643
      3.67796610	      0.03332954	      0.03513442	      0.06487147
      3.69491525	      0.03327276	      0.03510448	      0.06516762
      3.71186441	      0.03317671	      0.03505377	      0.06552677
      3.72881356	      0.03303920	      0.03498106	      0.06578563
      3.74576271	      0.03285161	      0.03488161	      0.06598865
      3.76271186	      0.03262471	      0.03476093	      0.06585608
      3.77966102	      0.03235122	      0.03461493	      0.06531023
      3.79661017	      0.03204577	      0.03445113	      0.06452395
      3.81355932	      0.03176983	      0.03430248	      0.06367824
      3.83050847	      0.03156211	      0.03419016	      0.06304799
      3.84745763	      0.03142756	      0.03411721	      0.06270654
      3.86440678	      0.03137786	      0.03409022	      0.06267577
      3.88135593	      0.03137042	      0.03408618	      0.06280410
      3.89830508	      0.03136762	      0.03408465	      0.06317019
      3.91525424	      0.03135711	      0.03407894	      0.06365070
      3.93220339	      0.03132933	      0.03406384	      0.06418459
      3.94915254	      0.03130558	      0.03405093	      0.06472103
      3.96610169	      0.03131855	      0.03405799	      0.06524046
      3.98305085	      0.03142899	      0.03411798	      0.06556612
      4.00000000	      0.03162956	      0.03422667	      0.06579433
      4.01694915	      0.03192171	      0.03438438	      0.06589085
      4.03389831	      0.03229076	      0.03458257	      0.06570431
      4.05084746	      0.03267823	      0.03478943	      0.06554312
      4.06779661	      0.03301282	      0.03496708	      0.06509312
      4.08474576	      0.03327046	      0.03510327	      0.06492566
      4.10169492	      0.03347974	      0.03521350	      0.06526493
      4.11864407	      0.03363650	      0.03529584	      0.06556041
      4.13559322	      0.03375088	      0.03535580	      0.06563825
      4.15254237	      0.03385859	      0.03541217	      0.06560648
      4.16949153	      0.03397897	      0.03547507	      0.06606696
      4.18644068	      0.03412611	      0.03555179	      0.06638482
      4.20338983	      0.03424442	      0.03561336	      0.06665837
      4.22033898	      0.03426122	      0.03562210	      0.06670092
      4.23728814	      0.03413586	      0.03555687	      0.06656618
      4.25423729	      0.03393725	      0.03545328	      0.06617268
      4.27118644	      0.03376110	      0.03536115	      0.06590493
      4.28813559	      0.03364379	      0.03529966	      0.06577162
      4.30508475	      0.03357656	      0.03526438	      0.06577631
      4.32203390	      0.03354661	      0.03524865	      0.06592806
      4.33898305	      0.03350819	      0.03522845	      0.06614129
      4.35593220	      0.03350809	      0.03522840	      0.06610762
      4.37288136	      0.03358682	      0.03526977	      0.06582749
      4.38983051	      0.03342898	      0.03518679	      0.06543333
      4.40677966	      0.03314617	      0.03503764	      0.06514713
      4.42372881	      0.03270628	      0.03480436	      0.06479834
      4.44067797	      0.03222665	      0.03454822	      0.06437370
      4.45762712	      0.03195279	      0.03440112	      0.06433632
      4.47457627	      0.03192661	      0.03438702	      0.06422959
      4.49152542	      0.03212216	      0.03449217	      0.06405368
      4.50847458	      0.03239859	      0.03464026	      0.06374403
      4.52542373	      0.03259999	      0.03474777	      0.06315012
      4.54237288	      0.03266374	      0.03478172	      0.06222760
      4.55932203	      0.03255838	      0.03472558	      0.06110975
      4.57627119	      0.03223905	      0.03455487	      0.06004154
      4.59322034	      0.03171464	      0.03427268	      0.05979240
      4.61016949	      0.03125778	      0.03402493	      0.06101129
      4.62711864	      0.03109694	      0.03393727	      0.06282702
      4.64406780	      0.03121003	      0.03399893	      0.06447596
      4.66101695	      0.03126958	      0.03403135	      0.06545508
      4.67796610	      0.03125925	      0.03402573	      0.06565841
      4.69491525	      0.03131029	      0.03405349	      0.06481099
      4.71186441	      0.03141759	      0.03411179	      0.06344956
      4.72881356	      0.03147110	      0.03414083	      0.06161941
      4.74576271	      0.03139662	      0.03410040	      0.05978741
      4.76271186	      0.03117430	      0.03397946	      0.05785282
      4.77966102	      0.03096246	      0.03386381	      0.05821666
      4.79661017	      0.03096756	      0.03386660	      0.06228937
      4.81355932	      0.03127627	      0.03403499	      0.06749605
      4.83050847	      0.03178247	      0.03430931	      0.07333895
      4.84745763	      0.03248484	      0.03468634	      0.07975405
      4.86440678	      0.03329439	      0.03511589	      0.08522374
      4.88135593	      0.03392609	      0.03544745	      0.08931400
      4.89830508	      0.03410080	      0.03553861	      0.09179467
      4.91525424	      0.03359666	      0.03527493	      0.09186347
      4.93220339	      0.03278844	      0.03484805	      0.09100377
      4.94915254	      0.03206719	      0.03446264	      0.08923686
      4.96610169	      0.02597621	      0.03101744	      0.08578408
      4.98305085	      0.02521698	      0.03056080	      0.08507646
      5.00000000	      0.02503428	      0.03044989	      0.08526197
      5.01694915	      0.02541291	      0.03067929	      0.08618809
      5.03389831	      0.02619648	      0.03114868	      0.08716727
      5.05084746	      0.02727983	      0.03178623	      0.08875254
      5.06779661	      0.02845334	      0.03246271	      0.09099464
      5.08474576	      0.02956849	      0.03309274	      0.09353581
      5.10169492	      0.03055739	      0.03364157	      0.09636530
      5.11864407	      0.03123295	      0.03401141	      0.09972476
      5.13559322	      0.03197461	      0.03441286	      0.10287567
