Model Marker Errors from IK
version=1
nRows=350
nColumns=4
inDegrees=no
endheader
time	total_squared_error	marker_error_RMS	marker_error_max
      0.00000000	      0.02565137	      0.03082290	      0.05535337
      0.01666667	      0.02485564	      0.03034105	      0.05491577
      0.03333333	      0.02481970	      0.03031910	      0.05450257
      0.05000000	      0.02496441	      0.03040737	      0.05418620
      0.06666667	      0.02505327	      0.03046143	      0.05396873
      0.08333333	      0.02504515	      0.03045649	      0.05388645
      0.10000000	      0.02497576	      0.03041427	      0.05403358
      0.11666667	      0.02490989	      0.03037414	      0.05444805
      0.13333333	      0.02490004	      0.03036813	      0.05491426
      0.15000000	      0.02491481	      0.03037714	      0.05604777
      0.16666667	      0.02494654	      0.03039648	      0.05782536
      0.18333333	      0.02498363	      0.03041906	      0.05959878
      0.20000000	      0.02504142	      0.03045423	      0.06143147
      0.21666667	      0.02509194	      0.03048493	      0.06306659
      0.23333333	      0.02508375	      0.03047995	      0.06408875
      0.25000000	      0.02502921	      0.03044680	      0.06482826
      0.26666667	      0.02514422	      0.03051668	      0.05670963
      0.28333333	      0.02521695	      0.03056078	      0.05605559
      0.30000000	      0.02552008	      0.03074391	      0.05618199
      0.31666667	      0.02600267	      0.03103324	      0.05616987
      0.33333333	      0.02649523	      0.03132579	      0.05605224
      0.35000000	      0.02681831	      0.03151620	      0.05606684
      0.36666667	      0.02678612	      0.03149728	      0.05584347
      0.38333333	      0.02643217	      0.03128849	      0.05554089
      0.40000000	      0.02591869	      0.03098308	      0.05525556
      0.41666667	      0.02546495	      0.03071068	      0.05507281
      0.43333333	      0.02522250	      0.03056414	      0.05495063
      0.45000000	      0.02523113	      0.03056937	      0.05471930
      0.46666667	      0.02544302	      0.03069746	      0.05499665
      0.48333333	      0.02574044	      0.03087636	      0.05464596
      0.50000000	      0.02597389	      0.03101606	      0.05467237
      0.51666667	      0.02614186	      0.03111619	      0.05435973
      0.53333333	      0.02626975	      0.03119220	      0.05426570
      0.55000000	      0.02632293	      0.03122377	      0.05281699
      0.56666667	      0.02656805	      0.03136880	      0.05237552
      0.58333333	      0.02688722	      0.03155666	      0.05168624
      0.60000000	      0.02739005	      0.03185037	      0.05139664
      0.61666667	      0.02790282	      0.03214713	      0.05090970
      0.63333333	      0.02834906	      0.03240317	      0.05221047
      0.65000000	      0.02874988	      0.03263143	      0.05388977
      0.66666667	      0.02897456	      0.03275869	      0.05600560
      0.68333333	      0.02906086	      0.03280744	      0.05756381
      0.70000000	      0.02905867	      0.03280620	      0.05898650
      0.71666667	      0.02900410	      0.03277539	      0.06008383
      0.73333333	      0.02893179	      0.03273450	      0.06061760
      0.75000000	      0.02878060	      0.03264886	      0.06064223
      0.76666667	      0.02860008	      0.03254631	      0.06028451
      0.78333333	      0.02845732	      0.03246498	      0.05944961
      0.80000000	      0.02827664	      0.03236175	      0.05914695
      0.81666667	      0.02809746	      0.03225905	      0.05903510
      0.83333333	      0.02789304	      0.03214149	      0.05793370
      0.85000000	      0.02767453	      0.03201535	      0.05832612
      0.86666667	      0.02755725	      0.03194744	      0.05893699
      0.88333333	      0.02765398	      0.03200346	      0.05969915
      0.90000000	      0.02797270	      0.03218736	      0.06042379
      0.91666667	      0.02845563	      0.03246401	      0.06078615
      0.93333333	      0.02902802	      0.03278890	      0.06108281
      0.95000000	      0.02956254	      0.03308941	      0.06134449
      0.96666667	      0.03005037	      0.03336130	      0.05898281
      0.98333333	      0.03008402	      0.03337998	      0.05869763
      1.00000000	      0.03022502	      0.03345811	      0.05651456
      1.01666667	      0.03034308	      0.03352339	      0.05469459
      1.03333333	      0.03059370	      0.03366155	      0.05505807
      1.05000000	      0.03085306	      0.03380393	      0.05482380
      1.06666667	      0.03108283	      0.03392957	      0.05479488
      1.08333333	      0.03127580	      0.03403473	      0.05460149
      1.10000000	      0.03149165	      0.03415198	      0.05448951
      1.11666667	      0.03169678	      0.03426302	      0.05463017
      1.13333333	      0.03181526	      0.03432700	      0.05518766
      1.15000000	      0.03166475	      0.03424571	      0.05542870
      1.16666667	      0.03120208	      0.03399460	      0.05525644
      1.18333333	      0.03046420	      0.03359023	      0.05503039
      1.20000000	      0.02954300	      0.03307847	      0.05509033
      1.21666667	      0.02863321	      0.03256515	      0.05513475
      1.23333333	      0.02789596	      0.03214318	      0.05623533
      1.25000000	      0.02735296	      0.03182880	      0.05642349
      1.26666667	      0.02706977	      0.03166361	      0.05725632
      1.28333333	      0.02701181	      0.03162969	      0.05749804
      1.30000000	      0.02691687	      0.03157406	      0.06302038
      1.31666667	      0.02717569	      0.03172550	      0.06209362
      1.33333333	      0.02746561	      0.03189428	      0.06132134
      1.35000000	      0.02765074	      0.03200158	      0.06062738
      1.36666667	      0.02764684	      0.03199933	      0.06051486
      1.38333333	      0.02733531	      0.03181853	      0.06059800
      1.40000000	      0.02679916	      0.03150495	      0.06145435
      1.41666667	      0.02607727	      0.03107772	      0.06265985
      1.43333333	      0.02518807	      0.03054327	      0.06362574
      1.45000000	      0.02447351	      0.03010691	      0.06419577
      1.46666667	      0.02401206	      0.02982173	      0.06420611
      1.48333333	      0.02363815	      0.02958863	      0.06276822
      1.50000000	      0.02347868	      0.02948866	      0.06221886
      1.51666667	      0.02323261	      0.02933372	      0.06151653
      1.53333333	      0.02285527	      0.02909453	      0.06094122
      1.55000000	      0.02238262	      0.02879211	      0.06102519
      1.56666667	      0.02185995	      0.02845396	      0.06104764
      1.58333333	      0.02137682	      0.02813777	      0.06165251
      1.60000000	      0.02092055	      0.02783586	      0.06252837
      1.61666667	      0.02052728	      0.02757299	      0.06318668
      1.63333333	      0.02026160	      0.02739397	      0.06419241
      1.65000000	      0.02024069	      0.02737983	      0.06507880
      1.66666667	      0.02048709	      0.02754598	      0.06662321
      1.68333333	      0.02080060	      0.02775594	      0.06739119
      1.70000000	      0.02109777	      0.02795351	      0.06811736
      1.71666667	      0.02127739	      0.02807225	      0.06859125
      1.73333333	      0.02139510	      0.02814980	      0.06909753
      1.75000000	      0.02200113	      0.02854569	      0.06149782
      1.76666667	      0.02208050	      0.02859714	      0.06147318
      1.78333333	      0.02213250	      0.02863079	      0.06130391
      1.80000000	      0.02214667	      0.02863996	      0.06091395
      1.81666667	      0.02216036	      0.02864880	      0.06031786
      1.83333333	      0.02219998	      0.02867440	      0.05981884
      1.85000000	      0.02224434	      0.02870304	      0.05953623
      1.86666667	      0.02242465	      0.02881913	      0.05851857
      1.88333333	      0.02281822	      0.02907093	      0.05800923
      1.90000000	      0.02358737	      0.02955683	      0.05816524
      1.91666667	      0.02464533	      0.03021241	      0.05784289
      1.93333333	      0.02573200	      0.03087130	      0.05801698
      1.95000000	      0.02666855	      0.03142808	      0.05802653
      1.96666667	      0.02740492	      0.03185902	      0.05786405
      1.98333333	      0.02798166	      0.03219251	      0.05854899
      2.00000000	      0.02854363	      0.03251418	      0.05844421
      2.01666667	      0.02911356	      0.03283717	      0.05859744
      2.03333333	      0.02957877	      0.03309849	      0.05855655
      2.05000000	      0.02980213	      0.03322322	      0.05844259
      2.06666667	      0.02971750	      0.03317602	      0.05840974
      2.08333333	      0.02941514	      0.03300681	      0.05824846
      2.10000000	      0.02916573	      0.03286658	      0.05923492
      2.11666667	      0.02907243	      0.03281397	      0.05900708
      2.13333333	      0.02920788	      0.03289033	      0.06042130
      2.15000000	      0.02923354	      0.03290477	      0.06198232
      2.16666667	      0.02908804	      0.03282278	      0.06266211
      2.18333333	      0.02837985	      0.03242076	      0.06337418
      2.20000000	      0.02791782	      0.03215577	      0.06355086
      2.21666667	      0.02746739	      0.03189531	      0.06343887
      2.23333333	      0.02714207	      0.03170586	      0.06427046
      2.25000000	      0.02690344	      0.03156618	      0.06402220
      2.26666667	      0.02684883	      0.03153413	      0.06469740
      2.28333333	      0.02706387	      0.03166015	      0.06492721
      2.30000000	      0.02743387	      0.03187584	      0.06571572
      2.31666667	      0.02776699	      0.03206878	      0.06681159
      2.33333333	      0.02813775	      0.03228218	      0.06750948
      2.35000000	      0.02847397	      0.03247447	      0.06725611
      2.36666667	      0.02878901	      0.03265363	      0.06621098
      2.38333333	      0.02895212	      0.03274600	      0.06604026
      2.40000000	      0.02893899	      0.03273858	      0.06436455
      2.41666667	      0.02856795	      0.03252802	      0.06224316
      2.43333333	      0.02770670	      0.03203395	      0.05971571
      2.45000000	      0.02644108	      0.03129376	      0.05757810
      2.46666667	      0.02501002	      0.03043513	      0.05598717
      2.48333333	      0.02362391	      0.02957972	      0.05471022
      2.50000000	      0.02242919	      0.02882205	      0.05351939
      2.51666667	      0.02155061	      0.02825192	      0.05239962
      2.53333333	      0.02087934	      0.02780843	      0.05133153
      2.55000000	      0.02034598	      0.02745095	      0.05040135
      2.56666667	      0.01986973	      0.02712777	      0.04915219
      2.58333333	      0.01958916	      0.02693556	      0.04761231
      2.60000000	      0.01947314	      0.02685568	      0.04791391
      2.61666667	      0.01931761	      0.02674821	      0.04591194
      2.63333333	      0.01906238	      0.02657093	      0.04372469
      2.65000000	      0.01879016	      0.02638052	      0.04249120
      2.66666667	      0.01856640	      0.02622297	      0.04118998
      2.68333333	      0.01857332	      0.02622786	      0.04273747
      2.70000000	      0.01879360	      0.02638293	      0.04407708
      2.71666667	      0.01922609	      0.02668478	      0.04413775
      2.73333333	      0.01986998	      0.02712794	      0.04446418
      2.75000000	      0.02076425	      0.02773169	      0.04722562
      2.76666667	      0.02189167	      0.02847460	      0.05054024
      2.78333333	      0.02320938	      0.02931905	      0.05319089
      2.80000000	      0.02459861	      0.03018376	      0.05620651
      2.81666667	      0.02596004	      0.03100779	      0.05790668
      2.83333333	      0.02701494	      0.03163152	      0.05963595
      2.85000000	      0.02786455	      0.03212507	      0.06076330
      2.86666667	      0.02843755	      0.03245370	      0.06108674
      2.88333333	      0.02895789	      0.03274927	      0.06162656
      2.90000000	      0.02936543	      0.03297891	      0.06130148
      2.91666667	      0.02987905	      0.03326607	      0.06071654
      2.93333333	      0.03022784	      0.03345967	      0.05936319
      2.95000000	      0.03054179	      0.03363298	      0.05767290
      2.96666667	      0.03081493	      0.03378304	      0.05958132
      2.98333333	      0.03091880	      0.03383993	      0.05998922
      3.00000000	      0.03091030	      0.03383527	      0.05979639
      3.01666667	      0.03077009	      0.03375845	      0.05819924
      3.03333333	      0.03060012	      0.03366508	      0.05863799
      3.05000000	      0.03033544	      0.03351917	      0.05880047
      3.06666667	      0.02983976	      0.03324419	      0.05874154
      3.08333333	      0.02901101	      0.03277929	      0.05848818
      3.10000000	      0.02789892	      0.03214488	      0.05795837
      3.11666667	      0.02683851	      0.03152806	      0.05778389
      3.13333333	      0.02609264	      0.03108688	      0.05829021
      3.15000000	      0.02574004	      0.03087612	      0.05923727
      3.16666667	      0.02575130	      0.03088288	      0.06086418
      3.18333333	      0.02596335	      0.03100977	      0.06270012
      3.20000000	      0.02631869	      0.03122125	      0.06420760
      3.21666667	      0.02669047	      0.03144099	      0.06522356
      3.23333333	      0.02703221	      0.03164163	      0.06569282
      3.25000000	      0.02727267	      0.03178205	      0.06511665
      3.26666667	      0.02744682	      0.03188336	      0.06558099
      3.28333333	      0.02746345	      0.03189302	      0.06366927
      3.30000000	      0.02745034	      0.03188541	      0.06284186
      3.31666667	      0.02748988	      0.03190837	      0.06269919
      3.33333333	      0.02765125	      0.03200188	      0.06282711
      3.35000000	      0.02803337	      0.03222224	      0.06475107
      3.36666667	      0.02845830	      0.03246554	      0.06563037
      3.38333333	      0.02866187	      0.03258145	      0.06648541
      3.40000000	      0.02846487	      0.03246928	      0.06650851
      3.41666667	      0.02789619	      0.03214331	      0.06582521
      3.43333333	      0.02717660	      0.03172603	      0.06495255
      3.45000000	      0.02652387	      0.03134271	      0.06454860
      3.46666667	      0.02604283	      0.03105719	      0.06452216
      3.48333333	      0.02580790	      0.03091680	      0.06494526
      3.50000000	      0.02580058	      0.03091241	      0.06544159
      3.51666667	      0.02590143	      0.03097276	      0.06641882
      3.53333333	      0.02528617	      0.03060269	      0.05879343
      3.55000000	      0.02473708	      0.03026860	      0.05816580
      3.56666667	      0.02394632	      0.02978088	      0.05619692
      3.58333333	      0.02319444	      0.02930961	      0.05454107
      3.60000000	      0.02266553	      0.02897350	      0.05668430
      3.61666667	      0.02235749	      0.02877595	      0.05846384
      3.63333333	      0.02232569	      0.02875548	      0.06021466
      3.65000000	      0.02261349	      0.02894023	      0.06156376
      3.66666667	      0.02321955	      0.02932547	      0.06240147
      3.68333333	      0.02403202	      0.02983412	      0.06316517
      3.70000000	      0.02489553	      0.03036539	      0.06389723
      3.71666667	      0.02557997	      0.03077996	      0.06470667
      3.73333333	      0.02607992	      0.03107930	      0.06558428
      3.75000000	      0.02635842	      0.03124480	      0.06635226
      3.76666667	      0.02646646	      0.03130877	      0.06688163
      3.78333333	      0.02649951	      0.03132831	      0.06702817
      3.80000000	      0.02649203	      0.03132390	      0.06699863
      3.81666667	      0.02649392	      0.03132501	      0.06674971
      3.83333333	      0.02669802	      0.03144544	      0.06651941
      3.85000000	      0.02707674	      0.03166769	      0.06609596
      3.86666667	      0.02748964	      0.03190822	      0.06527764
      3.88333333	      0.02778958	      0.03208183	      0.06414099
      3.90000000	      0.02794032	      0.03216872	      0.06287545
      3.91666667	      0.02811599	      0.03226969	      0.06151733
      3.93333333	      0.02845922	      0.03246606	      0.05996812
      3.95000000	      0.02895574	      0.03274805	      0.05818518
      3.96666667	      0.02953551	      0.03307428	      0.05872157
      3.98333333	      0.03000904	      0.03333835	      0.05901114
      4.00000000	      0.03018262	      0.03343463	      0.05929615
      4.01666667	      0.02994201	      0.03330110	      0.05891526
      4.03333333	      0.02954856	      0.03308158	      0.05906853
      4.05000000	      0.02907331	      0.03281447	      0.05883335
      4.06666667	      0.02861179	      0.03255297	      0.05849381
      4.08333333	      0.02809182	      0.03225582	      0.05806906
      4.10000000	      0.02739111	      0.03185099	      0.05774608
      4.11666667	      0.02674463	      0.03147287	      0.05782158
      4.13333333	      0.02622164	      0.03116363	      0.05688917
      4.15000000	      0.02582401	      0.03092644	      0.05590405
      4.16666667	      0.02502940	      0.03044692	      0.06048910
      4.18333333	      0.02468099	      0.03023426	      0.05923893
      4.20000000	      0.02436607	      0.03004075	      0.05816530
      4.21666667	      0.02408033	      0.02986410	      0.05697923
      4.23333333	      0.02383345	      0.02971061	      0.05569689
      4.25000000	      0.02355514	      0.02953663	      0.05458793
      4.26666667	      0.02322268	      0.02932745	      0.05303321
      4.28333333	      0.02292316	      0.02913771	      0.05249140
      4.30000000	      0.02262632	      0.02894843	      0.05085203
      4.31666667	      0.02259265	      0.02892688	      0.05079881
      4.33333333	      0.02278083	      0.02904711	      0.05068207
      4.35000000	      0.02321844	      0.02932477	      0.05086946
      4.36666667	      0.02370105	      0.02962797	      0.05115784
      4.38333333	      0.02385181	      0.02972205	      0.05085678
      4.40000000	      0.02352869	      0.02952004	      0.05046677
      4.41666667	      0.02278961	      0.02905270	      0.04968545
      4.43333333	      0.02194558	      0.02850963	      0.04857690
      4.45000000	      0.02135981	      0.02812658	      0.04836825
      4.46666667	      0.02114833	      0.02798698	      0.04841781
      4.48333333	      0.02134324	      0.02811566	      0.04914435
      4.50000000	      0.02192711	      0.02849764	      0.04974392
      4.51666667	      0.02276070	      0.02903427	      0.05035351
      4.53333333	      0.02350412	      0.02950462	      0.05242307
      4.55000000	      0.02398328	      0.02980385	      0.05262381
      4.56666667	      0.02408321	      0.02986588	      0.05362597
      4.58333333	      0.02383701	      0.02971283	      0.05306660
      4.60000000	      0.02349440	      0.02949853	      0.05281351
      4.61666667	      0.02326101	      0.02935164	      0.05233025
      4.63333333	      0.02328121	      0.02936439	      0.05196084
      4.65000000	      0.02358457	      0.02955508	      0.05220133
      4.66666667	      0.02414779	      0.02990590	      0.05169048
      4.68333333	      0.02482183	      0.03032041	      0.05274331
      4.70000000	      0.02559923	      0.03079155	      0.05157840
      4.71666667	      0.02619729	      0.03114916	      0.05112767
      4.73333333	      0.02636935	      0.03125128	      0.05038516
      4.75000000	      0.02603363	      0.03105171	      0.05037644
      4.76666667	      0.02527850	      0.03059805	      0.04972495
      4.78333333	      0.02418517	      0.02992904	      0.04834880
      4.80000000	      0.02303242	      0.02920706	      0.04700362
      4.81666667	      0.02203397	      0.02856699	      0.04586132
      4.83333333	      0.02130239	      0.02808874	      0.04504241
      4.85000000	      0.02080457	      0.02775859	      0.04482159
      4.86666667	      0.02048524	      0.02754474	      0.04516487
      4.88333333	      0.02027691	      0.02740432	      0.04620220
      4.90000000	      0.02010384	      0.02728712	      0.04705121
      4.91666667	      0.01986275	      0.02712300	      0.04454474
      4.93333333	      0.01987613	      0.02713214	      0.04523059
      4.95000000	      0.01979959	      0.02707985	      0.04494307
      4.96666667	      0.01947362	      0.02685601	      0.04547275
      4.98333333	      0.01874554	      0.02634918	      0.04555701
      5.00000000	      0.01785669	      0.02571690	      0.04507491
      5.01666667	      0.01698877	      0.02508413	      0.04403160
      5.03333333	      0.01662654	      0.02481527	      0.04458458
      5.05000000	      0.01656222	      0.02476723	      0.04539564
      5.06666667	      0.01692772	      0.02503902	      0.04711518
      5.08333333	      0.01748377	      0.02544695	      0.04726599
      5.10000000	      0.01815022	      0.02592741	      0.04936635
      5.11666667	      0.01876192	      0.02636069	      0.04913783
      5.13333333	      0.01928434	      0.02672517	      0.04779327
      5.15000000	      0.01981079	      0.02708751	      0.04448853
      5.16666667	      0.02008471	      0.02727413	      0.04078221
      5.18333333	      0.01903847	      0.02655426	      0.03986613
      5.20000000	      0.01655914	      0.02476493	      0.03678039
      5.21666667	      0.01486450	      0.02346353	      0.03618755
      5.23333333	      0.01568255	      0.02410052	      0.03561967
      5.25000000	      0.01711223	      0.02517511	      0.03481816
      5.26666667	      0.01819851	      0.02596187	      0.03633901
      5.28333333	      0.01833419	      0.02605847	      0.03925147
      5.30000000	      0.01760419	      0.02553443	      0.04120489
      5.31666667	      0.01695021	      0.02505565	      0.03447805
      5.33333333	      0.01860518	      0.02625035	      0.05383924
      5.35000000	      0.02214132	      0.02863649	      0.06679238
      5.36666667	      0.02448435	      0.03011358	      0.06782552
      5.38333333	      0.02386967	      0.02973318	      0.05905861
      5.40000000	      0.02162937	      0.02830349	      0.04945080
      5.41666667	      0.01963383	      0.02696625	      0.04807210
      5.43333333	      0.01841266	      0.02611418	      0.04586898
      5.45000000	      0.01774966	      0.02563971	      0.04348400
      5.46666667	      0.01747511	      0.02544064	      0.04197840
      5.48333333	      0.01746656	      0.02543442	      0.04316409
      5.50000000	      0.01766459	      0.02557820	      0.04366045
      5.51666667	      0.01811972	      0.02590561	      0.04376308
      5.53333333	      0.01881981	      0.02640133	      0.04498830
      5.55000000	      0.01967010	      0.02699115	      0.04662305
      5.56666667	      0.02058892	      0.02761435	      0.04760934
      5.58333333	      0.02140279	      0.02815485	      0.05487249
      5.60000000	      0.02194867	      0.02851164	      0.06052886
      5.61666667	      0.02207103	      0.02859100	      0.06353183
      5.63333333	      0.02183223	      0.02843592	      0.06396353
      5.65000000	      0.02122872	      0.02804013	      0.06216390
      5.66666667	      0.02066409	      0.02766472	      0.05937226
      5.68333333	      0.02014818	      0.02731719	      0.05667453
      5.70000000	      0.01963605	      0.02696778	      0.05470074
      5.71666667	      0.01914063	      0.02662541	      0.05342344
      5.73333333	      0.01870953	      0.02632386	      0.05251621
      5.75000000	      0.01826778	      0.02601124	      0.05221381
      5.76666667	      0.01795636	      0.02578857	      0.05193233
      5.78333333	      0.01787137	      0.02572747	      0.05202215
      5.80000000	      0.01815769	      0.02593274	      0.05312349
      5.81666667	      0.01917607	      0.02665005	      0.05620755
