Model Marker Errors from IK
version=1
nRows=242
nColumns=4
inDegrees=no
endheader
time	total_squared_error	marker_error_RMS	marker_error_max
      0.00000000	      0.01936455	      0.02678070	      0.05955392
      0.02000000	      0.01976468	      0.02705596	      0.05943604
      0.04000000	      0.02003085	      0.02723754	      0.05950135
      0.06000000	      0.01994659	      0.02718019	      0.05916524
      0.08000000	      0.01962164	      0.02695788	      0.05880901
      0.10000000	      0.01913399	      0.02662079	      0.05837576
      0.12000000	      0.01857225	      0.02622710	      0.05802764
      0.14000000	      0.01813297	      0.02591508	      0.05836526
      0.16000000	      0.01786049	      0.02571964	      0.05792279
      0.18000000	      0.01773649	      0.02563020	      0.05804013
      0.20000000	      0.01766702	      0.02557995	      0.05806527
      0.22000000	      0.01749146	      0.02545254	      0.05756448
      0.24000000	      0.01735680	      0.02535438	      0.05744076
      0.26000000	      0.01728960	      0.02530525	      0.05713841
      0.28000000	      0.01745824	      0.02542836	      0.05753375
      0.30000000	      0.01768649	      0.02559405	      0.05808850
      0.32000000	      0.01785090	      0.02571273	      0.05842124
      0.34000000	      0.01797899	      0.02580482	      0.05837743
      0.36000000	      0.01823012	      0.02598441	      0.05776242
      0.38000000	      0.01859334	      0.02624199	      0.05719185
      0.40000000	      0.01922893	      0.02668675	      0.05688907
      0.42000000	      0.02000452	      0.02721963	      0.05595543
      0.44000000	      0.02099293	      0.02788397	      0.05570607
      0.46000000	      0.02199743	      0.02854329	      0.05536416
      0.48000000	      0.02293459	      0.02914497	      0.05489938
      0.50000000	      0.02365248	      0.02959760	      0.05802429
      0.52000000	      0.02384163	      0.02971571	      0.05963174
      0.54000000	      0.02351107	      0.02950899	      0.05970100
      0.56000000	      0.02298301	      0.02917572	      0.05824796
      0.58000000	      0.02255011	      0.02889964	      0.05531462
      0.60000000	      0.02210393	      0.02861231	      0.05120711
      0.62000000	      0.02132114	      0.02810110	      0.05053395
      0.64000000	      0.02030837	      0.02742557	      0.04976412
      0.66000000	      0.01963780	      0.02696898	      0.05019189
      0.68000000	      0.01964908	      0.02697673	      0.05539580
      0.70000000	      0.02021965	      0.02736559	      0.05724985
      0.72000000	      0.02119337	      0.02801678	      0.05553553
      0.74000000	      0.02243510	      0.02882585	      0.05311059
      0.76000000	      0.02346997	      0.02948318	      0.05527578
      0.78000000	      0.02377636	      0.02967500	      0.05365651
      0.80000000	      0.02342425	      0.02945445	      0.04950782
      0.82000000	      0.02202794	      0.02856308	      0.04690326
      0.84000000	      0.02142874	      0.02817192	      0.04667978
      0.86000000	      0.02118349	      0.02801025	      0.05058530
      0.88000000	      0.02105751	      0.02792683	      0.05332965
      0.90000000	      0.02078763	      0.02774729	      0.05466379
      0.92000000	      0.02047057	      0.02753488	      0.05566653
      0.94000000	      0.02020219	      0.02735378	      0.05702409
      0.96000000	      0.02007495	      0.02726750	      0.05824749
      0.98000000	      0.02042426	      0.02750371	      0.05846774
      1.00000000	      0.02155182	      0.02825271	      0.05768170
      1.02000000	      0.02346138	      0.02947779	      0.05765002
      1.04000000	      0.02559257	      0.03078755	      0.05922782
      1.06000000	      0.02734115	      0.03182193	      0.06241969
      1.08000000	      0.02817341	      0.03230263	      0.06462587
      1.10000000	      0.02816115	      0.03229560	      0.06494360
      1.12000000	      0.02737943	      0.03184420	      0.06406351
      1.14000000	      0.02590778	      0.03097656	      0.06225839
      1.16000000	      0.02417336	      0.02992173	      0.06024118
      1.18000000	      0.02267985	      0.02898266	      0.05877829
      1.20000000	      0.02171960	      0.02836247	      0.05768003
      1.22000000	      0.02158504	      0.02827447	      0.05710309
      1.24000000	      0.02206786	      0.02858895	      0.05621131
      1.26000000	      0.02288814	      0.02911544	      0.05585257
      1.28000000	      0.02387801	      0.02973837	      0.05576079
      1.30000000	      0.02516221	      0.03052759	      0.05712830
      1.32000000	      0.02694594	      0.03159110	      0.06218818
      1.34000000	      0.02895473	      0.03274748	      0.06667540
      1.36000000	      0.03103872	      0.03390549	      0.07065538
      1.38000000	      0.03351353	      0.03523126	      0.07619397
      1.40000000	      0.03691143	      0.03697418	      0.08400109
      1.42000000	      0.04018306	      0.03857799	      0.08962760
      1.44000000	      0.04084889	      0.03889630	      0.08688425
      1.46000000	      0.03756985	      0.03730249	      0.07378658
      1.48000000	      0.03212191	      0.03449203	      0.05756809
      1.50000000	      0.02827796	      0.03236251	      0.05381605
      1.52000000	      0.02809245	      0.03225618	      0.05620806
      1.54000000	      0.03016463	      0.03342467	      0.06189765
      1.56000000	      0.03201883	      0.03443665	      0.06461044
      1.58000000	      0.03265423	      0.03477666	      0.06332983
      1.60000000	      0.03298332	      0.03495146	      0.06425083
      1.62000000	      0.03414518	      0.03556172	      0.06419817
      1.64000000	      0.03464680	      0.03582199	      0.06369434
      1.66000000	      0.03278471	      0.03484607	      0.06316819
      1.68000000	      0.02916007	      0.03286339	      0.06263955
      1.70000000	      0.02642213	      0.03128254	      0.06256840
      1.72000000	      0.02573857	      0.03087524	      0.06344245
      1.74000000	      0.02587862	      0.03095913	      0.06554212
      1.76000000	      0.02576469	      0.03089090	      0.06863293
      1.78000000	      0.02638777	      0.03126219	      0.07253653
      1.80000000	      0.02764789	      0.03199993	      0.07593693
      1.82000000	      0.02916737	      0.03286750	      0.07961385
      1.84000000	      0.02901412	      0.03278105	      0.08189530
      1.86000000	      0.02941719	      0.03300796	      0.08365559
      1.88000000	      0.02934613	      0.03296807	      0.08442094
      1.90000000	      0.02909536	      0.03282691	      0.08457867
      1.92000000	      0.02899461	      0.03277002	      0.08383013
      1.94000000	      0.02908897	      0.03282330	      0.08218314
      1.96000000	      0.02915527	      0.03286069	      0.07995860
      1.98000000	      0.02901590	      0.03278205	      0.07647753
      2.00000000	      0.02848647	      0.03248160	      0.07247343
      2.02000000	      0.02755405	      0.03194559	      0.06705537
      2.04000000	      0.02623100	      0.03116919	      0.06131827
      2.06000000	      0.02477405	      0.03029121	      0.05589023
      2.08000000	      0.02330119	      0.02937698	      0.05217003
      2.10000000	      0.02223528	      0.02869720	      0.05091058
      2.12000000	      0.02131866	      0.02809946	      0.04931022
      2.14000000	      0.02065226	      0.02765680	      0.04703302
      2.16000000	      0.02020450	      0.02735535	      0.04563001
      2.18000000	      0.01986632	      0.02712544	      0.04508493
      2.20000000	      0.01981563	      0.02709081	      0.04469335
      2.22000000	      0.02006153	      0.02725839	      0.04462655
      2.24000000	      0.02092142	      0.02783644	      0.04662166
      2.26000000	      0.02190575	      0.02848375	      0.04710576
      2.28000000	      0.02319863	      0.02931226	      0.05178639
      2.30000000	      0.02409917	      0.02987577	      0.05574295
      2.32000000	      0.02427235	      0.02998292	      0.05961334
      2.34000000	      0.02374822	      0.02965744	      0.06165191
      2.36000000	      0.02305690	      0.02922258	      0.06179332
      2.38000000	      0.02258570	      0.02892244	      0.05983770
      2.40000000	      0.02247890	      0.02885397	      0.05686168
      2.42000000	      0.02263199	      0.02895206	      0.05463477
      2.44000000	      0.02292016	      0.02913580	      0.05355945
      2.46000000	      0.02316231	      0.02928930	      0.05327064
      2.48000000	      0.02348129	      0.02949029	      0.05445868
      2.50000000	      0.02380260	      0.02969138	      0.05639859
      2.52000000	      0.02403509	      0.02983603	      0.05860738
      2.54000000	      0.02416294	      0.02991527	      0.05966369
      2.56000000	      0.02421265	      0.02994603	      0.05876776
      2.58000000	      0.02434002	      0.03002469	      0.05839703
      2.60000000	      0.02452669	      0.03013961	      0.05765443
      2.62000000	      0.02469467	      0.03024264	      0.05713999
      2.64000000	      0.02472380	      0.03026047	      0.05667191
      2.66000000	      0.02425754	      0.02997378	      0.05629176
      2.68000000	      0.02327469	      0.02936027	      0.05510657
      2.70000000	      0.02186496	      0.02845722	      0.05389369
      2.72000000	      0.02053383	      0.02757738	      0.05165676
      2.74000000	      0.01951793	      0.02688655	      0.05046452
      2.76000000	      0.01870822	      0.02632293	      0.05024971
      2.78000000	      0.01801564	      0.02583110	      0.04925211
      2.80000000	      0.01753240	      0.02548231	      0.04774481
      2.82000000	      0.01752636	      0.02547792	      0.04805369
      2.84000000	      0.01820095	      0.02596362	      0.04777985
      2.86000000	      0.01952985	      0.02689475	      0.04668730
      2.88000000	      0.02119918	      0.02802061	      0.04987687
      2.90000000	      0.02284965	      0.02909095	      0.05832202
      2.92000000	      0.02441127	      0.03006861	      0.06529421
      2.94000000	      0.02577572	      0.03089751	      0.07033435
      2.96000000	      0.02612467	      0.03110595	      0.07124066
      2.98000000	      0.02527631	      0.03059672	      0.06698826
      3.00000000	      0.02386135	      0.02972800	      0.05857663
      3.02000000	      0.02306458	      0.02922745	      0.05612791
      3.04000000	      0.02354549	      0.02953058	      0.05651061
      3.06000000	      0.02570409	      0.03085455	      0.05886640
      3.08000000	      0.02790941	      0.03215092	      0.05939333
      3.10000000	      0.03033126	      0.03351686	      0.06078739
      3.12000000	      0.03194156	      0.03439507	      0.06220236
      3.14000000	      0.03274321	      0.03482401	      0.06478153
      3.16000000	      0.03364199	      0.03529872	      0.06584173
      3.18000000	      0.03546486	      0.03624243	      0.06867222
      3.20000000	      0.03829488	      0.03766071	      0.07401960
      3.22000000	      0.04145807	      0.03918525	      0.08160898
      3.24000000	      0.04384642	      0.04029816	      0.08732828
      3.26000000	      0.04465089	      0.04066616	      0.08850920
      3.28000000	      0.04404649	      0.04038999	      0.08561245
      3.30000000	      0.04271621	      0.03977539	      0.08082430
      3.32000000	      0.04160868	      0.03925636	      0.07665459
      3.34000000	      0.04101820	      0.03897682	      0.07350243
      3.36000000	      0.04084684	      0.03889532	      0.07272578
      3.38000000	      0.04120221	      0.03906415	      0.07354669
      3.40000000	      0.04203263	      0.03945585	      0.07505845
      3.42000000	      0.04330764	      0.04004980	      0.07712481
      3.44000000	      0.04424575	      0.04048125	      0.08057946
      3.46000000	      0.04446454	      0.04058121	      0.08353495
      3.48000000	      0.04395565	      0.04034832	      0.08709256
      3.50000000	      0.04294576	      0.03988212	      0.09089552
      3.52000000	      0.04148514	      0.03919805	      0.09330581
      3.54000000	      0.03940829	      0.03820427	      0.09162966
      3.56000000	      0.03671997	      0.03687816	      0.08543322
      3.58000000	      0.03406579	      0.03552036	      0.07661080
      3.60000000	      0.03209691	      0.03447861	      0.06750080
      3.62000000	      0.03095268	      0.03385846	      0.06044895
      3.64000000	      0.03028685	      0.03349232	      0.05561838
      3.66000000	      0.03026833	      0.03348207	      0.05613495
      3.68000000	      0.03090175	      0.03383060	      0.05861883
      3.70000000	      0.03187079	      0.03435694	      0.06110787
      3.72000000	      0.03279584	      0.03485199	      0.06244838
      3.74000000	      0.03330969	      0.03512395	      0.06193973
      3.76000000	      0.03283172	      0.03487104	      0.06212343
      3.78000000	      0.03208039	      0.03446974	      0.06075020
      3.80000000	      0.03121728	      0.03400288	      0.05670424
      3.82000000	      0.03035488	      0.03352991	      0.05857498
      3.84000000	      0.02974205	      0.03318972	      0.06443724
      3.86000000	      0.02973768	      0.03318728	      0.07160716
      3.88000000	      0.02912472	      0.03284347	      0.06286574
      3.90000000	      0.02844156	      0.03245599	      0.06402664
      3.92000000	      0.02727460	      0.03178318	      0.06279951
      3.94000000	      0.02596982	      0.03101363	      0.05998497
      3.96000000	      0.02473200	      0.03026549	      0.05835313
      3.98000000	      0.02358698	      0.02955659	      0.05711011
      4.00000000	      0.02261369	      0.02894036	      0.05617016
      4.02000000	      0.02183243	      0.02843604	      0.05569895
      4.04000000	      0.02128631	      0.02807814	      0.05546171
      4.06000000	      0.02099325	      0.02788418	      0.05487213
      4.08000000	      0.02091335	      0.02783107	      0.05548952
      4.10000000	      0.02089214	      0.02781695	      0.05443113
      4.12000000	      0.02084587	      0.02778613	      0.05469658
      4.14000000	      0.02079091	      0.02774948	      0.05440683
      4.16000000	      0.02045420	      0.02752386	      0.05447190
      4.18000000	      0.02040415	      0.02749017	      0.05426197
      4.20000000	      0.02038736	      0.02747886	      0.05390962
      4.22000000	      0.02039808	      0.02748607	      0.05398540
      4.24000000	      0.02038006	      0.02747394	      0.05407538
      4.26000000	      0.02039459	      0.02748373	      0.05385923
      4.28000000	      0.02041598	      0.02749814	      0.05375734
      4.30000000	      0.02051247	      0.02756304	      0.05334331
      4.32000000	      0.02076515	      0.02773229	      0.05318793
      4.34000000	      0.02114984	      0.02798798	      0.05289090
      4.36000000	      0.02150934	      0.02822485	      0.05274453
      4.38000000	      0.02163848	      0.02830945	      0.05280696
      4.40000000	      0.02142637	      0.02817036	      0.05240447
      4.42000000	      0.02099401	      0.02788469	      0.05230311
      4.44000000	      0.02056891	      0.02760094	      0.05221233
      4.46000000	      0.02017207	      0.02733338	      0.05187196
      4.48000000	      0.01986767	      0.02712636	      0.05165852
      4.50000000	      0.01963220	      0.02696513	      0.05134484
      4.52000000	      0.01960496	      0.02694642	      0.05085127
      4.54000000	      0.01981459	      0.02709010	      0.05041241
      4.56000000	      0.02041429	      0.02749699	      0.05041895
      4.58000000	      0.02113326	      0.02797702	      0.05001196
      4.60000000	      0.02196226	      0.02852047	      0.04987519
      4.62000000	      0.02277507	      0.02904344	      0.05027131
      4.64000000	      0.02369247	      0.02962261	      0.05066627
      4.66000000	      0.02461929	      0.03019645	      0.05138230
      4.68000000	      0.02543018	      0.03068971	      0.05260241
      4.70000000	      0.02605364	      0.03106364	      0.05453184
      4.72000000	      0.02669061	      0.03144108	      0.05718110
      4.74000000	      0.02757853	      0.03195977	      0.05972837
      4.76000000	      0.02867659	      0.03258982	      0.06230403
      4.78000000	      0.02995492	      0.03330828	      0.06324057
      4.80000000	      0.03177311	      0.03430426	      0.06441626
      4.82000000	      0.03508574	      0.03604819	      0.06308070
