Model Marker Errors from IK
version=1
nRows=626
nColumns=4
inDegrees=no
endheader
time	total_squared_error	marker_error_RMS	marker_error_max
      0.00000000	      0.02105832	      0.02792736	      0.04409124
      0.01694915	      0.01906527	      0.02657294	      0.04320281
      0.03389831	      0.01811323	      0.02590097	      0.04321808
      0.05084746	      0.01789846	      0.02574696	      0.04305921
      0.06779661	      0.01810405	      0.02589441	      0.04305043
      0.08474576	      0.01864135	      0.02627585	      0.04283205
      0.10169492	      0.01941961	      0.02681874	      0.04294810
      0.11864407	      0.02034326	      0.02744912	      0.04310340
      0.13559322	      0.02109292	      0.02795030	      0.04422819
      0.15254237	      0.02163385	      0.02830643	      0.04585227
      0.16949153	      0.02195064	      0.02851292	      0.04648591
      0.18644068	      0.02224225	      0.02870169	      0.04664878
      0.20338983	      0.02252917	      0.02888622	      0.04632709
      0.22033898	      0.02293083	      0.02914258	      0.04691892
      0.23728814	      0.02377578	      0.02967464	      0.04731619
      0.25423729	      0.02492752	      0.03038489	      0.04914395
      0.27118644	      0.02628461	      0.03120103	      0.05109420
      0.28813559	      0.02759886	      0.03197155	      0.05330598
      0.30508475	      0.02867771	      0.03259045	      0.05570282
      0.32203390	      0.02949834	      0.03305346	      0.05790251
      0.33898305	      0.03001315	      0.03334064	      0.05993759
      0.35593220	      0.03014625	      0.03341449	      0.06151358
      0.37288136	      0.02989967	      0.03327755	      0.06269223
      0.38983051	      0.02953044	      0.03307144	      0.06361669
      0.40677966	      0.02913224	      0.03284770	      0.06413002
      0.42372881	      0.02899825	      0.03277208	      0.06465888
      0.44067797	      0.02910153	      0.03283039	      0.06526560
      0.45762712	      0.02928312	      0.03293266	      0.06580254
      0.47457627	      0.02943282	      0.03301673	      0.06611959
      0.49152542	      0.02951354	      0.03306197	      0.06603284
      0.50847458	      0.02957107	      0.03309418	      0.06575422
      0.52542373	      0.02963785	      0.03313153	      0.06524655
      0.54237288	      0.02965493	      0.03314107	      0.06440435
      0.55932203	      0.02951343	      0.03306191	      0.06343935
      0.57627119	      0.02935873	      0.03297515	      0.06189242
      0.59322034	      0.02920268	      0.03288740	      0.06087984
      0.61016949	      0.02908314	      0.03282002	      0.06027340
      0.62711864	      0.02886114	      0.03269451	      0.05934110
      0.64406780	      0.02842393	      0.03244593	      0.05810970
      0.66101695	      0.02776422	      0.03206719	      0.05626977
      0.67796610	      0.02727732	      0.03178476	      0.05399023
      0.69491525	      0.02704371	      0.03164836	      0.05212982
      0.71186441	      0.02709305	      0.03167722	      0.05100590
      0.72881356	      0.02736460	      0.03183558	      0.05122170
      0.74576271	      0.02765223	      0.03200245	      0.05232189
      0.76271186	      0.02789141	      0.03214056	      0.05292918
      0.77966102	      0.02803797	      0.03222489	      0.05439869
      0.79661017	      0.02820774	      0.03232230	      0.05544589
      0.81355932	      0.02823165	      0.03233600	      0.05637019
      0.83050847	      0.02822616	      0.03233286	      0.05579470
      0.84745763	      0.02803643	      0.03222400	      0.05608918
      0.86440678	      0.02770965	      0.03203566	      0.05811952
      0.88135593	      0.02479371	      0.03030323	      0.05218056
      0.89830508	      0.02438811	      0.03005434	      0.05214867
      0.91525424	      0.02423475	      0.02995970	      0.05276320
      0.93220339	      0.02415246	      0.02990879	      0.05129040
      0.94915254	      0.02428735	      0.02999219	      0.05165668
      0.96610169	      0.02445038	      0.03009268	      0.05205209
      0.98305085	      0.02458272	      0.03017401	      0.05226378
      1.00000000	      0.02471788	      0.03025685	      0.05247162
      1.01694915	      0.02487190	      0.03035097	      0.05262938
      1.03389831	      0.02504749	      0.03045792	      0.05369157
      1.05084746	      0.02517067	      0.03053272	      0.05579624
      1.06779661	      0.02518281	      0.03054009	      0.05820502
      1.08474576	      0.02520461	      0.03055330	      0.06135974
      1.10169492	      0.02536523	      0.03065050	      0.06488358
      1.11864407	      0.02590486	      0.03097482	      0.06796664
      1.13559322	      0.02706301	      0.03165966	      0.06913488
      1.15254237	      0.02897342	      0.03275805	      0.07045735
      1.16949153	      0.03170104	      0.03426533	      0.08032213
      1.18644068	      0.03556129	      0.03629166	      0.09199254
      1.20338983	      0.04118221	      0.03905467	      0.10457126
      1.22033898	      0.04967085	      0.04289127	      0.11609414
      1.23728814	      0.06107197	      0.04755970	      0.12500319
      1.25423729	      0.07477703	      0.05262623	      0.13059952
      1.27118644	      0.09014237	      0.05778068	      0.13414882
      1.28813559	      0.10648989	      0.06280183	      0.13947592
      1.30508475	      0.12290792	      0.06746959	      0.15896824
      1.32203390	      0.13849507	      0.07162016	      0.17780070
      1.33898305	      0.15280935	      0.07523035	      0.19435492
      1.35593220	      0.16585437	      0.07837573	      0.20812568
      1.37288136	      0.17755824	      0.08109397	      0.21849673
      1.38983051	      0.18751915	      0.08333759	      0.22629841
      1.40677966	      0.19544622	      0.08508084	      0.23221616
      1.42372881	      0.20145366	      0.08637851	      0.23645387
      1.44067797	      0.20558755	      0.08726026	      0.23900879
      1.45762712	      0.20730960	      0.08762496	      0.24030316
      1.47457627	      0.20636942	      0.08742604	      0.23987233
      1.49152542	      0.20332097	      0.08677791	      0.23761579
      1.50847458	      0.19906567	      0.08586502	      0.23398424
      1.52542373	      0.19429410	      0.08482970	      0.22932764
      1.54237288	      0.18921919	      0.08371450	      0.22374473
      1.55932203	      0.18385154	      0.08251858	      0.21789974
      1.57627119	      0.17832071	      0.08126790	      0.21227679
      1.59322034	      0.17287004	      0.08001621	      0.20746620
      1.61016949	      0.16770498	      0.07881177	      0.20377497
      1.62711864	      0.16286284	      0.07766567	      0.20106664
      1.64406780	      0.15835534	      0.07658337	      0.19929257
      1.66101695	      0.15432626	      0.07560283	      0.19811644
      1.67796610	      0.15085878	      0.07474866	      0.19708799
      1.69491525	      0.14800637	      0.07403862	      0.19602502
      1.71186441	      0.14571165	      0.07346242	      0.19521594
      1.72881356	      0.14396043	      0.07301964	      0.19439581
      1.74576271	      0.14285708	      0.07273928	      0.19416435
      1.76271186	      0.14257933	      0.07266853	      0.19464208
      1.77966102	      0.14310412	      0.07280215	      0.19570665
      1.79661017	      0.14412110	      0.07306038	      0.19706561
      1.81355932	      0.14507199	      0.07330100	      0.19819302
      1.83050847	      0.14536405	      0.07337475	      0.19853805
      1.84745763	      0.14478518	      0.07322851	      0.19789658
      1.86440678	      0.14350730	      0.07290463	      0.19630705
      1.88135593	      0.14188671	      0.07249181	      0.19459191
      1.89830508	      0.14034854	      0.07209781	      0.19280740
      1.91525424	      0.13909713	      0.07177566	      0.19130423
      1.93220339	      0.13818035	      0.07153874	      0.19047245
      1.94915254	      0.13756969	      0.07138048	      0.19074341
      1.96610169	      0.13729056	      0.07130803	      0.19085393
      1.98305085	      0.13719629	      0.07128355	      0.19108336
      2.00000000	      0.13714570	      0.07127040	      0.19154536
      2.01694915	      0.13723889	      0.07129461	      0.19165668
      2.03389831	      0.13750662	      0.07136412	      0.19168015
      2.05084746	      0.13784949	      0.07145304	      0.19171419
      2.06779661	      0.13808187	      0.07151324	      0.19184429
      2.08474576	      0.13805540	      0.07150638	      0.19195081
      2.10169492	      0.13778175	      0.07143548	      0.19169522
      2.11864407	      0.13755317	      0.07137620	      0.19131830
      2.13559322	      0.13761467	      0.07139215	      0.19051476
      2.15254237	      0.13796061	      0.07148183	      0.18930295
      2.16949153	      0.13821382	      0.07154740	      0.18747173
      2.18644068	      0.13771328	      0.07141773	      0.18448891
      2.20338983	      0.13583081	      0.07092793	      0.17969369
      2.22033898	      0.13254919	      0.07006589	      0.17308512
      2.23728814	      0.12837544	      0.06895394	      0.16552704
      2.25423729	      0.12404558	      0.06778113	      0.15792514
      2.27118644	      0.11994802	      0.06665223	      0.15075865
      2.28813559	      0.11589703	      0.06551704	      0.14361021
      2.30508475	      0.11154200	      0.06427430	      0.13662166
      2.32203390	      0.10627225	      0.06273762	      0.13273644
      2.33898305	      0.09928707	      0.06064074	      0.12943995
      2.35593220	      0.09005333	      0.05775213	      0.12365127
      2.37288136	      0.07889230	      0.05405495	      0.12024352
      2.38983051	      0.06732536	      0.04993528	      0.11712613
      2.40677966	      0.05751505	      0.04615395	      0.11352141
      2.42372881	      0.05094626	      0.04343845	      0.10994004
      2.44067797	      0.04721962	      0.04181955	      0.10774561
      2.45762712	      0.04395727	      0.04034907	      0.11869710
      2.47457627	      0.04371654	      0.04023843	      0.11284887
      2.49152542	      0.04413370	      0.04042996	      0.10786431
      2.50847458	      0.04419641	      0.04045867	      0.10449607
      2.52542373	      0.04335923	      0.04007365	      0.10292628
      2.54237288	      0.04181023	      0.03935133	      0.10211878
      2.55932203	      0.04030652	      0.03863721	      0.10125397
      2.57627119	      0.03950631	      0.03825175	      0.10178184
      2.59322034	      0.03997271	      0.03847689	      0.10354012
      2.61016949	      0.04183406	      0.03936254	      0.10602228
      2.62711864	      0.04461772	      0.04065105	      0.10833786
      2.64406780	      0.04759974	      0.04198754	      0.10997435
      2.66101695	      0.05027396	      0.04315088	      0.11088635
      2.67796610	      0.05247221	      0.04408418	      0.11163827
      2.69491525	      0.05434988	      0.04486601	      0.11281409
      2.71186441	      0.05606666	      0.04556910	      0.11442241
      2.72881356	      0.05736581	      0.04609403	      0.11577858
      2.74576271	      0.05782952	      0.04627995	      0.11671815
      2.76271186	      0.05719644	      0.04602594	      0.11523642
      2.77966102	      0.05629309	      0.04566103	      0.11329871
      2.79661017	      0.05572025	      0.04542811	      0.11161893
      2.81355932	      0.05594940	      0.04552143	      0.11177370
      2.83050847	      0.05737600	      0.04609812	      0.11397529
      2.84745763	      0.06068679	      0.04740948	      0.11814255
      2.86440678	      0.06665849	      0.04968735	      0.12308958
      2.88135593	      0.07561628	      0.05292072	      0.12831766
      2.89830508	      0.08712522	      0.05680546	      0.13418596
      2.91525424	      0.10015614	      0.06090556	      0.13967348
      2.93220339	      0.11452034	      0.06512675	      0.14667685
      2.94915254	      0.12968652	      0.06930515	      0.15494677
      2.96610169	      0.14374364	      0.07296464	      0.16788695
      2.98305085	      0.15400128	      0.07552318	      0.17842356
      3.00000000	      0.15903550	      0.07674766	      0.18266084
      3.01694915	      0.15879522	      0.07668966	      0.18187890
      3.03389831	      0.15396749	      0.07551490	      0.17376473
      3.05084746	      0.14456766	      0.07317348	      0.15882654
      3.06779661	      0.13142352	      0.06976774	      0.14863896
      3.08474576	      0.11590732	      0.06551995	      0.14275226
      3.10169492	      0.09976533	      0.06078661	      0.13758368
      3.11864407	      0.08463290	      0.05598707	      0.13240888
      3.13559322	      0.07170686	      0.05153455	      0.12695688
      3.15254237	      0.06171851	      0.04781078	      0.12172379
      3.16949153	      0.05513279	      0.04518800	      0.11764994
      3.18644068	      0.05198252	      0.04387799	      0.11520780
      3.20338983	      0.05183252	      0.04381464	      0.11437265
      3.22033898	      0.05387599	      0.04466998	      0.11552447
      3.23728814	      0.05727339	      0.04605689	      0.11773619
      3.25423729	      0.06145773	      0.04770967	      0.12111224
      3.27118644	      0.06610957	      0.04948235	      0.12555812
      3.28813559	      0.07145679	      0.05144461	      0.13042050
      3.30508475	      0.07818649	      0.05381260	      0.13559637
      3.32203390	      0.08714845	      0.05681303	      0.14007990
      3.33898305	      0.09795161	      0.06023153	      0.14335381
      3.35593220	      0.10809468	      0.06327327	      0.14194625
      3.37288136	      0.11577983	      0.06548391	      0.13946187
      3.38983051	      0.12063449	      0.06684268	      0.13769920
      3.40677966	      0.12374260	      0.06769830	      0.13939447
      3.42372881	      0.12625769	      0.06838283	      0.14510675
      3.44067797	      0.12873133	      0.06904945	      0.15325772
      3.45762712	      0.13199114	      0.06991824	      0.16063546
      3.47457627	      0.13727083	      0.07130291	      0.16443344
      3.49152542	      0.14342344	      0.07288333	      0.16322757
      3.50847458	      0.14676040	      0.07372632	      0.15774688
      3.52542373	      0.14386144	      0.07299453	      0.15058808
      3.54237288	      0.13386555	      0.07041295	      0.14447009
      3.55932203	      0.11889611	      0.06635932	      0.14049835
      3.57627119	      0.10248100	      0.06160838	      0.13796386
      3.59322034	      0.08774648	      0.05700763	      0.13571402
      3.61016949	      0.07622282	      0.05313254	      0.13327803
      3.62711864	      0.06834721	      0.05031280	      0.13081952
      3.64406780	      0.06434711	      0.04881830	      0.12872028
      3.66101695	      0.06396135	      0.04867175	      0.12776969
      3.67796610	      0.06633830	      0.04956787	      0.12772612
      3.69491525	      0.07052998	      0.05110990	      0.12928198
      3.71186441	      0.07544532	      0.05286087	      0.13153233
      3.72881356	      0.08018139	      0.05449478	      0.13542326
      3.74576271	      0.08440007	      0.05591000	      0.13909792
      3.76271186	      0.08874346	      0.05733058	      0.14245499
      3.77966102	      0.09317147	      0.05874347	      0.14422181
      3.79661017	      0.09672670	      0.05985374	      0.14481540
      3.81355932	      0.09881451	      0.06049625	      0.14482038
      3.83050847	      0.10071123	      0.06107410	      0.14514316
      3.84745763	      0.10499283	      0.06235883	      0.14707474
      3.86440678	      0.11290421	      0.06466558	      0.15131977
      3.88135593	      0.12296851	      0.06748622	      0.15758797
      3.89830508	      0.13235301	      0.07001402	      0.16410434
      3.91525424	      0.13916375	      0.07179285	      0.16837213
      3.93220339	      0.14251302	      0.07265164	      0.16845518
      3.94915254	      0.14170090	      0.07244433	      0.16436064
      3.96610169	      0.13688829	      0.07120349	      0.15780516
      3.98305085	      0.12879863	      0.06906750	      0.15107992
      4.00000000	      0.11815168	      0.06615125	      0.14558517
      4.01694915	      0.10681622	      0.06289798	      0.14155751
      4.03389831	      0.09671952	      0.05985152	      0.13869818
      4.05084746	      0.08734561	      0.05687726	      0.13686456
      4.06779661	      0.07766936	      0.05363434	      0.13591475
      4.08474576	      0.06901795	      0.05055908	      0.13536271
      4.10169492	      0.06348702	      0.04849094	      0.13519368
      4.11864407	      0.06167764	      0.04779495	      0.13562888
      4.13559322	      0.06272745	      0.04819999	      0.13657452
      4.15254237	      0.06561254	      0.04929598	      0.13772690
      4.16949153	      0.07045293	      0.05108197	      0.13866160
      4.18644068	      0.07798870	      0.05374449	      0.13885577
      4.20338983	      0.08754884	      0.05694339	      0.13850010
      4.22033898	      0.09674341	      0.05985891	      0.13858095
      4.23728814	      0.10351455	      0.06191827	      0.13882728
      4.25423729	      0.10753450	      0.06310911	      0.13930531
      4.27118644	      0.10988935	      0.06379636	      0.14002206
      4.28813559	      0.11234660	      0.06450570	      0.14127124
      4.30508475	      0.11569295	      0.06545933	      0.14371384
      4.32203390	      0.11962748	      0.06656311	      0.14820278
      4.33898305	      0.12393665	      0.06775136	      0.15487055
      4.35593220	      0.12879897	      0.06906759	      0.16265037
      4.37288136	      0.13409377	      0.07047294	      0.16940039
      4.38983051	      0.13956861	      0.07189720	      0.17311720
      4.40677966	      0.14460866	      0.07318385	      0.17273941
      4.42372881	      0.14784551	      0.07399838	      0.16838450
      4.44067797	      0.14760124	      0.07393722	      0.16119159
      4.45762712	      0.14294880	      0.07276263	      0.15348664
      4.47457627	      0.13360364	      0.07034403	      0.14773637
      4.49152542	      0.12044746	      0.06679085	      0.14482650
      4.50847458	      0.10537218	      0.06247138	      0.14365168
      4.52542373	      0.09092238	      0.05803013	      0.14220974
      4.54237288	      0.07903666	      0.05410438	      0.13932314
      4.55932203	      0.07018007	      0.05098296	      0.13501484
      4.57627119	      0.06375642	      0.04859371	      0.13030037
      4.59322034	      0.05921816	      0.04683231	      0.12708441
      4.61016949	      0.05669697	      0.04582453	      0.12592417
      4.62711864	      0.05664243	      0.04580248	      0.12716079
      4.64406780	      0.05931716	      0.04687144	      0.13039395
      4.66101695	      0.06464446	      0.04893096	      0.13505624
      4.67796610	      0.07242175	      0.05179080	      0.14033979
      4.69491525	      0.08254152	      0.05529099	      0.14553188
      4.71186441	      0.09471200	      0.05922712	      0.14975469
      4.72881356	      0.10767071	      0.06314906	      0.15225210
      4.74576271	      0.11934151	      0.06648350	      0.15320246
      4.76271186	      0.12857993	      0.06900884	      0.15384276
      4.77966102	      0.13568339	      0.07088943	      0.15496330
      4.79661017	      0.14121682	      0.07232048	      0.16672129
      4.81355932	      0.14527291	      0.07335174	      0.17390017
      4.83050847	      0.14782030	      0.07399207	      0.17656918
      4.84745763	      0.14899914	      0.07428652	      0.17667170
      4.86440678	      0.14945011	      0.07439885	      0.17614581
      4.88135593	      0.14969980	      0.07446098	      0.17677751
      4.89830508	      0.15005588	      0.07454948	      0.17842690
      4.91525424	      0.15081630	      0.07473814	      0.18012489
      4.93220339	      0.15205125	      0.07504351	      0.18120380
      4.94915254	      0.15317156	      0.07531946	      0.18109978
      4.96610169	      0.15274733	      0.07521508	      0.17961418
      4.98305085	      0.15008343	      0.07455632	      0.17991014
      5.00000000	      0.14595335	      0.07352333	      0.18211232
      5.01694915	      0.14172399	      0.07245024	      0.18327945
      5.03389831	      0.13807959	      0.07151265	      0.18400103
      5.05084746	      0.13533922	      0.07079946	      0.18393619
      5.06779661	      0.13359534	      0.07034185	      0.18288198
      5.08474576	      0.13276566	      0.07012308	      0.18105968
      5.10169492	      0.13258568	      0.07007554	      0.17935793
      5.11864407	      0.13269551	      0.07010455	      0.17879886
      5.13559322	      0.13293184	      0.07016695	      0.17966940
      5.15254237	      0.13334556	      0.07027606	      0.18138643
      5.16949153	      0.13400349	      0.07044922	      0.18302285
      5.18644068	      0.13479051	      0.07065579	      0.18346305
      5.20338983	      0.13553402	      0.07085039	      0.18286139
      5.22033898	      0.13610787	      0.07100023	      0.18165592
      5.23728814	      0.13638839	      0.07107336	      0.18000808
      5.25423729	      0.13623746	      0.07103402	      0.17789608
      5.27118644	      0.13546317	      0.07083187	      0.17543226
      5.28813559	      0.13396319	      0.07043862	      0.17327778
      5.30508475	      0.13195288	      0.06990811	      0.17227979
      5.32203390	      0.13002051	      0.06939434	      0.17307274
      5.33898305	      0.12860307	      0.06901505	      0.17528982
      5.35593220	      0.12770639	      0.06877402	      0.17756696
      5.37288136	      0.12714296	      0.06862214	      0.17840087
      5.38983051	      0.12667859	      0.06849671	      0.17764743
      5.40677966	      0.12623400	      0.06837641	      0.17496723
      5.42372881	      0.12612499	      0.06834688	      0.17209120
      5.44067797	      0.12632697	      0.06840158	      0.16946304
      5.45762712	      0.12654296	      0.06846003	      0.16744870
      5.47457627	      0.12649674	      0.06844753	      0.16649817
      5.49152542	      0.12609219	      0.06833799	      0.16545176
      5.50847458	      0.12554109	      0.06818849	      0.16397867
      5.52542373	      0.12507539	      0.06806190	      0.16198454
      5.54237288	      0.12476477	      0.06797733	      0.15908743
      5.55932203	      0.12436742	      0.06786900	      0.15671658
      5.57627119	      0.12343785	      0.06761488	      0.15538970
      5.59322034	      0.12137851	      0.06704849	      0.15413421
      5.61016949	      0.11767190	      0.06601680	      0.15260086
      5.62711864	      0.11207389	      0.06442736	      0.15031080
      5.64406780	      0.10466714	      0.06226203	      0.14664435
      5.66101695	      0.09588644	      0.05959320	      0.14121053
      5.67796610	      0.08655635	      0.05661970	      0.13448177
      5.69491525	      0.07768005	      0.05363804	      0.12723069
      5.71186441	      0.06981714	      0.05085096	      0.12025141
      5.72881356	      0.06285561	      0.04824920	      0.11413171
      5.74576271	      0.05653850	      0.04576045	      0.10895766
      5.76271186	      0.05090596	      0.04342126	      0.10497617
      5.77966102	      0.04603442	      0.04129138	      0.10081135
      5.79661017	      0.04174618	      0.03932117	      0.09704328
      5.81355932	      0.03831579	      0.03767099	      0.09524004
      5.83050847	      0.03611065	      0.03657091	      0.09412865
      5.84745763	      0.03507126	      0.03604075	      0.08915605
      5.86440678	      0.03513463	      0.03607329	      0.08442641
      5.88135593	      0.03605848	      0.03654448	      0.08074807
      5.89830508	      0.03762354	      0.03732914	      0.07867966
      5.91525424	      0.03955814	      0.03827684	      0.07794232
      5.93220339	      0.04150681	      0.03920828	      0.07746192
      5.94915254	      0.04315076	      0.03997720	      0.07793308
      5.96610169	      0.04426917	      0.04049196	      0.07750199
      5.98305085	      0.04487648	      0.04076876	      0.07673244
      6.00000000	      0.04495579	      0.04080477	      0.07587157
      6.01694915	      0.04455741	      0.04062357	      0.07488712
      6.03389831	      0.04412045	      0.04042389	      0.07514950
      6.05084746	      0.04408716	      0.04040863	      0.07762997
      6.06779661	      0.04429710	      0.04050473	      0.07866564
      6.08474576	      0.04457508	      0.04063162	      0.07860355
      6.10169492	      0.04517186	      0.04090271	      0.08135664
      6.11864407	      0.04654031	      0.04151765	      0.08508301
      6.13559322	      0.04866604	      0.04245522	      0.08926648
      6.15254237	      0.05104948	      0.04348243	      0.09233393
      6.16949153	      0.05295691	      0.04428732	      0.09419843
      6.18644068	      0.05378558	      0.04463248	      0.09468630
      6.20338983	      0.05348497	      0.04450758	      0.09457553
      6.22033898	      0.05235388	      0.04403445	      0.09462209
      6.23728814	      0.05071958	      0.04334170	      0.09477481
      6.25423729	      0.04886665	      0.04254264	      0.09534344
      6.27118644	      0.04699099	      0.04171819	      0.09599649
      6.28813559	      0.04528752	      0.04095504	      0.09641768
      6.30508475	      0.04398018	      0.04035958	      0.09701651
      6.32203390	      0.04328257	      0.04003821	      0.09730100
      6.33898305	      0.04334288	      0.04006609	      0.09799517
      6.35593220	      0.04392133	      0.04033257	      0.09876512
      6.37288136	      0.04463881	      0.04066066	      0.10062165
      6.38983051	      0.04512591	      0.04088190	      0.10206109
      6.40677966	      0.04534201	      0.04097967	      0.10357103
      6.42372881	      0.04538087	      0.04099723	      0.10413704
      6.44067797	      0.04548410	      0.04104383	      0.10393546
      6.45762712	      0.04586828	      0.04121681	      0.10371781
      6.47457627	      0.04660910	      0.04154832	      0.10393398
      6.49152542	      0.04768085	      0.04202329	      0.10576329
      6.50847458	      0.04871129	      0.04247496	      0.10959300
      6.52542373	      0.04909789	      0.04264318	      0.11452012
      6.54237288	      0.04848950	      0.04237815	      0.11875355
      6.55932203	      0.04709020	      0.04176220	      0.12189620
      6.57627119	      0.04532713	      0.04097295	      0.12397895
      6.59322034	      0.04352450	      0.04014995	      0.12617094
      6.61016949	      0.04156252	      0.03923458	      0.12551359
      6.62711864	      0.03989657	      0.03844022	      0.12539047
      6.64406780	      0.03884648	      0.03793097	      0.12474468
      6.66101695	      0.03873343	      0.03787574	      0.12324794
      6.67796610	      0.03965176	      0.03832210	      0.12154643
      6.69491525	      0.04135302	      0.03913557	      0.12034730
      6.71186441	      0.04323395	      0.04001571	      0.11982681
      6.72881356	      0.04466241	      0.04067141	      0.11957800
      6.74576271	      0.04604677	      0.04129692	      0.12001050
      6.76271186	      0.04894759	      0.04257786	      0.12084238
      6.77966102	      0.05414946	      0.04478321	      0.12030688
      6.79661017	      0.06120980	      0.04761334	      0.12132492
      6.81355932	      0.06860536	      0.05040773	      0.12871977
      6.83050847	      0.07301404	      0.05200215	      0.13662890
      6.84745763	      0.07099104	      0.05127668	      0.12364866
      6.86440678	      0.06569690	      0.04932766	      0.12297383
      6.88135593	      0.06516125	      0.04912616	      0.12185668
      6.89830508	      0.07352388	      0.05218339	      0.12108099
      6.91525424	      0.09006951	      0.05775732	      0.15792575
      6.93220339	      0.10701163	      0.06295549	      0.20314857
      6.94915254	      0.11447256	      0.06511317	      0.21854839
      6.96610169	      0.11077199	      0.06405206	      0.21138472
      6.98305085	      0.10056039	      0.06102835	      0.18793195
      7.00000000	      0.09082670	      0.05799959	      0.15917945
      7.01694915	      0.08555972	      0.05629279	      0.14243382
      7.03389831	      0.08656444	      0.05662235	      0.14174825
      7.05084746	      0.09402957	      0.05901336	      0.15276208
      7.06779661	      0.10583676	      0.06260895	      0.16861872
      7.08474576	      0.11919244	      0.06644197	      0.18189306
      7.10169492	      0.13166036	      0.06983058	      0.18916005
      7.11864407	      0.14110832	      0.07229270	      0.18965761
      7.13559322	      0.14651480	      0.07366461	      0.18457174
      7.15254237	      0.14886046	      0.07425194	      0.17613692
      7.16949153	      0.15008968	      0.07455788	      0.16887619
      7.18644068	      0.15030526	      0.07461140	      0.16542540
      7.20338983	      0.14933498	      0.07437019	      0.16579223
      7.22033898	      0.14879239	      0.07423496	      0.16837055
      7.23728814	      0.15126150	      0.07484836	      0.17281470
      7.25423729	      0.15667406	      0.07617574	      0.17977646
      7.27118644	      0.16094816	      0.07720779	      0.20223581
      7.28813559	      0.15793204	      0.07648094	      0.20850146
      7.30508475	      0.14399339	      0.07302800	      0.19219360
      7.32203390	      0.12637989	      0.06841591	      0.14927204
      7.33898305	      0.11596984	      0.06553762	      0.14832228
      7.35593220	      0.10899431	      0.06353602	      0.13345247
      7.37288136	      0.09231340	      0.05847234	      0.12242159
      7.38983051	      0.07850941	      0.05392361	      0.12022695
      7.40677966	      0.06758124	      0.05003008	      0.11867057
      7.42372881	      0.06305958	      0.04832743	      0.11812787
      7.44067797	      0.06898564	      0.05054724	      0.11872534
      7.45762712	      0.08209953	      0.05514276	      0.13362823
      7.47457627	      0.09051334	      0.05789945	      0.14361732
      7.49152542	      0.08568013	      0.05633239	      0.13979963
      7.50847458	      0.07117060	      0.05134149	      0.12467623
      7.52542373	      0.05743055	      0.04612003	      0.11371543
      7.54237288	      0.04946747	      0.04280337	      0.12263744
      7.55932203	      0.04563384	      0.04111134	      0.11983938
      7.57627119	      0.04465044	      0.04066596	      0.11612646
      7.59322034	      0.04487654	      0.04076879	      0.11186470
      7.61016949	      0.04532029	      0.04096986	      0.10731716
      7.62711864	      0.04588079	      0.04122243	      0.10363425
      7.64406780	      0.04703095	      0.04173592	      0.10775056
      7.66101695	      0.04929930	      0.04273055	      0.11296240
      7.67796610	      0.05324438	      0.04440736	      0.12016404
      7.69491525	      0.03384928	      0.03540730	      0.06589922
      7.71186441	      0.03633095	      0.03668230	      0.06813831
      7.72881356	      0.03865334	      0.03783656	      0.07104305
      7.74576271	      0.04052666	      0.03874258	      0.07498928
      7.76271186	      0.04205643	      0.03946702	      0.07937818
      7.77966102	      0.04344566	      0.04011357	      0.08242792
      7.79661017	      0.04448358	      0.04058990	      0.08383250
      7.81355932	      0.04495798	      0.04080577	      0.08388772
      7.83050847	      0.04503209	      0.04083938	      0.08370596
      7.84745763	      0.04487096	      0.04076625	      0.08384592
      7.86440678	      0.04464057	      0.04066146	      0.08461958
      7.88135593	      0.04455633	      0.04062308	      0.08599349
      7.89830508	      0.04487328	      0.04076731	      0.08761989
      7.91525424	      0.04555290	      0.04107486	      0.08898657
      7.93220339	      0.04630724	      0.04141356	      0.08969200
      7.94915254	      0.04677075	      0.04162031	      0.08913996
      7.96610169	      0.04677779	      0.04162344	      0.08784412
      7.98305085	      0.04639376	      0.04145223	      0.08667828
      8.00000000	      0.04591628	      0.04123837	      0.08694362
      8.01694915	      0.04556320	      0.04107951	      0.08933689
      8.03389831	      0.04537308	      0.04099371	      0.09341038
      8.05084746	      0.04523049	      0.04092925	      0.09697731
      8.06779661	      0.04498774	      0.04081927	      0.09809779
      8.08474576	      0.04454534	      0.04061807	      0.09641911
      8.10169492	      0.04387472	      0.04031116	      0.09309120
      8.11864407	      0.04317446	      0.03998818	      0.08978184
      8.13559322	      0.04248416	      0.03966721	      0.08794013
      8.15254237	      0.04141661	      0.03916566	      0.08674840
      8.16949153	      0.03952149	      0.03825910	      0.08522852
      8.18644068	      0.03694971	      0.03699335	      0.08200095
      8.20338983	      0.03451455	      0.03575356	      0.07723837
      8.22033898	      0.03297677	      0.03494799	      0.07142850
      8.23728814	      0.03224740	      0.03455934	      0.07864920
      8.25423729	      0.03213787	      0.03450060	      0.08532926
      8.27118644	      0.03253985	      0.03471570	      0.08938311
      8.28813559	      0.03324143	      0.03508795	      0.09012315
      8.30508475	      0.03379565	      0.03537924	      0.08738024
      8.32203390	      0.03376554	      0.03536348	      0.08210999
      8.33898305	      0.03320994	      0.03507132	      0.07702468
      8.35593220	      0.03263016	      0.03476384	      0.07500444
      8.37288136	      0.03243821	      0.03466144	      0.07708357
      8.38983051	      0.03247952	      0.03468350	      0.08049269
      8.40677966	      0.03272497	      0.03481430	      0.08134192
      8.42372881	      0.03395464	      0.03546237	      0.07878731
      8.44067797	      0.03692562	      0.03698129	      0.07322905
      8.45762712	      0.04149676	      0.03920353	      0.07233038
      8.47457627	      0.04588356	      0.04122367	      0.08798425
      8.49152542	      0.04753329	      0.04195822	      0.09177439
      8.50847458	      0.04555061	      0.04107383	      0.08063733
      8.52542373	      0.04152397	      0.03921638	      0.07438778
      8.54237288	      0.03817203	      0.03760025	      0.07901473
      8.55932203	      0.03681251	      0.03692461	      0.08630657
      8.57627119	      0.03660200	      0.03681887	      0.09153014
      8.59322034	      0.03674631	      0.03689139	      0.09480134
      8.61016949	      0.03699353	      0.03701528	      0.09603585
      8.62711864	      0.03732087	      0.03717868	      0.09534372
      8.64406780	      0.03791614	      0.03747401	      0.09216385
      8.66101695	      0.03970790	      0.03834922	      0.08831830
      8.67796610	      0.04373171	      0.04024541	      0.09009470
      8.69491525	      0.04821106	      0.04225630	      0.09186348
      8.71186441	      0.05457640	      0.04495940	      0.10288287
      8.72881356	      0.05924020	      0.04684102	      0.11466591
      8.74576271	      0.05929071	      0.04686099	      0.11447883
      8.76271186	      0.05536565	      0.04528333	      0.10437715
      8.77966102	      0.05015203	      0.04309852	      0.09199601
      8.79661017	      0.04596928	      0.04126216	      0.09822807
      8.81355932	      0.04146430	      0.03918820	      0.09485707
      8.83050847	      0.03861670	      0.03781862	      0.10392830
      8.84745763	      0.03713046	      0.03708372	      0.11042112
      8.86440678	      0.03626195	      0.03664745	      0.11389547
      8.88135593	      0.03596913	      0.03649918	      0.11289610
      8.89830508	      0.03675263	      0.03689456	      0.10557136
      8.91525424	      0.03928313	      0.03814356	      0.09993432
      8.93220339	      0.04402314	      0.04037929	      0.11971749
      8.94915254	      0.04956067	      0.04284367	      0.13189385
      8.96610169	      0.05209472	      0.04392532	      0.12970905
      8.98305085	      0.04922381	      0.04269782	      0.11184931
      9.00000000	      0.04244496	      0.03964890	      0.10296277
      9.01694915	      0.03557452	      0.03629842	      0.09009122
      9.03389831	      0.03018833	      0.03343780	      0.07743263
      9.05084746	      0.02683945	      0.03152862	      0.06658841
      9.06779661	      0.02548707	      0.03072402	      0.05713507
      9.08474576	      0.02554541	      0.03075916	      0.05095353
      9.10169492	      0.02610446	      0.03109392	      0.05268929
      9.11864407	      0.02747629	      0.03190047	      0.05926547
      9.13559322	      0.02998296	      0.03332386	      0.06814656
      9.15254237	      0.03199031	      0.03442130	      0.07274249
      9.16949153	      0.03394383	      0.03545672	      0.07440593
      9.18644068	      0.03478249	      0.03589206	      0.07189138
      9.20338983	      0.03463197	      0.03581432	      0.06658228
      9.22033898	      0.03381735	      0.03539060	      0.06119412
      9.23728814	      0.03268375	      0.03479237	      0.06235479
      9.25423729	      0.03135217	      0.03407626	      0.06155656
      9.27118644	      0.02982261	      0.03323464	      0.05935010
      9.28813559	      0.02819255	      0.03231360	      0.05684305
      9.30508475	      0.02660288	      0.03138936	      0.05306321
      9.32203390	      0.02534339	      0.03063730	      0.05219657
      9.33898305	      0.02452299	      0.03013733	      0.05473820
      9.35593220	      0.02400880	      0.02981971	      0.05747082
      9.37288136	      0.02397012	      0.02979567	      0.05965539
      9.38983051	      0.02424782	      0.02996777	      0.06093093
      9.40677966	      0.02464040	      0.03020939	      0.06156521
      9.42372881	      0.02515140	      0.03052103	      0.06141560
      9.44067797	      0.02574605	      0.03087972	      0.06516481
      9.45762712	      0.02662220	      0.03140076	      0.06941670
      9.47457627	      0.02760492	      0.03197506	      0.07185870
      9.49152542	      0.02870218	      0.03260435	      0.07323979
      9.50847458	      0.03004458	      0.03335809	      0.07382865
      9.52542373	      0.03189082	      0.03436774	      0.07406608
      9.54237288	      0.03453735	      0.03576536	      0.07468108
      9.55932203	      0.03817913	      0.03760375	      0.07599512
      9.57627119	      0.04231992	      0.03959046	      0.07807998
      9.59322034	      0.04621744	      0.04137338	      0.08055730
      9.61016949	      0.04946780	      0.04280351	      0.08316314
      9.62711864	      0.05214027	      0.04394452	      0.08610017
      9.64406780	      0.05442242	      0.04489594	      0.08953549
      9.66101695	      0.05644708	      0.04572343	      0.09268474
      9.67796610	      0.05835757	      0.04649077	      0.09545794
      9.69491525	      0.06011615	      0.04718606	      0.09809723
      9.71186441	      0.06154767	      0.04774456	      0.10797703
      9.72881356	      0.06159657	      0.04776352	      0.11134839
      9.74576271	      0.06117501	      0.04759980	      0.11292544
      9.76271186	      0.06064881	      0.04739464	      0.11350726
      9.77966102	      0.06020123	      0.04721944	      0.11475996
      9.79661017	      0.05927989	      0.04685671	      0.11539657
      9.81355932	      0.05793762	      0.04632319	      0.11617819
      9.83050847	      0.05658274	      0.04577835	      0.11680674
      9.84745763	      0.05546358	      0.04532336	      0.11717691
      9.86440678	      0.05420229	      0.04480505	      0.11611534
      9.88135593	      0.05288649	      0.04425787	      0.11483088
      9.89830508	      0.05186520	      0.04382845	      0.11179325
      9.91525424	      0.05148790	      0.04366875	      0.10782401
      9.93220339	      0.05157425	      0.04370535	      0.10388395
      9.94915254	      0.05150230	      0.04367485	      0.10058041
      9.96610169	      0.05100408	      0.04346309	      0.09796108
      9.98305085	      0.05033399	      0.04317663	      0.09560960
     10.00000000	      0.04983441	      0.04296183	      0.09335063
     10.01694915	      0.04969454	      0.04290150	      0.09073008
     10.03389831	      0.05024943	      0.04314035	      0.08802276
     10.05084746	      0.05177624	      0.04379085	      0.08539443
     10.06779661	      0.05428326	      0.04483850	      0.08366371
     10.08474576	      0.05714121	      0.04600371	      0.08231871
     10.10169492	      0.05974316	      0.04703945	      0.08578762
     10.11864407	      0.06145411	      0.04770826	      0.08992527
     10.13559322	      0.06206540	      0.04794495	      0.09068236
     10.15254237	      0.06175573	      0.04782520	      0.08953402
     10.16949153	      0.06080508	      0.04745566	      0.08744311
     10.18644068	      0.04478540	      0.04072737	      0.07194582
     10.20338983	      0.04356815	      0.04017008	      0.07063865
     10.22033898	      0.04222191	      0.03954459	      0.06658761
     10.23728814	      0.04112209	      0.03902615	      0.06414229
     10.25423729	      0.04036664	      0.03866601	      0.06281309
     10.27118644	      0.04002731	      0.03850315	      0.06234824
     10.28813559	      0.04004634	      0.03851231	      0.06238819
     10.30508475	      0.04025893	      0.03861439	      0.06234062
     10.32203390	      0.03965456	      0.03832346	      0.06405819
     10.33898305	      0.03913117	      0.03806971	      0.06228967
     10.35593220	      0.03787232	      0.03745235	      0.05920927
     10.37288136	      0.03606412	      0.03654734	      0.05714612
     10.38983051	      0.03408760	      0.03553173	      0.05720564
     10.40677966	      0.03232158	      0.03459907	      0.05720598
     10.42372881	      0.03113796	      0.03395965	      0.05728977
     10.44067797	      0.03071208	      0.03372661	      0.05739524
     10.45762712	      0.03106200	      0.03391820	      0.05749949
     10.47457627	      0.03181844	      0.03432871	      0.05972183
     10.49152542	      0.03240253	      0.03464237	      0.06207847
     10.50847458	      0.03268024	      0.03479051	      0.06252804
     10.52542373	      0.03305145	      0.03498754	      0.06238055
     10.54237288	      0.03360185	      0.03527765	      0.06080857
     10.55932203	      0.03383518	      0.03539993	      0.05807388
     10.57627119	      0.03348543	      0.03521649	      0.06279137
     10.59322034	      0.03330880	      0.03512348	      0.07220324
