Model Marker Errors from IK
version=1
nRows=407
nColumns=4
inDegrees=no
endheader
time	total_squared_error	marker_error_RMS	marker_error_max
      0.00000000	      0.02227277	      0.02872138	      0.05547038
      0.01666667	      0.02057011	      0.02760174	      0.05015004
      0.03333333	      0.02134840	      0.02811906	      0.04903517
      0.05000000	      0.02216380	      0.02865103	      0.04834912
      0.06666667	      0.02227326	      0.02872169	      0.04795073
      0.08333333	      0.02188391	      0.02846955	      0.04772425
      0.10000000	      0.02164139	      0.02831136	      0.04747482
      0.11666667	      0.02142193	      0.02816744	      0.04732949
      0.13333333	      0.02126828	      0.02806625	      0.04731738
      0.15000000	      0.02122513	      0.02803776	      0.04744854
      0.16666667	      0.02127487	      0.02807059	      0.04768011
      0.18333333	      0.02138066	      0.02814030	      0.04814978
      0.20000000	      0.02151805	      0.02823057	      0.04887394
      0.21666667	      0.02175229	      0.02838380	      0.04986077
      0.23333333	      0.02202918	      0.02856389	      0.05086941
      0.25000000	      0.02231123	      0.02874616	      0.05194794
      0.26666667	      0.02256730	      0.02891065	      0.05257737
      0.28333333	      0.02276089	      0.02903439	      0.05307984
      0.30000000	      0.02284723	      0.02908941	      0.05347160
      0.31666667	      0.02284830	      0.02909009	      0.05390327
      0.33333333	      0.02283299	      0.02908034	      0.05461099
      0.35000000	      0.02281366	      0.02906803	      0.05566184
      0.36666667	      0.02287625	      0.02910788	      0.05693804
      0.38333333	      0.02306606	      0.02922839	      0.05808137
      0.40000000	      0.02330086	      0.02937678	      0.05892099
      0.41666667	      0.02360281	      0.02956650	      0.05916239
      0.43333333	      0.02388246	      0.02974114	      0.05912665
      0.45000000	      0.02403920	      0.02983858	      0.05870537
      0.46666667	      0.02404387	      0.02984148	      0.05811296
      0.48333333	      0.02384304	      0.02971659	      0.05774354
      0.50000000	      0.02356081	      0.02954019	      0.05749259
      0.51666667	      0.02322676	      0.02933003	      0.05733986
      0.53333333	      0.02289443	      0.02911944	      0.05716803
      0.55000000	      0.02255757	      0.02890442	      0.05688160
      0.56666667	      0.02227752	      0.02872444	      0.05651647
      0.58333333	      0.02214079	      0.02863615	      0.05615112
      0.60000000	      0.02222620	      0.02869134	      0.05584058
      0.61666667	      0.02250392	      0.02887003	      0.05582311
      0.63333333	      0.02286395	      0.02910005	      0.05619615
      0.65000000	      0.02320805	      0.02931821	      0.05692762
      0.66666667	      0.02351737	      0.02951294	      0.05772261
      0.68333333	      0.02372579	      0.02964343	      0.05833637
      0.70000000	      0.02384269	      0.02971637	      0.05870767
      0.71666667	      0.02386559	      0.02973064	      0.05876090
      0.73333333	      0.02388349	      0.02974178	      0.05832916
      0.75000000	      0.02404724	      0.02984357	      0.05724169
      0.76666667	      0.02442430	      0.03007663	      0.05603242
      0.78333333	      0.02497348	      0.03041289	      0.05788881
      0.80000000	      0.02538862	      0.03066462	      0.05974134
      0.81666667	      0.02537648	      0.03065729	      0.06009353
      0.83333333	      0.02475149	      0.03027742	      0.05818640
      0.85000000	      0.02349065	      0.02949617	      0.05541286
      0.86666667	      0.02172708	      0.02836735	      0.05250588
      0.88333333	      0.01985033	      0.02711452	      0.04753552
      0.90000000	      0.01831275	      0.02604323	      0.04236597
      0.91666667	      0.01741454	      0.02539651	      0.04143732
      0.93333333	      0.01719499	      0.02523592	      0.04113015
      0.95000000	      0.01741042	      0.02539351	      0.04110771
      0.96666667	      0.01792766	      0.02576795	      0.04117072
      0.98333333	      0.01857067	      0.02622599	      0.04139431
      1.00000000	      0.01926998	      0.02671522	      0.04188198
      1.01666667	      0.01988807	      0.02714029	      0.04245637
      1.03333333	      0.02010400	      0.02728723	      0.04339016
      1.05000000	      0.01986511	      0.02712461	      0.04726906
      1.06666667	      0.01916675	      0.02664357	      0.04937007
      1.08333333	      0.01835885	      0.02607600	      0.04964430
      1.10000000	      0.01794751	      0.02578221	      0.04911223
      1.11666667	      0.01814960	      0.02592696	      0.04931781
      1.13333333	      0.01854389	      0.02620708	      0.05092739
      1.15000000	      0.01896607	      0.02650371	      0.05388012
      1.16666667	      0.01927397	      0.02671799	      0.05778043
      1.18333333	      0.01949272	      0.02686918	      0.06260613
      1.20000000	      0.01970799	      0.02701713	      0.06640633
      1.21666667	      0.01996879	      0.02719531	      0.06901592
      1.23333333	      0.02011373	      0.02729382	      0.07002324
      1.25000000	      0.02007171	      0.02726530	      0.06972209
      1.26666667	      0.01994049	      0.02717603	      0.06833863
      1.28333333	      0.01991359	      0.02715770	      0.06780443
      1.30000000	      0.01999328	      0.02721198	      0.06660022
      1.31666667	      0.02013786	      0.02731019	      0.06536499
      1.33333333	      0.02014588	      0.02731563	      0.06356085
      1.35000000	      0.01996468	      0.02719251	      0.06189851
      1.36666667	      0.01952121	      0.02688881	      0.06074786
      1.38333333	      0.01897813	      0.02651214	      0.06013142
      1.40000000	      0.01858566	      0.02623657	      0.06066158
      1.41666667	      0.01850253	      0.02617783	      0.06184509
      1.43333333	      0.01866418	      0.02629194	      0.06359514
      1.45000000	      0.01889176	      0.02645175	      0.06514807
      1.46666667	      0.01905418	      0.02656521	      0.06600490
      1.48333333	      0.01918367	      0.02665532	      0.06595119
      1.50000000	      0.01924689	      0.02669921	      0.06597535
      1.51666667	      0.01933222	      0.02675833	      0.06577013
      1.53333333	      0.01940399	      0.02680795	      0.06582771
      1.55000000	      0.01949401	      0.02687006	      0.06609984
      1.56666667	      0.01957006	      0.02692242	      0.06686291
      1.58333333	      0.01956262	      0.02691731	      0.06805043
      1.60000000	      0.01943697	      0.02683073	      0.06907543
      1.61666667	      0.01917409	      0.02664866	      0.06992198
      1.63333333	      0.01877051	      0.02636672	      0.07019775
      1.65000000	      0.01812441	      0.02590896	      0.06800718
      1.66666667	      0.01730850	      0.02531908	      0.06420270
      1.68333333	      0.01643764	      0.02467390	      0.05892561
      1.70000000	      0.01577908	      0.02417458	      0.05265660
      1.71666667	      0.01557918	      0.02402097	      0.04721052
      1.73333333	      0.01580153	      0.02419178	      0.04283817
      1.75000000	      0.01623339	      0.02452013	      0.04201653
      1.76666667	      0.01683174	      0.02496794	      0.04098099
      1.78333333	      0.01771987	      0.02561819	      0.04154987
      1.80000000	      0.01888266	      0.02644538	      0.04474577
      1.81666667	      0.01994626	      0.02717996	      0.04757469
      1.83333333	      0.02080782	      0.02776077	      0.05017621
      1.85000000	      0.02127379	      0.02806988	      0.05204452
      1.86666667	      0.02152874	      0.02823758	      0.05391308
      1.88333333	      0.02169339	      0.02834535	      0.05559759
      1.90000000	      0.02179535	      0.02841188	      0.05820799
      1.91666667	      0.02193243	      0.02850109	      0.06069707
      1.93333333	      0.02198095	      0.02853260	      0.06322098
      1.95000000	      0.02176008	      0.02838889	      0.06486928
      1.96666667	      0.02148779	      0.02821071	      0.06589424
      1.98333333	      0.02143258	      0.02817445	      0.06608480
      2.00000000	      0.02169750	      0.02834803	      0.06552643
      2.01666667	      0.02241130	      0.02881056	      0.06454002
      2.03333333	      0.02353528	      0.02952418	      0.06338384
      2.05000000	      0.02465914	      0.03022088	      0.06264314
      2.06666667	      0.02530396	      0.03061346	      0.06278694
      2.08333333	      0.02577788	      0.03089881	      0.06780714
      2.10000000	      0.02623638	      0.03117239	      0.07375175
      2.11666667	      0.02662059	      0.03139981	      0.07599669
      2.13333333	      0.02670154	      0.03144751	      0.07718229
      2.15000000	      0.02648248	      0.03131825	      0.07520180
      2.16666667	      0.02624077	      0.03117499	      0.07192976
      2.18333333	      0.02616371	      0.03112919	      0.06826409
      2.20000000	      0.02619535	      0.03114800	      0.06522247
      2.21666667	      0.02621012	      0.03115679	      0.06240828
      2.23333333	      0.02620055	      0.03115110	      0.05943514
      2.25000000	      0.02619303	      0.03114663	      0.05652634
      2.26666667	      0.02600211	      0.03103290	      0.05371049
      2.28333333	      0.02560792	      0.03079678	      0.05446588
      2.30000000	      0.02546950	      0.03071343	      0.05571026
      2.31666667	      0.02603146	      0.03105041	      0.05712642
      2.33333333	      0.02714869	      0.03170973	      0.05845360
      2.35000000	      0.02834405	      0.03240030	      0.05962885
      2.36666667	      0.02919646	      0.03288389	      0.06097036
      2.38333333	      0.02949499	      0.03305158	      0.06157589
      2.40000000	      0.02955589	      0.03308568	      0.06264187
      2.41666667	      0.02974123	      0.03318926	      0.06335474
      2.43333333	      0.03026803	      0.03348191	      0.06532575
      2.45000000	      0.03079355	      0.03377132	      0.06726040
      2.46666667	      0.03104273	      0.03390768	      0.06892118
      2.48333333	      0.03096472	      0.03386505	      0.07022366
      2.50000000	      0.03065381	      0.03369460	      0.07073722
      2.51666667	      0.03030404	      0.03350182	      0.07089876
      2.53333333	      0.02986015	      0.03325555	      0.06956164
      2.55000000	      0.02947633	      0.03304112	      0.06828303
      2.56666667	      0.02926210	      0.03292084	      0.06729447
      2.58333333	      0.02939091	      0.03299322	      0.06630827
      2.60000000	      0.02993956	      0.03329974	      0.06510035
      2.61666667	      0.03082520	      0.03378867	      0.06329077
      2.63333333	      0.03188044	      0.03436214	      0.06116911
      2.65000000	      0.03282468	      0.03486730	      0.06614154
      2.66666667	      0.03319093	      0.03506129	      0.07123997
      2.68333333	      0.03258640	      0.03474052	      0.07216837
      2.70000000	      0.03094375	      0.03385358	      0.06812035
      2.71666667	      0.02868327	      0.03259361	      0.05976361
      2.73333333	      0.02649808	      0.03132747	      0.05472410
      2.75000000	      0.02494430	      0.03039512	      0.05639677
      2.76666667	      0.02425049	      0.02996943	      0.05821006
      2.78333333	      0.02432487	      0.03001535	      0.05940997
      2.80000000	      0.02495119	      0.03039931	      0.06019991
      2.81666667	      0.02575320	      0.03088401	      0.06087013
      2.83333333	      0.02659668	      0.03138570	      0.06132280
      2.85000000	      0.02734328	      0.03182317	      0.06122334
      2.86666667	      0.02782760	      0.03210377	      0.06119134
      2.88333333	      0.02809638	      0.03225843	      0.06037138
      2.90000000	      0.02817627	      0.03230426	      0.05916335
      2.91666667	      0.02819156	      0.03231303	      0.05816002
      2.93333333	      0.02819331	      0.03231403	      0.05793669
      2.95000000	      0.02791985	      0.03215694	      0.05666559
      2.96666667	      0.02739205	      0.03185154	      0.05664010
      2.98333333	      0.02728339	      0.03178830	      0.05698178
      3.00000000	      0.02880912	      0.03266504	      0.05740123
      3.01666667	      0.03202576	      0.03444037	      0.05863283
      3.03333333	      0.03619246	      0.03661231	      0.07530271
      3.05000000	      0.04009214	      0.03853432	      0.09347581
      3.06666667	      0.04114995	      0.03903937	      0.10010024
      3.08333333	      0.03851774	      0.03777013	      0.09220075
      3.10000000	      0.03406427	      0.03551957	      0.07450833
      3.11666667	      0.03012516	      0.03340279	      0.05975288
      3.13333333	      0.02782981	      0.03210504	      0.05981829
      3.15000000	      0.02680935	      0.03151093	      0.05949679
      3.16666667	      0.02651293	      0.03133625	      0.05969904
      3.18333333	      0.02648957	      0.03132244	      0.05988327
      3.20000000	      0.02648703	      0.03132094	      0.06042415
      3.21666667	      0.02630973	      0.03121593	      0.06104038
      3.23333333	      0.02597197	      0.03101491	      0.06146521
      3.25000000	      0.02557250	      0.03077547	      0.06159651
      3.26666667	      0.02526746	      0.03059137	      0.06148672
      3.28333333	      0.02531850	      0.03062225	      0.06128530
      3.30000000	      0.02599757	      0.03103019	      0.06111508
      3.31666667	      0.02785926	      0.03212202	      0.06718623
      3.33333333	      0.02704823	      0.03165101	      0.06069456
      3.35000000	      0.03189344	      0.03436915	      0.06878987
      3.36666667	      0.03925127	      0.03812809	      0.07951783
      3.38333333	      0.04583150	      0.04120028	      0.09133709
      3.40000000	      0.04853367	      0.04239744	      0.09495892
      3.41666667	      0.04632926	      0.04142341	      0.10040075
      3.43333333	      0.04100694	      0.03897147	      0.09230237
      3.45000000	      0.03550429	      0.03626257	      0.07358464
      3.46666667	      0.03134774	      0.03407385	      0.05868343
      3.48333333	      0.02795789	      0.03217883	      0.05914465
      3.50000000	      0.02520789	      0.03055529	      0.05961274
      3.51666667	      0.02418819	      0.02993090	      0.06014117
      3.53333333	      0.02431464	      0.03000904	      0.06060679
      3.55000000	      0.02490869	      0.03037341	      0.06053331
      3.56666667	      0.02559650	      0.03078991	      0.06062981
      3.58333333	      0.02633571	      0.03123134	      0.05993308
      3.60000000	      0.02708804	      0.03167429	      0.05950755
      3.61666667	      0.02774764	      0.03205761	      0.05964471
      3.63333333	      0.02804495	      0.03222890	      0.05964865
      3.65000000	      0.02786532	      0.03212552	      0.05890125
      3.66666667	      0.02730262	      0.03179950	      0.05999601
      3.68333333	      0.02657605	      0.03137353	      0.06101624
      3.70000000	      0.02597613	      0.03101740	      0.06151631
      3.71666667	      0.02575959	      0.03088785	      0.06105920
      3.73333333	      0.02595308	      0.03100363	      0.06088868
      3.75000000	      0.02626840	      0.03119141	      0.06128957
      3.76666667	      0.02652082	      0.03134091	      0.06151010
      3.78333333	      0.02669141	      0.03144155	      0.06114017
      3.80000000	      0.02700216	      0.03162404	      0.06052960
      3.81666667	      0.02765121	      0.03200186	      0.05963106
      3.83333333	      0.02862566	      0.03256086	      0.05863982
      3.85000000	      0.02965565	      0.03314148	      0.05744390
      3.86666667	      0.03034532	      0.03352463	      0.05670975
      3.88333333	      0.03059602	      0.03366283	      0.05579912
      3.90000000	      0.03048781	      0.03360325	      0.05522252
      3.91666667	      0.03019490	      0.03344144	      0.05506298
      3.93333333	      0.02982058	      0.03323351	      0.05448027
      3.95000000	      0.02942566	      0.03301271	      0.05424088
      3.96666667	      0.02909182	      0.03282491	      0.05427278
      3.98333333	      0.02887602	      0.03270294	      0.05422979
      4.00000000	      0.02869034	      0.03259762	      0.05458524
      4.01666667	      0.02846948	      0.03247191	      0.05441834
      4.03333333	      0.02823776	      0.03233949	      0.05353237
      4.05000000	      0.02797105	      0.03218641	      0.05317689
      4.06666667	      0.02777470	      0.03207324	      0.05314708
      4.08333333	      0.02780197	      0.03208898	      0.05317217
      4.10000000	      0.02785824	      0.03212143	      0.05349247
      4.11666667	      0.02804292	      0.03222773	      0.05396151
      4.13333333	      0.02815791	      0.03229374	      0.05419039
      4.15000000	      0.02806406	      0.03223988	      0.05393147
      4.16666667	      0.02772818	      0.03204637	      0.05480274
      4.18333333	      0.02738879	      0.03184964	      0.05845291
      4.20000000	      0.02725283	      0.03177049	      0.06250876
      4.21666667	      0.02747684	      0.03190080	      0.06670046
      4.23333333	      0.02809291	      0.03225644	      0.07061243
      4.25000000	      0.02899782	      0.03277184	      0.07464375
      4.26666667	      0.02990351	      0.03327969	      0.07880144
      4.28333333	      0.03041863	      0.03356510	      0.08266319
      4.30000000	      0.03011511	      0.03339722	      0.08482135
      4.31666667	      0.02874279	      0.03262741	      0.08385618
      4.33333333	      0.02652407	      0.03134283	      0.07969326
      4.35000000	      0.02428854	      0.02999292	      0.07416753
      4.36666667	      0.02281562	      0.02906928	      0.06950871
      4.38333333	      0.02228602	      0.02872992	      0.06763243
      4.40000000	      0.02280912	      0.02906513	      0.07023704
      4.41666667	      0.02449777	      0.03012183	      0.07748781
      4.43333333	      0.02690043	      0.03156441	      0.08677183
      4.45000000	      0.02876550	      0.03264030	      0.09358765
      4.46666667	      0.02902700	      0.03278832	      0.09516106
      4.48333333	      0.02783935	      0.03211054	      0.09168705
      4.50000000	      0.02641780	      0.03127998	      0.08609038
      4.51666667	      0.02576863	      0.03089327	      0.08151366
      4.53333333	      0.02590272	      0.03097354	      0.07908150
      4.55000000	      0.02628960	      0.03120399	      0.07802384
      4.56666667	      0.02674601	      0.03147369	      0.07694883
      4.58333333	      0.02757719	      0.03195899	      0.07497218
      4.60000000	      0.02915242	      0.03285908	      0.07176645
      4.61666667	      0.03072457	      0.03373347	      0.06741940
      4.63333333	      0.03327179	      0.03510397	      0.06241435
      4.65000000	      0.03513361	      0.03607277	      0.05909714
      4.66666667	      0.03747393	      0.03725484	      0.06318918
      4.68333333	      0.03931689	      0.03815994	      0.06544401
      4.70000000	      0.04057035	      0.03876346	      0.06642884
      4.71666667	      0.04137668	      0.03914677	      0.07029063
      4.73333333	      0.04183198	      0.03936156	      0.07367639
      4.75000000	      0.04189054	      0.03938911	      0.07572437
      4.76666667	      0.04149030	      0.03920048	      0.07648639
      4.78333333	      0.04078795	      0.03886727	      0.07682100
      4.80000000	      0.04007908	      0.03852804	      0.07696064
      4.81666667	      0.03944273	      0.03822096	      0.07672942
      4.83333333	      0.03890439	      0.03795923	      0.07536951
      4.85000000	      0.03886868	      0.03794181	      0.07288969
      4.86666667	      0.03952853	      0.03826251	      0.07028708
      4.88333333	      0.03987368	      0.03842919	      0.06327937
      4.90000000	      0.03968950	      0.03834034	      0.06125988
      4.91666667	      0.03911462	      0.03806165	      0.06167862
      4.93333333	      0.03842552	      0.03772489	      0.06239068
      4.95000000	      0.03810014	      0.03756483	      0.06296928
      4.96666667	      0.03807592	      0.03755289	      0.06730976
      4.98333333	      0.03817464	      0.03760154	      0.07049058
      5.00000000	      0.03828760	      0.03765713	      0.07209322
      5.01666667	      0.03799573	      0.03751332	      0.07269546
      5.03333333	      0.03697700	      0.03700701	      0.07237851
      5.05000000	      0.03541165	      0.03621523	      0.07119961
      5.06666667	      0.03375014	      0.03535541	      0.06893835
      5.08333333	      0.03237727	      0.03462886	      0.06614978
      5.10000000	      0.03148829	      0.03415015	      0.06423170
      5.11666667	      0.03104744	      0.03391025	      0.06389692
      5.13333333	      0.03090018	      0.03382974	      0.06478508
      5.15000000	      0.03064092	      0.03368752	      0.06499293
      5.16666667	      0.02986307	      0.03325717	      0.06378247
      5.18333333	      0.02853254	      0.03250786	      0.06167854
      5.20000000	      0.02661511	      0.03139657	      0.05926255
      5.21666667	      0.02465735	      0.03021978	      0.05430532
      5.23333333	      0.02302583	      0.02920288	      0.05005826
      5.25000000	      0.02144034	      0.02817954	      0.05022942
      5.26666667	      0.02031166	      0.02742779	      0.04989178
      5.28333333	      0.01978150	      0.02706747	      0.04949808
      5.30000000	      0.01975883	      0.02705196	      0.04903012
      5.31666667	      0.01986621	      0.02712537	      0.04844531
      5.33333333	      0.01962587	      0.02696078	      0.04757846
      5.35000000	      0.01897498	      0.02650994	      0.04646886
      5.36666667	      0.01827616	      0.02601721	      0.04515429
      5.38333333	      0.01782075	      0.02569100	      0.04384598
      5.40000000	      0.01767944	      0.02558895	      0.04270191
      5.41666667	      0.01799246	      0.02581448	      0.04385432
      5.43333333	      0.01891270	      0.02646640	      0.04487068
      5.45000000	      0.02033203	      0.02744154	      0.04477214
      5.46666667	      0.02202763	      0.02856288	      0.04283826
      5.48333333	      0.02374543	      0.02965570	      0.04495087
      5.50000000	      0.02522254	      0.03056416	      0.04932667
      5.51666667	      0.02624158	      0.03117548	      0.05306236
      5.53333333	      0.02682703	      0.03152132	      0.05487903
      5.55000000	      0.02669184	      0.03144180	      0.05724269
      5.56666667	      0.02684786	      0.03153356	      0.05381192
      5.58333333	      0.02743527	      0.03187666	      0.05100617
      5.60000000	      0.02883290	      0.03267852	      0.05383715
      5.61666667	      0.03104706	      0.03391005	      0.06247141
      5.63333333	      0.03334378	      0.03514193	      0.07241531
      5.65000000	      0.03685495	      0.03694588	      0.08114533
      5.66666667	      0.04002691	      0.03850296	      0.08650339
      5.68333333	      0.04200044	      0.03944074	      0.08716448
      5.70000000	      0.04187184	      0.03938031	      0.08387035
      5.71666667	      0.03994037	      0.03846132	      0.07729826
      5.73333333	      0.03698098	      0.03700900	      0.06938265
      5.75000000	      0.03406693	      0.03552096	      0.06199613
      5.76666667	      0.03197595	      0.03441358	      0.06160178
      5.78333333	      0.03089303	      0.03382582	      0.06538938
      5.80000000	      0.03082321	      0.03378758	      0.07054475
      5.81666667	      0.03122661	      0.03400796	      0.07579263
      5.83333333	      0.03131079	      0.03405377	      0.07966231
      5.85000000	      0.03052811	      0.03362545	      0.08104004
      5.86666667	      0.02898698	      0.03276571	      0.08046630
      5.88333333	      0.02695824	      0.03159831	      0.07829740
      5.90000000	      0.02562721	      0.03080837	      0.07638581
      5.91666667	      0.02472270	      0.03025980	      0.07482925
      5.93333333	      0.01987647	      0.02713237	      0.04760922
      5.95000000	      0.01910221	      0.02659867	      0.04733676
      5.96666667	      0.01886989	      0.02643643	      0.04699849
      5.98333333	      0.01891856	      0.02647050	      0.04689089
      6.00000000	      0.01910722	      0.02660216	      0.04641221
      6.01666667	      0.01917504	      0.02664933	      0.04596186
      6.03333333	      0.01905244	      0.02656400	      0.04547388
      6.05000000	      0.01884873	      0.02642161	      0.04516065
      6.06666667	      0.01867873	      0.02630218	      0.04506783
      6.08333333	      0.01861212	      0.02625525	      0.04513991
      6.10000000	      0.01867736	      0.02630122	      0.04531273
      6.11666667	      0.01886972	      0.02643631	      0.04537666
      6.13333333	      0.01907156	      0.02657732	      0.04522067
      6.15000000	      0.01915132	      0.02663284	      0.04481521
      6.16666667	      0.01909078	      0.02659071	      0.04594317
      6.18333333	      0.01894447	      0.02648862	      0.04643070
      6.20000000	      0.01876912	      0.02636575	      0.04669254
      6.21666667	      0.01859951	      0.02624635	      0.04713021
      6.23333333	      0.01836377	      0.02607948	      0.04677941
      6.25000000	      0.01812905	      0.02591228	      0.04715835
      6.26666667	      0.01784220	      0.02570646	      0.04684004
      6.28333333	      0.01755631	      0.02549968	      0.04716253
      6.30000000	      0.01722299	      0.02525646	      0.04721369
      6.31666667	      0.01686311	      0.02499119	      0.04645267
      6.33333333	      0.01657146	      0.02477414	      0.04467234
      6.35000000	      0.01647874	      0.02470473	      0.04228162
      6.36666667	      0.01661209	      0.02480449	      0.03972147
      6.38333333	      0.01683873	      0.02497312	      0.04039800
      6.40000000	      0.01707608	      0.02514851	      0.04031105
      6.41666667	      0.01724205	      0.02527043	      0.03943564
      6.43333333	      0.01732272	      0.02532948	      0.03780681
      6.45000000	      0.01740680	      0.02539087	      0.03726831
      6.46666667	      0.01758470	      0.02552029	      0.03764546
      6.48333333	      0.01788647	      0.02573833	      0.03800219
      6.50000000	      0.01835916	      0.02607621	      0.03816229
      6.51666667	      0.01896766	      0.02650483	      0.03942373
      6.53333333	      0.01952050	      0.02688831	      0.04047511
      6.55000000	      0.01977873	      0.02706558	      0.04144446
      6.56666667	      0.01962149	      0.02695778	      0.04243181
      6.58333333	      0.01915000	      0.02663192	      0.04278290
      6.60000000	      0.01855689	      0.02621626	      0.04282019
      6.61666667	      0.01802649	      0.02583888	      0.04273422
      6.63333333	      0.01759285	      0.02552620	      0.04260280
      6.65000000	      0.01719074	      0.02523280	      0.04240270
      6.66666667	      0.01680897	      0.02495104	      0.04193231
      6.68333333	      0.01660011	      0.02479554	      0.04127548
      6.70000000	      0.01665119	      0.02483366	      0.04060331
      6.71666667	      0.01706949	      0.02514365	      0.03990085
      6.73333333	      0.01779739	      0.02567416	      0.04157008
      6.75000000	      0.01953157	      0.02689594	      0.04548930
      6.76666667	      0.02367178	      0.02960967	      0.05208100
