Model Marker Errors from IK
version=1
nRows=305
nColumns=4
inDegrees=no
endheader
time	total_squared_error	marker_error_RMS	marker_error_max
      0.00000000	      0.01565930	      0.02408265	      0.04300007
      0.01666667	      0.01540896	      0.02388937	      0.04353306
      0.03333333	      0.01564482	      0.02407152	      0.04393613
      0.05000000	      0.01603381	      0.02436893	      0.04429360
      0.06666667	      0.01646123	      0.02469160	      0.04436778
      0.08333333	      0.01690949	      0.02502553	      0.04444447
      0.10000000	      0.01729066	      0.02530602	      0.04433969
      0.11666667	      0.01756346	      0.02550487	      0.04415571
      0.13333333	      0.01770213	      0.02560536	      0.04390054
      0.15000000	      0.01775394	      0.02564280	      0.04354595
      0.16666667	      0.01777795	      0.02566014	      0.04322517
      0.18333333	      0.01781366	      0.02568589	      0.04288492
      0.20000000	      0.01785672	      0.02571692	      0.04278510
      0.21666667	      0.01789088	      0.02574151	      0.04268647
      0.23333333	      0.01789390	      0.02574368	      0.04277959
      0.25000000	      0.01787171	      0.02572771	      0.04303174
      0.26666667	      0.01781825	      0.02568920	      0.04338698
      0.28333333	      0.01771333	      0.02561346	      0.04370789
      0.30000000	      0.01755085	      0.02549571	      0.04384249
      0.31666667	      0.01738777	      0.02537699	      0.04414018
      0.33333333	      0.01726099	      0.02528430	      0.04446629
      0.35000000	      0.01719579	      0.02523650	      0.04453267
      0.36666667	      0.01719130	      0.02523321	      0.04472007
      0.38333333	      0.01720427	      0.02524273	      0.04485986
      0.40000000	      0.01726901	      0.02529017	      0.04506927
      0.41666667	      0.01740001	      0.02538592	      0.04549463
      0.43333333	      0.01740983	      0.02539308	      0.04598569
      0.45000000	      0.01746787	      0.02543537	      0.04658320
      0.46666667	      0.01751377	      0.02546877	      0.04716123
      0.48333333	      0.01756331	      0.02550476	      0.04758740
      0.50000000	      0.01762001	      0.02554590	      0.04769089
      0.51666667	      0.01772148	      0.02561935	      0.04745701
      0.53333333	      0.01767966	      0.02558910	      0.04688934
      0.55000000	      0.01766698	      0.02557992	      0.04615854
      0.56666667	      0.01761041	      0.02553894	      0.04537225
      0.58333333	      0.01754081	      0.02548842	      0.04487771
      0.60000000	      0.01746512	      0.02543337	      0.04456816
      0.61666667	      0.01736723	      0.02536199	      0.04442653
      0.63333333	      0.01724988	      0.02527616	      0.04441328
      0.65000000	      0.01693289	      0.02504284	      0.04418389
      0.66666667	      0.01657208	      0.02477460	      0.04398857
      0.68333333	      0.01625653	      0.02453760	      0.04380665
      0.70000000	      0.01605085	      0.02438188	      0.04369239
      0.71666667	      0.01592854	      0.02428880	      0.04347274
      0.73333333	      0.01587975	      0.02425158	      0.04323422
      0.75000000	      0.01592138	      0.02428334	      0.04310768
      0.76666667	      0.01603830	      0.02437234	      0.04299367
      0.78333333	      0.01623354	      0.02452024	      0.04280695
      0.80000000	      0.01647841	      0.02470448	      0.04311384
      0.81666667	      0.01679441	      0.02494023	      0.04303864
      0.83333333	      0.01710629	      0.02517074	      0.04285405
      0.85000000	      0.01735781	      0.02535511	      0.04242626
      0.86666667	      0.01747928	      0.02544368	      0.04163889
      0.88333333	      0.01744421	      0.02541814	      0.04114524
      0.90000000	      0.01722792	      0.02526007	      0.04082767
      0.91666667	      0.01689713	      0.02501639	      0.04072657
      0.93333333	      0.01654088	      0.02475127	      0.04107577
      0.95000000	      0.01625532	      0.02453668	      0.04169800
      0.96666667	      0.01608233	      0.02440577	      0.04280597
      0.98333333	      0.01604409	      0.02437675	      0.04380711
      1.00000000	      0.01609897	      0.02441840	      0.04442607
      1.01666667	      0.01617121	      0.02447312	      0.04455360
      1.03333333	      0.01621294	      0.02450468	      0.04421155
      1.05000000	      0.01622075	      0.02451058	      0.04359320
      1.06666667	      0.01622820	      0.02451620	      0.04301165
      1.08333333	      0.01615952	      0.02446427	      0.04250463
      1.10000000	      0.01609520	      0.02441554	      0.04226982
      1.11666667	      0.01599510	      0.02433950	      0.04221743
      1.13333333	      0.01584486	      0.02422492	      0.04224544
      1.15000000	      0.01566637	      0.02408808	      0.04207528
      1.16666667	      0.01542509	      0.02390187	      0.04171666
      1.18333333	      0.01521553	      0.02373896	      0.04147171
      1.20000000	      0.01506579	      0.02362186	      0.04133630
      1.21666667	      0.01503384	      0.02359680	      0.04120808
      1.23333333	      0.01510642	      0.02365369	      0.04104658
      1.25000000	      0.01524601	      0.02376272	      0.04097582
      1.26666667	      0.01541056	      0.02389062	      0.04078032
      1.28333333	      0.01546920	      0.02393603	      0.04045862
      1.30000000	      0.01533381	      0.02383105	      0.04022170
      1.31666667	      0.01506094	      0.02361805	      0.03932982
      1.33333333	      0.01498245	      0.02355643	      0.03812030
      1.35000000	      0.01491838	      0.02350601	      0.03864947
      1.36666667	      0.01518983	      0.02371890	      0.04036892
      1.38333333	      0.01522513	      0.02374645	      0.04119307
      1.40000000	      0.01456425	      0.02322534	      0.03964761
      1.41666667	      0.01327846	      0.02217645	      0.03598122
      1.43333333	      0.01192610	      0.02101684	      0.03470404
      1.45000000	      0.01103876	      0.02021987	      0.03406262
      1.46666667	      0.01085543	      0.02005126	      0.03407458
      1.48333333	      0.01115269	      0.02032394	      0.03467545
      1.50000000	      0.01171161	      0.02082699	      0.03534879
      1.51666667	      0.01224205	      0.02129340	      0.03571351
      1.53333333	      0.01278751	      0.02176262	      0.03631404
      1.55000000	      0.01315350	      0.02207185	      0.03659758
      1.56666667	      0.01330130	      0.02219552	      0.03917500
      1.58333333	      0.01347446	      0.02233952	      0.04306791
      1.60000000	      0.01368376	      0.02251235	      0.04572465
      1.61666667	      0.01383794	      0.02263882	      0.04730043
      1.63333333	      0.01384206	      0.02264219	      0.04787757
      1.65000000	      0.01362625	      0.02246499	      0.04786719
      1.66666667	      0.01327359	      0.02217238	      0.04733768
      1.68333333	      0.01295362	      0.02190351	      0.04618678
      1.70000000	      0.01269867	      0.02168689	      0.04470294
      1.71666667	      0.01254684	      0.02155685	      0.04297720
      1.73333333	      0.01257552	      0.02158147	      0.04166256
      1.75000000	      0.01261504	      0.02161536	      0.04008113
      1.76666667	      0.01275915	      0.02173847	      0.03880626
      1.78333333	      0.01298367	      0.02192890	      0.03823289
      1.80000000	      0.01314816	      0.02206737	      0.03857648
      1.81666667	      0.01325472	      0.02215662	      0.03888377
      1.83333333	      0.01275771	      0.02173725	      0.03801318
      1.85000000	      0.01246023	      0.02148232	      0.03767350
      1.86666667	      0.01213018	      0.02119590	      0.03737629
      1.88333333	      0.01183936	      0.02094026	      0.03744392
      1.90000000	      0.01161787	      0.02074347	      0.03779241
      1.91666667	      0.01150897	      0.02064602	      0.03838230
      1.93333333	      0.01160191	      0.02072921	      0.03915989
      1.95000000	      0.01200735	      0.02108831	      0.03994251
      1.96666667	      0.01250509	      0.02152095	      0.04067572
      1.98333333	      0.01325465	      0.02215655	      0.04171721
      2.00000000	      0.01387371	      0.02266806	      0.04212713
      2.01666667	      0.01415093	      0.02289342	      0.04302283
      2.03333333	      0.01423444	      0.02296087	      0.04404604
      2.05000000	      0.01421911	      0.02294850	      0.04439439
      2.06666667	      0.01435441	      0.02305742	      0.04364923
      2.08333333	      0.01468767	      0.02332355	      0.04331320
      2.10000000	      0.01530283	      0.02380696	      0.04370288
      2.11666667	      0.01590473	      0.02427064	      0.04419420
      2.13333333	      0.01637065	      0.02462357	      0.04380020
      2.15000000	      0.01626030	      0.02454044	      0.04336314
      2.16666667	      0.01657168	      0.02477430	      0.04344840
      2.18333333	      0.01680994	      0.02495176	      0.04352592
      2.20000000	      0.01688277	      0.02500575	      0.04522333
      2.21666667	      0.01679567	      0.02494117	      0.04742277
      2.23333333	      0.01648616	      0.02471029	      0.04922803
      2.25000000	      0.01613075	      0.02444248	      0.05056151
      2.26666667	      0.01587973	      0.02425156	      0.05127864
      2.28333333	      0.01590987	      0.02427457	      0.05135904
      2.30000000	      0.01641492	      0.02465685	      0.05120139
      2.31666667	      0.01732454	      0.02533080	      0.05080814
      2.33333333	      0.01826455	      0.02600894	      0.05012774
      2.35000000	      0.01895644	      0.02649699	      0.05425659
      2.36666667	      0.01918184	      0.02665405	      0.05623497
      2.38333333	      0.01922949	      0.02668714	      0.05596491
      2.40000000	      0.01921058	      0.02667401	      0.05245846
      2.41666667	      0.01921977	      0.02668039	      0.05434577
      2.43333333	      0.01934244	      0.02676540	      0.05810011
      2.45000000	      0.01874894	      0.02635157	      0.06204479
      2.46666667	      0.01802244	      0.02583598	      0.05987480
      2.48333333	      0.01758823	      0.02552285	      0.05828546
      2.50000000	      0.01748126	      0.02544512	      0.05763846
      2.51666667	      0.01757158	      0.02551077	      0.05718426
      2.53333333	      0.01724390	      0.02527178	      0.06570944
      2.55000000	      0.01750067	      0.02545924	      0.07239151
      2.56666667	      0.01879573	      0.02638443	      0.07651341
      2.58333333	      0.02115203	      0.02798944	      0.07799508
      2.60000000	      0.02332127	      0.02938963	      0.07779331
      2.61666667	      0.02346186	      0.02947809	      0.07701644
      2.63333333	      0.02118463	      0.02801100	      0.07624417
      2.65000000	      0.01948555	      0.02686424	      0.07566110
      2.66666667	      0.02193625	      0.02850357	      0.07570580
      2.68333333	      0.02918995	      0.03288022	      0.10123622
      2.70000000	      0.03881160	      0.03791394	      0.13276835
      2.71666667	      0.04690054	      0.04167801	      0.15426330
      2.73333333	      0.05136708	      0.04361748	      0.16469335
      2.75000000	      0.05258179	      0.04413019	      0.16701116
      2.76666667	      0.05196872	      0.04387217	      0.16458236
      2.78333333	      0.05095160	      0.04344072	      0.16060932
      2.80000000	      0.05046717	      0.04323372	      0.15832221
      2.81666667	      0.05052074	      0.04325666	      0.15754076
      2.83333333	      0.05081799	      0.04338373	      0.15736910
      2.85000000	      0.05114130	      0.04352152	      0.15739640
      2.86666667	      0.05144298	      0.04364969	      0.15754323
      2.88333333	      0.05171977	      0.04376696	      0.15763182
      2.90000000	      0.05202306	      0.04389510	      0.15793663
      2.91666667	      0.05230837	      0.04401530	      0.15793929
      2.93333333	      0.05268979	      0.04417549	      0.15805992
      2.95000000	      0.05306090	      0.04433078	      0.15803818
      2.96666667	      0.05352596	      0.04452463	      0.15797501
      2.98333333	      0.05398756	      0.04471621	      0.15797643
      3.00000000	      0.05424717	      0.04482359	      0.15793593
      3.01666667	      0.05429994	      0.04484539	      0.15801860
      3.03333333	      0.05417449	      0.04479355	      0.15814683
      3.05000000	      0.05398532	      0.04471528	      0.15835411
      3.06666667	      0.05377884	      0.04462969	      0.15864153
      3.08333333	      0.05355239	      0.04453562	      0.15879828
      3.10000000	      0.05329825	      0.04442983	      0.15890080
      3.11666667	      0.05310551	      0.04434942	      0.15890249
      3.13333333	      0.05303583	      0.04432031	      0.15897430
      3.15000000	      0.05294229	      0.04428121	      0.15823751
      3.16666667	      0.05303273	      0.04431901	      0.15821185
      3.18333333	      0.05310645	      0.04434981	      0.15800454
      3.20000000	      0.05295529	      0.04428665	      0.15717224
      3.21666667	      0.05281618	      0.04422844	      0.15697958
      3.23333333	      0.05273184	      0.04419311	      0.15738866
      3.25000000	      0.05219107	      0.04396593	      0.15676410
      3.26666667	      0.05199338	      0.04388258	      0.15708497
      3.28333333	      0.05163582	      0.04373143	      0.15684862
      3.30000000	      0.05145625	      0.04365532	      0.15664347
      3.31666667	      0.05138871	      0.04362666	      0.15668472
      3.33333333	      0.05141926	      0.04363963	      0.15662452
      3.35000000	      0.05156123	      0.04369983	      0.15664715
      3.36666667	      0.05168441	      0.04375200	      0.15652308
      3.38333333	      0.05178251	      0.04379350	      0.15646146
      3.40000000	      0.05184186	      0.04381859	      0.15646388
      3.41666667	      0.05189089	      0.04383931	      0.15642490
      3.43333333	      0.05195682	      0.04386715	      0.15642531
      3.45000000	      0.05200683	      0.04388825	      0.15642262
      3.46666667	      0.05206214	      0.04391158	      0.15650658
      3.48333333	      0.05207951	      0.04391891	      0.15666365
      3.50000000	      0.05212399	      0.04393766	      0.15668801
      3.51666667	      0.05221835	      0.04397741	      0.15694248
      3.53333333	      0.05223698	      0.04398526	      0.15635792
      3.55000000	      0.05249154	      0.04409230	      0.15615348
      3.56666667	      0.05302039	      0.04431386	      0.15590409
      3.58333333	      0.05380718	      0.04464145	      0.15578657
      3.60000000	      0.05491022	      0.04509670	      0.15595545
      3.61666667	      0.05604569	      0.04556058	      0.15613157
      3.63333333	      0.05705274	      0.04596808	      0.15645389
      3.65000000	      0.05784092	      0.04628451	      0.15680127
      3.66666667	      0.05832540	      0.04647795	      0.15700053
      3.68333333	      0.05845087	      0.04652792	      0.15722792
      3.70000000	      0.05833282	      0.04648091	      0.15750525
      3.71666667	      0.05794822	      0.04632743	      0.15731484
      3.73333333	      0.05748228	      0.04614080	      0.15710684
      3.75000000	      0.05698102	      0.04593918	      0.15684204
      3.76666667	      0.05641585	      0.04571079	      0.15676052
      3.78333333	      0.05577299	      0.04544960	      0.15642427
      3.80000000	      0.05519799	      0.04521471	      0.15645973
      3.81666667	      0.05477686	      0.04504190	      0.15643486
      3.83333333	      0.05460904	      0.04497285	      0.15639747
      3.85000000	      0.05471354	      0.04501586	      0.15647683
      3.86666667	      0.05492977	      0.04510472	      0.15651551
      3.88333333	      0.05511945	      0.04518253	      0.15648882
      3.90000000	      0.05514741	      0.04519399	      0.15644573
      3.91666667	      0.05489001	      0.04508839	      0.15622470
      3.93333333	      0.05437391	      0.04487593	      0.15607875
      3.95000000	      0.05381624	      0.04464520	      0.15651826
      3.96666667	      0.05362658	      0.04456646	      0.15880352
      3.98333333	      0.05390256	      0.04468099	      0.16253475
      4.00000000	      0.05365340	      0.04457760	      0.16499402
      4.01666667	      0.05140461	      0.04363341	      0.16196166
      4.03333333	      0.04688406	      0.04167069	      0.15174481
      4.05000000	      0.04136856	      0.03914293	      0.13765154
      4.06666667	      0.03569080	      0.03635769	      0.11958673
      4.08333333	      0.03080365	      0.03377685	      0.09559749
      4.10000000	      0.02781189	      0.03209470	      0.06880945
      4.11666667	      0.02670447	      0.03144923	      0.05370330
      4.13333333	      0.02606198	      0.03106861	      0.05412774
      4.15000000	      0.02439401	      0.03005798	      0.05220869
      4.16666667	      0.02176057	      0.02838921	      0.04863973
      4.18333333	      0.01899355	      0.02652291	      0.04031956
      4.20000000	      0.01697653	      0.02507510	      0.04064579
      4.21666667	      0.01578745	      0.02418099	      0.04191124
      4.23333333	      0.01548636	      0.02394930	      0.04302884
      4.25000000	      0.01573045	      0.02413730	      0.04320369
      4.26666667	      0.01629214	      0.02456446	      0.04153993
      4.28333333	      0.01721542	      0.02525090	      0.03906568
      4.30000000	      0.01848456	      0.02616512	      0.04056846
      4.31666667	      0.01971971	      0.02702516	      0.04196953
      4.33333333	      0.02036156	      0.02746146	      0.04058542
      4.35000000	      0.02019133	      0.02734642	      0.04474054
      4.36666667	      0.01891186	      0.02646581	      0.04614229
      4.38333333	      0.01732672	      0.02533239	      0.04085895
      4.40000000	      0.01621353	      0.02450512	      0.03760468
      4.41666667	      0.01565783	      0.02408152	      0.03762758
      4.43333333	      0.01531869	      0.02381930	      0.03808341
      4.45000000	      0.01509097	      0.02364159	      0.03872556
      4.46666667	      0.01467584	      0.02331415	      0.03969546
      4.48333333	      0.01448028	      0.02315830	      0.04069692
      4.50000000	      0.01437514	      0.02307406	      0.04179110
      4.51666667	      0.01451847	      0.02318881	      0.04331537
      4.53333333	      0.01491493	      0.02350329	      0.04478021
      4.55000000	      0.01550427	      0.02396314	      0.04605843
      4.56666667	      0.01617259	      0.02447416	      0.04725772
      4.58333333	      0.01696806	      0.02506884	      0.04856630
      4.60000000	      0.01798319	      0.02580783	      0.05264972
      4.61666667	      0.01922547	      0.02668435	      0.05678073
      4.63333333	      0.02060505	      0.02762517	      0.06040290
      4.65000000	      0.02207034	      0.02859056	      0.06421626
      4.66666667	      0.02378037	      0.02967751	      0.06839978
      4.68333333	      0.02610450	      0.03109394	      0.07133266
      4.70000000	      0.02885981	      0.03269376	      0.07560548
      4.71666667	      0.03174786	      0.03429062	      0.07828503
      4.73333333	      0.03390567	      0.03543678	      0.08049092
      4.75000000	      0.02560826	      0.03079698	      0.05628161
      4.76666667	      0.02481470	      0.03031605	      0.05698524
      4.78333333	      0.02338538	      0.02943000	      0.05527542
      4.80000000	      0.02213273	      0.02863094	      0.05146160
      4.81666667	      0.02142609	      0.02817018	      0.05118439
      4.83333333	      0.02105462	      0.02792491	      0.05248915
      4.85000000	      0.02064067	      0.02764904	      0.05416875
      4.86666667	      0.02010329	      0.02728674	      0.05572295
      4.88333333	      0.01947966	      0.02686017	      0.05628395
      4.90000000	      0.01895155	      0.02649357	      0.05571328
      4.91666667	      0.01857009	      0.02622558	      0.05423728
      4.93333333	      0.01834585	      0.02606676	      0.05221216
      4.95000000	      0.01825080	      0.02599914	      0.05015748
      4.96666667	      0.01828048	      0.02602027	      0.04850137
      4.98333333	      0.01837390	      0.02608668	      0.04758454
      5.00000000	      0.01846371	      0.02615035	      0.04773059
      5.01666667	      0.01844237	      0.02613524	      0.04825937
      5.03333333	      0.01825376	      0.02600125	      0.04901674
      5.05000000	      0.01800682	      0.02582478	      0.04990576
      5.06666667	      0.01830703	      0.02603916	      0.05069615
