Model Marker Errors from IK
version=1
nRows=283
nColumns=4
inDegrees=no
endheader
time	total_squared_error	marker_error_RMS	marker_error_max
      0.00000000	      0.02451760	      0.03013402	      0.05218428
      0.01694915	      0.02165737	      0.02832181	      0.04788913
      0.03389831	      0.01994287	      0.02717765	      0.04573376
      0.05084746	      0.01890632	      0.02646193	      0.04732113
      0.06779661	      0.01832234	      0.02605005	      0.04855162
      0.08474576	      0.01799566	      0.02581677	      0.04970983
      0.10169492	      0.01796371	      0.02579385	      0.05059496
      0.11864407	      0.01808651	      0.02588186	      0.05140623
      0.13559322	      0.01833733	      0.02606070	      0.05205667
      0.15254237	      0.01867608	      0.02630032	      0.05255165
      0.16949153	      0.01903978	      0.02655517	      0.05293920
      0.18644068	      0.01934650	      0.02676821	      0.05318658
      0.20338983	      0.01952623	      0.02689226	      0.05320778
      0.22033898	      0.01945896	      0.02684589	      0.05272666
      0.23728814	      0.01937940	      0.02679096	      0.05266834
      0.25423729	      0.01923669	      0.02669213	      0.05243190
      0.27118644	      0.01919118	      0.02666054	      0.05256360
      0.28813559	      0.01919802	      0.02666529	      0.05271061
      0.30508475	      0.01919109	      0.02666048	      0.05276758
      0.32203390	      0.01909009	      0.02659023	      0.05272286
      0.33898305	      0.01890345	      0.02645993	      0.05257705
      0.35593220	      0.01867564	      0.02630000	      0.05224655
      0.37288136	      0.01847147	      0.02615585	      0.05197911
      0.38983051	      0.01836809	      0.02608255	      0.05185619
      0.40677966	      0.01837932	      0.02609053	      0.05188153
      0.42372881	      0.01851421	      0.02618609	      0.05198897
      0.44067797	      0.01875650	      0.02635688	      0.05229193
      0.45762712	      0.01902885	      0.02654755	      0.05277700
      0.47457627	      0.01926045	      0.02670861	      0.05340168
      0.49152542	      0.01940888	      0.02681133	      0.05418471
      0.50847458	      0.01951629	      0.02688542	      0.05506249
      0.52542373	      0.01955967	      0.02691528	      0.05569831
      0.54237288	      0.01959059	      0.02693655	      0.05629105
      0.55932203	      0.01958712	      0.02693416	      0.05664337
      0.57627119	      0.01955904	      0.02691484	      0.05669990
      0.59322034	      0.01951059	      0.02688149	      0.05659945
      0.61016949	      0.01951047	      0.02688141	      0.05651002
      0.62711864	      0.01957496	      0.02692580	      0.05669560
      0.64406780	      0.01967169	      0.02699224	      0.05705627
      0.66101695	      0.01969675	      0.02700943	      0.05731479
      0.67796610	      0.01961782	      0.02695526	      0.05726348
      0.69491525	      0.01948318	      0.02686260	      0.05688651
      0.71186441	      0.01937233	      0.02678608	      0.05659555
      0.72881356	      0.01931316	      0.02674513	      0.05659926
      0.74576271	      0.01924439	      0.02669747	      0.05641637
      0.76271186	      0.01923686	      0.02669225	      0.05661868
      0.77966102	      0.01935211	      0.02677209	      0.05690860
      0.79661017	      0.01959995	      0.02694298	      0.05709867
      0.81355932	      0.01993031	      0.02716909	      0.05693967
      0.83050847	      0.02022882	      0.02737180	      0.05629903
      0.84745763	      0.02045224	      0.02752254	      0.05524778
      0.86440678	      0.02063868	      0.02764771	      0.05416585
      0.88135593	      0.02083159	      0.02777661	      0.05355313
      0.89830508	      0.02100609	      0.02789271	      0.05389760
      0.91525424	      0.02108292	      0.02794367	      0.05419971
      0.93220339	      0.02106730	      0.02793332	      0.05441418
      0.94915254	      0.02108561	      0.02794546	      0.05494585
      0.96610169	      0.02137069	      0.02813373	      0.05610931
      0.98305085	      0.02219903	      0.02867379	      0.05802474
      1.00000000	      0.02371714	      0.02963803	      0.06087242
      1.01694915	      0.02564482	      0.03081896	      0.06405748
      1.03389831	      0.02724747	      0.03176736	      0.06649212
      1.05084746	      0.02817722	      0.03230481	      0.06751621
      1.06779661	      0.02840183	      0.03243331	      0.06692081
      1.08474576	      0.02822355	      0.03233135	      0.06465994
      1.10169492	      0.02782312	      0.03210118	      0.06396714
      1.11864407	      0.02724795	      0.03176764	      0.06306348
      1.13559322	      0.02662470	      0.03140223	      0.06162233
      1.15254237	      0.02606586	      0.03107093	      0.05971522
      1.16949153	      0.02554660	      0.03075988	      0.05781792
      1.18644068	      0.02505392	      0.03046183	      0.05629711
      1.20338983	      0.02457012	      0.03016628	      0.05465815
      1.22033898	      0.02425066	      0.02996953	      0.05288966
      1.23728814	      0.02417902	      0.02992523	      0.05252154
      1.25423729	      0.02464762	      0.03021382	      0.05445260
      1.27118644	      0.02532756	      0.03062773	      0.05686423
      1.28813559	      0.02562541	      0.03080729	      0.05873661
      1.30508475	      0.02532634	      0.03062699	      0.05986696
      1.32203390	      0.02445170	      0.03009350	      0.06055013
      1.33898305	      0.02308049	      0.02923753	      0.05894525
      1.35593220	      0.02159556	      0.02828136	      0.05713458
      1.37288136	      0.02027275	      0.02740151	      0.05369935
      1.38983051	      0.01879617	      0.02638474	      0.04913268
      1.40677966	      0.01792545	      0.02576637	      0.04686499
      1.42372881	      0.01782575	      0.02569461	      0.04601048
      1.44067797	      0.01863875	      0.02627402	      0.04556636
      1.45762712	      0.02020992	      0.02735901	      0.04563963
      1.47457627	      0.02218737	      0.02866626	      0.05105225
      1.49152542	      0.02442521	      0.03007719	      0.05672491
      1.50847458	      0.02689272	      0.03155989	      0.06190057
      1.52542373	      0.02880660	      0.03266361	      0.06547553
      1.54237288	      0.02942802	      0.03301404	      0.06608948
      1.55932203	      0.02977714	      0.03320929	      0.06435757
      1.57627119	      0.03126847	      0.03403074	      0.07280079
      1.59322034	      0.03340071	      0.03517191	      0.07868943
      1.61016949	      0.03446006	      0.03572532	      0.07914786
      1.62711864	      0.03340712	      0.03517529	      0.07757887
      1.64406780	      0.03065065	      0.03369287	      0.07339267
      1.66101695	      0.02744486	      0.03188222	      0.06489773
      1.67796610	      0.02531669	      0.03062116	      0.05852401
      1.69491525	      0.02489162	      0.03036300	      0.05739468
      1.71186441	      0.02541728	      0.03068193	      0.05586405
      1.72881356	      0.02586868	      0.03095318	      0.05404116
      1.74576271	      0.02591495	      0.03098085	      0.05299391
      1.76271186	      0.02587620	      0.03095768	      0.05277183
      1.77966102	      0.02618040	      0.03113911	      0.05251336
      1.79661017	      0.02684606	      0.03153250	      0.05188636
      1.81355932	      0.02752801	      0.03193049	      0.05170859
      1.83050847	      0.02771726	      0.03204005	      0.05103355
      1.84745763	      0.02704420	      0.03164865	      0.05107092
      1.86440678	      0.02552777	      0.03074854	      0.05131671
      1.88135593	      0.02381811	      0.02970105	      0.05222189
      1.89830508	      0.02258934	      0.02892477	      0.05308268
      1.91525424	      0.02217769	      0.02866000	      0.05382738
      1.93220339	      0.02226768	      0.02871809	      0.05257671
      1.94915254	      0.02324965	      0.02934448	      0.05368608
      1.96610169	      0.02491867	      0.03037950	      0.05578801
      1.98305085	      0.02703296	      0.03164207	      0.05754393
      2.00000000	      0.02896439	      0.03275294	      0.05833964
      2.01694915	      0.03024394	      0.03346858	      0.06141524
      2.03389831	      0.03102524	      0.03389813	      0.06199381
      2.05084746	      0.03226902	      0.03457093	      0.07004595
      2.06779661	      0.03447360	      0.03573234	      0.07758578
      2.08474576	      0.03666068	      0.03684838	      0.08150366
      2.10169492	      0.03754163	      0.03728848	      0.08346776
      2.11864407	      0.03676546	      0.03690100	      0.08069496
      2.13559322	      0.03516559	      0.03608918	      0.07533336
      2.15254237	      0.03363774	      0.03529649	      0.07189618
      2.16949153	      0.03246095	      0.03467358	      0.07175266
      2.18644068	      0.03149693	      0.03415484	      0.07357671
      2.20338983	      0.03038676	      0.03354751	      0.07383163
      2.22033898	      0.02893221	      0.03273474	      0.06944529
      2.23728814	      0.02734741	      0.03182557	      0.06121020
      2.25423729	      0.02616474	      0.03112980	      0.05948711
      2.27118644	      0.02574732	      0.03088049	      0.05942922
      2.28813559	      0.02584372	      0.03093824	      0.05897467
      2.30508475	      0.02614776	      0.03111970	      0.05851555
      2.32203390	      0.02652218	      0.03134171	      0.05806652
      2.33898305	      0.02674871	      0.03147527	      0.05763489
      2.35593220	      0.02660774	      0.03139222	      0.05725037
      2.37288136	      0.02587222	      0.03095530	      0.05697456
      2.38983051	      0.02444964	      0.03009223	      0.05631142
      2.40677966	      0.02271042	      0.02900218	      0.05576963
      2.42372881	      0.02120455	      0.02802416	      0.05503399
      2.44067797	      0.02021357	      0.02736148	      0.05395501
      2.45762712	      0.01975748	      0.02705104	      0.05268932
      2.47457627	      0.01964666	      0.02697506	      0.05116454
      2.49152542	      0.01964947	      0.02697699	      0.04990439
      2.50847458	      0.01976580	      0.02705673	      0.04865877
      2.52542373	      0.02033301	      0.02744220	      0.04748781
      2.54237288	      0.02164145	      0.02831140	      0.04624397
      2.55932203	      0.02343305	      0.02945999	      0.04779308
      2.57627119	      0.02497477	      0.03041367	      0.04899302
      2.59322034	      0.02566643	      0.03083194	      0.05135936
      2.61016949	      0.02579810	      0.03091092	      0.05154591
      2.62711864	      0.02657857	      0.03137501	      0.06288549
      2.64406780	      0.02869861	      0.03260232	      0.07800674
      2.66101695	      0.03119182	      0.03398901	      0.08892536
      2.67796610	      0.03231600	      0.03459608	      0.09274011
      2.69491525	      0.03128625	      0.03404042	      0.08884749
      2.71186441	      0.02917995	      0.03287460	      0.07838072
      2.72881356	      0.02818304	      0.03230815	      0.06702747
      2.74576271	      0.02921069	      0.03289190	      0.05846498
      2.76271186	      0.03103370	      0.03390275	      0.06080509
      2.77966102	      0.03197347	      0.03441224	      0.06584196
      2.79661017	      0.03147753	      0.03414432	      0.06753305
      2.81355932	      0.03002026	      0.03334459	      0.06601421
      2.83050847	      0.02824215	      0.03234201	      0.06109424
      2.84745763	      0.02679501	      0.03150250	      0.05514238
      2.86440678	      0.02597710	      0.03101797	      0.05329165
      2.88135593	      0.02542651	      0.03068750	      0.05832270
      2.89830508	      0.02452354	      0.03013767	      0.05961857
      2.91525424	      0.02328746	      0.02936832	      0.05489203
      2.93220339	      0.02265915	      0.02896943	      0.05525529
      2.94915254	      0.02358414	      0.02955481	      0.05457487
      2.96610169	      0.02562384	      0.03080635	      0.05253763
      2.98305085	      0.02736156	      0.03183380	      0.05269437
      3.00000000	      0.02772042	      0.03204188	      0.05373249
      3.01694915	      0.02689722	      0.03156253	      0.05208162
      3.03389831	      0.02556768	      0.03077257	      0.05012637
      3.05084746	      0.02454496	      0.03015083	      0.04662674
      3.06779661	      0.02418777	      0.02993064	      0.04506768
      3.08474576	      0.02419519	      0.02993523	      0.04431573
      3.10169492	      0.02428765	      0.02999237	      0.04528258
      3.11864407	      0.02455098	      0.03015453	      0.04666067
      3.13559322	      0.02502412	      0.03044371	      0.04955556
      3.15254237	      0.02539035	      0.03066567	      0.05153061
      3.16949153	      0.02514769	      0.03051878	      0.05096279
      3.18644068	      0.02461621	      0.03019456	      0.05089156
      3.20338983	      0.02429424	      0.02999644	      0.05271920
      3.22033898	      0.02466561	      0.03022484	      0.05285987
      3.23728814	      0.02568546	      0.03084337	      0.05305000
      3.25423729	      0.02659432	      0.03138431	      0.05462056
      3.27118644	      0.02667579	      0.03143234	      0.05474789
      3.28813559	      0.02623430	      0.03117115	      0.05404029
      3.30508475	      0.02667674	      0.03143291	      0.05852467
      3.32203390	      0.02900159	      0.03277397	      0.06975616
      3.33898305	      0.03301226	      0.03496679	      0.08574933
      3.35593220	      0.03753253	      0.03728396	      0.09963466
      3.37288136	      0.04102578	      0.03898042	      0.10893495
      3.38983051	      0.04164279	      0.03927245	      0.11033803
      3.40677966	      0.03939787	      0.03819922	      0.10272635
      3.42372881	      0.03644333	      0.03673898	      0.09374621
      3.44067797	      0.03364803	      0.03530189	      0.08587480
      3.45762712	      0.03120330	      0.03399526	      0.08059399
      3.47457627	      0.02910286	      0.03283114	      0.07220392
      3.49152542	      0.02749064	      0.03190881	      0.06303740
      3.50847458	      0.02638479	      0.03126043	      0.06196925
      3.52542373	      0.02564240	      0.03081750	      0.06265290
      3.54237288	      0.02517962	      0.03053815	      0.06275895
      3.55932203	      0.02498046	      0.03041714	      0.06244493
      3.57627119	      0.02500915	      0.03043460	      0.06626907
      3.59322034	      0.02534069	      0.03063566	      0.06963288
      3.61016949	      0.02598311	      0.03102156	      0.07036135
      3.62711864	      0.02655465	      0.03136089	      0.06815315
      3.64406780	      0.02657405	      0.03137234	      0.06420411
      3.66101695	      0.02621220	      0.03115802	      0.06073276
      3.67796610	      0.02601826	      0.03104254	      0.05929639
      3.69491525	      0.02635936	      0.03124536	      0.06061414
      3.71186441	      0.02703754	      0.03164475	      0.06373254
      3.72881356	      0.02784909	      0.03211616	      0.06709146
      3.74576271	      0.02844068	      0.03245549	      0.06911584
      3.76271186	      0.02861003	      0.03255197	      0.06814986
      3.77966102	      0.02828598	      0.03236710	      0.06337967
      3.79661017	      0.02754568	      0.03194073	      0.05877772
      3.81355932	      0.02649953	      0.03132833	      0.05869707
      3.83050847	      0.02523230	      0.03057008	      0.05691593
      3.84745763	      0.02411025	      0.02988264	      0.05363306
      3.86440678	      0.02343667	      0.02946226	      0.05102335
      3.88135593	      0.02361321	      0.02957302	      0.05110516
      3.89830508	      0.02479645	      0.03030490	      0.05097490
      3.91525424	      0.02595957	      0.03100751	      0.05199946
      3.93220339	      0.02669059	      0.03144106	      0.05215027
      3.94915254	      0.02720943	      0.03174518	      0.05136149
      3.96610169	      0.02752210	      0.03192706	      0.05103277
      3.98305085	      0.02755264	      0.03194477	      0.05098464
      4.00000000	      0.02735389	      0.03182935	      0.05067475
      4.01694915	      0.02721889	      0.03175070	      0.05032319
      4.03389831	      0.02727873	      0.03178558	      0.05002513
      4.05084746	      0.02742821	      0.03187255	      0.04941449
      4.06779661	      0.02749495	      0.03191131	      0.04875828
      4.08474576	      0.02765162	      0.03200210	      0.05077619
      4.10169492	      0.02768227	      0.03201983	      0.05126766
      4.11864407	      0.02768006	      0.03201855	      0.05277653
      4.13559322	      0.02753334	      0.03193358	      0.05386327
      4.15254237	      0.02732727	      0.03181385	      0.05442216
      4.16949153	      0.02716266	      0.03171789	      0.05426456
      4.18644068	      0.02706718	      0.03166209	      0.05347949
      4.20338983	      0.02698828	      0.03161591	      0.05180385
      4.22033898	      0.02690672	      0.03156810	      0.04910368
      4.23728814	      0.02681246	      0.03151276	      0.04788949
      4.25423729	      0.02660831	      0.03139256	      0.04885825
      4.27118644	      0.02619488	      0.03114772	      0.04980469
      4.28813559	      0.02558695	      0.03078417	      0.04994974
      4.30508475	      0.02493959	      0.03039224	      0.04946077
      4.32203390	      0.02435302	      0.03003271	      0.04861220
      4.33898305	      0.02389788	      0.02975074	      0.04851059
      4.35593220	      0.02359642	      0.02956250	      0.04923442
      4.37288136	      0.02344268	      0.02946604	      0.05049710
      4.38983051	      0.02339204	      0.02943420	      0.05142467
      4.40677966	      0.02338456	      0.02942949	      0.05181793
      4.42372881	      0.02335619	      0.02941163	      0.05120733
      4.44067797	      0.02326622	      0.02935493	      0.05005965
      4.45762712	      0.02312181	      0.02926369	      0.04820423
      4.47457627	      0.02290854	      0.02912842	      0.04946942
      4.49152542	      0.02271540	      0.02900536	      0.05063641
      4.50847458	      0.02254494	      0.02889633	      0.05157728
      4.52542373	      0.02235053	      0.02877147	      0.05196167
      4.54237288	      0.02217430	      0.02865781	      0.05178490
      4.55932203	      0.02219930	      0.02867397	      0.05106253
      4.57627119	      0.02246973	      0.02884809	      0.05011163
      4.59322034	      0.02291105	      0.02913001	      0.04871224
      4.61016949	      0.02349324	      0.02949780	      0.04717666
      4.62711864	      0.02404176	      0.02984017	      0.04671138
      4.64406780	      0.02452943	      0.03014129	      0.04827302
      4.66101695	      0.02494386	      0.03039485	      0.04955772
      4.67796610	      0.02524768	      0.03057939	      0.05059457
      4.69491525	      0.02547990	      0.03071970	      0.05170056
      4.71186441	      0.02570777	      0.03085676	      0.05300539
      4.72881356	      0.02587510	      0.03095702	      0.05443262
      4.74576271	      0.02607968	      0.03107916	      0.05607636
      4.76271186	      0.02632648	      0.03122587	      0.05829987
      4.77966102	      0.02663833	      0.03141027	      0.06095931
