Model Marker Errors from IK
version=1
nRows=295
nColumns=4
inDegrees=no
endheader
time	total_squared_error	marker_error_RMS	marker_error_max
      0.00000000	      0.01860498	      0.02625021	      0.05258756
      0.01694915	      0.01839916	      0.02610461	      0.04949758
      0.03389831	      0.01828322	      0.02602222	      0.04721947
      0.05084746	      0.01809341	      0.02588679	      0.04538614
      0.06779661	      0.01781723	      0.02568847	      0.04415031
      0.08474576	      0.01751754	      0.02547151	      0.04392690
      0.10169492	      0.01729196	      0.02530698	      0.04384297
      0.11864407	      0.01717482	      0.02522111	      0.04390525
      0.13559322	      0.01720052	      0.02523997	      0.04416205
      0.15254237	      0.01734815	      0.02534806	      0.04410154
      0.16949153	      0.01761795	      0.02554441	      0.04492935
      0.18644068	      0.01793033	      0.02576987	      0.04535761
      0.20338983	      0.01823614	      0.02598870	      0.04563162
      0.22033898	      0.01850419	      0.02617901	      0.04601594
      0.23728814	      0.01873117	      0.02633908	      0.04627829
      0.25423729	      0.01888624	      0.02644788	      0.04611192
      0.27118644	      0.01899114	      0.02652123	      0.04573293
      0.28813559	      0.01904032	      0.02655554	      0.04520920
      0.30508475	      0.01904407	      0.02655816	      0.04458883
      0.32203390	      0.01896776	      0.02650490	      0.04396820
      0.33898305	      0.01887293	      0.02643856	      0.04394767
      0.35593220	      0.01873339	      0.02634064	      0.04395862
      0.37288136	      0.01862672	      0.02626554	      0.04396183
      0.38983051	      0.01855602	      0.02621564	      0.04406365
      0.40677966	      0.01855583	      0.02621551	      0.04486636
      0.42372881	      0.01858246	      0.02623431	      0.04560913
      0.44067797	      0.01860081	      0.02624727	      0.04616215
      0.45762712	      0.01860732	      0.02625185	      0.04681739
      0.47457627	      0.01860945	      0.02625336	      0.04738612
      0.49152542	      0.01863477	      0.02627121	      0.04756400
      0.50847458	      0.01873433	      0.02634130	      0.04791105
      0.52542373	      0.01889172	      0.02645172	      0.04816822
      0.54237288	      0.01900705	      0.02653233	      0.04815837
      0.55932203	      0.01903405	      0.02655117	      0.04810216
      0.57627119	      0.01891860	      0.02647053	      0.04857343
      0.59322034	      0.01875500	      0.02635583	      0.04959395
      0.61016949	      0.01851109	      0.02618388	      0.05065303
      0.62711864	      0.01834853	      0.02606866	      0.05092567
      0.64406780	      0.01824472	      0.02599481	      0.05104565
      0.66101695	      0.01826789	      0.02601131	      0.05087588
      0.67796610	      0.01837690	      0.02608881	      0.05086815
      0.69491525	      0.01865431	      0.02628499	      0.05098172
      0.71186441	      0.01907774	      0.02658163	      0.05223239
      0.72881356	      0.01957630	      0.02692672	      0.05317962
      0.74576271	      0.02015441	      0.02732141	      0.05424380
      0.76271186	      0.02056811	      0.02760039	      0.05442426
      0.77966102	      0.02081302	      0.02776423	      0.05269806
      0.79661017	      0.02115665	      0.02799249	      0.05178870
      0.81355932	      0.02195406	      0.02851515	      0.05221817
      0.83050847	      0.02311814	      0.02926136	      0.05267346
      0.84745763	      0.02409670	      0.02987424	      0.05300977
      0.86440678	      0.02438169	      0.03005038	      0.05382488
      0.88135593	      0.02387698	      0.02973773	      0.05375597
      0.89830508	      0.02312789	      0.02926753	      0.05412762
      0.91525424	      0.02269619	      0.02899310	      0.05427796
      0.93220339	      0.02289745	      0.02912136	      0.05710304
      0.94915254	      0.02337496	      0.02942344	      0.06067337
      0.96610169	      0.02359649	      0.02956255	      0.06443694
      0.98305085	      0.02344666	      0.02946854	      0.06791051
      1.00000000	      0.02305085	      0.02921875	      0.06987525
      1.01694915	      0.02253802	      0.02889189	      0.07024127
      1.03389831	      0.02180729	      0.02841966	      0.06915163
      1.05084746	      0.02110738	      0.02795988	      0.06676048
      1.06779661	      0.02029261	      0.02741493	      0.06419743
      1.08474576	      0.01931356	      0.02674541	      0.06038300
      1.10169492	      0.01848686	      0.02616675	      0.05692740
      1.11864407	      0.01782290	      0.02569256	      0.05342720
      1.13559322	      0.01734363	      0.02534476	      0.05067989
      1.15254237	      0.01714310	      0.02519781	      0.04832041
      1.16949153	      0.01719809	      0.02523819	      0.04641060
      1.18644068	      0.01737179	      0.02536533	      0.04649438
      1.20338983	      0.01773957	      0.02563242	      0.04653462
      1.22033898	      0.01823226	      0.02598594	      0.04774990
      1.23728814	      0.01904048	      0.02655566	      0.04843521
      1.25423729	      0.02013238	      0.02730648	      0.04964743
      1.27118644	      0.02142353	      0.02816849	      0.05057796
      1.28813559	      0.02266627	      0.02897398	      0.05781139
      1.30508475	      0.02378260	      0.02967890	      0.06475920
      1.32203390	      0.02461256	      0.03019232	      0.07077098
      1.33898305	      0.02528175	      0.03060002	      0.07659386
      1.35593220	      0.02576828	      0.03089305	      0.08225647
      1.37288136	      0.02588212	      0.03096122	      0.08612165
      1.38983051	      0.02543269	      0.03069123	      0.08725291
      1.40677966	      0.02443810	      0.03008513	      0.08598682
      1.42372881	      0.02323840	      0.02933737	      0.08337009
      1.44067797	      0.02213295	      0.02863108	      0.07964945
      1.45762712	      0.02143675	      0.02817719	      0.07673744
      1.47457627	      0.02123654	      0.02804529	      0.07479827
      1.49152542	      0.02149867	      0.02821785	      0.07442313
      1.50847458	      0.02194719	      0.02851068	      0.07579145
      1.52542373	      0.02265847	      0.02896899	      0.07784444
      1.54237288	      0.02332743	      0.02939352	      0.07995380
      1.55932203	      0.02378486	      0.02968031	      0.08146765
      1.57627119	      0.02396389	      0.02979180	      0.08266608
      1.59322034	      0.02377408	      0.02967358	      0.08266858
      1.61016949	      0.02350402	      0.02950456	      0.08337262
      1.62711864	      0.02325344	      0.02934687	      0.08458111
      1.64406780	      0.02318218	      0.02930187	      0.08675131
      1.66101695	      0.02340246	      0.02944075	      0.08979782
      1.67796610	      0.02370118	      0.02962805	      0.09253224
      1.69491525	      0.02373648	      0.02965011	      0.09320052
      1.71186441	      0.02325889	      0.02935031	      0.09055838
      1.72881356	      0.02233241	      0.02875981	      0.08469048
      1.74576271	      0.02119863	      0.02802025	      0.07683313
      1.76271186	      0.02006162	      0.02725845	      0.06804156
      1.77966102	      0.01908103	      0.02658392	      0.05959147
      1.79661017	      0.01845153	      0.02614173	      0.05256707
      1.81355932	      0.01835781	      0.02607525	      0.04838672
      1.83050847	      0.01882005	      0.02640149	      0.04794916
      1.84745763	      0.01966976	      0.02699092	      0.05063302
      1.86440678	      0.02078720	      0.02774701	      0.05594179
      1.88135593	      0.02211010	      0.02861630	      0.06314224
      1.89830508	      0.02344059	      0.02946473	      0.07091198
      1.91525424	      0.02466952	      0.03022724	      0.07854730
      1.93220339	      0.02558884	      0.03078530	      0.08526498
      1.94915254	      0.02601254	      0.03103913	      0.08937413
      1.96610169	      0.02607358	      0.03107552	      0.09115309
      1.98305085	      0.02594030	      0.03099600	      0.09131927
      2.00000000	      0.02576294	      0.03088985	      0.09002270
      2.01694915	      0.02496221	      0.03040602	      0.08941740
      2.03389831	      0.02489035	      0.03036223	      0.08798162
      2.05084746	      0.02508269	      0.03047931	      0.08973807
      2.06779661	      0.02564390	      0.03081841	      0.09096985
      2.08474576	      0.02662659	      0.03140334	      0.09464253
      2.10169492	      0.02789684	      0.03214368	      0.09841289
      2.11864407	      0.02913943	      0.03285176	      0.10090705
      2.13559322	      0.02990252	      0.03327913	      0.10219314
      2.15254237	      0.02988494	      0.03326935	      0.10175304
      2.16949153	      0.02899803	      0.03277196	      0.09943290
      2.18644068	      0.02746268	      0.03189257	      0.09544931
      2.20338983	      0.02576531	      0.03089127	      0.08976302
      2.22033898	      0.02439013	      0.03005558	      0.08273802
      2.23728814	      0.02355020	      0.02953353	      0.07458560
      2.25423729	      0.02313378	      0.02927126	      0.06642005
      2.27118644	      0.02280148	      0.02906027	      0.05758328
      2.28813559	      0.02228105	      0.02872671	      0.04819962
      2.30508475	      0.02164266	      0.02831219	      0.04532957
      2.32203390	      0.02108214	      0.02794315	      0.04660313
      2.33898305	      0.02070676	      0.02769326	      0.04898333
      2.35593220	      0.02057358	      0.02760407	      0.05146662
      2.37288136	      0.02068322	      0.02767752	      0.05402752
      2.38983051	      0.02089978	      0.02782204	      0.05580000
      2.40677966	      0.02101000	      0.02789531	      0.05639966
      2.42372881	      0.02080063	      0.02775597	      0.05565317
      2.44067797	      0.02029187	      0.02741443	      0.05375487
      2.45762712	      0.01956110	      0.02691626	      0.05310026
      2.47457627	      0.01883651	      0.02641304	      0.05251494
      2.49152542	      0.01831878	      0.02604752	      0.05203773
      2.50847458	      0.01802733	      0.02583948	      0.05234965
      2.52542373	      0.01811187	      0.02590000	      0.05291746
      2.54237288	      0.01851547	      0.02618698	      0.05378956
      2.55932203	      0.01906961	      0.02657596	      0.05469970
      2.57627119	      0.01955486	      0.02691197	      0.05536814
      2.59322034	      0.01981143	      0.02708794	      0.05584646
      2.61016949	      0.01996863	      0.02719520	      0.05583736
      2.62711864	      0.02020596	      0.02735633	      0.05550812
      2.64406780	      0.02062860	      0.02764095	      0.05515932
      2.66101695	      0.02101374	      0.02789779	      0.05951331
      2.67796610	      0.02129158	      0.02808162	      0.06449397
      2.69491525	      0.02134402	      0.02811617	      0.06702103
      2.71186441	      0.02115603	      0.02799208	      0.06668361
      2.72881356	      0.02069951	      0.02768842	      0.06312794
      2.74576271	      0.02010293	      0.02728650	      0.05729654
      2.76271186	      0.01957532	      0.02692605	      0.05244349
      2.77966102	      0.01923774	      0.02669286	      0.05098048
      2.79661017	      0.01905490	      0.02656571	      0.04951357
      2.81355932	      0.01887080	      0.02643707	      0.04780270
      2.83050847	      0.01877114	      0.02636717	      0.04673694
      2.84745763	      0.01873554	      0.02634215	      0.04669667
      2.86440678	      0.01876191	      0.02636068	      0.04691208
      2.88135593	      0.01875613	      0.02635662	      0.04685208
      2.89830508	      0.01881098	      0.02639513	      0.04654367
      2.91525424	      0.01884759	      0.02642081	      0.04574599
      2.93220339	      0.01893148	      0.02647954	      0.04531747
      2.94915254	      0.01902600	      0.02654556	      0.04513165
      2.96610169	      0.01915236	      0.02663356	      0.04520278
      2.98305085	      0.01932468	      0.02675311	      0.04524397
      3.00000000	      0.01954671	      0.02690636	      0.04518011
      3.01694915	      0.01993988	      0.02717561	      0.04476144
      3.03389831	      0.02045023	      0.02752119	      0.04854877
      3.05084746	      0.02106101	      0.02792915	      0.05463883
      3.06779661	      0.02167405	      0.02833271	      0.05967421
      3.08474576	      0.02213294	      0.02863108	      0.06261760
      3.10169492	      0.02227504	      0.02872284	      0.06353614
      3.11864407	      0.02205408	      0.02858002	      0.06219211
      3.13559322	      0.02159190	      0.02827897	      0.06023657
      3.15254237	      0.02109226	      0.02794986	      0.05813196
      3.16949153	      0.02075857	      0.02772789	      0.05692878
      3.18644068	      0.02067192	      0.02766996	      0.05671762
      3.20338983	      0.02075661	      0.02772658	      0.05695146
      3.22033898	      0.02082161	      0.02776996	      0.05660662
      3.23728814	      0.02078460	      0.02774527	      0.05532654
      3.25423729	      0.02061882	      0.02763440	      0.05285061
      3.27118644	      0.02042922	      0.02750705	      0.04954581
      3.28813559	      0.02031335	      0.02742893	      0.04925594
      3.30508475	      0.02032009	      0.02743348	      0.04973932
      3.32203390	      0.02037655	      0.02747157	      0.04998461
      3.33898305	      0.02050475	      0.02755785	      0.04981476
      3.35593220	      0.02067129	      0.02766954	      0.04909481
      3.37288136	      0.02098393	      0.02787799	      0.04812076
      3.38983051	      0.02155110	      0.02825223	      0.04695183
      3.40677966	      0.02226254	      0.02871478	      0.04624574
      3.42372881	      0.02294594	      0.02915218	      0.05048764
      3.44067797	      0.02334466	      0.02940437	      0.05332822
      3.45762712	      0.02325683	      0.02934900	      0.05546983
      3.47457627	      0.02282472	      0.02907508	      0.05615092
      3.49152542	      0.02218191	      0.02866273	      0.05570558
      3.50847458	      0.02154303	      0.02824695	      0.05648400
      3.52542373	      0.02116152	      0.02799571	      0.05762619
      3.54237288	      0.02108602	      0.02794573	      0.05904112
      3.55932203	      0.02130600	      0.02809112	      0.06039147
      3.57627119	      0.02159207	      0.02827908	      0.06142853
      3.59322034	      0.02161006	      0.02829086	      0.06163722
      3.61016949	      0.02120580	      0.02802499	      0.06099695
      3.62711864	      0.02054746	      0.02758654	      0.05985873
      3.64406780	      0.01994320	      0.02717788	      0.05883156
      3.66101695	      0.01962776	      0.02696209	      0.05813249
      3.67796610	      0.01948893	      0.02686656	      0.05804619
      3.69491525	      0.01959662	      0.02694069	      0.05811815
      3.71186441	      0.01978823	      0.02707208	      0.05800019
      3.72881356	      0.01996056	      0.02718970	      0.05759065
      3.74576271	      0.02004085	      0.02724434	      0.05688283
      3.76271186	      0.01983288	      0.02710261	      0.05582628
      3.77966102	      0.01965166	      0.02697850	      0.05450110
      3.79661017	      0.01957523	      0.02692598	      0.05354047
      3.81355932	      0.01943749	      0.02683108	      0.05241123
      3.83050847	      0.01962682	      0.02696144	      0.05216116
      3.84745763	      0.01990945	      0.02715487	      0.05238443
      3.86440678	      0.02024551	      0.02738309	      0.05286982
      3.88135593	      0.02057355	      0.02760404	      0.05276169
      3.89830508	      0.02095953	      0.02786178	      0.05213483
      3.91525424	      0.02148869	      0.02821130	      0.05099281
      3.93220339	      0.02213792	      0.02863430	      0.05025844
      3.94915254	      0.02269852	      0.02899458	      0.05299663
      3.96610169	      0.02291644	      0.02913343	      0.05307356
      3.98305085	      0.02269863	      0.02899466	      0.05115411
      4.00000000	      0.02221384	      0.02868336	      0.04835945
      4.01694915	      0.02152704	      0.02823646	      0.04555455
      4.03389831	      0.02067533	      0.02767224	      0.04350829
      4.05084746	      0.01970950	      0.02701817	      0.04483782
      4.06779661	      0.01870871	      0.02632328	      0.04466584
      4.08474576	      0.01775106	      0.02564072	      0.04311850
      4.10169492	      0.01698454	      0.02508101	      0.04067773
      4.11864407	      0.01649135	      0.02471418	      0.03813675
      4.13559322	      0.01630730	      0.02457589	      0.03630963
      4.15254237	      0.01642326	      0.02466311	      0.03614881
      4.16949153	      0.01673416	      0.02489546	      0.03757136
      4.18644068	      0.01710552	      0.02517018	      0.03905699
      4.20338983	      0.01729072	      0.02530607	      0.04029614
      4.22033898	      0.01725369	      0.02527895	      0.04082170
      4.23728814	      0.01704827	      0.02512802	      0.04066401
      4.25423729	      0.01684423	      0.02497720	      0.04007370
      4.27118644	      0.01672717	      0.02489025	      0.03983717
      4.28813559	      0.01676002	      0.02491468	      0.04046089
      4.30508475	      0.01683283	      0.02496874	      0.04462085
      4.32203390	      0.01679942	      0.02494395	      0.04770697
      4.33898305	      0.01662097	      0.02481112	      0.05018978
      4.35593220	      0.01643955	      0.02467534	      0.05187259
      4.37288136	      0.01662089	      0.02481106	      0.05335034
      4.38983051	      0.01735964	      0.02535645	      0.05471247
      4.40677966	      0.01854728	      0.02620947	      0.05621373
      4.42372881	      0.01993568	      0.02717275	      0.05783272
      4.44067797	      0.02134868	      0.02811925	      0.05917370
      4.45762712	      0.02267269	      0.02897808	      0.06037618
      4.47457627	      0.02382520	      0.02970547	      0.06179457
      4.49152542	      0.02463176	      0.03020410	      0.06360230
      4.50847458	      0.02503197	      0.03044848	      0.06570899
      4.52542373	      0.02521300	      0.03055838	      0.06730363
      4.54237288	      0.02526893	      0.03059226	      0.06853894
      4.55932203	      0.02539622	      0.03066921	      0.06875605
      4.57627119	      0.02556185	      0.03076906	      0.06782618
      4.59322034	      0.02549420	      0.03072832	      0.06576724
      4.61016949	      0.02502204	      0.03044244	      0.06326379
      4.62711864	      0.02418805	      0.02993082	      0.06083553
      4.64406780	      0.02338251	      0.02942820	      0.05949500
      4.66101695	      0.02312308	      0.02926449	      0.05902890
      4.67796610	      0.02363073	      0.02958399	      0.05876384
      4.69491525	      0.02464847	      0.03021434	      0.05818221
      4.71186441	      0.02562578	      0.03080751	      0.05728448
      4.72881356	      0.02616137	      0.03112779	      0.05562019
      4.74576271	      0.02624897	      0.03117986	      0.05591339
      4.76271186	      0.02597605	      0.03101735	      0.05633721
      4.77966102	      0.02552924	      0.03074943	      0.05657317
      4.79661017	      0.02518080	      0.03053887	      0.05638760
      4.81355932	      0.02487907	      0.03035535	      0.05600300
      4.83050847	      0.02449371	      0.03011934	      0.05501149
      4.84745763	      0.02404172	      0.02984014	      0.05433194
      4.86440678	      0.02363803	      0.02958856	      0.05461242
      4.88135593	      0.02327002	      0.02935732	      0.05513702
      4.89830508	      0.02279476	      0.02905599	      0.05559716
      4.91525424	      0.02218198	      0.02866278	      0.05600909
      4.93220339	      0.02134581	      0.02811735	      0.05574404
      4.94915254	      0.02039967	      0.02748715	      0.05523062
      4.96610169	      0.01971433	      0.02702148	      0.05368442
      4.98305085	      0.02012439	      0.02730106	      0.05104128
