Model Marker Errors from IK
version=1
nRows=185
nColumns=4
inDegrees=no
endheader
time	total_squared_error	marker_error_RMS	marker_error_max
      0.00000000	      0.01787652	      0.02573117	      0.05099221
      0.01694915	      0.01840819	      0.02611101	      0.05016122
      0.03389831	      0.01886209	      0.02643097	      0.04875472
      0.05084746	      0.01897914	      0.02651285	      0.04704603
      0.06779661	      0.01863645	      0.02627240	      0.04600169
      0.08474576	      0.01806778	      0.02586845	      0.04461178
      0.10169492	      0.01738772	      0.02537695	      0.04384294
      0.11864407	      0.01669944	      0.02486962	      0.04344328
      0.13559322	      0.01616709	      0.02447000	      0.04359486
      0.15254237	      0.01588508	      0.02425565	      0.04414611
      0.16949153	      0.01588045	      0.02425211	      0.04459157
      0.18644068	      0.01605472	      0.02438481	      0.04490227
      0.20338983	      0.01623554	      0.02452175	      0.04462910
      0.22033898	      0.01635754	      0.02461371	      0.04423398
      0.23728814	      0.01625403	      0.02453571	      0.04380803
      0.25423729	      0.01592747	      0.02428799	      0.04341084
      0.27118644	      0.01546140	      0.02392999	      0.04322798
      0.28813559	      0.01496081	      0.02353941	      0.04349939
      0.30508475	      0.01457319	      0.02323248	      0.04358903
      0.32203390	      0.01428794	      0.02300398	      0.04329127
      0.33898305	      0.01416373	      0.02290377	      0.04327456
      0.35593220	      0.01417548	      0.02291326	      0.04247418
      0.37288136	      0.01425480	      0.02297728	      0.04244008
      0.38983051	      0.01446408	      0.02314534	      0.04240639
      0.40677966	      0.01472108	      0.02335005	      0.04371946
      0.42372881	      0.01489557	      0.02348803	      0.04626118
      0.44067797	      0.01518589	      0.02371582	      0.05038690
      0.45762712	      0.01555939	      0.02400570	      0.05523929
      0.47457627	      0.01603491	      0.02436977	      0.06000025
      0.49152542	      0.01662637	      0.02481515	      0.06465622
      0.50847458	      0.01733570	      0.02533896	      0.06691333
      0.52542373	      0.01801600	      0.02583136	      0.06746741
      0.54237288	      0.01833674	      0.02606029	      0.06572111
      0.55932203	      0.01826185	      0.02600702	      0.06250644
      0.57627119	      0.01794757	      0.02578226	      0.05854154
      0.59322034	      0.01760225	      0.02553302	      0.05520762
      0.61016949	      0.01732853	      0.02533372	      0.05290475
      0.62711864	      0.01711483	      0.02517702	      0.05168293
      0.64406780	      0.01697844	      0.02507651	      0.05185165
      0.66101695	      0.01673091	      0.02489304	      0.05151850
      0.67796610	      0.01642975	      0.02466798	      0.05064511
      0.69491525	      0.01621744	      0.02450808	      0.04884150
      0.71186441	      0.01630774	      0.02457622	      0.05058177
      0.72881356	      0.01667197	      0.02484915	      0.05248417
      0.74576271	      0.01718980	      0.02523211	      0.05580114
      0.76271186	      0.01755186	      0.02549645	      0.05622767
      0.77966102	      0.01775910	      0.02564653	      0.05635733
      0.79661017	      0.01782321	      0.02569278	      0.05486429
      0.81355932	      0.01812336	      0.02590821	      0.05440417
      0.83050847	      0.01865339	      0.02628433	      0.05404164
      0.84745763	      0.01918126	      0.02665365	      0.05426341
      0.86440678	      0.01952445	      0.02689103	      0.05481924
      0.88135593	      0.01964697	      0.02697528	      0.05592758
      0.89830508	      0.01973996	      0.02703904	      0.05755822
      0.91525424	      0.02009229	      0.02727927	      0.05960524
      0.93220339	      0.02080614	      0.02775964	      0.06178668
      0.94915254	      0.02177232	      0.02839687	      0.06402004
      0.96610169	      0.02278582	      0.02905029	      0.06501237
      0.98305085	      0.02379952	      0.02968946	      0.06542518
      1.00000000	      0.02474236	      0.03027183	      0.06599257
      1.01694915	      0.02562886	      0.03080937	      0.06621839
      1.03389831	      0.02637046	      0.03125194	      0.06648447
      1.05084746	      0.02656538	      0.03136723	      0.06451089
      1.06779661	      0.02656461	      0.03136677	      0.06351034
      1.08474576	      0.02620744	      0.03115519	      0.06129086
      1.10169492	      0.02602853	      0.03104866	      0.05940686
      1.11864407	      0.02607699	      0.03107756	      0.05866535
      1.13559322	      0.02624845	      0.03117956	      0.05642468
      1.15254237	      0.02658558	      0.03137915	      0.05670009
      1.16949153	      0.02691250	      0.03157149	      0.05702749
      1.18644068	      0.02715199	      0.03171166	      0.05643585
      1.20338983	      0.02720197	      0.03174083	      0.05757194
      1.22033898	      0.02701405	      0.03163100	      0.05810404
      1.23728814	      0.02661828	      0.03139845	      0.05735502
      1.25423729	      0.02615274	      0.03112266	      0.05612457
      1.27118644	      0.02579239	      0.03090750	      0.05459763
      1.28813559	      0.02553235	      0.03075130	      0.05357236
      1.30508475	      0.02536568	      0.03065077	      0.05247745
      1.32203390	      0.02525140	      0.03058164	      0.05199716
      1.33898305	      0.02515204	      0.03052142	      0.05238740
      1.35593220	      0.02504295	      0.03045516	      0.05336680
      1.37288136	      0.02489275	      0.03036369	      0.05424507
      1.38983051	      0.02460423	      0.03018721	      0.05504978
      1.40677966	      0.02434108	      0.03002535	      0.05631041
      1.42372881	      0.02406490	      0.02985452	      0.05699093
      1.44067797	      0.02372758	      0.02964455	      0.05676288
      1.45762712	      0.02337918	      0.02942610	      0.05515512
      1.47457627	      0.02310837	      0.02925518	      0.05203815
      1.49152542	      0.02288299	      0.02911217	      0.05118982
      1.50847458	      0.02288598	      0.02911407	      0.05169224
      1.52542373	      0.02280397	      0.02906186	      0.05124067
      1.54237288	      0.02283788	      0.02908346	      0.05268822
      1.55932203	      0.02278170	      0.02904766	      0.05267920
      1.57627119	      0.02262073	      0.02894486	      0.05313032
      1.59322034	      0.02271411	      0.02900454	      0.05305714
      1.61016949	      0.02289421	      0.02911930	      0.05333497
      1.62711864	      0.02300387	      0.02918896	      0.05427463
      1.64406780	      0.02295675	      0.02915904	      0.05604144
      1.66101695	      0.02284546	      0.02908828	      0.05986554
      1.67796610	      0.02240106	      0.02880397	      0.06129085
      1.69491525	      0.02189927	      0.02847954	      0.06336067
      1.71186441	      0.02104173	      0.02791636	      0.06371977
      1.72881356	      0.01987076	      0.02712848	      0.06188321
      1.74576271	      0.01866937	      0.02629559	      0.05854708
      1.76271186	      0.01776992	      0.02565434	      0.05458120
      1.77966102	      0.01713432	      0.02519136	      0.05040890
      1.79661017	      0.01671582	      0.02488181	      0.04620222
      1.81355932	      0.01635659	      0.02461300	      0.04238901
      1.83050847	      0.01606164	      0.02439007	      0.04033406
      1.84745763	      0.01588501	      0.02425559	      0.04113610
      1.86440678	      0.01601165	      0.02435208	      0.04466554
      1.88135593	      0.01645798	      0.02468917	      0.04830943
      1.89830508	      0.01706812	      0.02514264	      0.05129656
      1.91525424	      0.01759485	      0.02552765	      0.05335476
      1.93220339	      0.01798267	      0.02580745	      0.05386189
      1.94915254	      0.01787500	      0.02573008	      0.05453379
      1.96610169	      0.01769781	      0.02560224	      0.05411991
      1.98305085	      0.01742756	      0.02540601	      0.05245228
      2.00000000	      0.01733999	      0.02534210	      0.05081657
      2.01694915	      0.01762138	      0.02554689	      0.04956905
      2.03389831	      0.01824224	      0.02599305	      0.04874616
      2.05084746	      0.01916526	      0.02664253	      0.04844301
      2.06779661	      0.02026030	      0.02739309	      0.04895887
      2.08474576	      0.02135218	      0.02812155	      0.05133027
      2.10169492	      0.02097000	      0.02786874	      0.05232485
      2.11864407	      0.02136918	      0.02813274	      0.05421832
      2.13559322	      0.02162278	      0.02829918	      0.05631805
      2.15254237	      0.02184233	      0.02844249	      0.05765295
      2.16949153	      0.02218713	      0.02866610	      0.05909972
      2.18644068	      0.02262056	      0.02894475	      0.05993868
      2.20338983	      0.02301273	      0.02919458	      0.06013408
      2.22033898	      0.02320989	      0.02931937	      0.05965730
      2.23728814	      0.02315121	      0.02928228	      0.05887955
      2.25423729	      0.02287060	      0.02910428	      0.05805201
      2.27118644	      0.02252855	      0.02888582	      0.05692577
      2.28813559	      0.02222382	      0.02868980	      0.05628228
      2.30508475	      0.02196270	      0.02852075	      0.05585611
      2.32203390	      0.02167451	      0.02833301	      0.05570362
      2.33898305	      0.02131476	      0.02809689	      0.05557187
      2.35593220	      0.02086736	      0.02780046	      0.05530788
      2.37288136	      0.02047356	      0.02753689	      0.05461213
      2.38983051	      0.02015894	      0.02732448	      0.05417604
      2.40677966	      0.02005112	      0.02725131	      0.05387123
      2.42372881	      0.02009664	      0.02728223	      0.05269438
      2.44067797	      0.02033364	      0.02744263	      0.05276302
      2.45762712	      0.02057485	      0.02760492	      0.05333388
      2.47457627	      0.02050606	      0.02755873	      0.05274734
      2.49152542	      0.02022312	      0.02736794	      0.05305788
      2.50847458	      0.01975986	      0.02705266	      0.05253571
      2.52542373	      0.01945998	      0.02684660	      0.05266624
      2.54237288	      0.01940509	      0.02680871	      0.05222916
      2.55932203	      0.01967404	      0.02699385	      0.05170393
      2.57627119	      0.02019524	      0.02734907	      0.05189358
      2.59322034	      0.02088924	      0.02781502	      0.05235272
      2.61016949	      0.02155197	      0.02825281	      0.05418698
      2.62711864	      0.02200430	      0.02854775	      0.05684062
      2.64406780	      0.02224682	      0.02870464	      0.05995161
      2.66101695	      0.02230932	      0.02874493	      0.06136099
      2.67796610	      0.02216404	      0.02865119	      0.06144695
      2.69491525	      0.02191928	      0.02849255	      0.06115553
      2.71186441	      0.02166896	      0.02832939	      0.06118214
      2.72881356	      0.02131010	      0.02809383	      0.06161415
      2.74576271	      0.02101484	      0.02789852	      0.06243426
      2.76271186	      0.02101224	      0.02789679	      0.06344673
      2.77966102	      0.02117417	      0.02800408	      0.06439330
      2.79661017	      0.02119881	      0.02802037	      0.06501633
      2.81355932	      0.02087431	      0.02780508	      0.06495042
      2.83050847	      0.02012133	      0.02729898	      0.06358337
      2.84745763	      0.01910542	      0.02660090	      0.06107326
      2.86440678	      0.01808493	      0.02588073	      0.05761260
      2.88135593	      0.01737060	      0.02536445	      0.05392923
      2.89830508	      0.01708169	      0.02515264	      0.05007674
      2.91525424	      0.01731877	      0.02532658	      0.04942056
      2.93220339	      0.01760316	      0.02553368	      0.04901719
      2.94915254	      0.01766514	      0.02557859	      0.04835297
      2.96610169	      0.01757380	      0.02551238	      0.04805024
      2.98305085	      0.01742773	      0.02540613	      0.04828297
      3.00000000	      0.01738734	      0.02537667	      0.04899304
      3.01694915	      0.01743763	      0.02541335	      0.04997757
      3.03389831	      0.01753268	      0.02548251	      0.05097707
      3.05084746	      0.01753097	      0.02548127	      0.05160570
      3.06779661	      0.01747924	      0.02544365	      0.05221667
      3.08474576	      0.01730996	      0.02532014	      0.05228539
      3.10169492	      0.01718249	      0.02522674	      0.05210647
      3.11864407	      0.01728677	      0.02530318	      0.05134188
