Model Marker Errors from IK
version=1
nRows=452
nColumns=4
inDegrees=no
endheader
time	total_squared_error	marker_error_RMS	marker_error_max
      0.00000000	      0.02471846	      0.03025720	      0.04994944
      0.01694915	      0.02432622	      0.03001618	      0.04957006
      0.03389831	      0.02427956	      0.02998738	      0.04890969
      0.05084746	      0.02440082	      0.03006217	      0.04893614
      0.06779661	      0.02456801	      0.03016498	      0.04880265
      0.08474576	      0.02472890	      0.03026359	      0.04897166
      0.10169492	      0.02477635	      0.03029262	      0.04933326
      0.11864407	      0.02467862	      0.03023281	      0.04954719
      0.13559322	      0.02447222	      0.03010612	      0.05032782
      0.15254237	      0.02424566	      0.02996644	      0.05070615
      0.16949153	      0.02403962	      0.02983884	      0.05136316
      0.18644068	      0.02393348	      0.02977289	      0.05180398
      0.20338983	      0.02391025	      0.02975844	      0.05235158
      0.22033898	      0.02388245	      0.02974114	      0.05280253
      0.23728814	      0.02400666	      0.02981838	      0.05356600
      0.25423729	      0.02413620	      0.02989872	      0.05436261
      0.27118644	      0.02425601	      0.02997283	      0.05510078
      0.28813559	      0.02413685	      0.02989912	      0.05546415
      0.30508475	      0.02363369	      0.02958584	      0.05493476
      0.32203390	      0.02287197	      0.02910515	      0.05402906
      0.33898305	      0.02202483	      0.02856106	      0.05314394
      0.35593220	      0.02128597	      0.02807791	      0.05257272
      0.37288136	      0.02082520	      0.02777236	      0.05235689
      0.38983051	      0.02057955	      0.02760807	      0.05251728
      0.40677966	      0.02041357	      0.02749651	      0.05303642
      0.42372881	      0.02041931	      0.02750037	      0.05422543
      0.44067797	      0.02029993	      0.02741987	      0.05497205
      0.45762712	      0.02012051	      0.02729842	      0.05590006
      0.47457627	      0.02008385	      0.02727355	      0.05690146
      0.49152542	      0.02067409	      0.02767141	      0.05849583
      0.50847458	      0.02198455	      0.02853494	      0.06074095
      0.52542373	      0.02366609	      0.02960611	      0.06358437
      0.54237288	      0.02510775	      0.03049454	      0.06660020
      0.55932203	      0.02587259	      0.03095552	      0.06906045
      0.57627119	      0.02585062	      0.03094237	      0.07028546
      0.59322034	      0.02530475	      0.03061393	      0.07056308
      0.61016949	      0.02440895	      0.03006718	      0.06946192
      0.62711864	      0.02327519	      0.02936059	      0.06664933
      0.64406780	      0.02217661	      0.02865931	      0.06241264
      0.66101695	      0.02128678	      0.02807845	      0.05728275
      0.67796610	      0.02048802	      0.02754661	      0.05159454
      0.69491525	      0.01960168	      0.02694416	      0.04537589
      0.71186441	      0.01882820	      0.02640721	      0.04310381
      0.72881356	      0.01874942	      0.02635191	      0.04222785
      0.74576271	      0.01937110	      0.02678522	      0.04269729
      0.76271186	      0.02015814	      0.02732394	      0.04652582
      0.77966102	      0.02057898	      0.02760769	      0.04770543
      0.79661017	      0.02061841	      0.02763412	      0.04561827
      0.81355932	      0.02043626	      0.02751179	      0.04847322
      0.83050847	      0.01997616	      0.02720033	      0.05116007
      0.84745763	      0.01940641	      0.02680962	      0.05338443
      0.86440678	      0.01916536	      0.02664260	      0.05474004
      0.88135593	      0.01956988	      0.02692230	      0.05499185
      0.89830508	      0.02069393	      0.02768469	      0.05361081
      0.91525424	      0.02263254	      0.02895241	      0.05157358
      0.93220339	      0.02499713	      0.03042728	      0.05012987
      0.94915254	      0.02666642	      0.03142682	      0.05427345
      0.96610169	      0.02684802	      0.03153365	      0.05558446
      0.98305085	      0.02585158	      0.03094295	      0.05464424
      1.00000000	      0.02446222	      0.03009997	      0.05352892
      1.01694915	      0.02365479	      0.02959904	      0.05279701
      1.03389831	      0.02374457	      0.02965516	      0.05373305
      1.05084746	      0.02468108	      0.03023432	      0.05557616
      1.06779661	      0.02617259	      0.03113447	      0.05803704
      1.08474576	      0.02766901	      0.03201216	      0.05994106
      1.10169492	      0.02847587	      0.03247556	      0.06039667
      1.11864407	      0.02815070	      0.03228961	      0.05920727
      1.13559322	      0.02686881	      0.03154586	      0.05867015
      1.15254237	      0.02526886	      0.03059222	      0.05983563
      1.16949153	      0.02398977	      0.02980789	      0.06133760
      1.18644068	      0.02330969	      0.02938234	      0.06336178
      1.20338983	      0.02311958	      0.02926228	      0.06568777
      1.22033898	      0.02308610	      0.02924108	      0.06758544
      1.23728814	      0.02308814	      0.02924237	      0.06910186
      1.25423729	      0.02305094	      0.02921881	      0.07009291
      1.27118644	      0.02302184	      0.02920035	      0.07072594
      1.28813559	      0.02307370	      0.02923322	      0.07115705
      1.30508475	      0.02325911	      0.02935044	      0.07133266
      1.32203390	      0.02356076	      0.02954015	      0.07150113
      1.33898305	      0.02387204	      0.02973466	      0.07170798
      1.35593220	      0.02411779	      0.02988731	      0.07170234
      1.37288136	      0.02422016	      0.02995067	      0.07131487
      1.38983051	      0.02415059	      0.02990763	      0.07096988
      1.40677966	      0.02404073	      0.02983953	      0.07050144
      1.42372881	      0.02400603	      0.02981798	      0.07003947
      1.44067797	      0.02403191	      0.02983405	      0.06949224
      1.45762712	      0.02418846	      0.02993107	      0.06929812
      1.47457627	      0.02435683	      0.03003506	      0.06914889
      1.49152542	      0.02448405	      0.03011340	      0.06903591
      1.50847458	      0.02451740	      0.03013390	      0.06878706
      1.52542373	      0.02438031	      0.03004953	      0.06781223
      1.54237288	      0.02416086	      0.02991399	      0.06676615
      1.55932203	      0.02389945	      0.02975172	      0.06519655
      1.57627119	      0.02372072	      0.02964026	      0.06417711
      1.59322034	      0.02364848	      0.02959510	      0.06348591
      1.61016949	      0.02371822	      0.02963870	      0.06352915
      1.62711864	      0.02392750	      0.02976917	      0.06469761
      1.64406780	      0.02428414	      0.02999021	      0.06585407
      1.66101695	      0.02467227	      0.03022892	      0.06711764
      1.67796610	      0.02487964	      0.03035570	      0.06804887
      1.69491525	      0.02476258	      0.03028420	      0.06809258
      1.71186441	      0.02441623	      0.03007166	      0.06761166
      1.72881356	      0.02402169	      0.02982771	      0.06677497
      1.74576271	      0.02369800	      0.02962606	      0.06613138
      1.76271186	      0.02345087	      0.02947118	      0.06587039
      1.77966102	      0.02328641	      0.02936766	      0.06548160
      1.79661017	      0.02327268	      0.02935900	      0.06498315
      1.81355932	      0.02346474	      0.02947990	      0.06458885
      1.83050847	      0.02378749	      0.02968195	      0.06371925
      1.84745763	      0.02413315	      0.02989683	      0.06266113
      1.86440678	      0.02441031	      0.03006802	      0.06141880
      1.88135593	      0.02463117	      0.03020373	      0.06054862
      1.89830508	      0.02488328	      0.03035791	      0.05989235
      1.91525424	      0.02523514	      0.03057179	      0.05962228
      1.93220339	      0.02562304	      0.03080587	      0.05916446
      1.94915254	      0.02595787	      0.03100650	      0.05900562
      1.96610169	      0.02608005	      0.03107938	      0.05915791
      1.98305085	      0.02602253	      0.03104509	      0.05979004
      2.00000000	      0.02581278	      0.03091972	      0.06065951
      2.01694915	      0.02562573	      0.03080748	      0.06175596
      2.03389831	      0.02551143	      0.03073870	      0.06295164
      2.05084746	      0.02554148	      0.03075680	      0.06404865
      2.06779661	      0.02561674	      0.03080208	      0.06485755
      2.08474576	      0.02582458	      0.03092678	      0.06457886
      2.10169492	      0.02620878	      0.03115599	      0.06419741
      2.11864407	      0.02675453	      0.03147870	      0.06326989
      2.13559322	      0.02723247	      0.03175862	      0.06249469
      2.15254237	      0.02736121	      0.03183360	      0.06199103
      2.16949153	      0.02687963	      0.03155221	      0.06156550
      2.18644068	      0.02580552	      0.03091537	      0.06130465
      2.20338983	      0.02432938	      0.03001813	      0.06064012
      2.22033898	      0.02276497	      0.02903700	      0.05969694
      2.23728814	      0.02145357	      0.02818824	      0.05816969
      2.25423729	      0.02061355	      0.02763087	      0.05589309
      2.27118644	      0.02038285	      0.02747581	      0.05392894
      2.28813559	      0.02074164	      0.02771658	      0.05273613
      2.30508475	      0.02150345	      0.02822098	      0.05206977
      2.32203390	      0.02236957	      0.02878372	      0.05015309
      2.33898305	      0.02281642	      0.02906979	      0.04667122
      2.35593220	      0.02248653	      0.02885887	      0.04394095
      2.37288136	      0.02138789	      0.02814505	      0.04274718
      2.38983051	      0.02011096	      0.02729195	      0.04109773
      2.40677966	      0.01942744	      0.02682415	      0.04330363
      2.42372881	      0.01959988	      0.02694293	      0.04561816
      2.44067797	      0.02039885	      0.02748660	      0.05135378
      2.45762712	      0.02136908	      0.02813267	      0.05629353
      2.47457627	      0.02220855	      0.02867994	      0.05805582
      2.49152542	      0.02279283	      0.02905475	      0.06367962
      2.50847458	      0.02312951	      0.02926856	      0.06910260
      2.52542373	      0.02335254	      0.02940933	      0.07369705
      2.54237288	      0.02352904	      0.02952026	      0.07772964
      2.55932203	      0.02374348	      0.02965448	      0.08049569
      2.57627119	      0.02396947	      0.02979527	      0.08176349
      2.59322034	      0.02397264	      0.02979724	      0.08113823
      2.61016949	      0.02363050	      0.02958384	      0.07915915
      2.62711864	      0.02319317	      0.02930881	      0.07631639
      2.64406780	      0.02303882	      0.02921112	      0.07346117
      2.66101695	      0.02336543	      0.02941745	      0.07130612
      2.67796610	      0.02407911	      0.02986333	      0.06998398
      2.69491525	      0.02514102	      0.03051473	      0.06911146
      2.71186441	      0.02634675	      0.03123789	      0.06872096
      2.72881356	      0.02780429	      0.03209032	      0.06866515
      2.74576271	      0.02837659	      0.03241890	      0.06831929
      2.76271186	      0.02963738	      0.03313127	      0.06767599
      2.77966102	      0.03083952	      0.03379652	      0.06999049
      2.79661017	      0.02961030	      0.03311612	      0.06196725
      2.81355932	      0.03043618	      0.03357478	      0.06433901
      2.83050847	      0.03133223	      0.03406542	      0.06708290
      2.84745763	      0.03217266	      0.03451927	      0.06879384
      2.86440678	      0.03283824	      0.03487450	      0.07120750
      2.88135593	      0.03338382	      0.03516302	      0.07308190
      2.89830508	      0.03354023	      0.03524529	      0.07452441
      2.91525424	      0.03356125	      0.03525634	      0.07482697
      2.93220339	      0.03329080	      0.03511399	      0.07440267
      2.94915254	      0.03280578	      0.03485727	      0.07368583
      2.96610169	      0.03210330	      0.03448204	      0.07317405
      2.98305085	      0.03126163	      0.03402702	      0.07252560
      3.00000000	      0.03027935	      0.03348817	      0.07174307
      3.01694915	      0.02931265	      0.03294926	      0.07050996
      3.03389831	      0.02843195	      0.03245050	      0.06895144
      3.05084746	      0.02777031	      0.03207070	      0.06644744
      3.06779661	      0.02701760	      0.03163308	      0.06439259
      3.08474576	      0.02624279	      0.03117619	      0.05995292
      3.10169492	      0.02547432	      0.03071634	      0.05654911
      3.11864407	      0.02486320	      0.03034566	      0.05506569
      3.13559322	      0.02457607	      0.03016993	      0.05490897
      3.15254237	      0.02458217	      0.03017368	      0.05496795
      3.16949153	      0.02484617	      0.03033527	      0.05558586
      3.18644068	      0.02537020	      0.03065350	      0.05630985
      3.20338983	      0.02585838	      0.03094701	      0.05675949
      3.22033898	      0.02606097	      0.03106801	      0.05720549
      3.23728814	      0.02576460	      0.03089085	      0.05693004
      3.25423729	      0.02527846	      0.03059803	      0.05674044
      3.27118644	      0.02468800	      0.03023856	      0.05696409
      3.28813559	      0.02423884	      0.02996222	      0.05757997
      3.30508475	      0.02398753	      0.02980649	      0.05871877
      3.32203390	      0.02392448	      0.02976729	      0.06058765
      3.33898305	      0.02392364	      0.02976677	      0.06246521
      3.35593220	      0.02376284	      0.02966657	      0.06277651
      3.37288136	      0.02345476	      0.02947363	      0.06383719
      3.38983051	      0.02291830	      0.02913462	      0.06356314
      3.40677966	      0.02227944	      0.02872567	      0.06266506
      3.42372881	      0.01962618	      0.02696100	      0.04992407
      3.44067797	      0.01925913	      0.02670770	      0.04935747
      3.45762712	      0.01905701	      0.02656718	      0.04877695
      3.47457627	      0.01901009	      0.02653446	      0.04855879
      3.49152542	      0.01902456	      0.02654455	      0.04870298
      3.50847458	      0.01901465	      0.02653764	      0.04794969
      3.52542373	      0.01912889	      0.02661724	      0.04905898
      3.54237288	      0.01928736	      0.02672726	      0.04966674
      3.55932203	      0.01953285	      0.02689682	      0.05082957
      3.57627119	      0.01978052	      0.02706680	      0.05124810
      3.59322034	      0.02005391	      0.02725321	      0.05184608
      3.61016949	      0.02038613	      0.02747802	      0.05238863
      3.62711864	      0.02082421	      0.02777169	      0.05292021
      3.64406780	      0.02127346	      0.02806966	      0.05336779
      3.66101695	      0.02157693	      0.02826916	      0.05333167
      3.67796610	      0.02179619	      0.02841243	      0.05337106
      3.69491525	      0.02185006	      0.02844752	      0.05293287
      3.71186441	      0.02180286	      0.02841678	      0.05227570
      3.72881356	      0.02162209	      0.02829873	      0.05155681
      3.74576271	      0.02142164	      0.02816725	      0.05083314
      3.76271186	      0.02112230	      0.02796976	      0.04984299
      3.77966102	      0.02080849	      0.02776121	      0.05020222
      3.79661017	      0.02054425	      0.02758438	      0.05073905
      3.81355932	      0.02042033	      0.02750106	      0.05237014
      3.83050847	      0.02034015	      0.02744702	      0.05420878
      3.84745763	      0.02024217	      0.02738083	      0.05637056
      3.86440678	      0.02000542	      0.02722024	      0.05800996
      3.88135593	      0.01970057	      0.02701205	      0.05878272
      3.89830508	      0.01929644	      0.02673355	      0.05815107
      3.91525424	      0.01877973	      0.02637320	      0.05568643
      3.93220339	      0.01831830	      0.02604718	      0.05155815
      3.94915254	      0.01811204	      0.02590012	      0.05216368
      3.96610169	      0.01820074	      0.02596347	      0.05406441
      3.98305085	      0.01829599	      0.02603131	      0.05494779
      4.00000000	      0.01825585	      0.02600274	      0.05437210
      4.01694915	      0.01819247	      0.02595757	      0.05228901
      4.03389831	      0.01830326	      0.02603648	      0.05023500
      4.05084746	      0.01883471	      0.02641177	      0.04785764
      4.06779661	      0.02001187	      0.02722463	      0.04929088
      4.08474576	      0.02179055	      0.02840876	      0.05553882
      4.10169492	      0.02367739	      0.02961318	      0.06093102
      4.11864407	      0.02502465	      0.03044403	      0.06535194
      4.13559322	      0.02572691	      0.03086825	      0.06833239
      4.15254237	      0.02603762	      0.03105409	      0.06987776
      4.16949153	      0.02589561	      0.03096928	      0.07056589
      4.18644068	      0.02478109	      0.03029551	      0.07100660
      4.20338983	      0.02368865	      0.02962022	      0.07133132
      4.22033898	      0.02322041	      0.02932602	      0.07152921
      4.23728814	      0.02291608	      0.02913320	      0.07016657
      4.25423729	      0.02250380	      0.02886995	      0.06753364
      4.27118644	      0.02178465	      0.02840491	      0.06346972
      4.28813559	      0.02092518	      0.02783894	      0.05802126
      4.30508475	      0.02010836	      0.02729019	      0.05242121
      4.32203390	      0.01954706	      0.02690660	      0.04756385
      4.33898305	      0.01916719	      0.02664387	      0.04491320
      4.35593220	      0.01888871	      0.02644961	      0.04364919
      4.37288136	      0.01880248	      0.02638917	      0.04427924
      4.38983051	      0.01905742	      0.02656747	      0.04764137
      4.40677966	      0.01959264	      0.02693795	      0.05069819
      4.42372881	      0.02028270	      0.02740823	      0.05405454
      4.44067797	      0.02087927	      0.02780838	      0.05674136
      4.45762712	      0.02138809	      0.02814519	      0.05884735
      4.47457627	      0.02191869	      0.02849216	      0.06037135
      4.49152542	      0.02253003	      0.02888677	      0.06137653
      4.50847458	      0.02321278	      0.02932120	      0.06121578
      4.52542373	      0.02386131	      0.02972797	      0.06018172
      4.54237288	      0.02433202	      0.03001976	      0.05882688
      4.55932203	      0.02474299	      0.03027222	      0.05706394
      4.57627119	      0.02507908	      0.03047712	      0.05508648
      4.59322034	      0.02536169	      0.03064836	      0.05405861
      4.61016949	      0.02548920	      0.03072531	      0.05295516
      4.62711864	      0.02548496	      0.03072275	      0.05290275
      4.64406780	      0.02533358	      0.03063137	      0.05245792
      4.66101695	      0.02510462	      0.03049263	      0.05237038
      4.67796610	      0.02480182	      0.03030818	      0.05242692
      4.69491525	      0.02457075	      0.03016667	      0.05261068
      4.71186441	      0.02445478	      0.03009539	      0.05368844
      4.72881356	      0.02459572	      0.03018199	      0.05507376
      4.74576271	      0.02502035	      0.03044141	      0.05651716
      4.76271186	      0.02563384	      0.03081236	      0.05846433
      4.77966102	      0.02632784	      0.03122667	      0.06018128
      4.79661017	      0.02695973	      0.03159919	      0.06135184
      4.81355932	      0.02738890	      0.03184970	      0.06184734
      4.83050847	      0.02760440	      0.03197476	      0.06173873
      4.84745763	      0.02761106	      0.03197862	      0.06149892
      4.86440678	      0.02752827	      0.03193063	      0.06125052
      4.88135593	      0.02742720	      0.03187196	      0.06120693
      4.89830508	      0.02727291	      0.03178219	      0.06103092
      4.91525424	      0.02702795	      0.03163914	      0.06118254
      4.93220339	      0.02673098	      0.03146484	      0.06141209
      4.94915254	      0.02650179	      0.03132966	      0.06164634
      4.96610169	      0.02640194	      0.03127059	      0.06194420
      4.98305085	      0.02640635	      0.03127320	      0.06208293
      5.00000000	      0.02645168	      0.03130003	      0.06225877
      5.01694915	      0.02655063	      0.03135852	      0.06217361
      5.03389831	      0.02668823	      0.03143967	      0.06190256
      5.05084746	      0.02690564	      0.03156747	      0.06158918
      5.06779661	      0.02722684	      0.03175534	      0.06118677
      5.08474576	      0.02759140	      0.03196723	      0.06086920
      5.10169492	      0.02799503	      0.03220020	      0.06141862
      5.11864407	      0.02831641	      0.03238450	      0.06252304
      5.13559322	      0.02854241	      0.03251348	      0.06318988
      5.15254237	      0.02859027	      0.03254073	      0.06427901
      5.16949153	      0.02848548	      0.03248103	      0.06483015
      5.18644068	      0.02827812	      0.03236260	      0.06499573
      5.20338983	      0.02799011	      0.03219737	      0.06526590
      5.22033898	      0.02761584	      0.03198138	      0.06619213
      5.23728814	      0.02718250	      0.03172947	      0.06706101
      5.25423729	      0.02682052	      0.03151749	      0.06811932
      5.27118644	      0.02665609	      0.03142073	      0.06883175
      5.28813559	      0.02665622	      0.03142081	      0.06942351
      5.30508475	      0.02669139	      0.03144153	      0.06884219
      5.32203390	      0.02670291	      0.03144832	      0.06776798
      5.33898305	      0.02668827	      0.03143969	      0.06653618
      5.35593220	      0.02669148	      0.03144158	      0.06567328
      5.37288136	      0.02670658	      0.03145048	      0.06575129
      5.38983051	      0.02677708	      0.03149196	      0.06589582
      5.40677966	      0.02683135	      0.03152386	      0.06644046
      5.42372881	      0.02687989	      0.03155236	      0.06727163
      5.44067797	      0.02695977	      0.03159921	      0.06786418
      5.45762712	      0.02701876	      0.03163376	      0.06836853
      5.47457627	      0.02704753	      0.03165060	      0.06856813
      5.49152542	      0.02706444	      0.03166049	      0.06874798
      5.50847458	      0.02712884	      0.03169814	      0.06917627
      5.52542373	      0.02726136	      0.03177546	      0.06976352
      5.54237288	      0.02743532	      0.03187668	      0.07096293
      5.55932203	      0.02756175	      0.03195005	      0.07164952
      5.57627119	      0.02764620	      0.03199896	      0.07321196
      5.59322034	      0.02768104	      0.03201911	      0.07475067
      5.61016949	      0.02769107	      0.03202492	      0.07631019
      5.62711864	      0.02763303	      0.03199134	      0.07801228
      5.64406780	      0.02755980	      0.03194892	      0.07958661
      5.66101695	      0.02740602	      0.03185966	      0.08103525
      5.67796610	      0.02714037	      0.03170487	      0.08170361
      5.69491525	      0.02683676	      0.03152704	      0.08156377
      5.71186441	      0.02652841	      0.03134539	      0.08163380
      5.72881356	      0.02613935	      0.03111469	      0.08081713
      5.74576271	      0.02571964	      0.03086389	      0.08023067
      5.76271186	      0.02549613	      0.03072948	      0.07953538
      5.77966102	      0.02571927	      0.03086366	      0.07832448
      5.79661017	      0.02653238	      0.03134774	      0.07833642
      5.81355932	      0.02772823	      0.03204640	      0.07815631
      5.83050847	      0.02847591	      0.03247558	      0.07794504
      5.84745763	      0.02883486	      0.03267962	      0.07752479
      5.86440678	      0.02885231	      0.03268951	      0.07777518
      5.88135593	      0.02859903	      0.03254571	      0.07796544
      5.89830508	      0.02843228	      0.03245069	      0.07885818
      5.91525424	      0.02833948	      0.03239769	      0.08000907
      5.93220339	      0.02832628	      0.03239015	      0.08122817
      5.94915254	      0.02843094	      0.03244993	      0.08254933
      5.96610169	      0.02860090	      0.03254678	      0.08378381
      5.98305085	      0.02870112	      0.03260375	      0.08457505
      6.00000000	      0.02872698	      0.03261844	      0.08469108
      6.01694915	      0.02858096	      0.03253543	      0.08395995
      6.03389831	      0.02831889	      0.03238592	      0.08290089
      6.05084746	      0.02799897	      0.03220247	      0.08149705
      6.06779661	      0.02766536	      0.03201004	      0.07997076
      6.08474576	      0.02730889	      0.03180315	      0.07873993
      6.10169492	      0.02686368	      0.03154285	      0.07783489
      6.11864407	      0.02629053	      0.03120454	      0.07712208
      6.13559322	      0.02559281	      0.03078769	      0.07685024
      6.15254237	      0.02493206	      0.03038765	      0.07627013
      6.16949153	      0.02451472	      0.03013225	      0.07562898
      6.18644068	      0.02441182	      0.03006894	      0.07503334
      6.20338983	      0.02451713	      0.03013374	      0.07460523
      6.22033898	      0.02468890	      0.03023911	      0.07435050
      6.23728814	      0.02493926	      0.03039204	      0.07464688
      6.25423729	      0.02528019	      0.03059907	      0.07521078
      6.27118644	      0.02572469	      0.03086691	      0.07594147
      6.28813559	      0.02624404	      0.03117694	      0.07656620
      6.30508475	      0.02661962	      0.03139924	      0.07692373
      6.32203390	      0.02657821	      0.03137480	      0.07629196
      6.33898305	      0.02626778	      0.03119104	      0.07581711
      6.35593220	      0.02627035	      0.03119256	      0.07370650
      6.37288136	      0.02698078	      0.03161152	      0.07160657
      6.38983051	      0.02800133	      0.03220382	      0.06929113
      6.40677966	      0.02841737	      0.03244218	      0.06783544
      6.42372881	      0.02768572	      0.03202182	      0.06701345
      6.44067797	      0.02615074	      0.03112147	      0.06682458
      6.45762712	      0.02498874	      0.03042218	      0.06727423
      6.47457627	      0.02500172	      0.03043008	      0.06789806
      6.49152542	      0.02596935	      0.03101335	      0.06864290
      6.50847458	      0.02695422	      0.03159595	      0.06904146
      6.52542373	      0.02751940	      0.03192549	      0.06929464
      6.54237288	      0.02776706	      0.03206883	      0.06995115
      6.55932203	      0.02791875	      0.03215630	      0.07126894
      6.57627119	      0.02806075	      0.03223798	      0.07320855
      6.59322034	      0.02817030	      0.03230084	      0.07439594
      6.61016949	      0.02831909	      0.03238604	      0.07563733
      6.62711864	      0.02839454	      0.03242915	      0.07601095
      6.64406780	      0.02808748	      0.03225332	      0.07508166
      6.66101695	      0.02718660	      0.03173186	      0.07389630
      6.67796610	      0.02578488	      0.03090300	      0.07218035
      6.69491525	      0.02437165	      0.03004420	      0.07070802
      6.71186441	      0.02333755	      0.02939990	      0.06910865
      6.72881356	      0.02266378	      0.02897239	      0.06698809
      6.74576271	      0.02212561	      0.02862633	      0.06370230
      6.76271186	      0.02162492	      0.02830058	      0.06005632
      6.77966102	      0.02113134	      0.02797574	      0.05717721
      6.79661017	      0.02072429	      0.02770499	      0.05635879
      6.81355932	      0.02069967	      0.02768852	      0.05752550
      6.83050847	      0.02172777	      0.02836780	      0.06079705
      6.84745763	      0.02403605	      0.02983663	      0.06772116
      6.86440678	      0.02695712	      0.03159766	      0.07712526
      6.88135593	      0.02964592	      0.03313604	      0.08561514
      6.89830508	      0.03117295	      0.03397872	      0.09004401
      6.91525424	      0.03078714	      0.03376780	      0.08930533
      6.93220339	      0.02887383	      0.03270170	      0.08412569
      6.94915254	      0.02673026	      0.03146442	      0.07786634
      6.96610169	      0.02533424	      0.03063177	      0.07286920
      6.98305085	      0.02452373	      0.03013779	      0.07047747
      7.00000000	      0.02415413	      0.02990982	      0.06973327
      7.01694915	      0.02422154	      0.02995153	      0.07020409
      7.03389831	      0.02472061	      0.03025852	      0.07154360
      7.05084746	      0.02555243	      0.03076339	      0.07319023
      7.06779661	      0.02643686	      0.03129126	      0.07514332
      7.08474576	      0.02701266	      0.03163019	      0.07681206
      7.10169492	      0.02721587	      0.03174894	      0.07821382
      7.11864407	      0.02741023	      0.03186210	      0.07937279
      7.13559322	      0.02806334	      0.03223946	      0.08058221
      7.15254237	      0.02924801	      0.03291291	      0.08293531
      7.16949153	      0.03041742	      0.03356443	      0.08581702
      7.18644068	      0.03121402	      0.03400110	      0.08846742
      7.20338983	      0.03184466	      0.03434285	      0.09047685
      7.22033898	      0.03274886	      0.03482701	      0.09163441
      7.23728814	      0.03394523	      0.03545745	      0.09165558
      7.25423729	      0.03504344	      0.03602645	      0.09078317
      7.27118644	      0.03545968	      0.03623978	      0.08931797
      7.28813559	      0.03475795	      0.03587940	      0.08748690
      7.30508475	      0.03293470	      0.03492569	      0.08508754
      7.32203390	      0.03064764	      0.03369121	      0.08378381
      7.33898305	      0.02852358	      0.03250275	      0.08113882
      7.35593220	      0.02701813	      0.03163339	      0.07816688
      7.37288136	      0.02603074	      0.03104998	      0.07497555
      7.38983051	      0.02529778	      0.03060972	      0.07196672
      7.40677966	      0.02459566	      0.03018196	      0.06927848
      7.42372881	      0.02396097	      0.02978999	      0.06685706
      7.44067797	      0.02347574	      0.02948681	      0.06454154
      7.45762712	      0.02310528	      0.02925322	      0.06240492
      7.47457627	      0.02276133	      0.02903467	      0.06050473
      7.49152542	      0.02237919	      0.02878991	      0.05854861
      7.50847458	      0.02203325	      0.02856652	      0.05679631
      7.52542373	      0.02187625	      0.02846457	      0.05554518
      7.54237288	      0.02185626	      0.02845156	      0.05462372
      7.55932203	      0.02201070	      0.02855190	      0.05392573
      7.57627119	      0.02222843	      0.02869277	      0.05408940
      7.59322034	      0.02240663	      0.02880756	      0.05433196
      7.61016949	      0.02251221	      0.02887534	      0.05484730
      7.62711864	      0.02248339	      0.02885685	      0.05489003
      7.64406780	      0.02268531	      0.02898615	      0.05521298
