Model Marker Errors from IK
version=1
nRows=488
nColumns=4
inDegrees=no
endheader
time	total_squared_error	marker_error_RMS	marker_error_max
      0.00000000	      0.03156969	      0.03419426	      0.07726044
      0.02000000	      0.02037192	      0.02746844	      0.05315104
      0.04000000	      0.01635125	      0.02460898	      0.04259168
      0.06000000	      0.01707269	      0.02514601	      0.04155492
      0.08000000	      0.01765010	      0.02556770	      0.04155010
      0.10000000	      0.01712281	      0.02518289	      0.03949877
      0.12000000	      0.01653879	      0.02474970	      0.03850167
      0.14000000	      0.01637527	      0.02462705	      0.03784241
      0.16000000	      0.01647190	      0.02469960	      0.03779945
      0.18000000	      0.01659745	      0.02479356	      0.03822063
      0.20000000	      0.01679134	      0.02493795	      0.03833427
      0.22000000	      0.01693809	      0.02504669	      0.03819757
      0.24000000	      0.01703815	      0.02512056	      0.03927249
      0.26000000	      0.01713788	      0.02519397	      0.03992757
      0.28000000	      0.01731299	      0.02532236	      0.04048497
      0.30000000	      0.01746641	      0.02543431	      0.04088110
      0.32000000	      0.01748758	      0.02544972	      0.04102218
      0.34000000	      0.01733832	      0.02534087	      0.04114311
      0.36000000	      0.01718676	      0.02522988	      0.04071243
      0.38000000	      0.01721077	      0.02524750	      0.04023548
      0.40000000	      0.01740745	      0.02539134	      0.04108081
      0.42000000	      0.01759862	      0.02553039	      0.04332319
      0.44000000	      0.01764253	      0.02556222	      0.04482121
      0.46000000	      0.01744128	      0.02541600	      0.04520340
      0.48000000	      0.01704413	      0.02512497	      0.04495940
      0.50000000	      0.01666142	      0.02484129	      0.04438280
      0.52000000	      0.01648407	      0.02470873	      0.04362200
      0.54000000	      0.01753705	      0.02548569	      0.04304542
      0.56000000	      0.02067618	      0.02767281	      0.05861365
      0.58000000	      0.02448126	      0.03011168	      0.05508223
      0.60000000	      0.03144580	      0.03412711	      0.08052189
      0.62000000	      0.03682499	      0.03693086	      0.09972631
      0.64000000	      0.03654454	      0.03678997	      0.09937130
      0.66000000	      0.03073954	      0.03374169	      0.07951259
      0.68000000	      0.02362749	      0.02958196	      0.05454975
      0.70000000	      0.02006587	      0.02726134	      0.05541548
      0.72000000	      0.01763024	      0.02555331	      0.04459554
      0.74000000	      0.01717451	      0.02522088	      0.04451919
      0.76000000	      0.01793339	      0.02577207	      0.04408928
      0.78000000	      0.01858659	      0.02623723	      0.04349371
      0.80000000	      0.01888465	      0.02644677	      0.04306926
      0.82000000	      0.01895010	      0.02649255	      0.04258925
      0.84000000	      0.01908993	      0.02659012	      0.04219872
      0.86000000	      0.01929317	      0.02673129	      0.04384411
      0.88000000	      0.01944529	      0.02683646	      0.04585933
      0.90000000	      0.01947601	      0.02685766	      0.04744352
      0.92000000	      0.01943571	      0.02682986	      0.04829688
      0.94000000	      0.01947157	      0.02685459	      0.04861163
      0.96000000	      0.01961634	      0.02695424	      0.04865344
      0.98000000	      0.01986574	      0.02712504	      0.04833593
      1.00000000	      0.02019469	      0.02734870	      0.04806644
      1.02000000	      0.02050674	      0.02755919	      0.04793084
      1.04000000	      0.02070752	      0.02769377	      0.04824392
      1.06000000	      0.02085703	      0.02779357	      0.04869869
      1.08000000	      0.02095338	      0.02785770	      0.04916378
      1.10000000	      0.02114032	      0.02798169	      0.04973861
      1.12000000	      0.02140761	      0.02815802	      0.05049836
      1.14000000	      0.02162314	      0.02829942	      0.05221321
      1.16000000	      0.02171845	      0.02836172	      0.05199817
      1.18000000	      0.02180276	      0.02841672	      0.05155089
      1.20000000	      0.02198058	      0.02853236	      0.05265756
      1.22000000	      0.02226767	      0.02871809	      0.05378389
      1.24000000	      0.02256132	      0.02890683	      0.05307778
      1.26000000	      0.02283164	      0.02907948	      0.05212598
      1.28000000	      0.02305565	      0.02922179	      0.05005883
      1.30000000	      0.02344515	      0.02946759	      0.04882687
      1.32000000	      0.02408829	      0.02986903	      0.05113369
      1.34000000	      0.02479025	      0.03030111	      0.05319972
      1.36000000	      0.02522947	      0.03056836	      0.05496619
      1.38000000	      0.02512379	      0.03050428	      0.05574013
      1.40000000	      0.02455699	      0.03015822	      0.05634761
      1.42000000	      0.02371247	      0.02963511	      0.05645122
      1.44000000	      0.02282248	      0.02907365	      0.05556526
      1.46000000	      0.02221215	      0.02868227	      0.05469366
      1.48000000	      0.02199927	      0.02854449	      0.05380294
      1.50000000	      0.02199692	      0.02854297	      0.05316584
      1.52000000	      0.02229706	      0.02873703	      0.05485240
      1.54000000	      0.02271092	      0.02900250	      0.05629521
      1.56000000	      0.02304430	      0.02921459	      0.05698830
      1.58000000	      0.02319352	      0.02930903	      0.05684638
      1.60000000	      0.02294965	      0.02915454	      0.05557313
      1.62000000	      0.02233642	      0.02876239	      0.05371943
      1.64000000	      0.02149676	      0.02821659	      0.05226197
      1.66000000	      0.02085903	      0.02779490	      0.05094688
      1.68000000	      0.02066251	      0.02766366	      0.05069379
      1.70000000	      0.02098664	      0.02787979	      0.05181496
      1.72000000	      0.02163087	      0.02830448	      0.05315493
      1.74000000	      0.02216704	      0.02865312	      0.05399852
      1.76000000	      0.02217700	      0.02865956	      0.05455580
      1.78000000	      0.02149878	      0.02821792	      0.05453984
      1.80000000	      0.02043988	      0.02751423	      0.05507546
      1.82000000	      0.01967069	      0.02699155	      0.05585017
      1.84000000	      0.01948401	      0.02686317	      0.05631729
      1.86000000	      0.01956192	      0.02691682	      0.05617280
      1.88000000	      0.01954326	      0.02690398	      0.05576713
      1.90000000	      0.01933640	      0.02676122	      0.05585004
      1.92000000	      0.01900563	      0.02653134	      0.05533702
      1.94000000	      0.01867963	      0.02630281	      0.05551216
      1.96000000	      0.01838901	      0.02609740	      0.05643158
      1.98000000	      0.01817672	      0.02594633	      0.05763028
      2.00000000	      0.01813672	      0.02591776	      0.05864395
      2.02000000	      0.01826311	      0.02600791	      0.05955857
      2.04000000	      0.01843978	      0.02613341	      0.05964212
      2.06000000	      0.01857691	      0.02623040	      0.05894702
      2.08000000	      0.01863383	      0.02627055	      0.05763169
      2.10000000	      0.01867132	      0.02629697	      0.05595821
      2.12000000	      0.01871798	      0.02632980	      0.05476726
      2.14000000	      0.01873116	      0.02633907	      0.05418029
      2.16000000	      0.01877882	      0.02637256	      0.05435142
      2.18000000	      0.01893854	      0.02648448	      0.05487143
      2.20000000	      0.01920567	      0.02667061	      0.05539844
      2.22000000	      0.01956393	      0.02691821	      0.05589038
      2.24000000	      0.01968853	      0.02700379	      0.05546360
      2.26000000	      0.01922607	      0.02668476	      0.05271144
      2.28000000	      0.01808574	      0.02588131	      0.04748472
      2.30000000	      0.01665542	      0.02483681	      0.04471638
      2.32000000	      0.01536229	      0.02385317	      0.04207077
      2.34000000	      0.01451887	      0.02318914	      0.04104414
      2.36000000	      0.01443081	      0.02311870	      0.04237072
      2.38000000	      0.01509842	      0.02364743	      0.04327173
      2.40000000	      0.01632361	      0.02458817	      0.04454894
      2.42000000	      0.01771643	      0.02561570	      0.04837057
      2.44000000	      0.01888736	      0.02644866	      0.05046838
      2.46000000	      0.01936464	      0.02678075	      0.05196833
      2.48000000	      0.01906204	      0.02657069	      0.05256790
      2.50000000	      0.01834368	      0.02606522	      0.05170274
      2.52000000	      0.01741829	      0.02539925	      0.04847988
      2.54000000	      0.01665591	      0.02483718	      0.04684405
      2.56000000	      0.01595358	      0.02430789	      0.04738984
      2.58000000	      0.01513444	      0.02367561	      0.04676903
      2.60000000	      0.01423989	      0.02296526	      0.04457703
      2.62000000	      0.01333622	      0.02222463	      0.04070940
      2.64000000	      0.01265596	      0.02165039	      0.03808766
      2.66000000	      0.01245635	      0.02147897	      0.03743080
      2.68000000	      0.01270071	      0.02168863	      0.03898868
      2.70000000	      0.01310590	      0.02203188	      0.04152111
      2.72000000	      0.01343444	      0.02230632	      0.04312827
      2.74000000	      0.01351477	      0.02237290	      0.04324479
      2.76000000	      0.01343785	      0.02230915	      0.04288379
      2.78000000	      0.01331419	      0.02220627	      0.04102524
      2.80000000	      0.01319947	      0.02211039	      0.03960330
      2.82000000	      0.01341365	      0.02228905	      0.04030671
      2.84000000	      0.01415310	      0.02289517	      0.04135834
      2.86000000	      0.01499488	      0.02356620	      0.04102565
      2.88000000	      0.01538926	      0.02387410	      0.04108947
      2.90000000	      0.01518686	      0.02371658	      0.04060446
      2.92000000	      0.01489025	      0.02348384	      0.03989686
      2.94000000	      0.01486686	      0.02346539	      0.03980024
      2.96000000	      0.01508789	      0.02363918	      0.03965949
      2.98000000	      0.01526219	      0.02377533	      0.04141787
      3.00000000	      0.01521170	      0.02373597	      0.04266148
      3.02000000	      0.01516197	      0.02369714	      0.04345030
      3.04000000	      0.01550233	      0.02396165	      0.04389346
      3.06000000	      0.01613600	      0.02444647	      0.04403360
      3.08000000	      0.01668969	      0.02486235	      0.04395257
      3.10000000	      0.01687035	      0.02499656	      0.04372294
      3.12000000	      0.01676253	      0.02491655	      0.04284470
      3.14000000	      0.01649018	      0.02471331	      0.04215610
      3.16000000	      0.01619792	      0.02449333	      0.04155357
      3.18000000	      0.01595532	      0.02430921	      0.04153908
      3.20000000	      0.01584345	      0.02422384	      0.04182129
      3.22000000	      0.01587249	      0.02424603	      0.04239067
      3.24000000	      0.01589379	      0.02426229	      0.04265162
      3.26000000	      0.01575519	      0.02415627	      0.04287758
      3.28000000	      0.01546090	      0.02392960	      0.04323206
      3.30000000	      0.01522350	      0.02374518	      0.04402527
      3.32000000	      0.01520215	      0.02372852	      0.04596725
      3.34000000	      0.01543480	      0.02390939	      0.04890308
      3.36000000	      0.01580106	      0.02419141	      0.05139292
      3.38000000	      0.01610587	      0.02442363	      0.05300988
      3.40000000	      0.01615860	      0.02446358	      0.05302075
      3.42000000	      0.01585439	      0.02423220	      0.05051812
      3.44000000	      0.01536023	      0.02385157	      0.04797883
      3.46000000	      0.01497668	      0.02355189	      0.04588485
      3.48000000	      0.01441238	      0.02310394	      0.04446918
      3.50000000	      0.01460245	      0.02325578	      0.04526218
      3.52000000	      0.01478062	      0.02339723	      0.04657420
      3.54000000	      0.01529369	      0.02379985	      0.04768953
      3.56000000	      0.01608336	      0.02440656	      0.04902412
      3.58000000	      0.01703794	      0.02512040	      0.05042742
      3.60000000	      0.01800574	      0.02582401	      0.05138172
      3.62000000	      0.01880400	      0.02639024	      0.05215687
      3.64000000	      0.01940428	      0.02680815	      0.05276143
      3.66000000	      0.01985622	      0.02711854	      0.05321499
      3.68000000	      0.02011780	      0.02729659	      0.05317696
      3.70000000	      0.02024258	      0.02738111	      0.05302969
      3.72000000	      0.02029752	      0.02741825	      0.05239218
      3.74000000	      0.02041574	      0.02749797	      0.05173501
      3.76000000	      0.02056520	      0.02759844	      0.05092331
      3.78000000	      0.02069222	      0.02768355	      0.04989673
      3.80000000	      0.02077741	      0.02774047	      0.04923708
      3.82000000	      0.02073425	      0.02771164	      0.04913648
      3.84000000	      0.02052424	      0.02757095	      0.04979966
      3.86000000	      0.02026852	      0.02739865	      0.05081077
      3.88000000	      0.02012426	      0.02730097	      0.05217248
      3.90000000	      0.02020192	      0.02735360	      0.05247737
      3.92000000	      0.02020968	      0.02735885	      0.05302105
      3.94000000	      0.02015289	      0.02732039	      0.05257941
      3.96000000	      0.02003228	      0.02723851	      0.05190537
      3.98000000	      0.01989011	      0.02714168	      0.05066437
      4.00000000	      0.01969807	      0.02701034	      0.04929585
      4.02000000	      0.01944947	      0.02683935	      0.04766586
      4.04000000	      0.01921307	      0.02667574	      0.04602705
      4.06000000	      0.01910281	      0.02659909	      0.04510074
      4.08000000	      0.01923713	      0.02669244	      0.04302550
      4.10000000	      0.01943615	      0.02683016	      0.04137439
      4.12000000	      0.01948168	      0.02686157	      0.04133363
      4.14000000	      0.01933400	      0.02675956	      0.04168183
      4.16000000	      0.01898890	      0.02651967	      0.04090686
      4.18000000	      0.01868510	      0.02630667	      0.04018553
      4.20000000	      0.01856901	      0.02622482	      0.04250905
      4.22000000	      0.01861225	      0.02625533	      0.04495270
      4.24000000	      0.01866053	      0.02628937	      0.04698872
      4.26000000	      0.01867310	      0.02629822	      0.04785917
      4.28000000	      0.01867077	      0.02629658	      0.04749842
      4.30000000	      0.01866461	      0.02629224	      0.04672170
      4.32000000	      0.01874011	      0.02634536	      0.04620676
      4.34000000	      0.01886922	      0.02643596	      0.04689194
      4.36000000	      0.01911009	      0.02660415	      0.04781299
      4.38000000	      0.01950463	      0.02687738	      0.04895671
      4.40000000	      0.02020301	      0.02735433	      0.04954936
      4.42000000	      0.02115739	      0.02799298	      0.04970513
      4.44000000	      0.02222476	      0.02869041	      0.04946042
      4.46000000	      0.02315704	      0.02928597	      0.04889140
      4.48000000	      0.02380889	      0.02969530	      0.04792114
      4.50000000	      0.02417836	      0.02992482	      0.04744325
      4.52000000	      0.02425647	      0.02997312	      0.04767320
      4.54000000	      0.02390371	      0.02975437	      0.04733011
      4.56000000	      0.02314981	      0.02928140	      0.04577881
      4.58000000	      0.02218613	      0.02866546	      0.04499678
      4.60000000	      0.02130811	      0.02809251	      0.04518734
      4.62000000	      0.02069145	      0.02768303	      0.04500130
      4.64000000	      0.02030909	      0.02742606	      0.04496746
      4.66000000	      0.02004469	      0.02724694	      0.04481951
      4.68000000	      0.01994045	      0.02717600	      0.04456193
      4.70000000	      0.02006905	      0.02726350	      0.04408633
      4.72000000	      0.02034414	      0.02744971	      0.04389599
      4.74000000	      0.02058830	      0.02761394	      0.04349502
      4.76000000	      0.02068192	      0.02767665	      0.04309576
      4.78000000	      0.02052611	      0.02757220	      0.04254404
      4.80000000	      0.02034280	      0.02744881	      0.04218204
      4.82000000	      0.02008280	      0.02727283	      0.04177724
      4.84000000	      0.01984360	      0.02710993	      0.04170868
      4.86000000	      0.01973475	      0.02703547	      0.04186175
      4.88000000	      0.01968900	      0.02700411	      0.04222724
      4.90000000	      0.01956434	      0.02691849	      0.04254435
      4.92000000	      0.01944458	      0.02683598	      0.04319271
      4.94000000	      0.01938607	      0.02679557	      0.04409015
      4.96000000	      0.01956370	      0.02691805	      0.04573297
      4.98000000	      0.01996657	      0.02719380	      0.04576170
      5.00000000	      0.02060425	      0.02762464	      0.04611788
      5.02000000	      0.02137400	      0.02813591	      0.04647463
      5.04000000	      0.02203346	      0.02856666	      0.04920805
      5.06000000	      0.02229078	      0.02873299	      0.05131551
      5.08000000	      0.02201174	      0.02855258	      0.05243838
      5.10000000	      0.02138762	      0.02814488	      0.05181396
      5.12000000	      0.02059593	      0.02761905	      0.05095852
      5.14000000	      0.01979566	      0.02707716	      0.05036669
      5.16000000	      0.01916190	      0.02664020	      0.04945278
      5.18000000	      0.01875716	      0.02635734	      0.04856860
      5.20000000	      0.01862554	      0.02626471	      0.04914011
      5.22000000	      0.01871594	      0.02632837	      0.04989042
      5.24000000	      0.01894233	      0.02648712	      0.05043572
      5.26000000	      0.01926400	      0.02671108	      0.05062217
      5.28000000	      0.01953747	      0.02690000	      0.05047532
      5.30000000	      0.01963176	      0.02696483	      0.04982262
      5.32000000	      0.01961616	      0.02695412	      0.04910814
      5.34000000	      0.01965014	      0.02697745	      0.04861879
      5.36000000	      0.01967344	      0.02699344	      0.04770918
      5.38000000	      0.01974402	      0.02704182	      0.04719364
      5.40000000	      0.01973519	      0.02703577	      0.04661917
      5.42000000	      0.01976391	      0.02705544	      0.04633883
      5.44000000	      0.01985388	      0.02711695	      0.04644710
      5.46000000	      0.02002311	      0.02723227	      0.04643889
      5.48000000	      0.02021474	      0.02736227	      0.04676244
      5.50000000	      0.02033254	      0.02744188	      0.04694820
      5.52000000	      0.02034576	      0.02745081	      0.04695691
      5.54000000	      0.02031085	      0.02742724	      0.04705482
      5.56000000	      0.02022601	      0.02736990	      0.04713309
      5.58000000	      0.02013641	      0.02730921	      0.04724891
      5.60000000	      0.02008769	      0.02727615	      0.04749376
      5.62000000	      0.02004607	      0.02724788	      0.04711802
      5.64000000	      0.02004995	      0.02725052	      0.04664779
      5.66000000	      0.02001359	      0.02722580	      0.04643756
      5.68000000	      0.01986567	      0.02712500	      0.04890713
      5.70000000	      0.01938422	      0.02679429	      0.04919916
      5.72000000	      0.01851480	      0.02618651	      0.04784892
      5.74000000	      0.01765869	      0.02557393	      0.04620808
      5.76000000	      0.01716912	      0.02521692	      0.04324185
      5.78000000	      0.01716219	      0.02521184	      0.04249690
      5.80000000	      0.01748483	      0.02544771	      0.04172196
      5.82000000	      0.01812642	      0.02591040	      0.04393891
      5.84000000	      0.01899515	      0.02652403	      0.04675433
      5.86000000	      0.02002121	      0.02723098	      0.04978752
      5.88000000	      0.02110319	      0.02795710	      0.05299906
      5.90000000	      0.02217828	      0.02866039	      0.05660752
      5.92000000	      0.02296605	      0.02916495	      0.06016020
      5.94000000	      0.02346378	      0.02947930	      0.06311526
      5.96000000	      0.02360658	      0.02956887	      0.06482196
      5.98000000	      0.02362121	      0.02957803	      0.06545857
      6.00000000	      0.02365492	      0.02959912	      0.06543213
      6.02000000	      0.02382007	      0.02970227	      0.06531541
      6.04000000	      0.02410712	      0.02988070	      0.06549574
      6.06000000	      0.02445597	      0.03009612	      0.06599388
      6.08000000	      0.02483513	      0.03032853	      0.06666369
      6.10000000	      0.02515119	      0.03052090	      0.06738150
      6.12000000	      0.02540302	      0.03067332	      0.06854661
      6.14000000	      0.02570956	      0.03085783	      0.06936280
      6.16000000	      0.02627039	      0.03119258	      0.07007587
      6.18000000	      0.02713426	      0.03170130	      0.07056908
      6.20000000	      0.02823509	      0.03233797	      0.07078810
      6.22000000	      0.02945626	      0.03302987	      0.07085437
      6.24000000	      0.03059579	      0.03366270	      0.07113210
      6.26000000	      0.03144437	      0.03412633	      0.07120485
      6.28000000	      0.03187657	      0.03436006	      0.07085859
      6.30000000	      0.03189188	      0.03436831	      0.07030007
      6.32000000	      0.03148321	      0.03414740	      0.06972092
      6.34000000	      0.03069942	      0.03371966	      0.06942006
      6.36000000	      0.02958385	      0.03310133	      0.06947965
      6.38000000	      0.02825926	      0.03235180	      0.06965492
      6.40000000	      0.02672737	      0.03146272	      0.06889454
      6.42000000	      0.02509783	      0.03048851	      0.06723503
      6.44000000	      0.02361525	      0.02957429	      0.06515538
      6.46000000	      0.02251573	      0.02887760	      0.06304972
      6.48000000	      0.02191381	      0.02848899	      0.06132329
      6.50000000	      0.02180592	      0.02841877	      0.06009612
      6.52000000	      0.02192479	      0.02849613	      0.05970897
      6.54000000	      0.02198087	      0.02853255	      0.06021396
      6.56000000	      0.02192161	      0.02849406	      0.06106363
      6.58000000	      0.02182201	      0.02842926	      0.06153627
      6.60000000	      0.02193561	      0.02850316	      0.06070569
      6.62000000	      0.02219143	      0.02866888	      0.05905683
      6.64000000	      0.02227774	      0.02872458	      0.05737162
      6.66000000	      0.02215303	      0.02864407	      0.05582031
      6.68000000	      0.02195333	      0.02851467	      0.05450868
      6.70000000	      0.02200965	      0.02855122	      0.05285232
      6.72000000	      0.02223599	      0.02869765	      0.05103651
      6.74000000	      0.02242164	      0.02881720	      0.04916675
      6.76000000	      0.02245916	      0.02884130	      0.04722952
      6.78000000	      0.02225149	      0.02870765	      0.04798832
      6.80000000	      0.02172474	      0.02836582	      0.04812613
      6.82000000	      0.02126358	      0.02806314	      0.04864200
      6.84000000	      0.02104317	      0.02791732	      0.04821277
      6.86000000	      0.02082008	      0.02776894	      0.04618565
      6.88000000	      0.02020494	      0.02735564	      0.04297911
      6.90000000	      0.01927640	      0.02671967	      0.04176387
      6.92000000	      0.01816963	      0.02594126	      0.03993847
      6.94000000	      0.01712206	      0.02518235	      0.04015437
      6.96000000	      0.01622349	      0.02451265	      0.04145321
      6.98000000	      0.01582584	      0.02421038	      0.04388162
      7.00000000	      0.01597569	      0.02432473	      0.04739079
      7.02000000	      0.01659431	      0.02479121	      0.05216681
      7.04000000	      0.01762026	      0.02554608	      0.05791512
      7.06000000	      0.01880794	      0.02639300	      0.06342284
      7.08000000	      0.01970831	      0.02701736	      0.06676025
      7.10000000	      0.02018725	      0.02734366	      0.06703652
      7.12000000	      0.02062218	      0.02763665	      0.06460496
      7.14000000	      0.02189094	      0.02847412	      0.06050100
      7.16000000	      0.02460787	      0.03018945	      0.05485304
      7.18000000	      0.02829750	      0.03237369	      0.06207705
      7.20000000	      0.03154661	      0.03418176	      0.07371588
      7.22000000	      0.03333029	      0.03513481	      0.07932445
      7.24000000	      0.03396231	      0.03546637	      0.07839342
      7.26000000	      0.03451200	      0.03575223	      0.07654250
      7.28000000	      0.03531397	      0.03616524	      0.07266796
      7.30000000	      0.03596175	      0.03649543	      0.07093711
      7.32000000	      0.03610893	      0.03657004	      0.07151283
      7.34000000	      0.03600529	      0.03651752	      0.07279131
      7.36000000	      0.03622306	      0.03662779	      0.07463076
      7.38000000	      0.03721701	      0.03712691	      0.07642777
      7.40000000	      0.03907090	      0.03804038	      0.07778748
      7.42000000	      0.04138428	      0.03915036	      0.07883719
      7.44000000	      0.04334566	      0.04006738	      0.07961051
      7.46000000	      0.04424036	      0.04047878	      0.08329058
      7.48000000	      0.04410090	      0.04041493	      0.07966182
      7.50000000	      0.04332313	      0.04005696	      0.07991896
      7.52000000	      0.04251926	      0.03968359	      0.08009484
      7.54000000	      0.04190544	      0.03939611	      0.08036735
      7.56000000	      0.04145883	      0.03918561	      0.08118242
      7.58000000	      0.04087555	      0.03890899	      0.08112142
      7.60000000	      0.04039442	      0.03867932	      0.08019235
      7.62000000	      0.04004067	      0.03850958	      0.08010467
      7.64000000	      0.03985951	      0.03842237	      0.07918313
      7.66000000	      0.03973854	      0.03836402	      0.07906658
      7.68000000	      0.03960010	      0.03829713	      0.07811888
      7.70000000	      0.03961013	      0.03830198	      0.07646115
      7.72000000	      0.03993099	      0.03845680	      0.07989688
      7.74000000	      0.04010160	      0.03853887	      0.08148549
      7.76000000	      0.04026711	      0.03861832	      0.08501577
      7.78000000	      0.04019648	      0.03858444	      0.08623362
      7.80000000	      0.03993127	      0.03845694	      0.08727297
      7.82000000	      0.03943197	      0.03821575	      0.08814004
      7.84000000	      0.03880456	      0.03791050	      0.08855782
      7.86000000	      0.03819188	      0.03761003	      0.08775183
      7.88000000	      0.03751855	      0.03727701	      0.09052103
      7.90000000	      0.03693120	      0.03698408	      0.09076736
      7.92000000	      0.03662933	      0.03683262	      0.08942258
      7.94000000	      0.03650539	      0.03677025	      0.08815103
      7.96000000	      0.03664639	      0.03684120	      0.08628680
      7.98000000	      0.03678020	      0.03690840	      0.08431997
      8.00000000	      0.03674296	      0.03688970	      0.08285688
      8.02000000	      0.03640376	      0.03671904	      0.08151009
      8.04000000	      0.03566354	      0.03634380	      0.08053322
      8.06000000	      0.03445712	      0.03572380	      0.08115174
      8.08000000	      0.03307453	      0.03499975	      0.08127278
      8.10000000	      0.03196310	      0.03440667	      0.08156607
      8.12000000	      0.03150791	      0.03416079	      0.08227016
      8.14000000	      0.03192332	      0.03438524	      0.08317972
      8.16000000	      0.03312575	      0.03502684	      0.08391137
      8.18000000	      0.03511168	      0.03606151	      0.08433976
      8.20000000	      0.03752101	      0.03727824	      0.08503097
      8.22000000	      0.03979003	      0.03838886	      0.08577884
      8.24000000	      0.04096690	      0.03895244	      0.08607020
      8.26000000	      0.04043380	      0.03869817	      0.08752476
      8.28000000	      0.03870078	      0.03785977	      0.08796458
      8.30000000	      0.03689160	      0.03696425	      0.08835872
      8.32000000	      0.03530181	      0.03615902	      0.08706106
      8.34000000	      0.03454795	      0.03577085	      0.08493231
      8.36000000	      0.03289296	      0.03490355	      0.07958636
      8.38000000	      0.03182231	      0.03433081	      0.07509724
      8.40000000	      0.03064999	      0.03369250	      0.07030392
      8.42000000	      0.02909716	      0.03282792	      0.06665454
      8.44000000	      0.02690118	      0.03156485	      0.06367917
      8.46000000	      0.02421497	      0.02994746	      0.06045550
      8.48000000	      0.02141646	      0.02816384	      0.05931950
      8.50000000	      0.01879897	      0.02638670	      0.05698922
      8.52000000	      0.01660584	      0.02479982	      0.05353339
      8.54000000	      0.01521157	      0.02373587	      0.04927905
      8.56000000	      0.01461934	      0.02326923	      0.04595747
      8.58000000	      0.01436498	      0.02306591	      0.04426004
      8.60000000	      0.01407673	      0.02283332	      0.04186152
      8.62000000	      0.01391408	      0.02270102	      0.04102057
      8.64000000	      0.01422877	      0.02295630	      0.04078364
      8.66000000	      0.01507428	      0.02362852	      0.04157504
      8.68000000	      0.01562974	      0.02405991	      0.04296392
      8.70000000	      0.01545584	      0.02392569	      0.04409670
      8.72000000	      0.01478640	      0.02340181	      0.04444167
      8.74000000	      0.01409808	      0.02285063	      0.04466140
      8.76000000	      0.01387219	      0.02266682	      0.04508528
      8.78000000	      0.01404849	      0.02281041	      0.04580944
      8.80000000	      0.01437202	      0.02307157	      0.04663878
      8.82000000	      0.01488754	      0.02348170	      0.04756406
      8.84000000	      0.01559163	      0.02403056	      0.04806641
      8.86000000	      0.01631147	      0.02457902	      0.04861619
      8.88000000	      0.01706868	      0.02514306	      0.04918724
      8.90000000	      0.01771676	      0.02561594	      0.04916819
      8.92000000	      0.01793052	      0.02577001	      0.04964269
      8.94000000	      0.01749546	      0.02545545	      0.04967825
      8.96000000	      0.01666319	      0.02484261	      0.04973413
      8.98000000	      0.01581512	      0.02420217	      0.05002541
      9.00000000	      0.01506815	      0.02362371	      0.05032642
      9.02000000	      0.01454621	      0.02321096	      0.05045058
      9.04000000	      0.01419645	      0.02293021	      0.05024459
      9.06000000	      0.01401365	      0.02278210	      0.04993510
      9.08000000	      0.01394156	      0.02272342	      0.04955425
      9.10000000	      0.01389496	      0.02268542	      0.04878881
      9.12000000	      0.01380157	      0.02260906	      0.04757156
      9.14000000	      0.01367303	      0.02250353	      0.04597598
      9.16000000	      0.01359292	      0.02243750	      0.04407407
      9.18000000	      0.01378353	      0.02259427	      0.04355789
      9.20000000	      0.01427489	      0.02299347	      0.04342285
      9.22000000	      0.01509555	      0.02364517	      0.04383095
      9.24000000	      0.01609217	      0.02441324	      0.04385255
      9.26000000	      0.01707010	      0.02514410	      0.04357941
      9.28000000	      0.01803149	      0.02584246	      0.04298662
      9.30000000	      0.01908513	      0.02658678	      0.04658214
      9.32000000	      0.02010855	      0.02729031	      0.05007000
      9.34000000	      0.02125667	      0.02805858	      0.05386834
      9.36000000	      0.02229051	      0.02873281	      0.05629382
      9.38000000	      0.02302202	      0.02920047	      0.05681034
      9.40000000	      0.02355323	      0.02953543	      0.05633324
      9.42000000	      0.02154837	      0.02825045	      0.05281091
      9.44000000	      0.02080286	      0.02775745	      0.04833848
      9.46000000	      0.02036915	      0.02746658	      0.04498742
      9.48000000	      0.02012465	      0.02730123	      0.04396303
      9.50000000	      0.01998454	      0.02720603	      0.04380175
      9.52000000	      0.02006488	      0.02726066	      0.04487520
      9.54000000	      0.02062306	      0.02763724	      0.04813523
      9.56000000	      0.02161244	      0.02829241	      0.05157313
      9.58000000	      0.02256938	      0.02891199	      0.05296312
      9.60000000	      0.02258541	      0.02892225	      0.05184336
      9.62000000	      0.02335896	      0.02941338	      0.05137816
      9.64000000	      0.02478504	      0.03029793	      0.05160438
      9.66000000	      0.02662853	      0.03140449	      0.05356659
      9.68000000	      0.02797788	      0.03219034	      0.05755578
      9.70000000	      0.02820702	      0.03232189	      0.06087613
      9.72000000	      0.02425204	      0.02997038	      0.05441922
      9.74000000	      0.02257163	      0.02891343	      0.05160052
