Model Marker Errors from IK
version=1
nRows=355
nColumns=4
inDegrees=no
endheader
time	total_squared_error	marker_error_RMS	marker_error_max
      0.00000000	      0.02580991	      0.03091800	      0.05247355
      0.01694915	      0.02397202	      0.02979686	      0.04662820
      0.03389831	      0.02358627	      0.02955615	      0.04546851
      0.05084746	      0.02406719	      0.02985594	      0.04680030
      0.06779661	      0.02514454	      0.03051687	      0.05317611
      0.08474576	      0.02672198	      0.03145954	      0.05921764
      0.10169492	      0.02844810	      0.03245972	      0.06526229
      0.11864407	      0.03010800	      0.03339328	      0.07003675
      0.13559322	      0.03132217	      0.03405995	      0.07357059
      0.15254237	      0.03198529	      0.03441860	      0.07391416
      0.16949153	      0.03207116	      0.03446477	      0.07369197
      0.18644068	      0.03179457	      0.03431584	      0.07270228
      0.20338983	      0.03128778	      0.03404125	      0.07130504
      0.22033898	      0.03059776	      0.03366378	      0.07105831
      0.23728814	      0.02989425	      0.03327453	      0.06929723
      0.25423729	      0.02930474	      0.03294482	      0.06679945
      0.27118644	      0.02880568	      0.03266308	      0.06645773
      0.28813559	      0.02857586	      0.03253252	      0.06504746
      0.30508475	      0.02855211	      0.03251900	      0.06361976
      0.32203390	      0.02853763	      0.03251075	      0.06252622
      0.33898305	      0.02839544	      0.03242966	      0.06272857
      0.35593220	      0.02820461	      0.03232051	      0.06301166
      0.37288136	      0.02810700	      0.03226453	      0.06463390
      0.38983051	      0.02819037	      0.03231235	      0.06716514
      0.40677966	      0.02841206	      0.03243915	      0.06992871
      0.42372881	      0.02865369	      0.03257680	      0.07168728
      0.44067797	      0.02872616	      0.03261797	      0.07281216
      0.45762712	      0.02879836	      0.03265894	      0.07140091
      0.47457627	      0.02890549	      0.03271962	      0.07052467
      0.49152542	      0.02917569	      0.03287219	      0.06942107
      0.50847458	      0.02962674	      0.03312532	      0.06868151
      0.52542373	      0.03025786	      0.03347628	      0.06957976
      0.54237288	      0.03097812	      0.03387237	      0.07117267
      0.55932203	      0.03152558	      0.03417037	      0.07505448
      0.57627119	      0.03154197	      0.03417925	      0.07677636
      0.59322034	      0.03108833	      0.03393257	      0.07761339
      0.61016949	      0.03044897	      0.03358184	      0.07732958
      0.62711864	      0.02994048	      0.03330025	      0.07632232
      0.64406780	      0.02990354	      0.03327970	      0.07541455
      0.66101695	      0.03015691	      0.03342039	      0.07542699
      0.67796610	      0.03030129	      0.03350030	      0.07568881
      0.69491525	      0.03003950	      0.03335527	      0.07626109
      0.71186441	      0.02953139	      0.03307197	      0.07713839
      0.72881356	      0.02892143	      0.03272864	      0.07786782
      0.74576271	      0.02834101	      0.03239857	      0.07825037
      0.76271186	      0.02787215	      0.03212945	      0.07825213
      0.77966102	      0.02767506	      0.03201566	      0.07872047
      0.79661017	      0.02766928	      0.03201231	      0.07890220
      0.81355932	      0.02781418	      0.03209602	      0.07928617
      0.83050847	      0.02804365	      0.03222815	      0.07947984
      0.84745763	      0.02837446	      0.03241768	      0.07973562
      0.86440678	      0.02868126	      0.03259247	      0.08018093
      0.88135593	      0.02888883	      0.03271019	      0.08053761
      0.89830508	      0.02899235	      0.03276875	      0.08121806
      0.91525424	      0.02897610	      0.03275956	      0.08164198
      0.93220339	      0.02890281	      0.03271811	      0.08258187
      0.94915254	      0.02849699	      0.03248760	      0.08181766
      0.96610169	      0.02781063	      0.03209398	      0.08094982
      0.98305085	      0.02709050	      0.03167573	      0.07959476
      1.00000000	      0.02628709	      0.03120250	      0.07773053
      1.01694915	      0.02559371	      0.03078823	      0.07595110
      1.03389831	      0.02498798	      0.03042172	      0.07371466
      1.05084746	      0.02452758	      0.03014016	      0.07137289
      1.06779661	      0.02412507	      0.02989182	      0.06857594
      1.08474576	      0.02368748	      0.02961949	      0.06492588
      1.10169492	      0.02327754	      0.02936207	      0.06122060
      1.11864407	      0.02300974	      0.02919268	      0.05782347
      1.13559322	      0.02293819	      0.02914725	      0.05565925
      1.15254237	      0.02300709	      0.02919100	      0.05441803
      1.16949153	      0.02308572	      0.02924084	      0.05421439
      1.18644068	      0.02308266	      0.02923890	      0.05412569
      1.20338983	      0.02299486	      0.02918324	      0.05396320
      1.22033898	      0.02278454	      0.02904947	      0.05335830
      1.23728814	      0.02241301	      0.02881165	      0.05231620
      1.25423729	      0.02196479	      0.02852211	      0.05095135
      1.27118644	      0.02159118	      0.02827850	      0.05008035
      1.28813559	      0.02149458	      0.02821517	      0.04995389
      1.30508475	      0.02165011	      0.02831706	      0.05041684
      1.32203390	      0.02190629	      0.02848410	      0.05101858
      1.33898305	      0.02205809	      0.02858262	      0.05115647
      1.35593220	      0.02201360	      0.02855378	      0.05080791
      1.37288136	      0.02179163	      0.02840946	      0.05059864
      1.38983051	      0.02149608	      0.02821615	      0.05083662
      1.40677966	      0.02125044	      0.02805447	      0.05151574
      1.42372881	      0.02128474	      0.02807711	      0.05343284
      1.44067797	      0.02190598	      0.02848390	      0.05617945
      1.45762712	      0.02300686	      0.02919085	      0.05934401
      1.47457627	      0.02409551	      0.02987350	      0.06179797
      1.49152542	      0.02489210	      0.03036329	      0.06366675
      1.50847458	      0.02534272	      0.03063689	      0.06500386
      1.52542373	      0.02554401	      0.03075833	      0.06608448
      1.54237288	      0.02546672	      0.03071176	      0.06585040
      1.55932203	      0.02517386	      0.03053465	      0.06538484
      1.57627119	      0.02475391	      0.03027890	      0.06465771
      1.59322034	      0.02431644	      0.03001015	      0.06353400
      1.61016949	      0.02391937	      0.02976412	      0.06223075
      1.62711864	      0.02357536	      0.02954931	      0.06099032
      1.64406780	      0.02327813	      0.02936244	      0.05999157
      1.66101695	      0.02307044	      0.02923116	      0.05944759
      1.67796610	      0.02303399	      0.02920806	      0.05923037
      1.69491525	      0.02322176	      0.02932687	      0.05908956
      1.71186441	      0.02355815	      0.02953852	      0.05931237
      1.72881356	      0.02383990	      0.02971463	      0.05883279
      1.74576271	      0.02390586	      0.02975571	      0.05862717
      1.76271186	      0.02362450	      0.02958009	      0.05741859
      1.77966102	      0.02308303	      0.02923913	      0.05581213
      1.79661017	      0.02239161	      0.02879790	      0.05442515
      1.81355932	      0.02183370	      0.02843687	      0.05352194
      1.83050847	      0.02157890	      0.02827046	      0.05325698
      1.84745763	      0.02146922	      0.02819852	      0.05344867
      1.86440678	      0.02149199	      0.02821346	      0.05353472
      1.88135593	      0.02165542	      0.02832053	      0.05355556
      1.89830508	      0.02178692	      0.02840639	      0.05326258
      1.91525424	      0.02197164	      0.02852656	      0.05270506
      1.93220339	      0.02214263	      0.02863734	      0.05206277
      1.94915254	      0.02240187	      0.02880449	      0.05113726
      1.96610169	      0.02270085	      0.02899608	      0.05020699
      1.98305085	      0.02288638	      0.02911432	      0.04940967
      2.00000000	      0.02283616	      0.02908236	      0.04915917
      2.01694915	      0.02246512	      0.02884513	      0.04915222
      2.03389831	      0.02188370	      0.02846941	      0.04988585
      2.05084746	      0.02117174	      0.02800248	      0.05012841
      2.06779661	      0.02059970	      0.02762158	      0.05093904
      2.08474576	      0.02029134	      0.02741407	      0.05190889
      2.10169492	      0.02026128	      0.02739376	      0.05296601
      2.11864407	      0.02031899	      0.02743274	      0.05390940
      2.13559322	      0.02045706	      0.02752578	      0.05462137
      2.15254237	      0.02060692	      0.02762642	      0.05516238
      2.16949153	      0.02073739	      0.02771374	      0.05557468
      2.18644068	      0.02080460	      0.02775862	      0.05593049
      2.20338983	      0.02085391	      0.02779149	      0.05594241
      2.22033898	      0.02082986	      0.02777546	      0.05566077
      2.23728814	      0.02085054	      0.02778925	      0.05533230
      2.25423729	      0.02075939	      0.02772844	      0.05499520
      2.27118644	      0.02052537	      0.02757170	      0.05461931
      2.28813559	      0.02003589	      0.02724096	      0.05434891
      2.30508475	      0.01940994	      0.02681206	      0.05422061
      2.32203390	      0.01882675	      0.02640620	      0.05360290
      2.33898305	      0.01845997	      0.02614771	      0.05309236
      2.35593220	      0.01841631	      0.02611677	      0.05210599
      2.37288136	      0.01868203	      0.02630451	      0.05089190
      2.38983051	      0.01909261	      0.02659199	      0.04959579
      2.40677966	      0.01938705	      0.02679625	      0.04886141
      2.42372881	      0.01937622	      0.02678876	      0.04950844
      2.44067797	      0.01897507	      0.02651001	      0.04957051
      2.45762712	      0.01825385	      0.02600132	      0.04922251
      2.47457627	      0.01755754	      0.02550057	      0.04883119
      2.49152542	      0.01700507	      0.02509617	      0.04838936
      2.50847458	      0.01669441	      0.02486587	      0.04830714
      2.52542373	      0.01665925	      0.02483967	      0.04864091
      2.54237288	      0.01683431	      0.02496984	      0.04924115
      2.55932203	      0.01713447	      0.02519147	      0.04962728
      2.57627119	      0.01752847	      0.02547946	      0.04967571
      2.59322034	      0.01786348	      0.02572179	      0.04943208
      2.61016949	      0.01828989	      0.02602698	      0.04891352
      2.62711864	      0.01870480	      0.02632053	      0.04822108
      2.64406780	      0.01901971	      0.02654117	      0.04741746
      2.66101695	      0.01921879	      0.02667971	      0.04635239
      2.67796610	      0.01934605	      0.02676790	      0.04530588
      2.69491525	      0.01941505	      0.02681559	      0.04538848
      2.71186441	      0.01952780	      0.02689334	      0.04564965
      2.72881356	      0.01973819	      0.02703783	      0.04564280
      2.74576271	      0.02016854	      0.02733099	      0.04625477
      2.76271186	      0.02084561	      0.02778596	      0.04666654
      2.77966102	      0.02161956	      0.02829708	      0.04727477
      2.79661017	      0.02230780	      0.02874396	      0.04760656
      2.81355932	      0.02276690	      0.02903823	      0.04865672
      2.83050847	      0.02302153	      0.02920016	      0.04961190
      2.84745763	      0.02311677	      0.02926050	      0.04995121
      2.86440678	      0.02318477	      0.02930350	      0.04997382
      2.88135593	      0.02330178	      0.02937735	      0.04998568
      2.89830508	      0.02351240	      0.02950983	      0.05012540
      2.91525424	      0.02384733	      0.02971926	      0.05037945
      2.93220339	      0.02430637	      0.03000393	      0.05153074
      2.94915254	      0.02490610	      0.03037183	      0.05310696
      2.96610169	      0.02566672	      0.03083211	      0.05433189
      2.98305085	      0.02656442	      0.03136666	      0.05624792
      3.00000000	      0.02735183	      0.03182814	      0.05725691
      3.01694915	      0.02786874	      0.03212749	      0.05773883
      3.03389831	      0.02797679	      0.03218971	      0.05691069
      3.05084746	      0.02777749	      0.03207485	      0.05500967
      3.06779661	      0.02738298	      0.03184626	      0.05216798
      3.08474576	      0.02695321	      0.03159536	      0.05248935
      3.10169492	      0.02650691	      0.03133269	      0.05333391
      3.11864407	      0.02603588	      0.03105305	      0.05295400
      3.13559322	      0.02557304	      0.03077580	      0.05113419
      3.15254237	      0.02517353	      0.03053445	      0.04798532
      3.16949153	      0.02492848	      0.03038547	      0.04498162
      3.18644068	      0.02483996	      0.03033148	      0.04714982
      3.20338983	      0.02482723	      0.03032370	      0.04803709
      3.22033898	      0.02478250	      0.03029637	      0.04721714
      3.23728814	      0.02480253	      0.03030862	      0.04605332
      3.25423729	      0.02508646	      0.03048160	      0.05050294
      3.27118644	      0.02579438	      0.03090869	      0.05530498
      3.28813559	      0.02679415	      0.03150200	      0.05871482
      3.30508475	      0.02780980	      0.03209350	      0.06041981
      3.32203390	      0.02865402	      0.03257699	      0.06066426
      3.33898305	      0.02927621	      0.03292877	      0.06035238
      3.35593220	      0.02976167	      0.03320066	      0.05974634
      3.37288136	      0.03010371	      0.03339090	      0.05959266
      3.38983051	      0.03016733	      0.03342616	      0.05931082
      3.40677966	      0.02985484	      0.03325259	      0.05849726
      3.42372881	      0.02938337	      0.03298898	      0.05720255
      3.44067797	      0.02874889	      0.03263087	      0.05578444
      3.45762712	      0.02814055	      0.03228378	      0.05414509
      3.47457627	      0.02748352	      0.03190467	      0.05252448
      3.49152542	      0.02681522	      0.03151438	      0.05139143
      3.50847458	      0.02626309	      0.03118825	      0.05158996
      3.52542373	      0.02600836	      0.03103663	      0.05346226
      3.54237288	      0.02604938	      0.03106110	      0.05664723
      3.55932203	      0.02636579	      0.03124917	      0.06016197
      3.57627119	      0.02669043	      0.03144097	      0.06237612
      3.59322034	      0.02697722	      0.03160944	      0.06323640
      3.61016949	      0.02712786	      0.03169756	      0.06277108
      3.62711864	      0.02717519	      0.03172521	      0.06121581
      3.64406780	      0.02708087	      0.03167010	      0.05880851
      3.66101695	      0.02692522	      0.03157896	      0.05627745
      3.67796610	      0.02679125	      0.03150030	      0.05452419
      3.69491525	      0.02674062	      0.03147051	      0.05394693
      3.71186441	      0.02674541	      0.03147333	      0.05436797
      3.72881356	      0.02674102	      0.03147075	      0.05522863
      3.74576271	      0.02677196	      0.03148895	      0.05605884
      3.76271186	      0.02678262	      0.03149522	      0.05685231
      3.77966102	      0.02691965	      0.03157569	      0.05750787
      3.79661017	      0.02713239	      0.03170021	      0.05796463
      3.81355932	      0.02740290	      0.03185784	      0.05807972
      3.83050847	      0.02771860	      0.03204083	      0.05785105
      3.84745763	      0.02805929	      0.03223714	      0.05741265
      3.86440678	      0.02839949	      0.03243197	      0.05708305
      3.88135593	      0.02867490	      0.03258885	      0.05679642
      3.89830508	      0.02873583	      0.03262346	      0.05626247
      3.91525424	      0.02848852	      0.03248277	      0.05533206
      3.93220339	      0.02797070	      0.03218621	      0.05527478
      3.94915254	      0.02729967	      0.03179778	      0.05529758
      3.96610169	      0.02666282	      0.03142470	      0.05524446
      3.98305085	      0.02620889	      0.03115605	      0.05548726
      4.00000000	      0.02606743	      0.03107186	      0.05615045
      4.01694915	      0.02628198	      0.03119947	      0.05712906
      4.03389831	      0.02680179	      0.03150649	      0.05821858
      4.05084746	      0.02752683	      0.03192980	      0.05928674
      4.06779661	      0.02832578	      0.03238986	      0.06041178
      4.08474576	      0.02908523	      0.03282119	      0.06110689
      4.10169492	      0.02966762	      0.03314817	      0.06187787
      4.11864407	      0.02993135	      0.03329517	      0.06142522
      4.13559322	      0.02997337	      0.03331853	      0.05998108
      4.15254237	      0.02990669	      0.03328146	      0.05801647
      4.16949153	      0.02990585	      0.03328098	      0.05629803
      4.18644068	      0.02999256	      0.03332920	      0.05485074
      4.20338983	      0.03041064	      0.03356069	      0.05509361
      4.22033898	      0.03114709	      0.03396463	      0.05568549
      4.23728814	      0.03204961	      0.03445319	      0.05707107
      4.25423729	      0.03273183	      0.03481795	      0.05873429
      4.27118644	      0.03278680	      0.03484718	      0.05943578
      4.28813559	      0.03219280	      0.03453007	      0.05900364
      4.30508475	      0.03112861	      0.03395455	      0.05800998
      4.32203390	      0.02995221	      0.03330677	      0.05669739
      4.33898305	      0.02891528	      0.03272516	      0.05522036
      4.35593220	      0.02821054	      0.03232391	      0.05481070
      4.37288136	      0.02788561	      0.03213721	      0.05529150
      4.38983051	      0.02787330	      0.03213012	      0.05624044
      4.40677966	      0.02791551	      0.03215444	      0.05709863
      4.42372881	      0.02780181	      0.03208889	      0.05806801
      4.44067797	      0.02739985	      0.03185607	      0.05812586
      4.45762712	      0.02666270	      0.03142463	      0.05956457
      4.47457627	      0.02568545	      0.03084336	      0.05935695
      4.49152542	      0.02491757	      0.03037883	      0.06125526
      4.50847458	      0.02442019	      0.03007410	      0.06164073
      4.52542373	      0.02444156	      0.03008725	      0.06216498
      4.54237288	      0.02497993	      0.03041682	      0.06248720
      4.55932203	      0.02586589	      0.03095151	      0.06283751
      4.57627119	      0.02702546	      0.03163768	      0.06325118
      4.59322034	      0.02828128	      0.03236441	      0.06397473
      4.61016949	      0.02937622	      0.03298497	      0.06513085
      4.62711864	      0.03014638	      0.03341456	      0.06562826
      4.64406780	      0.03051406	      0.03361771	      0.06594100
      4.66101695	      0.03049214	      0.03360563	      0.06617887
      4.67796610	      0.03016344	      0.03342401	      0.06553869
      4.69491525	      0.02971798	      0.03317629	      0.06472736
      4.71186441	      0.02939911	      0.03299782	      0.06418716
      4.72881356	      0.02937878	      0.03298641	      0.06372400
      4.74576271	      0.02961455	      0.03311850	      0.06417029
      4.76271186	      0.02994444	      0.03330245	      0.06440017
      4.77966102	      0.03017448	      0.03343013	      0.06452211
      4.79661017	      0.03056388	      0.03364514	      0.06453313
      4.81355932	      0.03087893	      0.03381810	      0.06440133
      4.83050847	      0.03094904	      0.03385647	      0.06411105
      4.84745763	      0.03076101	      0.03375347	      0.06328609
      4.86440678	      0.03043954	      0.03357663	      0.06332488
      4.88135593	      0.02996966	      0.03331647	      0.06317181
      4.89830508	      0.02928115	      0.03293155	      0.06151256
      4.91525424	      0.02869939	      0.03260277	      0.06148918
      4.93220339	      0.02819163	      0.03231307	      0.06062637
      4.94915254	      0.02784625	      0.03211452	      0.05989084
      4.96610169	      0.02765631	      0.03200481	      0.05980212
      4.98305085	      0.02751100	      0.03192062	      0.05971347
      5.00000000	      0.02731654	      0.03180760	      0.05954969
      5.01694915	      0.02701408	      0.03163102	      0.05916128
      5.03389831	      0.02653235	      0.03134772	      0.05862715
      5.05084746	      0.02584466	      0.03093881	      0.05757860
      5.06779661	      0.02510867	      0.03049509	      0.05649680
      5.08474576	      0.02442452	      0.03007677	      0.05521568
      5.10169492	      0.02400140	      0.02981511	      0.05379409
      5.11864407	      0.02386536	      0.02973050	      0.05320451
      5.13559322	      0.02386610	      0.02973095	      0.05295610
      5.15254237	      0.02396305	      0.02979128	      0.05254623
      5.16949153	      0.02394647	      0.02978097	      0.05246732
      5.18644068	      0.02372010	      0.02963988	      0.05230957
      5.20338983	      0.02328601	      0.02936741	      0.05146381
      5.22033898	      0.02281001	      0.02906570	      0.05138717
      5.23728814	      0.02231808	      0.02875057	      0.05045839
      5.25423729	      0.02199585	      0.02854227	      0.05019531
      5.27118644	      0.02174086	      0.02837635	      0.04960144
      5.28813559	      0.02154248	      0.02824659	      0.04898556
      5.30508475	      0.02142727	      0.02817095	      0.04804231
      5.32203390	      0.02138508	      0.02814321	      0.04696727
      5.33898305	      0.02142335	      0.02816838	      0.04553338
      5.35593220	      0.02148059	      0.02820598	      0.04408874
      5.37288136	      0.02155727	      0.02825628	      0.04304945
      5.38983051	      0.02165752	      0.02832191	      0.04446555
      5.40677966	      0.02167622	      0.02833413	      0.04604324
      5.42372881	      0.02171592	      0.02836007	      0.04681336
      5.44067797	      0.02186550	      0.02845757	      0.04758895
      5.45762712	      0.02198023	      0.02853213	      0.04880638
      5.47457627	      0.02226216	      0.02871454	      0.05063474
      5.49152542	      0.02273710	      0.02901921	      0.05215273
      5.50847458	      0.02318976	      0.02930666	      0.05387962
      5.52542373	      0.02359130	      0.02955930	      0.05496080
      5.54237288	      0.02386309	      0.02972908	      0.05586182
      5.55932203	      0.02416489	      0.02991648	      0.05693347
      5.57627119	      0.02449538	      0.03012036	      0.05653390
      5.59322034	      0.02503442	      0.03044997	      0.05474026
      5.61016949	      0.02580423	      0.03091459	      0.05401034
      5.62711864	      0.02666614	      0.03142665	      0.05583086
      5.64406780	      0.02722873	      0.03175644	      0.05728932
      5.66101695	      0.02759546	      0.03196958	      0.05799097
      5.67796610	      0.02764285	      0.03199702	      0.05819470
      5.69491525	      0.02732758	      0.03181403	      0.05800392
      5.71186441	      0.02666511	      0.03142605	      0.05746626
      5.72881356	      0.02583932	      0.03093561	      0.05713822
      5.74576271	      0.02503884	      0.03045266	      0.05707125
      5.76271186	      0.02438769	      0.03005408	      0.05729325
      5.77966102	      0.02380895	      0.02969534	      0.05824474
      5.79661017	      0.02304033	      0.02921208	      0.05839087
      5.81355932	      0.02223708	      0.02869835	      0.05741628
      5.83050847	      0.02140529	      0.02815650	      0.05530617
      5.84745763	      0.02069150	      0.02768306	      0.05323569
      5.86440678	      0.02008651	      0.02727535	      0.05092160
      5.88135593	      0.01969807	      0.02701033	      0.04912114
      5.89830508	      0.01957580	      0.02692637	      0.04814297
      5.91525424	      0.01966105	      0.02698494	      0.04825390
      5.93220339	      0.01991950	      0.02716172	      0.04899849
      5.94915254	      0.02020511	      0.02735576	      0.05013023
      5.96610169	      0.02064463	      0.02765169	      0.05163492
      5.98305085	      0.02157970	      0.02827097	      0.05296072
      6.00000000	      0.02376160	      0.02966579	      0.05424623
