Model Marker Errors from IK
version=1
nRows=519
nColumns=4
inDegrees=no
endheader
time	total_squared_error	marker_error_RMS	marker_error_max
      0.00000000	      0.02503363	      0.03044949	      0.06116356
      0.01724138	      0.02501292	      0.03043689	      0.06039676
      0.03448276	      0.02456496	      0.03016311	      0.05557350
      0.05172414	      0.02418288	      0.02992762	      0.05300169
      0.06896552	      0.02369755	      0.02962578	      0.05117600
      0.08620690	      0.02313560	      0.02927241	      0.04986077
      0.10344828	      0.02272465	      0.02901127	      0.04914998
      0.12068966	      0.02244836	      0.02883437	      0.04992645
      0.13793103	      0.02218832	      0.02866687	      0.05117958
      0.15517241	      0.02178594	      0.02840575	      0.05145902
      0.17241379	      0.02112973	      0.02797468	      0.05031452
      0.18965517	      0.02037236	      0.02746874	      0.04866297
      0.20689655	      0.01972465	      0.02702855	      0.04841712
      0.22413793	      0.01919162	      0.02666085	      0.04774421
      0.24137931	      0.01890182	      0.02645879	      0.04726956
      0.25862069	      0.01883544	      0.02641229	      0.04673165
      0.27586207	      0.01888572	      0.02644752	      0.04621672
      0.29310345	      0.01901007	      0.02653445	      0.04579793
      0.31034483	      0.01908775	      0.02658860	      0.04558444
      0.32758621	      0.01911966	      0.02661082	      0.04569717
      0.34482759	      0.01918082	      0.02665335	      0.04581854
      0.36206897	      0.01938503	      0.02679485	      0.04616575
      0.37931034	      0.01977534	      0.02706326	      0.04668011
      0.39655172	      0.02032621	      0.02743762	      0.04742007
      0.41379310	      0.02088107	      0.02780958	      0.04848207
      0.43103448	      0.02141818	      0.02816498	      0.04941028
      0.44827586	      0.02176111	      0.02838956	      0.05007034
      0.46551724	      0.02187713	      0.02846514	      0.05026893
      0.48275862	      0.02175460	      0.02838531	      0.04999234
      0.50000000	      0.02153194	      0.02823967	      0.04946944
      0.51724138	      0.02132445	      0.02810328	      0.04892275
      0.53448276	      0.02116822	      0.02800014	      0.04820388
      0.55172414	      0.02103575	      0.02791239	      0.04788635
      0.56896552	      0.02083973	      0.02778204	      0.04757678
      0.58620690	      0.02063818	      0.02764737	      0.04753437
      0.60344828	      0.02040637	      0.02749166	      0.04744422
      0.62068966	      0.02017853	      0.02733776	      0.04733650
      0.63793103	      0.01992762	      0.02716726	      0.04715851
      0.65517241	      0.01964770	      0.02697578	      0.04661571
      0.67241379	      0.01940828	      0.02681092	      0.04636106
      0.68965517	      0.01922344	      0.02668294	      0.04615680
      0.70689655	      0.01917596	      0.02664997	      0.04597507
      0.72413793	      0.01923841	      0.02669333	      0.04589506
      0.74137931	      0.01934434	      0.02676672	      0.04591929
      0.75862069	      0.01948455	      0.02686355	      0.04606589
      0.77586207	      0.01959479	      0.02693943	      0.04615339
      0.79310345	      0.01972736	      0.02703041	      0.04634735
      0.81034483	      0.01987302	      0.02713002	      0.04650276
      0.82758621	      0.01999233	      0.02721133	      0.04664259
      0.84482759	      0.02011276	      0.02729317	      0.04671715
      0.86206897	      0.02019443	      0.02734852	      0.04669454
      0.87931034	      0.02025015	      0.02738623	      0.04670504
      0.89655172	      0.02023285	      0.02737453	      0.04663890
      0.91379310	      0.02018634	      0.02734305	      0.04680078
      0.93103448	      0.02009105	      0.02727844	      0.04703958
      0.94827586	      0.01997442	      0.02719914	      0.04749804
      0.96551724	      0.01982554	      0.02709759	      0.04760801
      0.98275862	      0.01973995	      0.02703903	      0.04802864
      1.00000000	      0.01970985	      0.02701841	      0.04865669
      1.01724138	      0.01978479	      0.02706973	      0.04932583
      1.03448276	      0.01982260	      0.02709558	      0.04933871
      1.05172414	      0.01998145	      0.02720393	      0.05002967
      1.06896552	      0.02011438	      0.02729426	      0.05031199
      1.08620690	      0.02020240	      0.02735392	      0.05033027
      1.10344828	      0.02019088	      0.02734612	      0.05040025
      1.12068966	      0.02005901	      0.02725667	      0.05008370
      1.13793103	      0.01982814	      0.02709937	      0.04965981
      1.15517241	      0.01959734	      0.02694119	      0.04905243
      1.17241379	      0.01944660	      0.02683737	      0.04873150
      1.18965517	      0.01945298	      0.02684177	      0.04859749
      1.20689655	      0.01967153	      0.02699213	      0.04877265
      1.22413793	      0.02001893	      0.02722943	      0.04883008
      1.24137931	      0.02046598	      0.02753179	      0.04914306
      1.25862069	      0.02089212	      0.02781694	      0.04951732
      1.27586207	      0.02116312	      0.02799677	      0.04974800
      1.29310345	      0.02119000	      0.02801454	      0.04958540
      1.31034483	      0.02096497	      0.02786540	      0.04881304
      1.32758621	      0.02062675	      0.02763971	      0.04789175
      1.34482759	      0.02033325	      0.02744236	      0.04725430
      1.36206897	      0.02005939	      0.02725693	      0.04607495
      1.37931034	      0.01988676	      0.02713939	      0.04567334
      1.39655172	      0.01974492	      0.02704244	      0.04552022
      1.41379310	      0.01962351	      0.02695917	      0.04566191
      1.43103448	      0.01954087	      0.02690234	      0.04602361
      1.44827586	      0.01953137	      0.02689580	      0.04665141
      1.46551724	      0.01958147	      0.02693027	      0.04709870
      1.48275862	      0.01966348	      0.02698661	      0.04712284
      1.50000000	      0.01980201	      0.02708150	      0.04732879
      1.51724138	      0.01993138	      0.02716982	      0.04754305
      1.53448276	      0.01999898	      0.02721586	      0.04757150
      1.55172414	      0.02001202	      0.02722473	      0.04775298
      1.56896552	      0.01993167	      0.02717002	      0.04768511
      1.58620690	      0.01984383	      0.02711009	      0.04774101
      1.60344828	      0.01978069	      0.02706692	      0.04811597
      1.62068966	      0.01967233	      0.02699268	      0.04796352
      1.63793103	      0.01959754	      0.02694132	      0.04794875
      1.65517241	      0.01954707	      0.02690661	      0.04797204
      1.67241379	      0.01950495	      0.02687760	      0.04789763
      1.68965517	      0.01947700	      0.02685834	      0.04776063
      1.70689655	      0.01945155	      0.02684079	      0.04763577
      1.72413793	      0.01941657	      0.02681664	      0.04750722
      1.74137931	      0.01938719	      0.02679634	      0.04737854
      1.75862069	      0.01937496	      0.02678789	      0.04714919
      1.77586207	      0.01941293	      0.02681413	      0.04720624
      1.79310345	      0.01945555	      0.02684355	      0.04688852
      1.81034483	      0.01956629	      0.02691983	      0.04666335
      1.82758621	      0.01973896	      0.02703836	      0.04704993
      1.84482759	      0.01990362	      0.02715090	      0.04748246
      1.86206897	      0.02008458	      0.02727404	      0.04802777
      1.87931034	      0.02027252	      0.02740135	      0.04865099
      1.89655172	      0.02042358	      0.02750325	      0.04899319
      1.91379310	      0.02055644	      0.02759256	      0.04922720
      1.93103448	      0.02059450	      0.02761810	      0.04915194
      1.94827586	      0.02053032	      0.02757503	      0.04867750
      1.96551724	      0.02041224	      0.02749561	      0.04793569
      1.98275862	      0.02027087	      0.02740024	      0.04701089
      2.00000000	      0.02012701	      0.02730284	      0.04614633
      2.01724138	      0.01997489	      0.02719946	      0.04616829
      2.03448276	      0.01981202	      0.02708834	      0.04634928
      2.05172414	      0.01965886	      0.02698344	      0.04639837
      2.06896552	      0.01957142	      0.02692336	      0.04657444
      2.08620690	      0.01951314	      0.02688325	      0.04672361
      2.10344828	      0.01947781	      0.02685889	      0.04681231
      2.12068966	      0.01946450	      0.02684972	      0.04683033
      2.13793103	      0.01945882	      0.02684580	      0.04667497
      2.15517241	      0.01949093	      0.02686794	      0.04660255
      2.17241379	      0.01949036	      0.02686755	      0.04599316
      2.18965517	      0.01951350	      0.02688350	      0.04584611
      2.20689655	      0.01946686	      0.02685134	      0.04545024
      2.22413793	      0.01939464	      0.02680149	      0.04521238
      2.24137931	      0.01927496	      0.02671867	      0.04496215
      2.25862069	      0.01914516	      0.02662855	      0.04477919
      2.27586207	      0.01901571	      0.02653838	      0.04506026
      2.29310345	      0.01895692	      0.02649733	      0.04545116
      2.31034483	      0.01898054	      0.02651383	      0.04575420
      2.32758621	      0.01905527	      0.02656597	      0.04614540
      2.34482759	      0.01916319	      0.02664109	      0.04640195
      2.36206897	      0.01933789	      0.02676225	      0.04662210
      2.37931034	      0.01948441	      0.02686345	      0.04665757
      2.39655172	      0.01961994	      0.02695672	      0.04667347
      2.41379310	      0.01963166	      0.02696476	      0.04651407
      2.43103448	      0.01949314	      0.02686947	      0.04625404
      2.44827586	      0.01920004	      0.02666670	      0.04589712
      2.46551724	      0.01880200	      0.02638883	      0.04541385
      2.48275862	      0.01839260	      0.02609995	      0.04498365
      2.50000000	      0.01807744	      0.02587537	      0.04454281
      2.51724138	      0.01787407	      0.02572941	      0.04496226
      2.53448276	      0.01779819	      0.02567474	      0.04562891
      2.55172414	      0.01772335	      0.02562070	      0.04562125
      2.56896552	      0.01775461	      0.02564329	      0.04610303
      2.58620690	      0.01777675	      0.02565927	      0.04626511
      2.60344828	      0.01786116	      0.02572012	      0.04659939
      2.62068966	      0.01797130	      0.02579930	      0.04685957
      2.63793103	      0.01810646	      0.02589613	      0.04723265
      2.65517241	      0.01826961	      0.02601254	      0.04755004
      2.67241379	      0.01847917	      0.02616130	      0.04780999
      2.68965517	      0.01870168	      0.02631834	      0.04814500
      2.70689655	      0.01895396	      0.02649525	      0.04858469
      2.72413793	      0.01916629	      0.02664325	      0.04914944
      2.74137931	      0.01935237	      0.02677227	      0.04966085
      2.75862069	      0.01947866	      0.02685948	      0.04979208
      2.77586207	      0.01953884	      0.02690094	      0.04968761
      2.79310345	      0.01955402	      0.02691139	      0.04941648
      2.81034483	      0.01950364	      0.02687670	      0.04863785
      2.82758621	      0.01937032	      0.02678468	      0.04750750
      2.84482759	      0.01914104	      0.02662569	      0.04627627
      2.86206897	      0.01889041	      0.02645080	      0.04616058
      2.87931034	      0.01860753	      0.02625201	      0.04583417
      2.89655172	      0.01840277	      0.02610717	      0.04577380
      2.91379310	      0.01827082	      0.02601340	      0.04570878
      2.93103448	      0.01821229	      0.02597170	      0.04559479
      2.94827586	      0.01823607	      0.02598865	      0.04552117
      2.96551724	      0.01833227	      0.02605711	      0.04543752
      2.98275862	      0.01849653	      0.02617359	      0.04553463
      3.00000000	      0.01869317	      0.02631235	      0.04580782
      3.01724138	      0.01885714	      0.02642750	      0.04613929
      3.03448276	      0.01901270	      0.02653628	      0.04683534
      3.05172414	      0.01914328	      0.02662725	      0.04779719
      3.06896552	      0.01927116	      0.02671603	      0.04901716
      3.08620690	      0.01941976	      0.02681884	      0.05024206
      3.10344828	      0.01959027	      0.02693632	      0.05135916
      3.12068966	      0.01976713	      0.02705764	      0.05226904
      3.13793103	      0.01987434	      0.02713091	      0.05263923
      3.15517241	      0.01984804	      0.02711296	      0.05248813
      3.17241379	      0.01973464	      0.02703540	      0.05197844
      3.18965517	      0.01954420	      0.02690463	      0.05097049
      3.20689655	      0.01936551	      0.02678136	      0.04989461
      3.22413793	      0.01922243	      0.02668224	      0.04914600
      3.24137931	      0.01912683	      0.02661581	      0.04849520
      3.25862069	      0.01912354	      0.02661352	      0.04793802
      3.27586207	      0.01924648	      0.02669892	      0.04766103
      3.29310345	      0.01946291	      0.02684862	      0.04749544
      3.31034483	      0.01972886	      0.02703143	      0.04726949
      3.32758621	      0.01998789	      0.02720831	      0.04716260
      3.34482759	      0.02023983	      0.02737925	      0.04715373
      3.36206897	      0.02041762	      0.02749924	      0.04679642
      3.37931034	      0.02053963	      0.02758128	      0.04662944
      3.39655172	      0.02062303	      0.02763722	      0.04659386
      3.41379310	      0.02074683	      0.02772005	      0.04712648
      3.43103448	      0.02088772	      0.02781401	      0.04781899
      3.44827586	      0.02101618	      0.02789941	      0.04866970
      3.46551724	      0.02105330	      0.02792404	      0.04949451
      3.48275862	      0.02096703	      0.02786677	      0.04996502
      3.50000000	      0.02074275	      0.02771732	      0.05017270
      3.51724138	      0.02035934	      0.02745996	      0.04968063
      3.53448276	      0.01990277	      0.02715032	      0.04886377
      3.55172414	      0.01950406	      0.02687699	      0.04823385
      3.56896552	      0.01925314	      0.02670354	      0.04772291
      3.58620690	      0.01915784	      0.02663737	      0.04739975
      3.60344828	      0.01920619	      0.02667096	      0.04733146
      3.62068966	      0.01937256	      0.02678623	      0.04752972
      3.63793103	      0.01964888	      0.02697658	      0.04758571
      3.65517241	      0.01993515	      0.02717239	      0.04779242
      3.67241379	      0.02019216	      0.02734699	      0.04776408
      3.68965517	      0.02030148	      0.02742091	      0.04783563
      3.70689655	      0.02016774	      0.02733045	      0.04814821
      3.72413793	      0.01989640	      0.02714597	      0.04817469
      3.74137931	      0.01955023	      0.02690878	      0.04810657
      3.75862069	      0.01924312	      0.02669659	      0.04842362
      3.77586207	      0.01903856	      0.02655432	      0.04919378
      3.79310345	      0.01899830	      0.02652622	      0.04991790
      3.81034483	      0.01921863	      0.02667960	      0.05101792
      3.82758621	      0.01969234	      0.02700640	      0.05179075
      3.84482759	      0.02020491	      0.02735562	      0.05208253
      3.86206897	      0.02048926	      0.02754744	      0.05138083
      3.87931034	      0.02044552	      0.02751802	      0.05009461
      3.89655172	      0.02013160	      0.02730595	      0.05003816
      3.91379310	      0.02002855	      0.02723597	      0.05012627
      3.93103448	      0.02041836	      0.02749974	      0.04974006
      3.94827586	      0.02110356	      0.02795735	      0.04900432
      3.96551724	      0.02170835	      0.02835513	      0.05078040
      3.98275862	      0.02212763	      0.02862764	      0.05275925
      4.00000000	      0.02246006	      0.02884188	      0.05375664
      4.01724138	      0.02271307	      0.02900388	      0.05355794
      4.03448276	      0.02264521	      0.02896051	      0.05306606
      4.05172414	      0.02223228	      0.02869526	      0.05104336
      4.06896552	      0.02165722	      0.02832171	      0.04944769
      4.08620690	      0.02084917	      0.02778833	      0.04823017
      4.10344828	      0.02007490	      0.02726747	      0.04846251
      4.12068966	      0.01951376	      0.02688367	      0.04894448
      4.13793103	      0.01924006	      0.02669447	      0.04958376
      4.15517241	      0.01919444	      0.02666280	      0.05024664
      4.17241379	      0.01923645	      0.02669197	      0.05088850
      4.18965517	      0.01927362	      0.02671774	      0.05127966
      4.20689655	      0.01914254	      0.02662674	      0.05136669
      4.22413793	      0.01901921	      0.02654082	      0.05118415
      4.24137931	      0.01888034	      0.02644375	      0.05094993
      4.25862069	      0.01887219	      0.02643804	      0.05102071
      4.27586207	      0.01888939	      0.02645009	      0.05067508
      4.29310345	      0.01896884	      0.02650565	      0.05083489
      4.31034483	      0.01895848	      0.02649842	      0.05040002
      4.32758621	      0.01889834	      0.02645635	      0.05035829
      4.34482759	      0.01882755	      0.02640676	      0.05061710
      4.36206897	      0.01878036	      0.02637364	      0.05063182
      4.37931034	      0.01878565	      0.02637735	      0.05092590
      4.39655172	      0.01882543	      0.02640527	      0.05014384
      4.41379310	      0.01892752	      0.02647677	      0.05051190
      4.43103448	      0.01902189	      0.02654269	      0.05018181
      4.44827586	      0.01914752	      0.02663019	      0.05026617
      4.46551724	      0.01925002	      0.02670138	      0.05030170
      4.48275862	      0.01938435	      0.02679438	      0.05037600
      4.50000000	      0.01953973	      0.02690156	      0.05079042
      4.51724138	      0.01962819	      0.02696238	      0.05051675
      4.53448276	      0.01973942	      0.02703867	      0.05083229
      4.55172414	      0.01985526	      0.02711789	      0.05094598
      4.56896552	      0.01999408	      0.02721252	      0.05088830
      4.58620690	      0.02017030	      0.02733218	      0.05115572
      4.60344828	      0.02034133	      0.02744782	      0.05123580
      4.62068966	      0.02037250	      0.02746884	      0.05038023
      4.63793103	      0.02039163	      0.02748173	      0.05063133
      4.65517241	      0.02035551	      0.02745738	      0.05023677
      4.67241379	      0.02033150	      0.02744118	      0.05044637
      4.68965517	      0.02026328	      0.02739511	      0.05031305
      4.70689655	      0.02012836	      0.02730375	      0.05047733
      4.72413793	      0.01989248	      0.02714329	      0.05030625
      4.74137931	      0.01973183	      0.02703347	      0.05084118
      4.75862069	      0.01962341	      0.02695910	      0.05104146
      4.77586207	      0.01954045	      0.02690205	      0.05096971
      4.79310345	      0.01960015	      0.02694312	      0.05163540
      4.81034483	      0.01963616	      0.02696785	      0.05170589
      4.82758621	      0.01969994	      0.02701161	      0.05227832
      4.84482759	      0.01979512	      0.02707679	      0.05305983
      4.86206897	      0.01985973	      0.02712094	      0.05375120
      4.87931034	      0.01986339	      0.02712344	      0.05425382
      4.89655172	      0.01970803	      0.02701716	      0.05399134
      4.91379310	      0.01952637	      0.02689236	      0.05421728
      4.93103448	      0.01930122	      0.02673687	      0.05427084
      4.94827586	      0.01912580	      0.02661509	      0.05463840
      4.96551724	      0.01896170	      0.02650067	      0.05423740
      4.98275862	      0.01889401	      0.02645332	      0.05432362
      5.00000000	      0.01888143	      0.02644451	      0.05457700
      5.01724138	      0.01889162	      0.02645165	      0.05483832
      5.03448276	      0.01884753	      0.02642076	      0.05438606
      5.05172414	      0.01887082	      0.02643708	      0.05465015
      5.06896552	      0.01887362	      0.02643904	      0.05419790
      5.08620690	      0.01888754	      0.02644879	      0.05402327
      5.10344828	      0.01886955	      0.02643619	      0.05409414
      5.12068966	      0.01872155	      0.02633231	      0.05361461
      5.13793103	      0.01856085	      0.02621906	      0.05344023
      5.15517241	      0.01834031	      0.02606282	      0.05288727
      5.17241379	      0.01814561	      0.02592412	      0.05278512
      5.18965517	      0.01793703	      0.02577469	      0.05205271
      5.20689655	      0.01781345	      0.02568574	      0.05209413
      5.22413793	      0.01779161	      0.02566999	      0.05226397
      5.24137931	      0.01780848	      0.02568216	      0.05165656
      5.25862069	      0.01796406	      0.02579410	      0.05193584
      5.27586207	      0.01816387	      0.02593716	      0.05196263
      5.29310345	      0.01837930	      0.02609051	      0.05225071
      5.31034483	      0.01857161	      0.02622665	      0.05190029
      5.32758621	      0.01881258	      0.02639625	      0.05248781
      5.34482759	      0.01904326	      0.02655760	      0.05294984
      5.36206897	      0.01923488	      0.02669088	      0.05342667
      5.37931034	      0.01934212	      0.02676518	      0.05376017
      5.39655172	      0.01941505	      0.02681559	      0.05437474
      5.41379310	      0.01945938	      0.02684619	      0.05518218
      5.43103448	      0.01936173	      0.02677874	      0.05510336
      5.44827586	      0.01924779	      0.02669983	      0.05556621
      5.46551724	      0.01909055	      0.02659055	      0.05587124
      5.48275862	      0.01887927	      0.02644300	      0.05532658
      5.50000000	      0.01875941	      0.02635893	      0.05549592
      5.51724138	      0.01864773	      0.02628035	      0.05493608
      5.53448276	      0.01863650	      0.02627243	      0.05502427
      5.55172414	      0.01868288	      0.02630510	      0.05489812
      5.56896552	      0.01877243	      0.02636807	      0.05461510
      5.58620690	      0.01891827	      0.02647030	      0.05475519
      5.60344828	      0.01904199	      0.02655671	      0.05419240
      5.62068966	      0.01914456	      0.02662814	      0.05394008
      5.63793103	      0.01918247	      0.02665449	      0.05360934
      5.65517241	      0.01909271	      0.02659206	      0.05311895
      5.67241379	      0.01889630	      0.02645492	      0.05260066
      5.68965517	      0.01862001	      0.02626080	      0.05171710
      5.70689655	      0.01835898	      0.02607609	      0.05104129
      5.72413793	      0.01819257	      0.02595763	      0.05059123
      5.74137931	      0.01808411	      0.02588014	      0.04986936
      5.75862069	      0.01814607	      0.02592444	      0.04983818
      5.77586207	      0.01837949	      0.02609065	      0.05029021
      5.79310345	      0.01868312	      0.02630527	      0.05007716
      5.81034483	      0.01915759	      0.02663720	      0.05069433
      5.82758621	      0.01966136	      0.02698515	      0.05171222
      5.84482759	      0.02001574	      0.02722726	      0.05185109
      5.86206897	      0.02027398	      0.02740234	      0.05241780
      5.87931034	      0.02038789	      0.02747921	      0.05251340
      5.89655172	      0.02044689	      0.02751894	      0.05268121
      5.91379310	      0.02041951	      0.02750051	      0.05261733
      5.93103448	      0.02034298	      0.02744893	      0.05268683
      5.94827586	      0.02018208	      0.02734016	      0.05272864
      5.96551724	      0.01995935	      0.02718888	      0.05300771
      5.98275862	      0.01965763	      0.02698259	      0.05278978
      6.00000000	      0.01935369	      0.02677318	      0.05282238
      6.01724138	      0.01907763	      0.02658155	      0.05280686
      6.03448276	      0.01886104	      0.02643023	      0.05278186
      6.05172414	      0.01873415	      0.02634117	      0.05302020
      6.06896552	      0.01866895	      0.02629529	      0.05331241
      6.08620690	      0.01862688	      0.02626565	      0.05295619
      6.10344828	      0.01867441	      0.02629914	      0.05329861
      6.12068966	      0.01873845	      0.02634420	      0.05287508
      6.13793103	      0.01879608	      0.02638468	      0.05286947
      6.15517241	      0.01881451	      0.02639761	      0.05313084
      6.17241379	      0.01879608	      0.02638468	      0.05271494
      6.18965517	      0.01881660	      0.02639907	      0.05300615
      6.20689655	      0.01887458	      0.02643972	      0.05329509
      6.22413793	      0.01897385	      0.02650915	      0.05342925
      6.24137931	      0.01901423	      0.02653734	      0.05322015
      6.25862069	      0.01908622	      0.02658754	      0.05327747
      6.27586207	      0.01913740	      0.02662316	      0.05317316
      6.29310345	      0.01912823	      0.02661678	      0.05309829
      6.31034483	      0.01904284	      0.02655730	      0.05273468
      6.32758621	      0.01901534	      0.02653812	      0.05259905
      6.34482759	      0.01900270	      0.02652930	      0.05215758
      6.36206897	      0.01908051	      0.02658356	      0.05243242
      6.37931034	      0.01914446	      0.02662807	      0.05231299
      6.39655172	      0.01917667	      0.02665046	      0.05209707
      6.41379310	      0.01920202	      0.02666807	      0.05237202
      6.43103448	      0.01920533	      0.02667037	      0.05240634
      6.44827586	      0.01919975	      0.02666649	      0.05267550
      6.46551724	      0.01920553	      0.02667051	      0.05304470
      6.48275862	      0.01919933	      0.02666620	      0.05311821
      6.50000000	      0.01917127	      0.02664671	      0.05345449
      6.51724138	      0.01899388	      0.02652314	      0.05264978
      6.53448276	      0.01872333	      0.02633357	      0.05190190
      6.55172414	      0.01838105	      0.02609175	      0.05107606
      6.56896552	      0.01803524	      0.02584515	      0.05030706
      6.58620690	      0.01777218	      0.02565597	      0.04982639
      6.60344828	      0.01760371	      0.02553408	      0.04892609
      6.62068966	      0.01761423	      0.02554171	      0.04916235
      6.63793103	      0.01775824	      0.02564590	      0.04940930
      6.65517241	      0.01800893	      0.02582630	      0.05007337
      6.67241379	      0.01823058	      0.02598474	      0.05076032
      6.68965517	      0.01835754	      0.02607506	      0.05108524
      6.70689655	      0.01841377	      0.02611497	      0.05131089
      6.72413793	      0.01841894	      0.02611863	      0.05072150
      6.74137931	      0.01846391	      0.02615050	      0.05086351
      6.75862069	      0.01847118	      0.02615565	      0.05045107
      6.77586207	      0.01845848	      0.02614665	      0.05076929
      6.79310345	      0.01842302	      0.02612153	      0.05070812
      6.81034483	      0.01843411	      0.02612938	      0.05080940
      6.82758621	      0.01840088	      0.02610583	      0.05043139
      6.84482759	      0.01841985	      0.02611928	      0.05065314
      6.86206897	      0.01839422	      0.02610110	      0.05051625
      6.87931034	      0.01838669	      0.02609576	      0.05057272
      6.89655172	      0.01844753	      0.02613889	      0.05083679
      6.91379310	      0.01855822	      0.02621720	      0.05042125
      6.93103448	      0.01872525	      0.02633491	      0.05038501
      6.94827586	      0.01891882	      0.02647068	      0.05031896
      6.96551724	      0.01911576	      0.02660810	      0.05044818
      6.98275862	      0.01929052	      0.02672945	      0.05057430
      7.00000000	      0.01937684	      0.02678919	      0.05016414
      7.01724138	      0.01944939	      0.02683929	      0.05032850
      7.03448276	      0.01952236	      0.02688960	      0.05057249
      7.05172414	      0.01960318	      0.02694520	      0.05057309
      7.06896552	      0.01968736	      0.02700299	      0.05072984
      7.08620690	      0.01968513	      0.02700146	      0.05014832
      7.10344828	      0.01962794	      0.02696221	      0.05046012
      7.12068966	      0.01950888	      0.02688031	      0.05020097
      7.13793103	      0.01941895	      0.02681829	      0.05040325
      7.15517241	      0.01933770	      0.02676212	      0.05063870
      7.17241379	      0.01921857	      0.02667956	      0.05023366
      7.18965517	      0.01909265	      0.02659201	      0.05051527
      7.20689655	      0.01896048	      0.02649981	      0.05059705
      7.22413793	      0.01887215	      0.02643801	      0.05081901
      7.24137931	      0.01877885	      0.02637258	      0.05061139
      7.25862069	      0.01869172	      0.02631133	      0.05098198
      7.27586207	      0.01860691	      0.02625157	      0.05120033
      7.29310345	      0.01851883	      0.02618936	      0.05120847
      7.31034483	      0.01847554	      0.02615873	      0.05139086
      7.32758621	      0.01840746	      0.02611049	      0.05116058
      7.34482759	      0.01835559	      0.02607368	      0.05102055
      7.36206897	      0.01835655	      0.02607436	      0.05093182
      7.37931034	      0.01843587	      0.02613064	      0.05070244
      7.39655172	      0.01860565	      0.02625068	      0.05057194
      7.41379310	      0.01883838	      0.02641435	      0.05031479
      7.43103448	      0.01908805	      0.02658881	      0.04991189
      7.44827586	      0.01931220	      0.02674447	      0.04917537
      7.46551724	      0.01956538	      0.02691921	      0.04895856
      7.48275862	      0.01977556	      0.02706341	      0.04874596
      7.50000000	      0.01991918	      0.02716150	      0.04857715
      7.51724138	      0.01997496	      0.02719951	      0.04827978
      7.53448276	      0.01990415	      0.02715126	      0.04816979
      7.55172414	      0.01970636	      0.02701601	      0.04804433
      7.56896552	      0.01936733	      0.02678261	      0.04747833
      7.58620690	      0.01900061	      0.02652784	      0.04744805
      7.60344828	      0.01865948	      0.02628862	      0.04754489
      7.62068966	      0.01838207	      0.02609248	      0.04767049
      7.63793103	      0.01820236	      0.02596462	      0.04786586
      7.65517241	      0.01812546	      0.02590972	      0.04789962
      7.67241379	      0.01809837	      0.02589034	      0.04827791
      7.68965517	      0.01808542	      0.02588108	      0.04867865
      7.70689655	      0.01802254	      0.02583605	      0.04912553
      7.72413793	      0.01791998	      0.02576243	      0.04949830
      7.74137931	      0.01782020	      0.02569061	      0.04971798
      7.75862069	      0.01772999	      0.02562550	      0.04985966
      7.77586207	      0.01767369	      0.02558478	      0.04983292
      7.79310345	      0.01768805	      0.02559518	      0.04989631
      7.81034483	      0.01767642	      0.02558676	      0.05009449
      7.82758621	      0.01776483	      0.02565066	      0.05048304
      7.84482759	      0.01791111	      0.02575605	      0.05111222
      7.86206897	      0.01802647	      0.02583887	      0.05127293
      7.87931034	      0.01817837	      0.02594751	      0.05176302
      7.89655172	      0.01837185	      0.02608523	      0.05256079
      7.91379310	      0.01852958	      0.02619696	      0.05284349
      7.93103448	      0.01859576	      0.02624370	      0.05306211
      7.94827586	      0.01858963	      0.02623937	      0.05296443
      7.96551724	      0.01852001	      0.02619020	      0.05244248
      7.98275862	      0.01842573	      0.02612344	      0.05230162
      8.00000000	      0.01828364	      0.02602252	      0.05222325
      8.01724138	      0.01808030	      0.02587742	      0.05207051
      8.03448276	      0.01786282	      0.02572131	      0.05165987
      8.05172414	      0.01772701	      0.02562335	      0.05170452
      8.06896552	      0.01773776	      0.02563111	      0.05176945
      8.08620690	      0.01786801	      0.02572505	      0.05146380
      8.10344828	      0.01807840	      0.02587606	      0.05181669
      8.12068966	      0.01818515	      0.02595234	      0.05169999
      8.13793103	      0.01824094	      0.02599212	      0.05179490
      8.15517241	      0.01821780	      0.02597563	      0.05204532
      8.17241379	      0.01817933	      0.02594819	      0.05235102
      8.18965517	      0.01816238	      0.02593609	      0.05221574
      8.20689655	      0.01822284	      0.02597922	      0.05248818
      8.22413793	      0.01829315	      0.02602929	      0.05264545
      8.24137931	      0.01822101	      0.02597791	      0.05198413
      8.25862069	      0.01806291	      0.02586497	      0.05120304
      8.27586207	      0.01781644	      0.02568790	      0.05023241
      8.29310345	      0.01753932	      0.02548734	      0.04923855
      8.31034483	      0.01724463	      0.02527231	      0.04831697
      8.32758621	      0.01697406	      0.02507327	      0.04777775
      8.34482759	      0.01678228	      0.02493122	      0.04710731
      8.36206897	      0.01673862	      0.02489877	      0.04712178
      8.37931034	      0.01685605	      0.02498596	      0.04753822
      8.39655172	      0.01708419	      0.02515447	      0.04798952
      8.41379310	      0.01729101	      0.02530628	      0.04791240
      8.43103448	      0.01750137	      0.02545975	      0.04816528
      8.44827586	      0.01765032	      0.02556786	      0.04864842
      8.46551724	      0.01761878	      0.02554501	      0.04891820
      8.48275862	      0.01748633	      0.02544881	      0.04943052
      8.50000000	      0.01725977	      0.02528341	      0.04962789
      8.51724138	      0.01713639	      0.02519288	      0.04943195
      8.53448276	      0.01729983	      0.02531273	      0.04881496
      8.55172414	      0.01773565	      0.02562959	      0.04794132
      8.56896552	      0.01854336	      0.02620670	      0.04716931
      8.58620690	      0.01945161	      0.02684083	      0.04798791
      8.60344828	      0.02046727	      0.02753265	      0.05093069
      8.62068966	      0.02132064	      0.02810077	      0.05311959
      8.63793103	      0.02188476	      0.02847010	      0.05497505
      8.65517241	      0.02208238	      0.02859836	      0.05571318
      8.67241379	      0.02199610	      0.02854243	      0.05608669
      8.68965517	      0.02173574	      0.02837301	      0.05558107
      8.70689655	      0.02141351	      0.02816190	      0.05501955
      8.72413793	      0.02106076	      0.02792898	      0.05418072
      8.74137931	      0.02071167	      0.02769655	      0.05310509
      8.75862069	      0.02032044	      0.02743372	      0.05175686
      8.77586207	      0.01998103	      0.02720364	      0.05041410
      8.79310345	      0.01978906	      0.02707264	      0.04959945
      8.81034483	      0.01966952	      0.02699076	      0.04904266
      8.82758621	      0.01947461	      0.02685669	      0.04861528
      8.84482759	      0.01913775	      0.02662340	      0.04805798
      8.86206897	      0.01875555	      0.02635621	      0.04728596
      8.87931034	      0.01856980	      0.02622537	      0.04655922
      8.89655172	      0.01871801	      0.02632983	      0.04602676
      8.91379310	      0.01930731	      0.02674108	      0.04571228
      8.93103448	      0.02075405	      0.02772487	      0.04615041
