Model Marker Errors from IK
version=1
nRows=338
nColumns=4
inDegrees=no
endheader
time	total_squared_error	marker_error_RMS	marker_error_max
      0.00000000	      0.02330748	      0.02938095	      0.04987681
      0.01694915	      0.02270702	      0.02900001	      0.04580908
      0.03389831	      0.02249402	      0.02886368	      0.04400896
      0.05084746	      0.02226870	      0.02871875	      0.04385277
      0.06779661	      0.02192772	      0.02849803	      0.04456919
      0.08474576	      0.02148948	      0.02821182	      0.04523205
      0.10169492	      0.02110386	      0.02795755	      0.04600332
      0.11864407	      0.02075927	      0.02772836	      0.04639412
      0.13559322	      0.02044020	      0.02751444	      0.04728094
      0.15254237	      0.02019164	      0.02734664	      0.04808701
      0.16949153	      0.02007770	      0.02726937	      0.04871107
      0.18644068	      0.02003249	      0.02723865	      0.04919485
      0.20338983	      0.02014014	      0.02731174	      0.04956544
      0.22033898	      0.02036348	      0.02746276	      0.04905574
      0.23728814	      0.02072606	      0.02770617	      0.04818104
      0.25423729	      0.02112623	      0.02797236	      0.04678464
      0.27118644	      0.02149386	      0.02821469	      0.04656293
      0.28813559	      0.02179695	      0.02841293	      0.04756560
      0.30508475	      0.02197003	      0.02852551	      0.04841338
      0.32203390	      0.02208324	      0.02859891	      0.04874559
      0.33898305	      0.02216494	      0.02865177	      0.04890494
      0.35593220	      0.02223699	      0.02869830	      0.04861553
      0.37288136	      0.02237503	      0.02878723	      0.04854709
      0.38983051	      0.02257743	      0.02891714	      0.04864983
      0.40677966	      0.02274394	      0.02902358	      0.04820047
      0.42372881	      0.02285405	      0.02909375	      0.04828453
      0.44067797	      0.02294995	      0.02915473	      0.04759694
      0.45762712	      0.02314175	      0.02927630	      0.04752209
      0.47457627	      0.02343769	      0.02946290	      0.04701740
      0.49152542	      0.02387941	      0.02973925	      0.04725092
      0.50847458	      0.02431048	      0.03000647	      0.04856830
      0.52542373	      0.02469726	      0.03024423	      0.04903635
      0.54237288	      0.02498902	      0.03042235	      0.04878865
      0.55932203	      0.02515792	      0.03052499	      0.04893083
      0.57627119	      0.02516523	      0.03052942	      0.04972669
      0.59322034	      0.02528333	      0.03060097	      0.05212877
      0.61016949	      0.02547724	      0.03071810	      0.05481260
      0.62711864	      0.02573152	      0.03087101	      0.05761364
      0.64406780	      0.02613338	      0.03111114	      0.05958530
      0.66101695	      0.02680866	      0.03151053	      0.06047731
      0.67796610	      0.02792371	      0.03215916	      0.06430256
      0.69491525	      0.02966387	      0.03314607	      0.07535292
      0.71186441	      0.03147189	      0.03414126	      0.08567608
      0.72881356	      0.03259500	      0.03474510	      0.09281166
      0.74576271	      0.03219868	      0.03453323	      0.09491266
      0.76271186	      0.03020930	      0.03344941	      0.09156536
      0.77966102	      0.02712265	      0.03169452	      0.08391955
      0.79661017	      0.02383038	      0.02970870	      0.07342656
      0.81355932	      0.02111323	      0.02796376	      0.06268574
      0.83050847	      0.01948097	      0.02686107	      0.05384808
      0.84745763	      0.01894424	      0.02648846	      0.04819105
      0.86440678	      0.01909738	      0.02659531	      0.04558201
      0.88135593	      0.01928878	      0.02672825	      0.04479689
      0.89830508	      0.01923361	      0.02668999	      0.04726258
      0.91525424	      0.01902774	      0.02654677	      0.04853175
      0.93220339	      0.01883305	      0.02641061	      0.05230047
      0.94915254	      0.01871092	      0.02632483	      0.05641197
      0.96610169	      0.01859976	      0.02624653	      0.05941234
      0.98305085	      0.01842697	      0.02612433	      0.06007286
      1.00000000	      0.01817685	      0.02594642	      0.05926936
      1.01694915	      0.01791704	      0.02576032	      0.05825203
      1.03389831	      0.01776826	      0.02565314	      0.05817222
      1.05084746	      0.01786429	      0.02572237	      0.05909936
      1.06779661	      0.01824913	      0.02599795	      0.06083831
      1.08474576	      0.01872539	      0.02633501	      0.06085382
      1.10169492	      0.01913945	      0.02662459	      0.05880236
      1.11864407	      0.01938280	      0.02679331	      0.05560097
      1.13559322	      0.01929207	      0.02673053	      0.05161731
      1.15254237	      0.01890535	      0.02646126	      0.04889291
      1.16949153	      0.01849827	      0.02617482	      0.04725297
      1.18644068	      0.01827358	      0.02601537	      0.04605544
      1.20338983	      0.01817384	      0.02594427	      0.04660304
      1.22033898	      0.01801726	      0.02583227	      0.04721167
      1.23728814	      0.01775697	      0.02564499	      0.04774057
      1.25423729	      0.01733237	      0.02533653	      0.04840908
      1.27118644	      0.01701609	      0.02510429	      0.04893068
      1.28813559	      0.01691926	      0.02503277	      0.04898094
      1.30508475	      0.01698637	      0.02508236	      0.04841271
      1.32203390	      0.01722155	      0.02525540	      0.04827704
      1.33898305	      0.01773443	      0.02562871	      0.04894942
      1.35593220	      0.01844430	      0.02613661	      0.05006235
      1.37288136	      0.01897306	      0.02650860	      0.05073001
      1.38983051	      0.01908920	      0.02658961	      0.05045961
      1.40677966	      0.01884346	      0.02641791	      0.04957207
      1.42372881	      0.01850255	      0.02617785	      0.04794796
      1.44067797	      0.01841810	      0.02611804	      0.04870406
      1.45762712	      0.01880016	      0.02638754	      0.05095073
      1.47457627	      0.01963845	      0.02696943	      0.05196274
      1.49152542	      0.02066827	      0.02766752	      0.05196839
      1.50847458	      0.02147069	      0.02819948	      0.05103452
      1.52542373	      0.02169161	      0.02834419	      0.05067479
      1.54237288	      0.02119949	      0.02802082	      0.05102377
      1.55932203	      0.02013312	      0.02730698	      0.05075241
      1.57627119	      0.01893113	      0.02647929	      0.04970711
      1.59322034	      0.01800757	      0.02582532	      0.04874635
      1.61016949	      0.01757670	      0.02551448	      0.04809223
      1.62711864	      0.01755621	      0.02549961	      0.04821840
      1.64406780	      0.01764275	      0.02556238	      0.04908538
      1.66101695	      0.01756231	      0.02550404	      0.05072446
      1.67796610	      0.01721291	      0.02524907	      0.05270535
      1.69491525	      0.01665516	      0.02483662	      0.05478468
      1.71186441	      0.01605889	      0.02438799	      0.05638943
      1.72881356	      0.01563855	      0.02406669	      0.05678346
      1.74576271	      0.01554275	      0.02399286	      0.05622851
      1.76271186	      0.01581457	      0.02420175	      0.05531946
      1.77966102	      0.01657070	      0.02477357	      0.05438776
      1.79661017	      0.01772269	      0.02562023	      0.05356874
      1.81355932	      0.01899345	      0.02652284	      0.05322410
      1.83050847	      0.02029837	      0.02741881	      0.05380443
      1.84745763	      0.02154464	      0.02824800	      0.05517599
      1.86440678	      0.02223370	      0.02869618	      0.05693314
      1.88135593	      0.02186219	      0.02845542	      0.05767594
      1.89830508	      0.02076534	      0.02773241	      0.05748835
      1.91525424	      0.01975068	      0.02704638	      0.05647463
      1.93220339	      0.01918591	      0.02665688	      0.05498467
      1.94915254	      0.01885524	      0.02642616	      0.05382920
      1.96610169	      0.01878416	      0.02637631	      0.05371057
      1.98305085	      0.01929428	      0.02673206	      0.05594971
      2.00000000	      0.02048625	      0.02754542	      0.05885212
      2.01694915	      0.02201695	      0.02855596	      0.06198197
      2.03389831	      0.02350353	      0.02950426	      0.06459198
      2.05084746	      0.02458266	      0.03017398	      0.06612210
      2.06779661	      0.02497794	      0.03041560	      0.06581250
      2.08474576	      0.02471061	      0.03025240	      0.06323266
      2.10169492	      0.02420922	      0.02994391	      0.05931423
      2.11864407	      0.02399539	      0.02981138	      0.05528273
      2.13559322	      0.02415692	      0.02991155	      0.05424211
      2.15254237	      0.02457368	      0.03016847	      0.05623659
      2.16949153	      0.02497479	      0.03041368	      0.05959431
      2.18644068	      0.02537997	      0.03065940	      0.06272264
      2.20338983	      0.02554852	      0.03076104	      0.06396526
      2.22033898	      0.02513884	      0.03051341	      0.06184907
      2.23728814	      0.02433083	      0.03001902	      0.05900525
      2.25423729	      0.02371452	      0.02963639	      0.06158165
      2.27118644	      0.02393363	      0.02977298	      0.06485201
      2.28813559	      0.02524704	      0.03057901	      0.06894605
      2.30508475	      0.02737113	      0.03183937	      0.07328510
      2.32203390	      0.02978459	      0.03321345	      0.07703994
      2.33898305	      0.03202624	      0.03444063	      0.07981352
      2.35593220	      0.03376310	      0.03536220	      0.08142361
      2.37288136	      0.03466766	      0.03583277	      0.08213880
      2.38983051	      0.03464139	      0.03581919	      0.08261272
      2.40677966	      0.03391186	      0.03544002	      0.08285586
      2.42372881	      0.03269817	      0.03480005	      0.08225209
      2.44067797	      0.03105481	      0.03391428	      0.08031110
      2.45762712	      0.02906456	      0.03280953	      0.07663138
      2.47457627	      0.02697904	      0.03161050	      0.07245803
      2.49152542	      0.02515389	      0.03052254	      0.06740448
      2.50847458	      0.02390460	      0.02975493	      0.06254135
      2.52542373	      0.02360320	      0.02956675	      0.06380107
      2.54237288	      0.02454422	      0.03015038	      0.06583600
      2.55932203	      0.02668875	      0.03143998	      0.07083597
      2.57627119	      0.02953234	      0.03307250	      0.08569192
      2.59322034	      0.02799371	      0.03219944	      0.07957010
      2.61016949	      0.02963978	      0.03313261	      0.07865514
      2.62711864	      0.03052138	      0.03362174	      0.07786721
      2.64406780	      0.03048692	      0.03360276	      0.07710566
      2.66101695	      0.02989608	      0.03327555	      0.07698470
      2.67796610	      0.02892840	      0.03273259	      0.07720718
      2.69491525	      0.02811636	      0.03226990	      0.07818744
      2.71186441	      0.02751350	      0.03192207	      0.07959610
      2.72881356	      0.02715226	      0.03171182	      0.08087165
      2.74576271	      0.02714393	      0.03170695	      0.08199098
      2.76271186	      0.02711802	      0.03169181	      0.08209111
      2.77966102	      0.02724602	      0.03176652	      0.08180622
      2.79661017	      0.02753922	      0.03193699	      0.08172816
      2.81355932	      0.02813006	      0.03227777	      0.08264301
      2.83050847	      0.02906345	      0.03280890	      0.08492384
      2.84745763	      0.03027086	      0.03348347	      0.08798172
      2.86440678	      0.03153805	      0.03417712	      0.09169243
      2.88135593	      0.03280864	      0.03485878	      0.09450132
      2.89830508	      0.03389243	      0.03542986	      0.09589937
      2.91525424	      0.03458957	      0.03579239	      0.09566034
      2.93220339	      0.03480614	      0.03590426	      0.09401681
      2.94915254	      0.03483786	      0.03592062	      0.09111659
      2.96610169	      0.03486599	      0.03593512	      0.08797739
      2.98305085	      0.03500919	      0.03600884	      0.08467480
      3.00000000	      0.03527622	      0.03614591	      0.08156846
      3.01694915	      0.03559017	      0.03630640	      0.07856636
      3.03389831	      0.03594508	      0.03648697	      0.07663424
      3.05084746	      0.03639275	      0.03671348	      0.07475803
      3.06779661	      0.03689366	      0.03696528	      0.07307524
      3.08474576	      0.03748902	      0.03726235	      0.07188984
      3.10169492	      0.03812869	      0.03757890	      0.07122229
      3.11864407	      0.03871171	      0.03786512	      0.07096578
      3.13559322	      0.03908273	      0.03804614	      0.07087496
      3.15254237	      0.03919167	      0.03809912	      0.07109484
      3.16949153	      0.03887852	      0.03794661	      0.07136382
      3.18644068	      0.03823695	      0.03763221	      0.07187546
      3.20338983	      0.03749966	      0.03726763	      0.07269815
      3.22033898	      0.03700908	      0.03702305	      0.07374782
      3.23728814	      0.03686206	      0.03694944	      0.07483600
      3.25423729	      0.03684366	      0.03694022	      0.07548266
      3.27118644	      0.03679071	      0.03691367	      0.07588785
      3.28813559	      0.03649805	      0.03676656	      0.07597970
      3.30508475	      0.03591568	      0.03647205	      0.07599459
      3.32203390	      0.03508940	      0.03605007	      0.07587532
      3.33898305	      0.03419375	      0.03558701	      0.07559375
      3.35593220	      0.03340189	      0.03517253	      0.07529925
      3.37288136	      0.03268010	      0.03479043	      0.07458791
      3.38983051	      0.03195561	      0.03440263	      0.07330276
      3.40677966	      0.03102403	      0.03389747	      0.07125053
      3.42372881	      0.03003159	      0.03335088	      0.06893251
      3.44067797	      0.02910254	      0.03283096	      0.06695876
      3.45762712	      0.02841805	      0.03244257	      0.06585355
      3.47457627	      0.02802531	      0.03221761	      0.06547983
      3.49152542	      0.02780601	      0.03209131	      0.06522186
      3.50847458	      0.02775241	      0.03206036	      0.06490817
      3.52542373	      0.02774887	      0.03205832	      0.06413677
      3.54237288	      0.02779253	      0.03208353	      0.06306197
      3.55932203	      0.02795905	      0.03217950	      0.06202425
      3.57627119	      0.02824160	      0.03234170	      0.06112346
      3.59322034	      0.02859747	      0.03254482	      0.06050290
      3.61016949	      0.02895329	      0.03274666	      0.06051881
      3.62711864	      0.02925385	      0.03291619	      0.06106065
      3.64406780	      0.02953615	      0.03307464	      0.06221177
      3.66101695	      0.02970484	      0.03316895	      0.06254457
      3.67796610	      0.02966746	      0.03314807	      0.05936159
      3.69491525	      0.03004276	      0.03335708	      0.06025816
      3.71186441	      0.03044826	      0.03358144	      0.06086779
      3.72881356	      0.03080414	      0.03377712	      0.06076593
      3.74576271	      0.03110329	      0.03394074	      0.06049857
      3.76271186	      0.03126460	      0.03402864	      0.05933440
      3.77966102	      0.03121340	      0.03400076	      0.05882708
      3.79661017	      0.03093723	      0.03385001	      0.05805335
      3.81355932	      0.03043340	      0.03357325	      0.05798077
      3.83050847	      0.02992438	      0.03329129	      0.05845008
      3.84745763	      0.02950286	      0.03305599	      0.05922294
      3.86440678	      0.02938451	      0.03298962	      0.06026437
      3.88135593	      0.02945254	      0.03302779	      0.06125243
      3.89830508	      0.02963582	      0.03313039	      0.06197991
      3.91525424	      0.02982258	      0.03323462	      0.06239745
      3.93220339	      0.02998086	      0.03332270	      0.06196107
      3.94915254	      0.03013381	      0.03340759	      0.06216223
      3.96610169	      0.03029481	      0.03349672	      0.06300295
      3.98305085	      0.03034926	      0.03352681	      0.06366455
      4.00000000	      0.03035702	      0.03353109	      0.06408581
      4.01694915	      0.03032980	      0.03351605	      0.06404635
      4.03389831	      0.03029304	      0.03349574	      0.06376670
      4.05084746	      0.03026732	      0.03348152	      0.06285935
      4.06779661	      0.03023785	      0.03346521	      0.06198369
      4.08474576	      0.03020998	      0.03344979	      0.06169462
      4.10169492	      0.03004052	      0.03335584	      0.06016854
      4.11864407	      0.02990586	      0.03328099	      0.06000973
      4.13559322	      0.02980029	      0.03322220	      0.05993669
      4.15254237	      0.02975186	      0.03319519	      0.05987478
      4.16949153	      0.02975284	      0.03319574	      0.06000467
      4.18644068	      0.02981439	      0.03323006	      0.06001804
      4.20338983	      0.02991407	      0.03328556	      0.06009142
      4.22033898	      0.03005423	      0.03336345	      0.06034577
      4.23728814	      0.03027576	      0.03348618	      0.06124783
      4.25423729	      0.03056229	      0.03364426	      0.06132260
      4.27118644	      0.03087739	      0.03381726	      0.06112419
      4.28813559	      0.03130000	      0.03404790	      0.06085307
      4.30508475	      0.03171510	      0.03427292	      0.06062659
      4.32203390	      0.03217630	      0.03452122	      0.05976104
      4.33898305	      0.03256500	      0.03472911	      0.05994238
      4.35593220	      0.03271501	      0.03480901	      0.05966665
      4.37288136	      0.03276472	      0.03483544	      0.05982895
      4.38983051	      0.03277785	      0.03484242	      0.06032100
      4.40677966	      0.03276680	      0.03483655	      0.06137349
      4.42372881	      0.03265017	      0.03477450	      0.06081085
      4.44067797	      0.03236938	      0.03462464	      0.06075041
      4.45762712	      0.03198217	      0.03441693	      0.05953252
      4.47457627	      0.03160614	      0.03421400	      0.05857392
      4.49152542	      0.03141282	      0.03410920	      0.05786005
      4.50847458	      0.03151148	      0.03416273	      0.05780519
      4.52542373	      0.03190351	      0.03437457	      0.05792572
      4.54237288	      0.03255684	      0.03472476	      0.05896676
      4.55932203	      0.03333255	      0.03513600	      0.05965550
      4.57627119	      0.03406362	      0.03551923	      0.06062187
      4.59322034	      0.03458737	      0.03579125	      0.06126829
      4.61016949	      0.03481014	      0.03590633	      0.05984686
      4.62711864	      0.03483621	      0.03591977	      0.05977300
      4.64406780	      0.03480443	      0.03590338	      0.05901767
      4.66101695	      0.03485008	      0.03592692	      0.05816503
      4.67796610	      0.03509134	      0.03605106	      0.05872870
      4.69491525	      0.03545346	      0.03623660	      0.05923347
      4.71186441	      0.03594000	      0.03648439	      0.06056142
      4.72881356	      0.03644235	      0.03673849	      0.06187764
      4.74576271	      0.03675509	      0.03689580	      0.06425804
      4.76271186	      0.03704938	      0.03704321	      0.06604356
      4.77966102	      0.03722030	      0.03712856	      0.06798831
      4.79661017	      0.03720975	      0.03712329	      0.06996830
      4.81355932	      0.03693506	      0.03698601	      0.07199743
      4.83050847	      0.03637147	      0.03670275	      0.07371944
      4.84745763	      0.03560873	      0.03631586	      0.07536928
      4.86440678	      0.03480797	      0.03590521	      0.07644595
      4.88135593	      0.03413484	      0.03555634	      0.07660203
      4.89830508	      0.03371177	      0.03533531	      0.07668201
      4.91525424	      0.03351586	      0.03523249	      0.07647916
      4.93220339	      0.03334918	      0.03514477	      0.07445804
      4.94915254	      0.03349654	      0.03522233	      0.07410944
      4.96610169	      0.03391601	      0.03544219	      0.07541665
      4.98305085	      0.03431495	      0.03565002	      0.07465499
      5.00000000	      0.03484436	      0.03592397	      0.07541007
      5.01694915	      0.03523377	      0.03612415	      0.07566685
      5.03389831	      0.03558340	      0.03630294	      0.07649979
      5.05084746	      0.03578785	      0.03640709	      0.07762090
      5.06779661	      0.03587337	      0.03645056	      0.07855400
      5.08474576	      0.03591059	      0.03646946	      0.08025009
      5.10169492	      0.03604889	      0.03653962	      0.08278451
      5.11864407	      0.03629858	      0.03666595	      0.08545254
      5.13559322	      0.03664427	      0.03684013	      0.08843903
      5.15254237	      0.03686439	      0.03695061	      0.08828207
      5.16949153	      0.03692298	      0.03697996	      0.08731730
      5.18644068	      0.03678847	      0.03691255	      0.08542553
      5.20338983	      0.03661880	      0.03682733	      0.08418309
      5.22033898	      0.03637610	      0.03670508	      0.08311540
      5.23728814	      0.03578197	      0.03640409	      0.07733669
      5.25423729	      0.03525681	      0.03613596	      0.07456334
      5.27118644	      0.03470744	      0.03585332	      0.07125923
      5.28813559	      0.03429273	      0.03563848	      0.06992599
      5.30508475	      0.03376891	      0.03536524	      0.06519980
      5.32203390	      0.03334214	      0.03514106	      0.06401904
      5.33898305	      0.03287638	      0.03489475	      0.06301823
      5.35593220	      0.03249676	      0.03469270	      0.06350656
      5.37288136	      0.03227357	      0.03457336	      0.06320831
      5.38983051	      0.03236408	      0.03462181	      0.06413304
      5.40677966	      0.03271439	      0.03480868	      0.06509713
      5.42372881	      0.03320196	      0.03506711	      0.06576427
      5.44067797	      0.03363158	      0.03529326	      0.06673360
      5.45762712	      0.03421414	      0.03559762	      0.06814050
      5.47457627	      0.03483296	      0.03591810	      0.07032825
      5.49152542	      0.03543285	      0.03622606	      0.07276105
      5.50847458	      0.03596536	      0.03649727	      0.07570502
      5.52542373	      0.03628031	      0.03665672	      0.07668968
      5.54237288	      0.03651385	      0.03677451	      0.07991653
      5.55932203	      0.03644706	      0.03674086	      0.07981838
      5.57627119	      0.03612297	      0.03657715	      0.07790003
      5.59322034	      0.03562304	      0.03632316	      0.07492514
      5.61016949	      0.03509139	      0.03605109	      0.07143630
      5.62711864	      0.03457887	      0.03578686	      0.06776896
      5.64406780	      0.03401836	      0.03549562	      0.06418817
      5.66101695	      0.03336616	      0.03515371	      0.06073451
      5.67796610	      0.03253170	      0.03471135	      0.05857118
      5.69491525	      0.03155697	      0.03418738	      0.05863937
      5.71186441	      0.03055752	      0.03364164	      0.05886064
