Model Marker Errors from IK
version=1
nRows=262
nColumns=4
inDegrees=no
endheader
time	total_squared_error	marker_error_RMS	marker_error_max
      0.00000000	      0.01845855	      0.02614670	      0.04552343
      0.01666667	      0.01827535	      0.02601663	      0.04664775
      0.03333333	      0.01851530	      0.02618687	      0.04650895
      0.05000000	      0.01883855	      0.02641447	      0.04553217
      0.06666667	      0.01903194	      0.02654970	      0.04458494
      0.08333333	      0.01913754	      0.02662326	      0.04420753
      0.10000000	      0.01917854	      0.02665176	      0.04385927
      0.11666667	      0.01914885	      0.02663113	      0.04368687
      0.13333333	      0.01904955	      0.02656198	      0.04370913
      0.15000000	      0.01892044	      0.02647182	      0.04365941
      0.16666667	      0.01868099	      0.02630377	      0.04371960
      0.18333333	      0.01842988	      0.02612639	      0.04396996
      0.20000000	      0.01820096	      0.02596362	      0.04407120
      0.21666667	      0.01801483	      0.02583052	      0.04394454
      0.23333333	      0.01787129	      0.02572741	      0.04372669
      0.25000000	      0.01775719	      0.02564515	      0.04350155
      0.26666667	      0.01771498	      0.02561465	      0.04363981
      0.28333333	      0.01762098	      0.02554660	      0.04372648
      0.30000000	      0.01745698	      0.02542744	      0.04390208
      0.31666667	      0.01722820	      0.02526028	      0.04391670
      0.33333333	      0.01701777	      0.02510553	      0.04381692
      0.35000000	      0.01675786	      0.02491308	      0.04372105
      0.36666667	      0.01657362	      0.02477575	      0.04380175
      0.38333333	      0.01645801	      0.02468919	      0.04397826
      0.40000000	      0.01640094	      0.02464635	      0.04424045
      0.41666667	      0.01639039	      0.02463841	      0.04452310
      0.43333333	      0.01636099	      0.02461631	      0.04475169
      0.45000000	      0.01633554	      0.02459716	      0.04490006
      0.46666667	      0.01630575	      0.02457472	      0.04508724
      0.48333333	      0.01618313	      0.02448214	      0.04525462
      0.50000000	      0.01619778	      0.02449322	      0.04541425
      0.51666667	      0.01627311	      0.02455011	      0.04558114
      0.53333333	      0.01637607	      0.02462765	      0.04584409
      0.55000000	      0.01651315	      0.02473051	      0.04606444
      0.56666667	      0.01668995	      0.02486255	      0.04628786
      0.58333333	      0.01691653	      0.02503075	      0.04652787
      0.60000000	      0.01716637	      0.02521491	      0.04677008
      0.61666667	      0.01736171	      0.02535796	      0.04697184
      0.63333333	      0.01745679	      0.02542730	      0.04715346
      0.65000000	      0.01742152	      0.02540160	      0.04731212
      0.66666667	      0.01732917	      0.02533419	      0.04720477
      0.68333333	      0.01714500	      0.02519920	      0.04712239
      0.70000000	      0.01697358	      0.02507291	      0.04664426
      0.71666667	      0.01681915	      0.02495859	      0.04590574
      0.73333333	      0.01669282	      0.02486469	      0.04521614
      0.75000000	      0.01659422	      0.02479114	      0.04463631
      0.76666667	      0.01662269	      0.02481240	      0.04424431
      0.78333333	      0.01668790	      0.02486102	      0.04408212
      0.80000000	      0.01684364	      0.02497676	      0.04433302
      0.81666667	      0.01700214	      0.02509400	      0.04494623
      0.83333333	      0.01715213	      0.02520445	      0.04517689
      0.85000000	      0.01719272	      0.02523425	      0.04504095
      0.86666667	      0.01691024	      0.02502609	      0.04432992
      0.88333333	      0.01644699	      0.02468092	      0.04302489
      0.90000000	      0.01595862	      0.02431173	      0.04149526
      0.91666667	      0.01564145	      0.02406892	      0.04002200
      0.93333333	      0.01553915	      0.02399008	      0.03901521
      0.95000000	      0.01555693	      0.02400380	      0.03835051
      0.96666667	      0.01561903	      0.02405166	      0.03854955
      0.98333333	      0.01577799	      0.02417375	      0.03903759
      1.00000000	      0.01607540	      0.02440051	      0.03956866
      1.01666667	      0.01649237	      0.02471495	      0.04019816
      1.03333333	      0.01700591	      0.02509678	      0.04045853
      1.05000000	      0.01746760	      0.02543518	      0.04070303
      1.06666667	      0.01810739	      0.02589680	      0.04063567
      1.08333333	      0.01887299	      0.02643860	      0.04037566
      1.10000000	      0.01961696	      0.02695466	      0.04008883
      1.11666667	      0.02025245	      0.02738778	      0.03976882
      1.13333333	      0.02071668	      0.02769990	      0.03969671
      1.15000000	      0.02100558	      0.02789237	      0.03971668
      1.16666667	      0.02116864	      0.02800042	      0.03996363
      1.18333333	      0.02122605	      0.02803836	      0.04044735
      1.20000000	      0.02108173	      0.02794288	      0.04114313
      1.21666667	      0.02073732	      0.02771370	      0.04164489
      1.23333333	      0.02021844	      0.02736478	      0.04161110
      1.25000000	      0.01971642	      0.02702291	      0.04117413
      1.26666667	      0.01929371	      0.02673166	      0.04032801
      1.28333333	      0.01901670	      0.02653907	      0.03943015
      1.30000000	      0.01878107	      0.02637414	      0.03887888
      1.31666667	      0.01866234	      0.02629064	      0.03908379
      1.33333333	      0.01864019	      0.02627504	      0.03964141
      1.35000000	      0.01871749	      0.02632946	      0.04060404
      1.36666667	      0.01877727	      0.02637147	      0.04115382
      1.38333333	      0.01877527	      0.02637006	      0.04137171
      1.40000000	      0.01869311	      0.02631230	      0.04143582
      1.41666667	      0.01860221	      0.02624825	      0.04150862
      1.43333333	      0.01857048	      0.02622586	      0.04219964
      1.45000000	      0.01856865	      0.02622457	      0.04287363
      1.46666667	      0.01853304	      0.02619941	      0.04305566
      1.48333333	      0.01845748	      0.02614594	      0.04274654
      1.50000000	      0.01838642	      0.02609556	      0.04243030
      1.51666667	      0.01838509	      0.02609462	      0.04201338
      1.53333333	      0.01848161	      0.02616303	      0.04127337
      1.55000000	      0.01870656	      0.02632177	      0.04044859
      1.56666667	      0.01912019	      0.02661118	      0.03983542
      1.58333333	      0.01957043	      0.02692268	      0.04051444
      1.60000000	      0.01992147	      0.02716307	      0.04128956
      1.61666667	      0.02007560	      0.02726795	      0.04104920
      1.63333333	      0.01988363	      0.02713726	      0.04003733
      1.65000000	      0.01939288	      0.02680027	      0.04036764
      1.66666667	      0.01871698	      0.02632910	      0.04133268
      1.68333333	      0.01800301	      0.02582205	      0.04246494
      1.70000000	      0.01735732	      0.02535476	      0.04380679
      1.71666667	      0.01687810	      0.02500230	      0.04529343
      1.73333333	      0.01661207	      0.02480447	      0.04689334
      1.75000000	      0.01665999	      0.02484022	      0.04875966
      1.76666667	      0.01702603	      0.02511163	      0.05049972
      1.78333333	      0.01762307	      0.02554812	      0.05207851
      1.80000000	      0.01835189	      0.02607105	      0.05322214
      1.81666667	      0.01901579	      0.02653843	      0.05378555
      1.83333333	      0.01954247	      0.02690344	      0.05383799
      1.85000000	      0.01977856	      0.02706546	      0.05392317
      1.86666667	      0.01973124	      0.02703306	      0.05376597
      1.88333333	      0.01947532	      0.02685718	      0.05352225
      1.90000000	      0.01914626	      0.02662932	      0.05321290
      1.91666667	      0.01879651	      0.02638497	      0.05310269
      1.93333333	      0.01840265	      0.02610708	      0.05280502
      1.95000000	      0.01798317	      0.02580781	      0.05210013
      1.96666667	      0.01753829	      0.02548659	      0.05120249
      1.98333333	      0.01712184	      0.02518218	      0.05007218
      2.00000000	      0.01681643	      0.02495657	      0.04907421
      2.01666667	      0.01664776	      0.02483110	      0.04838028
      2.03333333	      0.01656683	      0.02477068	      0.04839286
      2.05000000	      0.01658116	      0.02478138	      0.04860440
      2.06666667	      0.01660987	      0.02480283	      0.04895168
      2.08333333	      0.01657321	      0.02477544	      0.04961654
      2.10000000	      0.01643345	      0.02467075	      0.05020641
      2.11666667	      0.01621811	      0.02450859	      0.05049198
      2.13333333	      0.01597234	      0.02432218	      0.05037942
      2.15000000	      0.01574496	      0.02414843	      0.04977210
      2.16666667	      0.01555119	      0.02399938	      0.04886495
      2.18333333	      0.01534673	      0.02384109	      0.04785514
      2.20000000	      0.01514706	      0.02368549	      0.04688240
      2.21666667	      0.01497852	      0.02355334	      0.04605992
      2.23333333	      0.01487549	      0.02347219	      0.04568551
      2.25000000	      0.01488291	      0.02347805	      0.04560011
      2.26666667	      0.01498047	      0.02355487	      0.04569266
      2.28333333	      0.01508649	      0.02363808	      0.04595498
      2.30000000	      0.01529530	      0.02380111	      0.04622102
      2.31666667	      0.01553656	      0.02398808	      0.04680293
      2.33333333	      0.01578900	      0.02418218	      0.04758305
      2.35000000	      0.01606194	      0.02439030	      0.04818645
      2.36666667	      0.01631448	      0.02458129	      0.04843104
      2.38333333	      0.01671136	      0.02487849	      0.04808735
      2.40000000	      0.01711119	      0.02517434	      0.04733718
      2.41666667	      0.01757777	      0.02551526	      0.04811238
      2.43333333	      0.01811668	      0.02590344	      0.05151940
      2.45000000	      0.01842249	      0.02612115	      0.05143801
      2.46666667	      0.01868196	      0.02630446	      0.05191418
      2.48333333	      0.01874230	      0.02634690	      0.05127524
      2.50000000	      0.01862578	      0.02626488	      0.04978554
      2.51666667	      0.01844000	      0.02613356	      0.04818456
      2.53333333	      0.01820142	      0.02596395	      0.04660837
      2.55000000	      0.01788030	      0.02573389	      0.04552852
      2.56666667	      0.01754505	      0.02549150	      0.04612225
      2.58333333	      0.01727937	      0.02529776	      0.04644833
      2.60000000	      0.01711779	      0.02517920	      0.04649751
      2.61666667	      0.01701621	      0.02510438	      0.04629241
      2.63333333	      0.01685879	      0.02498799	      0.04616517
      2.65000000	      0.01656592	      0.02477000	      0.04592554
      2.66666667	      0.01615722	      0.02446253	      0.04606589
      2.68333333	      0.01581317	      0.02420068	      0.04653719
      2.70000000	      0.01594306	      0.02429987	      0.04712513
      2.71666667	      0.01653944	      0.02475019	      0.04761286
      2.73333333	      0.01750883	      0.02546518	      0.04756477
      2.75000000	      0.01870063	      0.02631760	      0.04737700
      2.76666667	      0.02032775	      0.02743865	      0.04704269
      2.78333333	      0.02204499	      0.02857414	      0.04655642
      2.80000000	      0.02308430	      0.02923994	      0.04585911
      2.81666667	      0.02304764	      0.02921671	      0.04756658
      2.83333333	      0.02224142	      0.02870115	      0.04681451
      2.85000000	      0.02141654	      0.02816390	      0.04522138
      2.86666667	      0.02107964	      0.02794150	      0.04523978
      2.88333333	      0.02085292	      0.02779083	      0.04435900
      2.90000000	      0.02066022	      0.02766213	      0.04408667
      2.91666667	      0.02085384	      0.02779144	      0.04472373
      2.93333333	      0.02100477	      0.02789183	      0.04499205
      2.95000000	      0.02090908	      0.02782823	      0.04502230
      2.96666667	      0.02065305	      0.02765733	      0.04492590
      2.98333333	      0.02025987	      0.02739280	      0.04570606
      3.00000000	      0.01988352	      0.02713718	      0.04803348
      3.01666667	      0.01972789	      0.02703077	      0.05156880
      3.03333333	      0.02001305	      0.02722543	      0.05541508
      3.05000000	      0.02074952	      0.02772185	      0.05882079
      3.06666667	      0.02152874	      0.02823757	      0.06125598
      3.08333333	      0.02177978	      0.02840174	      0.06206068
      3.10000000	      0.02117800	      0.02800662	      0.06092020
      3.11666667	      0.02010027	      0.02728469	      0.05696629
      3.13333333	      0.01918588	      0.02665686	      0.05136918
      3.15000000	      0.01879585	      0.02638451	      0.04672429
      3.16666667	      0.01900368	      0.02652999	      0.04486136
      3.18333333	      0.01935663	      0.02677521	      0.04575433
      3.20000000	      0.01966485	      0.02698755	      0.04526906
      3.21666667	      0.01991530	      0.02715886	      0.04578086
      3.23333333	      0.01999760	      0.02721492	      0.04603299
      3.25000000	      0.02000775	      0.02722183	      0.04583716
      3.26666667	      0.02022102	      0.02736653	      0.04522597
      3.28333333	      0.02078289	      0.02774413	      0.04525344
      3.30000000	      0.02052106	      0.02756881	      0.04541934
      3.31666667	      0.02114207	      0.02798285	      0.04534079
      3.33333333	      0.02185704	      0.02845206	      0.04912055
      3.35000000	      0.02222131	      0.02868818	      0.05318456
      3.36666667	      0.02100112	      0.02788941	      0.04768825
      3.38333333	      0.01997920	      0.02720239	      0.04805683
      3.40000000	      0.01889018	      0.02645064	      0.04819061
      3.41666667	      0.01797069	      0.02579886	      0.04837038
      3.43333333	      0.01746590	      0.02543394	      0.04879678
      3.45000000	      0.01742730	      0.02540582	      0.04970865
      3.46666667	      0.01780938	      0.02568281	      0.05060337
      3.48333333	      0.01841103	      0.02611303	      0.05165537
      3.50000000	      0.01909445	      0.02659326	      0.05224599
      3.51666667	      0.01964882	      0.02697655	      0.05243825
      3.53333333	      0.02013164	      0.02730597	      0.05219422
      3.55000000	      0.02060977	      0.02762833	      0.05209107
      3.56666667	      0.02117134	      0.02800221	      0.05200671
      3.58333333	      0.02160876	      0.02829001	      0.05178355
      3.60000000	      0.02203497	      0.02856764	      0.05211968
      3.61666667	      0.02228927	      0.02873202	      0.05267736
      3.63333333	      0.02229457	      0.02873543	      0.05330622
      3.65000000	      0.02209878	      0.02860898	      0.05365956
      3.66666667	      0.02177572	      0.02839909	      0.05374557
      3.68333333	      0.02146969	      0.02819882	      0.05357018
      3.70000000	      0.02116912	      0.02800074	      0.05314349
      3.71666667	      0.02084934	      0.02778844	      0.05276882
      3.73333333	      0.02055570	      0.02759207	      0.05213804
      3.75000000	      0.02024765	      0.02738454	      0.05149053
      3.76666667	      0.01988827	      0.02714042	      0.05095688
      3.78333333	      0.01947897	      0.02685970	      0.05024469
      3.80000000	      0.01916342	      0.02664125	      0.04981694
      3.81666667	      0.01907817	      0.02658193	      0.04960966
      3.83333333	      0.01921895	      0.02667982	      0.04955189
      3.85000000	      0.01931934	      0.02674942	      0.04997399
      3.86666667	      0.01935891	      0.02677679	      0.05049916
      3.88333333	      0.01926904	      0.02671456	      0.05119749
      3.90000000	      0.01899706	      0.02652536	      0.05189425
      3.91666667	      0.01880547	      0.02639127	      0.05239432
      3.93333333	      0.01865838	      0.02628785	      0.05278777
      3.95000000	      0.01863455	      0.02627106	      0.05302878
      3.96666667	      0.01871379	      0.02632686	      0.05322115
      3.98333333	      0.01885324	      0.02642476	      0.05328270
      4.00000000	      0.01897218	      0.02650799	      0.05310885
      4.01666667	      0.01898331	      0.02651576	      0.05289463
      4.03333333	      0.01879782	      0.02638590	      0.05240529
      4.05000000	      0.01853500	      0.02620079	      0.05191273
      4.06666667	      0.01824593	      0.02599568	      0.05144280
      4.08333333	      0.01805889	      0.02586209	      0.05127194
      4.10000000	      0.01804786	      0.02585419	      0.05150215
      4.11666667	      0.01812089	      0.02590645	      0.05196128
      4.13333333	      0.01828923	      0.02602651	      0.05246632
      4.15000000	      0.01844264	      0.02613543	      0.05282539
      4.16666667	      0.01857596	      0.02622973	      0.05290917
      4.18333333	      0.01863032	      0.02626808	      0.05279766
      4.20000000	      0.01862424	      0.02626379	      0.05216596
      4.21666667	      0.01852593	      0.02619438	      0.05134126
      4.23333333	      0.01840704	      0.02611019	      0.05033805
      4.25000000	      0.01832783	      0.02605395	      0.04934669
      4.26666667	      0.01820690	      0.02596785	      0.04868924
      4.28333333	      0.01813786	      0.02591858	      0.04829124
      4.30000000	      0.01814745	      0.02592542	      0.04783349
      4.31666667	      0.01819626	      0.02596027	      0.04752712
      4.33333333	      0.01832935	      0.02605504	      0.04711602
      4.35000000	      0.01871801	      0.02632983	      0.04650042
