Model Marker Errors from IK
version=1
nRows=397
nColumns=4
inDegrees=no
endheader
time	total_squared_error	marker_error_RMS	marker_error_max
      0.00000000	      0.02311697	      0.02926062	      0.05365529
      0.01666667	      0.02263400	      0.02895334	      0.05232396
      0.03333333	      0.02233903	      0.02876407	      0.05112020
      0.05000000	      0.02214233	      0.02863715	      0.05037947
      0.06666667	      0.02200832	      0.02855036	      0.04980158
      0.08333333	      0.02192229	      0.02849450	      0.04958755
      0.10000000	      0.02193097	      0.02850014	      0.04926240
      0.11666667	      0.02202830	      0.02856332	      0.04962255
      0.13333333	      0.02216600	      0.02865245	      0.05063910
      0.15000000	      0.02232196	      0.02875307	      0.05164832
      0.16666667	      0.02240208	      0.02880463	      0.05220006
      0.18333333	      0.02229134	      0.02873334	      0.05173107
      0.20000000	      0.02206516	      0.02858720	      0.05237182
      0.21666667	      0.02175836	      0.02838777	      0.05275989
      0.23333333	      0.02143492	      0.02817598	      0.05294725
      0.25000000	      0.02110696	      0.02795960	      0.05265360
      0.26666667	      0.02088750	      0.02781386	      0.05264796
      0.28333333	      0.02075194	      0.02772346	      0.05304448
      0.30000000	      0.02068307	      0.02767742	      0.05365306
      0.31666667	      0.02065868	      0.02766110	      0.05485027
      0.33333333	      0.02060026	      0.02762196	      0.05565487
      0.35000000	      0.02034928	      0.02745318	      0.05624981
      0.36666667	      0.02021681	      0.02736368	      0.05690118
      0.38333333	      0.02036766	      0.02746558	      0.05798719
      0.40000000	      0.02102780	      0.02790712	      0.05978921
      0.41666667	      0.02223147	      0.02869473	      0.06300544
      0.43333333	      0.02379766	      0.02968830	      0.06747731
      0.45000000	      0.02571322	      0.03086003	      0.07197831
      0.46666667	      0.02786791	      0.03212701	      0.07619644
      0.48333333	      0.03007442	      0.03337465	      0.07965635
      0.50000000	      0.03194174	      0.03439517	      0.08232072
      0.51666667	      0.03325961	      0.03509754	      0.08420849
      0.53333333	      0.03396464	      0.03546759	      0.08532259
      0.55000000	      0.03408435	      0.03553003	      0.08508858
      0.56666667	      0.03380379	      0.03538350	      0.08406107
      0.58333333	      0.03358905	      0.03527094	      0.08135449
      0.60000000	      0.03349266	      0.03522029	      0.07775881
      0.61666667	      0.03365647	      0.03530631	      0.07504007
      0.63333333	      0.03372427	      0.03534186	      0.07789762
      0.65000000	      0.03358968	      0.03527127	      0.08069078
      0.66666667	      0.03323833	      0.03508631	      0.08184817
      0.68333333	      0.03276870	      0.03483756	      0.08069598
      0.70000000	      0.03238397	      0.03463245	      0.07922858
      0.71666667	      0.03212583	      0.03449414	      0.07798123
      0.73333333	      0.03209826	      0.03447933	      0.07683005
      0.75000000	      0.03232919	      0.03460314	      0.07592379
      0.76666667	      0.03259578	      0.03474552	      0.07480456
      0.78333333	      0.03244807	      0.03466671	      0.07331578
      0.80000000	      0.03155435	      0.03418596	      0.07150227
      0.81666667	      0.02994436	      0.03330241	      0.06941753
      0.83333333	      0.02757628	      0.03195847	      0.06646644
      0.85000000	      0.02537145	      0.03065425	      0.06462778
      0.86666667	      0.02358270	      0.02955390	      0.06375190
      0.88333333	      0.02254191	      0.02889439	      0.06323085
      0.90000000	      0.02217932	      0.02866106	      0.06317226
      0.91666667	      0.02236564	      0.02878120	      0.06322255
      0.93333333	      0.02264612	      0.02896110	      0.06325031
      0.95000000	      0.02271364	      0.02900424	      0.06304813
      0.96666667	      0.02261609	      0.02894189	      0.06259616
      0.98333333	      0.02265276	      0.02896535	      0.06179103
      1.00000000	      0.02299524	      0.02918348	      0.06003567
      1.01666667	      0.02368458	      0.02961767	      0.05742186
      1.03333333	      0.02473276	      0.03026596	      0.05749883
      1.05000000	      0.02618158	      0.03113981	      0.06698627
      1.06666667	      0.02801955	      0.03221430	      0.07514394
      1.08333333	      0.02992415	      0.03329117	      0.08000677
      1.10000000	      0.03117154	      0.03397795	      0.08028681
      1.11666667	      0.03106753	      0.03392122	      0.07535708
      1.13333333	      0.02963785	      0.03313153	      0.06887678
      1.15000000	      0.02736080	      0.03183336	      0.07196803
      1.16666667	      0.02475959	      0.03028237	      0.07018749
      1.18333333	      0.02243911	      0.02882842	      0.06416524
      1.20000000	      0.02061832	      0.02763406	      0.05539781
      1.21666667	      0.01937714	      0.02678940	      0.04639346
      1.23333333	      0.01831808	      0.02604702	      0.04330787
      1.25000000	      0.01745221	      0.02542397	      0.04501330
      1.26666667	      0.01686880	      0.02499541	      0.04656815
      1.28333333	      0.01665465	      0.02483624	      0.04739761
      1.30000000	      0.01675979	      0.02491451	      0.04791551
      1.31666667	      0.01706727	      0.02514202	      0.04794742
      1.33333333	      0.01750856	      0.02546498	      0.04814023
      1.35000000	      0.01801945	      0.02583384	      0.04941616
      1.36666667	      0.01844011	      0.02613364	      0.05068980
      1.38333333	      0.01837621	      0.02608832	      0.05124967
      1.40000000	      0.01769056	      0.02559699	      0.05166132
      1.41666667	      0.01653733	      0.02474861	      0.05129104
      1.43333333	      0.01551964	      0.02397501	      0.05024491
      1.45000000	      0.01515400	      0.02369091	      0.04880127
      1.46666667	      0.01550866	      0.02396653	      0.04708265
      1.48333333	      0.01625755	      0.02453837	      0.04787428
      1.50000000	      0.01703692	      0.02511965	      0.04855978
      1.51666667	      0.01768892	      0.02559580	      0.04886163
      1.53333333	      0.01823164	      0.02598550	      0.04890353
      1.55000000	      0.01872559	      0.02633515	      0.04891160
      1.56666667	      0.01913836	      0.02662383	      0.04983156
      1.58333333	      0.01940940	      0.02681169	      0.04980790
      1.60000000	      0.01959423	      0.02693905	      0.04972418
      1.61666667	      0.01977582	      0.02706359	      0.05017158
      1.63333333	      0.02001624	      0.02722760	      0.05164415
      1.65000000	      0.02029457	      0.02741625	      0.05459638
      1.66666667	      0.02062264	      0.02763696	      0.05811248
      1.68333333	      0.02099108	      0.02788274	      0.06167332
      1.70000000	      0.02136936	      0.02813286	      0.06442354
      1.71666667	      0.02176217	      0.02839025	      0.06571881
      1.73333333	      0.02199527	      0.02854189	      0.06524016
      1.75000000	      0.02194157	      0.02850703	      0.06263969
      1.76666667	      0.02169467	      0.02834618	      0.05899993
      1.78333333	      0.02146682	      0.02819694	      0.05520982
      1.80000000	      0.02143963	      0.02817908	      0.05252462
      1.81666667	      0.02165380	      0.02831947	      0.05190680
      1.83333333	      0.02202924	      0.02856392	      0.05336365
      1.85000000	      0.02253415	      0.02888941	      0.05632567
      1.86666667	      0.02305919	      0.02922403	      0.05972026
      1.88333333	      0.02365684	      0.02960033	      0.06303164
      1.90000000	      0.02421645	      0.02994838	      0.06555974
      1.91666667	      0.02463315	      0.03020495	      0.06698630
      1.93333333	      0.02497326	      0.03041275	      0.06731369
      1.95000000	      0.02535037	      0.03064152	      0.06692545
      1.96666667	      0.02585352	      0.03094411	      0.06574845
      1.98333333	      0.02644495	      0.03129605	      0.06404847
      2.00000000	      0.02691375	      0.03157223	      0.06191345
      2.01666667	      0.02696581	      0.03160275	      0.05942239
      2.03333333	      0.02646380	      0.03130720	      0.05650596
      2.05000000	      0.02554315	      0.03075780	      0.05479915
      2.06666667	      0.02448750	      0.03011552	      0.05340146
      2.08333333	      0.02357505	      0.02954911	      0.05122602
      2.10000000	      0.02295374	      0.02915713	      0.05083119
      2.11666667	      0.02263353	      0.02895305	      0.05212551
      2.13333333	      0.02250606	      0.02887140	      0.05353748
      2.15000000	      0.02226333	      0.02871529	      0.05447329
      2.16666667	      0.02189311	      0.02847554	      0.05427227
      2.18333333	      0.02146330	      0.02819463	      0.05353800
      2.20000000	      0.02109154	      0.02794939	      0.05474881
      2.21666667	      0.02101809	      0.02790067	      0.05682951
      2.23333333	      0.02123374	      0.02804345	      0.05935692
      2.25000000	      0.02169009	      0.02834319	      0.06140118
      2.26666667	      0.02233907	      0.02876409	      0.06259041
      2.28333333	      0.02316617	      0.02929174	      0.06277389
      2.30000000	      0.02411615	      0.02988630	      0.06215495
      2.31666667	      0.02514015	      0.03051420	      0.06041287
      2.33333333	      0.02637337	      0.03125366	      0.05897266
      2.35000000	      0.02779073	      0.03208249	      0.05853234
      2.36666667	      0.02942014	      0.03300962	      0.06315812
      2.38333333	      0.03059442	      0.03366195	      0.06894024
      2.40000000	      0.03049849	      0.03360913	      0.07018844
      2.41666667	      0.02900367	      0.03277514	      0.06651460
      2.43333333	      0.02701662	      0.03163251	      0.06886199
      2.45000000	      0.02564877	      0.03082133	      0.07144221
      2.46666667	      0.02542375	      0.03068583	      0.07435233
      2.48333333	      0.02612149	      0.03110406	      0.07711060
      2.50000000	      0.02748453	      0.03190526	      0.07973721
      2.51666667	      0.02911037	      0.03283537	      0.08161219
      2.53333333	      0.03021024	      0.03344993	      0.08138186
      2.55000000	      0.03018755	      0.03343736	      0.07853233
      2.56666667	      0.02899715	      0.03277146	      0.07315534
      2.58333333	      0.02717735	      0.03172646	      0.06556832
      2.60000000	      0.02555686	      0.03076606	      0.05775656
      2.61666667	      0.02460628	      0.03018847	      0.05549229
      2.63333333	      0.02413175	      0.02989596	      0.05485502
      2.65000000	      0.02363237	      0.02958501	      0.05503966
      2.66666667	      0.02282955	      0.02907815	      0.05528248
      2.68333333	      0.02181217	      0.02842284	      0.05491440
      2.70000000	      0.02073825	      0.02771431	      0.05406653
      2.71666667	      0.01984999	      0.02711429	      0.05351353
      2.73333333	      0.01934271	      0.02676559	      0.05473904
      2.75000000	      0.01932368	      0.02675242	      0.05870200
      2.76666667	      0.01982735	      0.02709883	      0.06493876
      2.78333333	      0.02076405	      0.02773155	      0.07118681
      2.80000000	      0.02165253	      0.02831864	      0.07461413
      2.81666667	      0.02180911	      0.02842085	      0.07270374
      2.83333333	      0.02092747	      0.02784046	      0.06628579
      2.85000000	      0.01930116	      0.02673682	      0.05765339
      2.86666667	      0.01742446	      0.02540374	      0.04860304
      2.88333333	      0.01566144	      0.02408430	      0.04126266
      2.90000000	      0.01411569	      0.02286489	      0.03564714
      2.91666667	      0.01288981	      0.02184950	      0.03444453
      2.93333333	      0.01208107	      0.02115294	      0.03466693
      2.95000000	      0.01172812	      0.02084166	      0.03467000
      2.96666667	      0.01180652	      0.02091120	      0.03612015
      2.98333333	      0.01217812	      0.02123773	      0.04181750
      3.00000000	      0.01256424	      0.02157179	      0.04699548
      3.01666667	      0.01294249	      0.02189410	      0.05049220
      3.03333333	      0.01348054	      0.02234455	      0.05162645
      3.05000000	      0.01410859	      0.02285914	      0.05026184
      3.06666667	      0.01491311	      0.02350186	      0.04677382
      3.08333333	      0.01614091	      0.02445018	      0.04300737
      3.10000000	      0.01748819	      0.02545016	      0.04587544
      3.11666667	      0.01827405	      0.02601570	      0.04628913
      3.13333333	      0.01785752	      0.02571750	      0.04364381
      3.15000000	      0.01666127	      0.02484118	      0.04295159
      3.16666667	      0.01577514	      0.02417156	      0.04366761
      3.18333333	      0.01546920	      0.02393603	      0.04388482
      3.20000000	      0.01526612	      0.02377839	      0.04174384
      3.21666667	      0.01482784	      0.02343458	      0.04130070
      3.23333333	      0.01411202	      0.02286192	      0.04055973
      3.25000000	      0.01304927	      0.02198423	      0.03879249
      3.26666667	      0.01219156	      0.02124945	      0.03680307
      3.28333333	      0.01164782	      0.02077019	      0.03620005
      3.30000000	      0.01136780	      0.02051901	      0.03667298
      3.31666667	      0.01129101	      0.02044958	      0.03714157
      3.33333333	      0.01145419	      0.02059683	      0.03699931
      3.35000000	      0.01192303	      0.02101413	      0.03611648
      3.36666667	      0.01263840	      0.02163536	      0.03509779
      3.38333333	      0.01347691	      0.02234154	      0.03657647
      3.40000000	      0.01430442	      0.02301724	      0.03850639
      3.41666667	      0.01495210	      0.02353256	      0.04038546
      3.43333333	      0.01545368	      0.02392402	      0.04320123
      3.45000000	      0.01560333	      0.02403957	      0.04446606
      3.46666667	      0.01458886	      0.02324496	      0.04409849
      3.48333333	      0.01431839	      0.02302847	      0.04166406
      3.50000000	      0.02411466	      0.02988537	      0.10167949
      3.51666667	      0.05620183	      0.04562400	      0.19662246
      3.53333333	      0.11676083	      0.06576074	      0.30148287
      3.55000000	      0.19130867	      0.08417545	      0.39313510
      3.56666667	      0.24071674	      0.09442158	      0.44355194
      3.58333333	      0.23060358	      0.09241685	      0.43329049
      3.60000000	      0.16874142	      0.07905493	      0.36717757
      3.61666667	      0.09625808	      0.05970858	      0.27079480
      3.63333333	      0.04463495	      0.04065890	      0.17287754
      3.65000000	      0.01918659	      0.02665735	      0.09074308
      3.66666667	      0.01187050	      0.02096779	      0.03817273
      3.68333333	      0.01241578	      0.02144397	      0.04229533
      3.70000000	      0.01406666	      0.02282515	      0.04890000
      3.71666667	      0.01451795	      0.02318840	      0.05002095
      3.73333333	      0.01339950	      0.02227729	      0.04574923
      3.75000000	      0.01296708	      0.02191489	      0.03858281
      3.76666667	      0.02363424	      0.02958619	      0.08695094
      3.78333333	      0.05827298	      0.04645706	      0.16219237
      3.80000000	      0.11142096	      0.06423941	      0.24914471
      3.81666667	      0.16415211	      0.07797248	      0.31959621
      3.83333333	      0.18553074	      0.08289457	      0.34792341
      3.85000000	      0.16076300	      0.07716337	      0.33052109
      3.86666667	      0.10359717	      0.06194298	      0.25881555
      3.88333333	      0.04614569	      0.04134126	      0.17641836
      3.90000000	      0.01714097	      0.02519624	      0.08400760
      3.91666667	      0.00921610	      0.01847531	      0.02798047
      3.93333333	      0.00845702	      0.01769810	      0.03019654
      3.95000000	      0.00914889	      0.01840782	      0.03003027
      3.96666667	      0.00993935	      0.01918656	      0.02953135
      3.98333333	      0.01116365	      0.02033392	      0.03619550
      4.00000000	      0.01393537	      0.02271838	      0.04808798
      4.01666667	      0.01903640	      0.02655282	      0.05887794
      4.03333333	      0.02467380	      0.03022986	      0.06544090
      4.05000000	      0.02877662	      0.03264660	      0.06686969
      4.06666667	      0.03099395	      0.03388103	      0.06609593
      4.08333333	      0.03210558	      0.03448327	      0.08801349
      4.10000000	      0.03235632	      0.03461766	      0.10198320
      4.11666667	      0.03095968	      0.03386229	      0.10419090
      4.13333333	      0.02718137	      0.03172881	      0.09441326
      4.15000000	      0.02273118	      0.02901544	      0.07601731
      4.16666667	      0.01959223	      0.02693767	      0.05461628
      4.18333333	      0.01848759	      0.02616726	      0.05181567
      4.20000000	      0.01883055	      0.02640886	      0.05278013
      4.21666667	      0.01952689	      0.02689272	      0.05286957
      4.23333333	      0.01991178	      0.02715646	      0.05264396
      4.25000000	      0.02002681	      0.02723479	      0.05206026
      4.26666667	      0.02023491	      0.02737593	      0.05180409
      4.28333333	      0.02074069	      0.02771595	      0.05169585
      4.30000000	      0.02142964	      0.02817251	      0.05166388
      4.31666667	      0.02196587	      0.02852281	      0.05210466
      4.33333333	      0.02200742	      0.02854977	      0.05250648
      4.35000000	      0.02143670	      0.02817715	      0.05084722
      4.36666667	      0.02040252	      0.02748907	      0.05067591
      4.38333333	      0.01924325	      0.02669668	      0.05073124
      4.40000000	      0.01833722	      0.02606062	      0.05091673
      4.41666667	      0.01764735	      0.02556571	      0.05197787
      4.43333333	      0.01736941	      0.02536358	      0.05274760
      4.45000000	      0.01736237	      0.02535845	      0.05335147
      4.46666667	      0.01760885	      0.02553781	      0.05388207
      4.48333333	      0.01794266	      0.02577873	      0.05259417
      4.50000000	      0.01846244	      0.02614946	      0.05153389
      4.51666667	      0.01905820	      0.02656801	      0.04926558
      4.53333333	      0.01959525	      0.02693975	      0.04844663
      4.55000000	      0.01999405	      0.02721251	      0.05270417
      4.56666667	      0.02027966	      0.02740618	      0.05744886
      4.58333333	      0.02048141	      0.02754216	      0.06133493
      4.60000000	      0.02050789	      0.02755996	      0.06279640
      4.61666667	      0.02018200	      0.02734011	      0.06031468
      4.63333333	      0.01949972	      0.02687400	      0.05344488
      4.65000000	      0.01874560	      0.02634922	      0.04421333
      4.66666667	      0.01827483	      0.02601626	      0.04446365
      4.68333333	      0.01805185	      0.02585705	      0.04521405
      4.70000000	      0.01787309	      0.02572871	      0.04594266
      4.71666667	      0.01794319	      0.02577911	      0.04557208
      4.73333333	      0.01875508	      0.02635588	      0.04618878
      4.75000000	      0.02095252	      0.02785712	      0.05219357
      4.76666667	      0.02437601	      0.03004689	      0.07045060
      4.78333333	      0.02763111	      0.03199022	      0.08366174
      4.80000000	      0.02899435	      0.03276987	      0.08750845
      4.81666667	      0.02794782	      0.03217304	      0.08116944
      4.83333333	      0.02559830	      0.03079099	      0.06795894
      4.85000000	      0.02344219	      0.02946573	      0.05177782
      4.86666667	      0.02215116	      0.02864286	      0.04800477
      4.88333333	      0.02167514	      0.02833343	      0.04756930
      4.90000000	      0.02161492	      0.02829404	      0.04744205
      4.91666667	      0.02154540	      0.02824850	      0.04706599
      4.93333333	      0.02132292	      0.02810227	      0.04561138
      4.95000000	      0.02099188	      0.02788327	      0.04858613
      4.96666667	      0.02047144	      0.02753546	      0.05179039
      4.98333333	      0.01970689	      0.02701638	      0.05144826
      5.00000000	      0.01875949	      0.02635898	      0.04731085
      5.01666667	      0.01795958	      0.02579089	      0.04653702
      5.03333333	      0.01753256	      0.02548242	      0.04794839
      5.05000000	      0.01766727	      0.02558014	      0.04968502
      5.06666667	      0.01828199	      0.02602135	      0.05190996
      5.08333333	      0.01924119	      0.02669526	      0.05374285
      5.10000000	      0.02035777	      0.02745891	      0.05539002
      5.11666667	      0.02142561	      0.02816986	      0.05661177
      5.13333333	      0.02218240	      0.02866305	      0.05748142
      5.15000000	      0.02239258	      0.02879852	      0.05814185
      5.16666667	      0.02200357	      0.02854727	      0.05861593
      5.18333333	      0.02119512	      0.02801793	      0.05845990
      5.20000000	      0.02025910	      0.02739228	      0.05836067
      5.21666667	      0.01955266	      0.02691046	      0.05739361
      5.23333333	      0.01928370	      0.02672473	      0.05610459
      5.25000000	      0.01953677	      0.02689952	      0.05489236
      5.26666667	      0.02017496	      0.02733534	      0.05330224
      5.28333333	      0.02083274	      0.02777738	      0.05191786
      5.30000000	      0.02109263	      0.02795011	      0.05502182
      5.31666667	      0.02076268	      0.02773064	      0.05468373
      5.33333333	      0.01997477	      0.02719938	      0.05091907
      5.35000000	      0.01902274	      0.02654329	      0.04449049
      5.36666667	      0.01823980	      0.02599131	      0.04258295
      5.38333333	      0.01784276	      0.02570687	      0.04236421
      5.40000000	      0.01787501	      0.02573008	      0.04371334
      5.41666667	      0.01826144	      0.02600672	      0.04469262
      5.43333333	      0.01886948	      0.02643614	      0.04588851
      5.45000000	      0.01952284	      0.02688993	      0.04684347
      5.46666667	      0.02017772	      0.02733721	      0.04676620
      5.48333333	      0.02080248	      0.02775720	      0.04709240
      5.50000000	      0.02133628	      0.02811107	      0.04764213
      5.51666667	      0.02161870	      0.02829651	      0.04892110
      5.53333333	      0.02160157	      0.02828530	      0.04921109
      5.55000000	      0.02140239	      0.02815459	      0.04831354
      5.56666667	      0.02136108	      0.02812741	      0.04748459
      5.58333333	      0.02106843	      0.02793407	      0.04706420
      5.60000000	      0.02044036	      0.02751455	      0.04834869
      5.61666667	      0.02048734	      0.02754615	      0.05175853
      5.63333333	      0.02119471	      0.02801766	      0.05711956
      5.65000000	      0.02247658	      0.02885249	      0.06383177
      5.66666667	      0.02395904	      0.02978879	      0.06954722
      5.68333333	      0.02494407	      0.03039497	      0.07203542
      5.70000000	      0.02495166	      0.03039960	      0.07038461
      5.71666667	      0.02413619	      0.02989871	      0.06589955
      5.73333333	      0.02330640	      0.02938026	      0.06064069
      5.75000000	      0.02349682	      0.02950004	      0.05597746
      5.76666667	      0.02463988	      0.03020908	      0.06634420
      5.78333333	      0.02603786	      0.03105423	      0.07785413
      5.80000000	      0.02713497	      0.03170172	      0.08414076
      5.81666667	      0.02742558	      0.03187103	      0.08391885
      5.83333333	      0.02712303	      0.03169474	      0.07889676
      5.85000000	      0.02646394	      0.03130728	      0.07220924
      5.86666667	      0.02591074	      0.03097833	      0.06646683
      5.88333333	      0.02586413	      0.03095046	      0.06391058
      5.90000000	      0.02644156	      0.03129404	      0.06444610
      5.91666667	      0.02751458	      0.03192269	      0.06740082
      5.93333333	      0.02876316	      0.03263897	      0.07114013
      5.95000000	      0.02993747	      0.03329858	      0.07428456
      5.96666667	      0.03077754	      0.03376254	      0.07551667
      5.98333333	      0.03120196	      0.03399453	      0.07463061
      6.00000000	      0.03157832	      0.03419894	      0.07316817
      6.01666667	      0.03246592	      0.03467624	      0.07599223
      6.03333333	      0.03408852	      0.03553221	      0.07998287
      6.05000000	      0.03633749	      0.03668559	      0.08396803
      6.06666667	      0.03871575	      0.03786709	      0.08680006
      6.08333333	      0.04059625	      0.03877583	      0.08735132
      6.10000000	      0.04147360	      0.03919259	      0.08596908
      6.11666667	      0.04120713	      0.03906648	      0.08213832
      6.13333333	      0.03996647	      0.03847388	      0.07721515
      6.15000000	      0.03836975	      0.03769750	      0.07282411
      6.16666667	      0.03682000	      0.03692836	      0.06837063
      6.18333333	      0.03553337	      0.03627742	      0.06552370
      6.20000000	      0.03461839	      0.03580730	      0.06377308
      6.21666667	      0.03423178	      0.03560679	      0.06434596
      6.23333333	      0.03408155	      0.03552858	      0.06430771
      6.25000000	      0.03419649	      0.03558843	      0.06645888
      6.26666667	      0.03435781	      0.03567228	      0.06888810
      6.28333333	      0.03445333	      0.03572183	      0.07093314
      6.30000000	      0.03446228	      0.03572647	      0.07287895
      6.31666667	      0.03429676	      0.03564057	      0.07405290
      6.33333333	      0.03401440	      0.03549356	      0.07451148
      6.35000000	      0.03366911	      0.03531294	      0.07406558
      6.36666667	      0.03342118	      0.03518269	      0.07296129
      6.38333333	      0.03332921	      0.03513425	      0.07178419
      6.40000000	      0.03328829	      0.03511267	      0.07040944
      6.41666667	      0.03318694	      0.03505918	      0.06901915
      6.43333333	      0.03287419	      0.03489359	      0.06740422
      6.45000000	      0.03236603	      0.03462285	      0.06558639
      6.46666667	      0.03177761	      0.03430668	      0.06384130
      6.48333333	      0.03124620	      0.03401862	      0.06276807
      6.50000000	      0.03086096	      0.03380826	      0.06208019
      6.51666667	      0.03069842	      0.03371911	      0.06211154
      6.53333333	      0.03086654	      0.03381132	      0.06298238
      6.55000000	      0.03119529	      0.03399090	      0.06428096
      6.56666667	      0.03164080	      0.03423275	      0.06584976
      6.58333333	      0.03217068	      0.03451821	      0.06744176
      6.60000000	      0.03281397	      0.03486161	      0.06924136
