Model Marker Errors from IK
version=1
nRows=342
nColumns=4
inDegrees=no
endheader
time	total_squared_error	marker_error_RMS	marker_error_max
      0.00000000	      0.02008155	      0.02727198	      0.04947950
      0.01694915	      0.01999498	      0.02721314	      0.04763989
      0.03389831	      0.02074129	      0.02771635	      0.05008325
      0.05084746	      0.02130137	      0.02808807	      0.05062541
      0.06779661	      0.02167040	      0.02833033	      0.05093564
      0.08474576	      0.02163142	      0.02830483	      0.05584217
      0.10169492	      0.02165886	      0.02832279	      0.05281493
      0.11864407	      0.02095600	      0.02785943	      0.04815968
      0.13559322	      0.01975279	      0.02704783	      0.04790221
      0.15254237	      0.01890640	      0.02646199	      0.04889664
      0.16949153	      0.01832868	      0.02605456	      0.04938710
      0.18644068	      0.01795188	      0.02578535	      0.04933199
      0.20338983	      0.01770793	      0.02560955	      0.04865086
      0.22033898	      0.01785584	      0.02571628	      0.04777062
      0.23728814	      0.01877085	      0.02636696	      0.04685362
      0.25423729	      0.02037646	      0.02747151	      0.04679518
      0.27118644	      0.02192848	      0.02849852	      0.05098415
      0.28813559	      0.02267280	      0.02897815	      0.05194030
      0.30508475	      0.02230514	      0.02874224	      0.05089469
      0.32203390	      0.02127124	      0.02806820	      0.04978300
      0.33898305	      0.01995082	      0.02718307	      0.04977466
      0.35593220	      0.01867636	      0.02630051	      0.05136187
      0.37288136	      0.01770080	      0.02560440	      0.05382253
      0.38983051	      0.01713974	      0.02519534	      0.05671852
      0.40677966	      0.01674999	      0.02490723	      0.05896919
      0.42372881	      0.01659655	      0.02479288	      0.06157942
      0.44067797	      0.01673419	      0.02489548	      0.06479729
      0.45762712	      0.01724647	      0.02527366	      0.06888720
      0.47457627	      0.01775345	      0.02564245	      0.07176999
      0.49152542	      0.01803288	      0.02584346	      0.07303087
      0.50847458	      0.01815482	      0.02593069	      0.07231218
      0.52542373	      0.01847644	      0.02615937	      0.07115840
      0.54237288	      0.01920685	      0.02667142	      0.06909243
      0.55932203	      0.01988072	      0.02713527	      0.06301892
      0.57627119	      0.02087927	      0.02780838	      0.05938016
      0.59322034	      0.02195108	      0.02851321	      0.06497400
      0.61016949	      0.02315944	      0.02928749	      0.07033932
      0.62711864	      0.02426434	      0.02997798	      0.07391303
      0.64406780	      0.02514913	      0.03051965	      0.07615529
      0.66101695	      0.02573574	      0.03087354	      0.07729239
      0.67796610	      0.02607320	      0.03107530	      0.07725741
      0.69491525	      0.02626230	      0.03118779	      0.07562072
      0.71186441	      0.02626798	      0.03119116	      0.07327745
      0.72881356	      0.02608468	      0.03108214	      0.07043722
      0.74576271	      0.02581668	      0.03092206	      0.06819797
      0.76271186	      0.02287530	      0.02910727	      0.06520727
      0.77966102	      0.02243372	      0.02882496	      0.06480501
      0.79661017	      0.02206186	      0.02858507	      0.06509601
      0.81355932	      0.02180464	      0.02841794	      0.06568715
      0.83050847	      0.02167117	      0.02833083	      0.06598500
      0.84745763	      0.02162663	      0.02830170	      0.06562418
      0.86440678	      0.02175848	      0.02838784	      0.06563061
      0.88135593	      0.02189106	      0.02847420	      0.06503276
      0.89830508	      0.02196655	      0.02852325	      0.06486417
      0.91525424	      0.02187353	      0.02846280	      0.06520294
      0.93220339	      0.02172114	      0.02836347	      0.06508150
      0.94915254	      0.02143253	      0.02817441	      0.06520339
      0.96610169	      0.02102577	      0.02790577	      0.06459414
      0.98305085	      0.02059692	      0.02761972	      0.06382338
      1.00000000	      0.02022240	      0.02736746	      0.06300198
      1.01694915	      0.01993912	      0.02717510	      0.06236442
      1.03389831	      0.01968505	      0.02700140	      0.06153323
      1.05084746	      0.01941676	      0.02681677	      0.06087913
      1.06779661	      0.01911287	      0.02660609	      0.06037367
      1.08474576	      0.01879313	      0.02638260	      0.05984550
      1.10169492	      0.01848157	      0.02616300	      0.05949104
      1.11864407	      0.01820972	      0.02596987	      0.05920243
      1.13559322	      0.01801908	      0.02583357	      0.05913360
      1.15254237	      0.01795179	      0.02578529	      0.05882195
      1.16949153	      0.01802656	      0.02583893	      0.05855068
      1.18644068	      0.01824648	      0.02599607	      0.05842121
      1.20338983	      0.01862046	      0.02626113	      0.05853234
      1.22033898	      0.01909543	      0.02659395	      0.05918094
      1.23728814	      0.01960438	      0.02694602	      0.05992760
      1.25423729	      0.02001924	      0.02722964	      0.06087455
      1.27118644	      0.02020852	      0.02735807	      0.06140759
      1.28813559	      0.02010958	      0.02729101	      0.06156371
      1.30508475	      0.01979005	      0.02707332	      0.06105241
      1.32203390	      0.01937597	      0.02678859	      0.05978381
      1.33898305	      0.01896504	      0.02650299	      0.05799342
      1.35593220	      0.01858320	      0.02623483	      0.05571369
      1.37288136	      0.01821771	      0.02597557	      0.05297219
      1.38983051	      0.01789906	      0.02574739	      0.05056921
      1.40677966	      0.01766728	      0.02558014	      0.04851374
      1.42372881	      0.01749545	      0.02545545	      0.04782028
      1.44067797	      0.01735887	      0.02535589	      0.04732556
      1.45762712	      0.01722066	      0.02525474	      0.04686656
      1.47457627	      0.01708160	      0.02515257	      0.04650303
      1.49152542	      0.01696393	      0.02506579	      0.04619267
      1.50847458	      0.01688143	      0.02500476	      0.04618210
      1.52542373	      0.01686506	      0.02499264	      0.04630183
      1.54237288	      0.01692365	      0.02503601	      0.04639670
      1.55932203	      0.01709676	      0.02516373	      0.04656126
      1.57627119	      0.01740289	      0.02538802	      0.04739597
      1.59322034	      0.01781883	      0.02568962	      0.05147997
      1.61016949	      0.01819240	      0.02595751	      0.05503044
      1.62711864	      0.01846611	      0.02615206	      0.05784520
      1.64406780	      0.01864564	      0.02627887	      0.06000800
      1.66101695	      0.01868822	      0.02630886	      0.06123304
      1.67796610	      0.01857071	      0.02622602	      0.06154331
      1.69491525	      0.01830449	      0.02603736	      0.06116618
      1.71186441	      0.01798945	      0.02581232	      0.06044977
      1.72881356	      0.01771264	      0.02561296	      0.05952214
      1.74576271	      0.01754594	      0.02549215	      0.05869850
      1.76271186	      0.01750138	      0.02545976	      0.05823638
      1.77966102	      0.01752204	      0.02547478	      0.05718186
      1.79661017	      0.01764852	      0.02556656	      0.05654256
      1.81355932	      0.01784026	      0.02570507	      0.05631815
      1.83050847	      0.01800695	      0.02582488	      0.05577291
      1.84745763	      0.01817812	      0.02594733	      0.05567279
      1.86440678	      0.01833617	      0.02605988	      0.05564231
      1.88135593	      0.01848906	      0.02616830	      0.05576839
      1.89830508	      0.01863467	      0.02627114	      0.05593302
      1.91525424	      0.01873304	      0.02634039	      0.05609042
      1.93220339	      0.01877477	      0.02636971	      0.05632103
      1.94915254	      0.01874088	      0.02634590	      0.05651857
      1.96610169	      0.01870575	      0.02632120	      0.05652502
      1.98305085	      0.01863112	      0.02626864	      0.05747378
      2.00000000	      0.01863428	      0.02627087	      0.05806302
      2.01694915	      0.01869862	      0.02631618	      0.05852631
      2.03389831	      0.01878857	      0.02637940	      0.05864318
      2.05084746	      0.01887724	      0.02644158	      0.05883558
      2.06779661	      0.01891695	      0.02646937	      0.05843736
      2.08474576	      0.01889296	      0.02645259	      0.05851000
      2.10169492	      0.01880901	      0.02639375	      0.05857460
      2.11864407	      0.01874950	      0.02635196	      0.05874110
      2.13559322	      0.01880469	      0.02639072	      0.05909621
      2.15254237	      0.01891423	      0.02646747	      0.05995056
      2.16949153	      0.01910062	      0.02659756	      0.06089305
      2.18644068	      0.01932757	      0.02675511	      0.06205834
      2.20338983	      0.01960345	      0.02694538	      0.06339704
      2.22033898	      0.01995302	      0.02718457	      0.06479867
      2.23728814	      0.02027832	      0.02740527	      0.06592703
      2.25423729	      0.02052574	      0.02757195	      0.06669489
      2.27118644	      0.02064370	      0.02765107	      0.06701560
      2.28813559	      0.02060818	      0.02762727	      0.06663582
      2.30508475	      0.02044372	      0.02751681	      0.06554689
      2.32203390	      0.02019615	      0.02734969	      0.06349264
      2.33898305	      0.01979017	      0.02707340	      0.06228383
      2.35593220	      0.01941868	      0.02681810	      0.06056508
      2.37288136	      0.01915731	      0.02663700	      0.05922649
      2.38983051	      0.01910540	      0.02660089	      0.05813591
      2.40677966	      0.01926626	      0.02671264	      0.05810630
      2.42372881	      0.01943110	      0.02682667	      0.05819325
      2.44067797	      0.01965500	      0.02698079	      0.05956893
      2.45762712	      0.01966079	      0.02698476	      0.06022169
      2.47457627	      0.01956402	      0.02691827	      0.06109425
      2.49152542	      0.01936630	      0.02678190	      0.06212934
      2.50847458	      0.01923606	      0.02669169	      0.06340699
      2.52542373	      0.01934710	      0.02676862	      0.06568279
      2.54237288	      0.02002973	      0.02723677	      0.06935201
      2.55932203	      0.02136280	      0.02812854	      0.07408412
      2.57627119	      0.02335050	      0.02940805	      0.07996517
      2.59322034	      0.02604282	      0.03105718	      0.08615860
      2.61016949	      0.02992973	      0.03329427	      0.09288946
      2.62711864	      0.03615473	      0.03659322	      0.09634087
      2.64406780	      0.04556605	      0.04108079	      0.10443975
      2.66101695	      0.05662441	      0.04579520	      0.10895041
      2.67796610	      0.06794409	      0.05016421	      0.12535105
      2.69491525	      0.07895396	      0.05407606	      0.14078951
      2.71186441	      0.08978590	      0.05766631	      0.15218195
      2.72881356	      0.10133655	      0.06126341	      0.16123321
      2.74576271	      0.11474585	      0.06519084	      0.16907493
      2.76271186	      0.13046641	      0.06951323	      0.17627860
      2.77966102	      0.14790040	      0.07401211	      0.18340928
      2.79661017	      0.16530618	      0.07824609	      0.19062841
      2.81355932	      0.18022851	      0.08170147	      0.19727384
      2.83050847	      0.19063334	      0.08402675	      0.20227320
      2.84745763	      0.19626752	      0.08525941	      0.20524468
      2.86440678	      0.19905895	      0.08586358	      0.20665480
      2.88135593	      0.20195480	      0.08648588	      0.20778291
      2.89830508	      0.20748445	      0.08766190	      0.21013128
      2.91525424	      0.21595913	      0.08943426	      0.21301959
      2.93220339	      0.22670061	      0.09163143	      0.21636959
      2.94915254	      0.23786134	      0.09385989	      0.21921542
      2.96610169	      0.24676954	      0.09560132	      0.22093752
      2.98305085	      0.25150016	      0.09651332	      0.22243491
      3.00000000	      0.25071633	      0.09636280	      0.22227692
      3.01694915	      0.24507895	      0.09527328	      0.22098250
      3.03389831	      0.23738628	      0.09376612	      0.21980720
      3.05084746	      0.23018370	      0.09233267	      0.21960470
      3.06779661	      0.22428009	      0.09114094	      0.21995580
      3.08474576	      0.21951485	      0.09016751	      0.21997282
      3.10169492	      0.21553382	      0.08934615	      0.21888122
      3.11864407	      0.21257264	      0.08873027	      0.21691483
      3.13559322	      0.21106186	      0.08841440	      0.21486165
      3.15254237	      0.21148119	      0.08850218	      0.21424232
      3.16949153	      0.21429641	      0.08908930	      0.21598358
      3.18644068	      0.22026110	      0.09032064	      0.22021964
      3.20338983	      0.22966097	      0.09222777	      0.22598506
      3.22033898	      0.24217434	      0.09470702	      0.23259207
      3.23728814	      0.25556818	      0.09729074	      0.23787967
      3.25423729	      0.26847446	      0.09971709	      0.24208582
      3.27118644	      0.27918246	      0.10168624	      0.24467026
      3.28813559	      0.28606288	      0.10293163	      0.24636733
      3.30508475	      0.28773584	      0.10323218	      0.24784564
      3.32203390	      0.28471190	      0.10268829	      0.24970033
      3.33898305	      0.27888266	      0.10163163	      0.25206140
      3.35593220	      0.27259360	      0.10047915	      0.25416936
      3.37288136	      0.26701172	      0.09944507	      0.25587136
      3.38983051	      0.26228165	      0.09856031	      0.25796635
      3.40677966	      0.25801728	      0.09775580	      0.26006668
      3.42372881	      0.25450210	      0.09708761	      0.26234628
      3.44067797	      0.25133137	      0.09648093	      0.26385496
      3.45762712	      0.24780723	      0.09580212	      0.26336178
      3.47457627	      0.24378420	      0.09502128	      0.26097914
      3.49152542	      0.24010676	      0.09430187	      0.25750503
      3.50847458	      0.23727948	      0.09374502	      0.25360900
      3.52542373	      0.23543773	      0.09338049	      0.24995894
      3.54237288	      0.23466428	      0.09322698	      0.24710389
      3.55932203	      0.23435305	      0.09316514	      0.24451656
      3.57627119	      0.23278662	      0.09285325	      0.24023825
      3.59322034	      0.22682154	      0.09165587	      0.23186332
      3.61016949	      0.21343965	      0.08891103	      0.22732310
      3.62711864	      0.19256778	      0.08445200	      0.22103837
      3.64406780	      0.16772485	      0.07881644	      0.21110990
      3.66101695	      0.14294291	      0.07276113	      0.19876758
      3.67796610	      0.12059298	      0.06683118	      0.18463229
      3.69491525	      0.10145434	      0.06129901	      0.16958343
      3.71186441	      0.08584918	      0.05638794	      0.15478711
      3.72881356	      0.07334713	      0.05212063	      0.14062024
      3.74576271	      0.06304548	      0.04832202	      0.12628602
      3.76271186	      0.05419726	      0.04480297	      0.11086528
      3.77966102	      0.04606661	      0.04130582	      0.09640981
      3.79661017	      0.03946293	      0.03823074	      0.09353320
      3.81355932	      0.03514672	      0.03607950	      0.08971281
      3.83050847	      0.03263506	      0.03476645	      0.08770717
      3.84745763	      0.03106910	      0.03392208	      0.08544623
      3.86440678	      0.02985477	      0.03325255	      0.08344884
      3.88135593	      0.02875094	      0.03263203	      0.08159572
      3.89830508	      0.02775407	      0.03206133	      0.08227487
      3.91525424	      0.02690583	      0.03156758	      0.08172090
      3.93220339	      0.02608734	      0.03108372	      0.08061758
      3.94915254	      0.02526638	      0.03059071	      0.07899840
      3.96610169	      0.02439550	      0.03005889	      0.07656490
      3.98305085	      0.02363175	      0.02958462	      0.07449526
      4.00000000	      0.02309076	      0.02924403	      0.07293061
      4.01694915	      0.02285848	      0.02909657	      0.07242388
      4.03389831	      0.02287775	      0.02910883	      0.07267038
      4.05084746	      0.02303996	      0.02921184	      0.07330527
      4.06779661	      0.02321466	      0.02932238	      0.07419157
      4.08474576	      0.02329869	      0.02937541	      0.07437331
      4.10169492	      0.02320541	      0.02931654	      0.07396058
      4.11864407	      0.02290805	      0.02912810	      0.07264046
      4.13559322	      0.02256498	      0.02890916	      0.07112145
      4.15254237	      0.02235030	      0.02877132	      0.06965317
      4.16949153	      0.02234036	      0.02876492	      0.06876986
      4.18644068	      0.02252069	      0.02888078	      0.06848131
      4.20338983	      0.02280117	      0.02906007	      0.06876970
      4.22033898	      0.02306436	      0.02922731	      0.06854721
      4.23728814	      0.02324544	      0.02934182	      0.06862837
      4.25423729	      0.02332419	      0.02939148	      0.06837254
      4.27118644	      0.02332310	      0.02939079	      0.06835292
      4.28813559	      0.02328565	      0.02936718	      0.06791215
      4.30508475	      0.02324569	      0.02934198	      0.06795322
      4.32203390	      0.02321155	      0.02932042	      0.06821793
      4.33898305	      0.02311057	      0.02925657	      0.06829837
      4.35593220	      0.02297720	      0.02917203	      0.06869159
      4.37288136	      0.02281040	      0.02906595	      0.06869246
      4.38983051	      0.02267641	      0.02898046	      0.06921379
      4.40677966	      0.02258505	      0.02892202	      0.06997499
      4.42372881	      0.02264941	      0.02896320	      0.07076092
      4.44067797	      0.02313075	      0.02926934	      0.07179402
      4.45762712	      0.02424004	      0.02996296	      0.07219555
      4.47457627	      0.02119994	      0.02802112	      0.06920917
      4.49152542	      0.01989877	      0.02714758	      0.07162313
      4.50847458	      0.01894592	      0.02648964	      0.07452906
      4.52542373	      0.01227287	      0.02132020	      0.04671370
      4.54237288	      0.01186526	      0.02096316	      0.04361278
      4.55932203	      0.01237106	      0.02140532	      0.04293237
      4.57627119	      0.01391448	      0.02270135	      0.04437033
      4.59322034	      0.01651430	      0.02473137	      0.04873857
      4.61016949	      0.02015761	      0.02732358	      0.05950871
      4.62711864	      0.02492860	      0.03038555	      0.07099116
      4.64406780	      0.03023784	      0.03346521	      0.08115872
      4.66101695	      0.03433593	      0.03566092	      0.08800058
      4.67796610	      0.03544276	      0.03623113	      0.08995867
      4.69491525	      0.03369173	      0.03532481	      0.08902321
      4.71186441	      0.03080388	      0.03377698	      0.08576886
      4.72881356	      0.02840674	      0.03243611	      0.08271491
      4.74576271	      0.02685556	      0.03153808	      0.08053347
      4.76271186	      0.02580061	      0.03091242	      0.07876479
      4.77966102	      0.02502495	      0.03044421	      0.07671935
      4.79661017	      0.02454885	      0.03015322	      0.07486368
      4.81355932	      0.02433272	      0.03002019	      0.07323533
      4.83050847	      0.02403010	      0.02983293	      0.07111746
      4.84745763	      0.02350542	      0.02950544	      0.06866102
      4.86440678	      0.02277393	      0.02904271	      0.06617647
      4.88135593	      0.02211387	      0.02861874	      0.06449288
      4.89830508	      0.02148828	      0.02821103	      0.06335069
      4.91525424	      0.02060099	      0.02762245	      0.06142286
      4.93220339	      0.01927935	      0.02672171	      0.05799722
      4.94915254	      0.01784110	      0.02570567	      0.05333151
      4.96610169	      0.01659083	      0.02478861	      0.04844439
      4.98305085	      0.01535732	      0.02384931	      0.04606720
      5.00000000	      0.01403668	      0.02280081	      0.04415643
      5.01694915	      0.01309706	      0.02202445	      0.04439772
      5.03389831	      0.01333469	      0.02222335	      0.04959544
      5.05084746	      0.01481465	      0.02342415	      0.05737306
      5.06779661	      0.01654261	      0.02475256	      0.06378040
      5.08474576	      0.01768930	      0.02559608	      0.06639288
      5.10169492	      0.01774391	      0.02563556	      0.06444427
      5.11864407	      0.01670116	      0.02487090	      0.05941021
      5.13559322	      0.01524246	      0.02375996	      0.05357288
      5.15254237	      0.01417301	      0.02291127	      0.04898000
      5.16949153	      0.01417348	      0.02291165	      0.04622438
      5.18644068	      0.01522220	      0.02374416	      0.04479208
      5.20338983	      0.01674642	      0.02490457	      0.04514622
      5.22033898	      0.01871416	      0.02632711	      0.05397606
      5.23728814	      0.02069888	      0.02768800	      0.06141185
      5.25423729	      0.02247801	      0.02885340	      0.06590741
      5.27118644	      0.02404616	      0.02984290	      0.06735616
      5.28813559	      0.02486541	      0.03034701	      0.06609122
      5.30508475	      0.02437155	      0.03004413	      0.06287464
      5.32203390	      0.02262682	      0.02894875	      0.05804216
      5.33898305	      0.02049930	      0.02755419	      0.05368771
      5.35593220	      0.01882717	      0.02640649	      0.04932763
      5.37288136	      0.01684021	      0.02497422	      0.04749119
      5.38983051	      0.01748160	      0.02544537	      0.04618859
      5.40677966	      0.01818939	      0.02595536	      0.04580740
      5.42372881	      0.01830716	      0.02603926	      0.04674451
      5.44067797	      0.01818990	      0.02595573	      0.04578782
      5.45762712	      0.01817309	      0.02594374	      0.04459771
      5.47457627	      0.01899633	      0.02652485	      0.04497945
      5.49152542	      0.02009791	      0.02728309	      0.04503712
      5.50847458	      0.02093116	      0.02784292	      0.05170043
      5.52542373	      0.02150949	      0.02822495	      0.05792755
      5.54237288	      0.02156760	      0.02826305	      0.06266260
      5.55932203	      0.02161641	      0.02829502	      0.06683584
      5.57627119	      0.02177135	      0.02839624	      0.06984905
      5.59322034	      0.02194732	      0.02851077	      0.07074168
      5.61016949	      0.01883176	      0.02640971	      0.06021428
      5.62711864	      0.01889315	      0.02645272	      0.06342373
      5.64406780	      0.01950240	      0.02687584	      0.06436637
      5.66101695	      0.02045802	      0.02752643	      0.06222301
      5.67796610	      0.02181563	      0.02842510	      0.06054316
      5.69491525	      0.02334995	      0.02940770	      0.06831206
      5.71186441	      0.02462083	      0.03019739	      0.07388592
      5.72881356	      0.02565217	      0.03082337	      0.07685216
      5.74576271	      0.02591833	      0.03098287	      0.07704982
      5.76271186	      0.02525026	      0.03058096	      0.07440485
      5.77966102	      0.02404580	      0.02984267	      0.06892324
