Model Marker Errors from IK
version=1
nRows=456
nColumns=4
inDegrees=no
endheader
time	total_squared_error	marker_error_RMS	marker_error_max
      0.00000000	      0.02423416	      0.02995933	      0.05728950
      0.01694915	      0.02139055	      0.02814680	      0.05079244
      0.03389831	      0.01973844	      0.02703799	      0.04692407
      0.05084746	      0.01882136	      0.02640241	      0.04395595
      0.06779661	      0.01812473	      0.02590919	      0.04309899
      0.08474576	      0.01791361	      0.02575785	      0.04264135
      0.10169492	      0.01781051	      0.02568362	      0.04233860
      0.11864407	      0.01794693	      0.02578180	      0.04244454
      0.13559322	      0.01815831	      0.02593318	      0.04242879
      0.15254237	      0.01834827	      0.02606848	      0.04222201
      0.16949153	      0.01842618	      0.02612377	      0.04200862
      0.18644068	      0.01828440	      0.02602307	      0.04187265
      0.20338983	      0.01805905	      0.02586221	      0.04182953
      0.22033898	      0.01784509	      0.02570855	      0.04227652
      0.23728814	      0.01777479	      0.02565785	      0.04202529
      0.25423729	      0.01786785	      0.02572493	      0.04209340
      0.27118644	      0.01812942	      0.02591255	      0.04234996
      0.28813559	      0.01853438	      0.02620035	      0.04306218
      0.30508475	      0.01907664	      0.02658086	      0.04407117
      0.32203390	      0.01960252	      0.02694474	      0.04462775
      0.33898305	      0.02014411	      0.02731443	      0.04501161
      0.35593220	      0.02048408	      0.02754396	      0.04542230
      0.37288136	      0.02076312	      0.02773093	      0.04534412
      0.38983051	      0.02103295	      0.02791054	      0.04596480
      0.40677966	      0.02131077	      0.02809427	      0.04682324
      0.42372881	      0.02157678	      0.02826907	      0.04745156
      0.44067797	      0.02203607	      0.02856835	      0.04846879
      0.45762712	      0.02276386	      0.02903629	      0.04944640
      0.47457627	      0.02368809	      0.02961987	      0.05004685
      0.49152542	      0.02461816	      0.03019576	      0.04981510
      0.50847458	      0.02528338	      0.03060101	      0.04849766
      0.52542373	      0.02554536	      0.03075914	      0.04792068
      0.54237288	      0.02542711	      0.03068786	      0.04846775
      0.55932203	      0.02481495	      0.03031620	      0.04782975
      0.57627119	      0.02383901	      0.02971408	      0.04644284
      0.59322034	      0.02272865	      0.02901382	      0.04711998
      0.61016949	      0.02163435	      0.02830675	      0.04781075
      0.62711864	      0.02081066	      0.02776266	      0.04815773
      0.64406780	      0.02071873	      0.02770127	      0.04803509
      0.66101695	      0.02139843	      0.02815199	      0.04743508
      0.67796610	      0.02229411	      0.02873513	      0.04674412
      0.69491525	      0.02317959	      0.02930023	      0.04923999
      0.71186441	      0.02302345	      0.02920138	      0.05063457
      0.72881356	      0.02432656	      0.03001639	      0.05198362
      0.74576271	      0.02555962	      0.03076772	      0.05342042
      0.76271186	      0.02628307	      0.03120011	      0.05428755
      0.77966102	      0.02628228	      0.03119965	      0.05502722
      0.79661017	      0.02576588	      0.03089162	      0.05690782
      0.81355932	      0.02508202	      0.03047891	      0.05807142
      0.83050847	      0.02442925	      0.03007968	      0.05862942
      0.84745763	      0.02396405	      0.02979190	      0.05809990
      0.86440678	      0.02383206	      0.02970974	      0.05681985
      0.88135593	      0.02400583	      0.02981786	      0.05453951
      0.89830508	      0.02425213	      0.02997043	      0.05345787
      0.91525424	      0.02441307	      0.03006972	      0.05342514
      0.93220339	      0.02449766	      0.03012176	      0.05312864
      0.94915254	      0.02445632	      0.03009634	      0.05262765
      0.96610169	      0.02433032	      0.03001871	      0.05198847
      0.98305085	      0.02432543	      0.03001569	      0.05115042
      1.00000000	      0.02453330	      0.03014367	      0.05062322
      1.01694915	      0.02500822	      0.03043403	      0.05053503
      1.03389831	      0.02590877	      0.03097715	      0.05088358
      1.05084746	      0.02712179	      0.03169402	      0.05163924
      1.06779661	      0.02829834	      0.03237417	      0.05249422
      1.08474576	      0.02935575	      0.03297347	      0.05334938
      1.10169492	      0.03054096	      0.03363252	      0.05411291
      1.11864407	      0.03190721	      0.03437657	      0.05485114
      1.13559322	      0.03338612	      0.03516423	      0.05538038
      1.15254237	      0.03454868	      0.03577123	      0.05655519
      1.16949153	      0.03504288	      0.03602617	      0.05818742
      1.18644068	      0.03480727	      0.03590485	      0.05911832
      1.20338983	      0.03399154	      0.03548163	      0.05889787
      1.22033898	      0.03288886	      0.03490138	      0.05889336
      1.23728814	      0.03176185	      0.03429817	      0.05862080
      1.25423729	      0.03090495	      0.03383235	      0.05918867
      1.27118644	      0.03040549	      0.03355785	      0.05943098
      1.28813559	      0.03014114	      0.03341165	      0.05948290
      1.30508475	      0.03005279	      0.03336265	      0.05905181
      1.32203390	      0.03008178	      0.03337873	      0.05802788
      1.33898305	      0.03030958	      0.03350488	      0.05677810
      1.35593220	      0.03068480	      0.03371163	      0.05543282
      1.37288136	      0.03110395	      0.03394110	      0.05425298
      1.38983051	      0.03140831	      0.03410676	      0.05366811
      1.40677966	      0.03151562	      0.03416497	      0.05437571
      1.42372881	      0.03141617	      0.03411102	      0.05479067
      1.44067797	      0.03115865	      0.03397093	      0.05618771
      1.45762712	      0.03073381	      0.03373855	      0.05788523
      1.47457627	      0.03027815	      0.03348750	      0.05953590
      1.49152542	      0.02987528	      0.03326397	      0.06081877
      1.50847458	      0.02964766	      0.03313701	      0.06164990
      1.52542373	      0.02967532	      0.03315246	      0.06205318
      1.54237288	      0.02985451	      0.03325241	      0.06229692
      1.55932203	      0.03014096	      0.03341155	      0.06245539
      1.57627119	      0.03030369	      0.03350163	      0.06268180
      1.59322034	      0.03031747	      0.03350924	      0.06280331
      1.61016949	      0.03015293	      0.03341819	      0.06283617
      1.62711864	      0.02987144	      0.03326183	      0.06297723
      1.64406780	      0.02961799	      0.03312043	      0.06328377
      1.66101695	      0.02950417	      0.03305672	      0.06390986
      1.67796610	      0.02962851	      0.03312631	      0.06498955
      1.69491525	      0.02983613	      0.03324217	      0.06648810
      1.71186441	      0.03011878	      0.03339926	      0.06811612
      1.72881356	      0.03029451	      0.03349655	      0.06949318
      1.74576271	      0.03028003	      0.03348854	      0.07026566
      1.76271186	      0.03013020	      0.03340559	      0.07030855
      1.77966102	      0.02990103	      0.03327830	      0.06980410
      1.79661017	      0.02967442	      0.03315196	      0.06890865
      1.81355932	      0.02945056	      0.03302668	      0.06816369
      1.83050847	      0.02943009	      0.03301520	      0.06764339
      1.84745763	      0.02970121	      0.03316692	      0.06750628
      1.86440678	      0.03010798	      0.03339327	      0.06774122
      1.88135593	      0.03054247	      0.03363336	      0.06800125
      1.89830508	      0.03087548	      0.03381621	      0.06803261
      1.91525424	      0.03105599	      0.03391492	      0.06784019
      1.93220339	      0.03109819	      0.03393795	      0.06741581
      1.94915254	      0.03094577	      0.03385468	      0.06671078
      1.96610169	      0.03052828	      0.03362554	      0.06575747
      1.98305085	      0.02995439	      0.03330798	      0.06463500
      2.00000000	      0.02945509	      0.03302922	      0.06351211
      2.01694915	      0.02903635	      0.03279360	      0.06254072
      2.03389831	      0.02888588	      0.03270852	      0.06175458
      2.05084746	      0.02890265	      0.03271801	      0.06121114
      2.06779661	      0.02903604	      0.03279343	      0.06102829
      2.08474576	      0.02911662	      0.03283890	      0.06116745
      2.10169492	      0.02925653	      0.03291770	      0.06172686
      2.11864407	      0.02950282	      0.03305597	      0.06263155
      2.13559322	      0.02983112	      0.03323938	      0.06385088
      2.15254237	      0.03019075	      0.03343914	      0.06518419
      2.16949153	      0.03040135	      0.03355557	      0.06644994
      2.18644068	      0.03054689	      0.03363579	      0.06745119
      2.20338983	      0.03059927	      0.03366462	      0.06812220
      2.22033898	      0.03069032	      0.03371466	      0.06850582
      2.23728814	      0.03085577	      0.03380542	      0.06874565
      2.25423729	      0.03109367	      0.03393549	      0.06884699
      2.27118644	      0.03136984	      0.03408586	      0.06906527
      2.28813559	      0.03164861	      0.03423698	      0.06926917
      2.30508475	      0.03188146	      0.03436269	      0.06960145
      2.32203390	      0.03206684	      0.03446245	      0.06985042
      2.33898305	      0.03223505	      0.03455272	      0.07008210
      2.35593220	      0.03244225	      0.03466360	      0.07026569
      2.37288136	      0.03269293	      0.03479726	      0.07035558
      2.38983051	      0.03297519	      0.03494715	      0.07029236
      2.40677966	      0.03322195	      0.03507767	      0.07010870
      2.42372881	      0.03338470	      0.03516348	      0.07000269
      2.44067797	      0.03343386	      0.03518936	      0.07002611
      2.45762712	      0.03340036	      0.03517173	      0.07021843
      2.47457627	      0.03329856	      0.03511809	      0.07056441
      2.49152542	      0.03315664	      0.03504317	      0.07099547
      2.50847458	      0.03297167	      0.03494528	      0.07148890
      2.52542373	      0.03281422	      0.03486175	      0.07199430
      2.54237288	      0.03273610	      0.03482023	      0.07234508
      2.55932203	      0.03274602	      0.03482550	      0.07243853
      2.57627119	      0.03273831	      0.03482140	      0.07232688
      2.59322034	      0.03265766	      0.03477849	      0.07219470
      2.61016949	      0.03258425	      0.03473938	      0.07211210
      2.62711864	      0.03255962	      0.03472624	      0.07216219
      2.64406780	      0.03267725	      0.03478891	      0.07223189
      2.66101695	      0.03286065	      0.03488640	      0.07223598
      2.67796610	      0.03320023	      0.03506620	      0.07210816
      2.69491525	      0.03363449	      0.03529478	      0.07185853
      2.71186441	      0.03403275	      0.03550313	      0.07171842
      2.72881356	      0.03428353	      0.03563370	      0.07171626
      2.74576271	      0.03428176	      0.03563278	      0.07172255
      2.76271186	      0.03401578	      0.03549428	      0.07174614
      2.77966102	      0.03368611	      0.03532186	      0.07197855
      2.79661017	      0.03343005	      0.03518736	      0.07253965
      2.81355932	      0.03331719	      0.03512791	      0.07346954
      2.83050847	      0.03340790	      0.03517570	      0.07457869
      2.84745763	      0.03363853	      0.03529690	      0.07572280
      2.86440678	      0.03393180	      0.03545043	      0.07669213
      2.88135593	      0.03424865	      0.03561556	      0.07739180
      2.89830508	      0.03461502	      0.03580556	      0.07774887
      2.91525424	      0.03499917	      0.03600369	      0.07757520
      2.93220339	      0.03555014	      0.03628597	      0.07721213
      2.94915254	      0.03618863	      0.03661038	      0.07665294
      2.96610169	      0.03692050	      0.03697872	      0.07630158
      2.98305085	      0.03747740	      0.03725657	      0.07600320
      3.00000000	      0.03771253	      0.03737326	      0.07585618
      3.01694915	      0.03748649	      0.03726108	      0.07566001
      3.03389831	      0.03687745	      0.03695716	      0.07541520
      3.05084746	      0.03607853	      0.03655464	      0.07502469
      3.06779661	      0.03523643	      0.03612551	      0.07460084
      3.08474576	      0.03446874	      0.03572982	      0.07412609
      3.10169492	      0.03376666	      0.03536406	      0.07352865
      3.11864407	      0.03314716	      0.03503816	      0.07297315
      3.13559322	      0.03265449	      0.03477679	      0.07230225
      3.15254237	      0.03236266	      0.03462105	      0.07246588
      3.16949153	      0.03237522	      0.03462777	      0.07279697
      3.18644068	      0.03263736	      0.03476768	      0.07331874
      3.20338983	      0.03294879	      0.03493316	      0.07355615
      3.22033898	      0.03308376	      0.03500464	      0.07351377
      3.23728814	      0.03295699	      0.03493751	      0.07282707
      3.25423729	      0.03263227	      0.03476496	      0.07156192
      3.27118644	      0.03217787	      0.03452206	      0.06993632
      3.28813559	      0.03168430	      0.03425628	      0.06806866
      3.30508475	      0.03130816	      0.03405233	      0.06631090
      3.32203390	      0.03127014	      0.03403165	      0.06509410
      3.33898305	      0.03170556	      0.03426777	      0.06440696
      3.35593220	      0.03257717	      0.03473560	      0.06430369
      3.37288136	      0.03360423	      0.03527890	      0.06438741
      3.38983051	      0.03453822	      0.03576581	      0.06444829
      3.40677966	      0.03530139	      0.03615880	      0.06443050
      3.42372881	      0.03582483	      0.03642589	      0.06439629
      3.44067797	      0.03611234	      0.03657176	      0.06445336
      3.45762712	      0.03608224	      0.03655652	      0.06467243
      3.47457627	      0.03574540	      0.03638549	      0.06514119
      3.49152542	      0.03526179	      0.03613852	      0.06576703
      3.50847458	      0.03467186	      0.03583494	      0.06618970
      3.52542373	      0.03389535	      0.03543139	      0.06685105
      3.54237288	      0.03292138	      0.03491863	      0.06728862
      3.55932203	      0.03178320	      0.03430970	      0.06766688
      3.57627119	      0.03071413	      0.03372774	      0.06812836
      3.59322034	      0.02981757	      0.03323183	      0.06857440
      3.61016949	      0.02915997	      0.03286334	      0.06923724
      3.62711864	      0.02874048	      0.03262610	      0.06982982
      3.64406780	      0.02857132	      0.03252994	      0.07011440
      3.66101695	      0.02858105	      0.03253548	      0.07057759
      3.67796610	      0.02876735	      0.03264134	      0.07063605
      3.69491525	      0.02892735	      0.03273199	      0.07033294
      3.71186441	      0.02904954	      0.03280105	      0.06999544
      3.72881356	      0.02897295	      0.03275778	      0.06931064
      3.74576271	      0.02870090	      0.03260362	      0.06850940
      3.76271186	      0.02832045	      0.03238681	      0.06756676
      3.77966102	      0.02783164	      0.03210610	      0.06654043
      3.79661017	      0.02723861	      0.03176220	      0.06556307
      3.81355932	      0.02660039	      0.03138789	      0.06485905
      3.83050847	      0.02598217	      0.03102100	      0.06326567
      3.84745763	      0.02553800	      0.03075470	      0.06225652
      3.86440678	      0.02531622	      0.03062087	      0.06172803
      3.88135593	      0.02529956	      0.03061080	      0.06116649
      3.89830508	      0.02541514	      0.03068064	      0.06127135
      3.91525424	      0.02560913	      0.03079751	      0.06104759
      3.93220339	      0.02589991	      0.03097186	      0.06116731
      3.94915254	      0.02624719	      0.03117881	      0.06129906
      3.96610169	      0.02660982	      0.03139345	      0.06138061
      3.98305085	      0.02686456	      0.03154336	      0.06142944
      4.00000000	      0.02703654	      0.03164417	      0.06159906
      4.01694915	      0.02719111	      0.03173450	      0.06203650
      4.03389831	      0.02741934	      0.03186740	      0.06270330
      4.05084746	      0.02761346	      0.03198001	      0.06354472
      4.06779661	      0.02777338	      0.03207248	      0.06414660
      4.08474576	      0.02783178	      0.03210618	      0.06460141
      4.10169492	      0.02785575	      0.03212000	      0.06499099
      4.11864407	      0.02782761	      0.03210377	      0.06453194
      4.13559322	      0.02772777	      0.03204613	      0.06417879
      4.15254237	      0.02752287	      0.03192750	      0.06338465
      4.16949153	      0.02727043	      0.03178075	      0.06260083
      4.18644068	      0.02707026	      0.03166389	      0.06176746
      4.20338983	      0.02700921	      0.03162817	      0.06092723
      4.22033898	      0.02701915	      0.03163399	      0.06028959
      4.23728814	      0.02714811	      0.03170939	      0.05986265
      4.25423729	      0.02644955	      0.03129877	      0.05965019
      4.27118644	      0.02576362	      0.03089026	      0.05973473
      4.28813559	      0.02492558	      0.03038370	      0.06004124
      4.30508475	      0.02443163	      0.03008114	      0.06011853
      4.32203390	      0.02357249	      0.02954751	      0.06045827
      4.33898305	      0.02333232	      0.02939660	      0.06076917
      4.35593220	      0.02334103	      0.02940209	      0.06094735
      4.37288136	      0.02356337	      0.02954179	      0.06112684
      4.38983051	      0.02397444	      0.02979836	      0.06144970
      4.40677966	      0.02469468	      0.03024265	      0.06202739
      4.42372881	      0.02566527	      0.03083124	      0.06278090
      4.44067797	      0.02702688	      0.03163851	      0.06321031
      4.45762712	      0.02789091	      0.03214026	      0.06401268
      4.47457627	      0.02878975	      0.03265405	      0.06427351
      4.49152542	      0.02944673	      0.03302453	      0.06438246
      4.50847458	      0.02979177	      0.03321745	      0.06416512
      4.52542373	      0.02974157	      0.03318945	      0.06347561
      4.54237288	      0.02931295	      0.03294943	      0.06257398
      4.55932203	      0.02873412	      0.03262249	      0.06144612
      4.57627119	      0.02827175	      0.03235895	      0.06019833
      4.59322034	      0.02810284	      0.03226215	      0.05898531
      4.61016949	      0.02815430	      0.03229167	      0.05799089
      4.62711864	      0.02832034	      0.03238675	      0.05737135
      4.64406780	      0.02850541	      0.03249240	      0.05722497
      4.66101695	      0.02862250	      0.03255906	      0.05722082
      4.67796610	      0.02864162	      0.03256994	      0.05729832
      4.69491525	      0.02848171	      0.03247889	      0.05757092
      4.71186441	      0.02830694	      0.03237909	      0.05762759
      4.72881356	      0.02816754	      0.03229926	      0.05736914
      4.74576271	      0.02818901	      0.03231157	      0.05675928
      4.76271186	      0.02837755	      0.03241944	      0.05582664
      4.77966102	      0.02884817	      0.03268717	      0.05470012
      4.79661017	      0.02939684	      0.03299654	      0.05338094
      4.81355932	      0.02980009	      0.03322209	      0.05276514
      4.83050847	      0.02982927	      0.03323835	      0.05274794
      4.84745763	      0.02951662	      0.03306370	      0.05184733
      4.86440678	      0.02898441	      0.03276426	      0.05152245
      4.88135593	      0.02846133	      0.03246726	      0.05082271
      4.89830508	      0.02804810	      0.03223071	      0.04991471
      4.91525424	      0.02768726	      0.03202271	      0.04932753
      4.93220339	      0.02747999	      0.03190262	      0.04878941
      4.94915254	      0.02735865	      0.03183211	      0.04862186
      4.96610169	      0.02729351	      0.03179419	      0.04844979
      4.98305085	      0.02725991	      0.03177462	      0.04969420
      5.00000000	      0.02716995	      0.03172215	      0.05052376
      5.01694915	      0.02691824	      0.03157486	      0.05051788
      5.03389831	      0.02652249	      0.03134189	      0.05002319
      5.05084746	      0.02614780	      0.03111972	      0.04950913
      5.06779661	      0.02587458	      0.03095671	      0.04924327
      5.08474576	      0.02595322	      0.03100371	      0.04957717
      5.10169492	      0.02634065	      0.03123427	      0.05044717
      5.11864407	      0.02701494	      0.03163153	      0.05149854
      5.13559322	      0.02784112	      0.03211156	      0.05273383
      5.15254237	      0.02860731	      0.03255042	      0.05375188
      5.16949153	      0.02911230	      0.03283646	      0.05436543
      5.18644068	      0.02928298	      0.03293258	      0.05462663
      5.20338983	      0.02917544	      0.03287205	      0.05526596
      5.22033898	      0.02892494	      0.03273063	      0.05571726
      5.23728814	      0.02867581	      0.03258937	      0.05643584
      5.25423729	      0.02857653	      0.03253291	      0.05722288
      5.27118644	      0.02877054	      0.03264315	      0.05783810
      5.28813559	      0.02920066	      0.03288625	      0.05809386
      5.30508475	      0.02978855	      0.03321565	      0.05878713
      5.32203390	      0.03021748	      0.03345394	      0.05964324
      5.33898305	      0.03036704	      0.03353663	      0.06013831
      5.35593220	      0.03031011	      0.03350517	      0.06024186
      5.37288136	      0.03017047	      0.03342791	      0.06047154
      5.38983051	      0.03016574	      0.03342529	      0.06051046
      5.40677966	      0.03027794	      0.03348739	      0.06066524
      5.42372881	      0.03051763	      0.03361968	      0.06073429
      5.44067797	      0.03080438	      0.03377726	      0.06071932
      5.45762712	      0.03113582	      0.03395848	      0.06062499
      5.47457627	      0.03142722	      0.03411702	      0.06057701
      5.49152542	      0.03170015	      0.03426484	      0.06062432
      5.50847458	      0.03192573	      0.03438654	      0.06018915
      5.52542373	      0.03227200	      0.03457252	      0.06057187
      5.54237288	      0.03274671	      0.03482587	      0.06087642
      5.55932203	      0.03331852	      0.03512861	      0.06086381
      5.57627119	      0.03391622	      0.03544229	      0.06056559
      5.59322034	      0.03443635	      0.03571303	      0.05983235
      5.61016949	      0.03489996	      0.03595262	      0.05946655
      5.62711864	      0.03523414	      0.03612434	      0.05961585
      5.64406780	      0.03542859	      0.03622389	      0.05947771
      5.66101695	      0.03552148	      0.03627134	      0.05920686
      5.67796610	      0.03554085	      0.03628123	      0.05919250
      5.69491525	      0.03552114	      0.03627117	      0.05972512
      5.71186441	      0.03539463	      0.03620652	      0.06028639
      5.72881356	      0.03525981	      0.03613750	      0.06040357
      5.74576271	      0.03508160	      0.03604606	      0.05952921
      5.76271186	      0.03509344	      0.03605214	      0.05908594
      5.77966102	      0.03521157	      0.03611277	      0.05843264
      5.79661017	      0.03535468	      0.03618608	      0.05816431
      5.81355932	      0.03543264	      0.03622596	      0.05842798
      5.83050847	      0.03531789	      0.03616725	      0.05771843
      5.84745763	      0.03513043	      0.03607114	      0.05759707
      5.86440678	      0.03503639	      0.03602283	      0.05867582
      5.88135593	      0.03498315	      0.03599545	      0.05919997
      5.89830508	      0.03497353	      0.03599050	      0.05976691
      5.91525424	      0.03490129	      0.03595331	      0.05953151
      5.93220339	      0.03479200	      0.03589697	      0.05831514
      5.94915254	      0.03460148	      0.03579855	      0.05665829
      5.96610169	      0.03430498	      0.03564484	      0.05641206
      5.98305085	      0.03411420	      0.03554559	      0.05747156
      6.00000000	      0.03401014	      0.03549133	      0.05841754
      6.01694915	      0.03412397	      0.03555068	      0.05935454
      6.03389831	      0.03437125	      0.03567926	      0.06034953
      6.05084746	      0.03457645	      0.03578560	      0.06140733
      6.06779661	      0.03478616	      0.03589396	      0.06238266
      6.08474576	      0.03512933	      0.03607057	      0.06308804
      6.10169492	      0.03566423	      0.03634415	      0.06387840
      6.11864407	      0.03634715	      0.03669047	      0.06487854
      6.13559322	      0.03704669	      0.03704186	      0.06588874
      6.15254237	      0.03748766	      0.03726167	      0.06504827
      6.16949153	      0.03761152	      0.03732317	      0.06507692
      6.18644068	      0.03746675	      0.03725127	      0.06456197
      6.20338983	      0.03726507	      0.03715088	      0.06448919
      6.22033898	      0.03709807	      0.03706754	      0.06475121
      6.23728814	      0.03691028	      0.03697361	      0.06495962
      6.25423729	      0.03650011	      0.03676759	      0.06354436
      6.27118644	      0.03581643	      0.03642162	      0.06211285
      6.28813559	      0.03485155	      0.03592768	      0.06051056
      6.30508475	      0.03376874	      0.03536515	      0.05889197
      6.32203390	      0.03268749	      0.03479436	      0.05868165
      6.33898305	      0.03186940	      0.03435619	      0.05786759
      6.35593220	      0.03116028	      0.03397182	      0.05745717
      6.37288136	      0.03046952	      0.03359317	      0.05903240
      6.38983051	      0.02963885	      0.03313209	      0.06058262
      6.40677966	      0.02874156	      0.03262671	      0.05992036
      6.42372881	      0.02811933	      0.03227161	      0.05754933
      6.44067797	      0.02789394	      0.03214201	      0.05540519
      6.45762712	      0.02812435	      0.03227449	      0.05327847
      6.47457627	      0.02863611	      0.03256680	      0.05151585
      6.49152542	      0.02917479	      0.03287169	      0.05008552
      6.50847458	      0.02945302	      0.03302806	      0.05065278
      6.52542373	      0.02955143	      0.03308319	      0.05180542
      6.54237288	      0.02955651	      0.03308603	      0.05300337
      6.55932203	      0.02952607	      0.03306899	      0.05419801
      6.57627119	      0.02950868	      0.03305925	      0.05488038
      6.59322034	      0.02947623	      0.03304107	      0.05505820
      6.61016949	      0.02939906	      0.03299779	      0.05453704
      6.62711864	      0.02919286	      0.03288186	      0.05437070
      6.64406780	      0.02884546	      0.03268563	      0.05515709
      6.66101695	      0.02829574	      0.03237268	      0.05577610
      6.67796610	      0.02774119	      0.03205388	      0.05591362
      6.69491525	      0.02734293	      0.03182296	      0.05551728
      6.71186441	      0.02712801	      0.03169765	      0.05461029
      6.72881356	      0.02696425	      0.03160184	      0.05336404
      6.74576271	      0.02664508	      0.03141424	      0.05181436
      6.76271186	      0.02604207	      0.03105674	      0.05018426
      6.77966102	      0.02502340	      0.03044327	      0.04875109
      6.79661017	      0.02388874	      0.02974505	      0.04719927
      6.81355932	      0.02277254	      0.02904182	      0.04585448
      6.83050847	      0.02193700	      0.02850406	      0.04456236
      6.84745763	      0.02126663	      0.02806515	      0.04300398
      6.86440678	      0.02074072	      0.02771597	      0.04152211
      6.88135593	      0.01997334	      0.02719841	      0.04184542
      6.89830508	      0.01931026	      0.02674312	      0.04234541
      6.91525424	      0.01863290	      0.02626990	      0.04295266
      6.93220339	      0.01795340	      0.02578644	      0.04386996
      6.94915254	      0.01743713	      0.02541298	      0.04441468
      6.96610169	      0.01709345	      0.02516129	      0.04492756
      6.98305085	      0.01701916	      0.02510656	      0.04531460
      7.00000000	      0.01710032	      0.02516635	      0.04582499
      7.01694915	      0.01730253	      0.02531471	      0.04599648
      7.03389831	      0.01753692	      0.02548559	      0.04598234
      7.05084746	      0.01780606	      0.02568041	      0.04576611
      7.06779661	      0.01817224	      0.02594313	      0.04551352
      7.08474576	      0.01852791	      0.02619578	      0.04535189
      7.10169492	      0.01872919	      0.02633769	      0.04523749
      7.11864407	      0.01880825	      0.02639322	      0.04493826
      7.13559322	      0.01868098	      0.02630377	      0.04467415
      7.15254237	      0.01858912	      0.02623902	      0.04433995
      7.16949153	      0.01855762	      0.02621677	      0.04439150
      7.18644068	      0.01876024	      0.02635951	      0.04430904
      7.20338983	      0.01901411	      0.02653726	      0.04399731
      7.22033898	      0.01915210	      0.02663338	      0.04360229
      7.23728814	      0.01889072	      0.02645102	      0.04345956
      7.25423729	      0.01848150	      0.02616295	      0.04380000
      7.27118644	      0.01809218	      0.02588591	      0.04311890
      7.28813559	      0.01800843	      0.02582594	      0.04300398
      7.30508475	      0.01836671	      0.02608157	      0.04316517
      7.32203390	      0.01908609	      0.02658745	      0.04573488
      7.33898305	      0.01963672	      0.02696824	      0.04792475
      7.35593220	      0.01978086	      0.02706703	      0.04928580
      7.37288136	      0.01941307	      0.02681423	      0.04726292
      7.38983051	      0.01877056	      0.02636676	      0.04329369
      7.40677966	      0.01801902	      0.02583353	      0.04186043
      7.42372881	      0.01730891	      0.02531937	      0.04781813
      7.44067797	      0.01673022	      0.02489253	      0.05110707
      7.45762712	      0.01649158	      0.02471435	      0.04981315
      7.47457627	      0.01666492	      0.02484389	      0.04436981
      7.49152542	      0.01734031	      0.02534233	      0.04589051
      7.50847458	      0.01818385	      0.02595142	      0.04902655
      7.52542373	      0.01860650	      0.02625128	      0.05107150
      7.54237288	      0.01863161	      0.02626899	      0.05244278
      7.55932203	      0.01874198	      0.02634668	      0.05328586
      7.57627119	      0.01941026	      0.02681228	      0.05373685
      7.59322034	      0.02056353	      0.02759733	      0.05398306
      7.61016949	      0.02173539	      0.02837277	      0.05411777
      7.62711864	      0.02259146	      0.02892613	      0.05434035
      7.64406780	      0.02299661	      0.02918435	      0.05466315
      7.66101695	      0.02350881	      0.02950757	      0.05509356
      7.67796610	      0.02422758	      0.02995526	      0.05574177
      7.69491525	      0.02531077	      0.03061758	      0.05674455
      7.71186441	      0.02693475	      0.03158454	      0.05827806
