Model Marker Errors from IK
version=1
nRows=167
nColumns=4
inDegrees=no
endheader
time	total_squared_error	marker_error_RMS	marker_error_max
      0.00000000	      0.02123602	      0.02804495	      0.04648785
      0.01886792	      0.02131533	      0.02809727	      0.04734318
      0.03773585	      0.02140355	      0.02815536	      0.04723563
      0.05660377	      0.02135589	      0.02812399	      0.04724740
      0.07547170	      0.02126364	      0.02806318	      0.04707993
      0.09433962	      0.02121484	      0.02803096	      0.04655887
      0.11320755	      0.02131269	      0.02809553	      0.04613232
      0.13207547	      0.02145255	      0.02818757	      0.04547980
      0.15094340	      0.02164864	      0.02831610	      0.04476691
      0.16981132	      0.02186948	      0.02846016	      0.04426358
      0.18867925	      0.02217076	      0.02865553	      0.04458242
      0.20754717	      0.02236128	      0.02877839	      0.04527525
      0.22641509	      0.02230124	      0.02873973	      0.04534301
      0.24528302	      0.02190970	      0.02848632	      0.04531131
      0.26415094	      0.02133236	      0.02810849	      0.04512729
      0.28301887	      0.02086521	      0.02779902	      0.04471373
      0.30188679	      0.02056785	      0.02760022	      0.04367065
      0.32075472	      0.02048635	      0.02754549	      0.04375498
      0.33962264	      0.02059213	      0.02761651	      0.04334297
      0.35849057	      0.02085462	      0.02779196	      0.04335421
      0.37735849	      0.02116623	      0.02799883	      0.04362870
      0.39622642	      0.02142908	      0.02817214	      0.04516986
      0.41509434	      0.02148972	      0.02821197	      0.04626224
      0.43396226	      0.02146795	      0.02819768	      0.04706355
      0.45283019	      0.02156464	      0.02826111	      0.04776809
      0.47169811	      0.02196588	      0.02852282	      0.04850332
      0.49056604	      0.02270809	      0.02900070	      0.04972253
      0.50943396	      0.02364857	      0.02959515	      0.05295023
      0.52830189	      0.02450208	      0.03012448	      0.05591237
      0.54716981	      0.02505821	      0.03046444	      0.05849565
      0.56603774	      0.02534773	      0.03063992	      0.05965025
      0.58490566	      0.02552589	      0.03074741	      0.06084905
      0.60377358	      0.02545191	      0.03070282	      0.06137429
      0.62264151	      0.02542796	      0.03068837	      0.06357051
      0.64150943	      0.02510587	      0.03049339	      0.06420672
      0.66037736	      0.02457620	      0.03017001	      0.06501880
      0.67924528	      0.02369043	      0.02962133	      0.06507686
      0.69811321	      0.02273929	      0.02902061	      0.06485126
      0.71698113	      0.02187526	      0.02846392	      0.06310598
      0.73584906	      0.02154488	      0.02824816	      0.06271874
      0.75471698	      0.02146437	      0.02819533	      0.06295393
      0.77358491	      0.02126687	      0.02806531	      0.06226064
      0.79245283	      0.02095886	      0.02786134	      0.05958426
      0.81132075	      0.02059282	      0.02761697	      0.05529402
      0.83018868	      0.02022074	      0.02736633	      0.05078933
      0.84905660	      0.01977045	      0.02705991	      0.04693844
      0.86792453	      0.01937559	      0.02678832	      0.04387200
      0.88679245	      0.01939534	      0.02680198	      0.04338289
      0.90566038	      0.01988153	      0.02713582	      0.04474359
      0.92452830	      0.02085424	      0.02779171	      0.04607849
      0.94339623	      0.02233415	      0.02876092	      0.04778175
      0.96226415	      0.02402621	      0.02983052	      0.04951076
      0.98113208	      0.02355331	      0.02953548	      0.04861407
      1.00000000	      0.02425476	      0.02997206	      0.04829531
      1.01886792	      0.02454935	      0.03015353	      0.04779613
      1.03773585	      0.02474168	      0.03027141	      0.04867771
      1.05660377	      0.02528477	      0.03060185	      0.04991140
      1.07547170	      0.02630412	      0.03121260	      0.05069266
      1.09433962	      0.02746970	      0.03189665	      0.05086614
      1.11320755	      0.02818896	      0.03231154	      0.05638611
      1.13207547	      0.02931006	      0.03294780	      0.05819245
      1.15094340	      0.03018185	      0.03343421	      0.05859797
      1.16981132	      0.03127374	      0.03403361	      0.06068087
      1.18867925	      0.03254014	      0.03471585	      0.06139273
      1.20754717	      0.03380877	      0.03538611	      0.06095737
      1.22641509	      0.03478359	      0.03589264	      0.05990464
      1.24528302	      0.03522229	      0.03611827	      0.05985785
      1.26415094	      0.03501490	      0.03601178	      0.05979272
      1.28301887	      0.03429168	      0.03563793	      0.05961847
      1.30188679	      0.03333501	      0.03513730	      0.05946780
      1.32075472	      0.03256047	      0.03472669	      0.05927066
      1.33962264	      0.03227835	      0.03457592	      0.06056437
      1.35849057	      0.03257261	      0.03473317	      0.06254103
      1.37735849	      0.03337315	      0.03515740	      0.06391055
      1.39622642	      0.03435813	      0.03567245	      0.06528893
      1.41509434	      0.03511953	      0.03606554	      0.06659512
      1.43396226	      0.03545462	      0.03623719	      0.06684135
      1.45283019	      0.03566674	      0.03634543	      0.06698891
      1.47169811	      0.03582707	      0.03642703	      0.06608684
      1.49056604	      0.03601877	      0.03652435	      0.06681027
      1.50943396	      0.03620871	      0.03662053	      0.06683349
      1.52830189	      0.03644582	      0.03674024	      0.06691792
      1.54716981	      0.03663311	      0.03683452	      0.06770693
      1.56603774	      0.03662507	      0.03683048	      0.06466429
      1.58490566	      0.03678777	      0.03691219	      0.06472772
      1.60377358	      0.03695965	      0.03699832	      0.06570267
      1.62264151	      0.03712708	      0.03708203	      0.06620455
      1.64150943	      0.03740860	      0.03722236	      0.06646840
      1.66037736	      0.03781790	      0.03742543	      0.06667922
      1.67924528	      0.03824152	      0.03763446	      0.06696158
      1.69811321	      0.03841187	      0.03771819	      0.06679388
      1.71698113	      0.03823903	      0.03763324	      0.06653646
      1.73584906	      0.03785042	      0.03744152	      0.06625413
      1.75471698	      0.03755149	      0.03729338	      0.06642067
      1.77358491	      0.03735194	      0.03719416	      0.06688316
      1.79245283	      0.03752707	      0.03728125	      0.06757238
      1.81132075	      0.03792809	      0.03747992	      0.06800790
      1.83018868	      0.03834972	      0.03768767	      0.06809931
      1.84905660	      0.03869257	      0.03785576	      0.06772488
      1.86792453	      0.03879319	      0.03790494	      0.06657737
      1.88679245	      0.03870138	      0.03786006	      0.06666148
      1.90566038	      0.03862191	      0.03782117	      0.06686534
      1.92452830	      0.03859120	      0.03780613	      0.06737675
      1.94339623	      0.03857008	      0.03779579	      0.06803561
      1.96226415	      0.03834299	      0.03768436	      0.06726061
      1.98113208	      0.03782349	      0.03742820	      0.06460834
      2.00000000	      0.03708197	      0.03705949	      0.06267578
      2.01886792	      0.03646508	      0.03674995	      0.06344091
      2.03773585	      0.03558737	      0.03630497	      0.06170898
      2.05660377	      0.03488270	      0.03594373	      0.06080196
      2.07547170	      0.03366765	      0.03531218	      0.05965386
      2.09433962	      0.03263877	      0.03476843	      0.05875188
      2.11320755	      0.03178273	      0.03430944	      0.05835655
      2.13207547	      0.03102438	      0.03389765	      0.05830106
      2.15094340	      0.03002220	      0.03334567	      0.05826155
      2.16981132	      0.02862069	      0.03255804	      0.05813439
      2.18867925	      0.02680143	      0.03150628	      0.05794563
      2.20754717	      0.02507521	      0.03047477	      0.05752070
      2.22641509	      0.02351659	      0.02951245	      0.05663080
      2.24528302	      0.02218400	      0.02866408	      0.05491966
      2.26415094	      0.02104545	      0.02791883	      0.05223827
      2.28301887	      0.02013090	      0.02730547	      0.05144740
      2.30188679	      0.01968266	      0.02699977	      0.05256216
      2.32075472	      0.01977869	      0.02706555	      0.05434922
      2.33962264	      0.02058823	      0.02761389	      0.05787833
      2.35849057	      0.02160869	      0.02828996	      0.06141114
      2.37735849	      0.02218743	      0.02866630	      0.06396267
      2.39622642	      0.02203655	      0.02856866	      0.06437168
      2.41509434	      0.02132463	      0.02810340	      0.06232027
      2.43396226	      0.02044472	      0.02751748	      0.05839591
      2.45283019	      0.01954837	      0.02690750	      0.05227173
      2.47169811	      0.01887704	      0.02644144	      0.04772401
      2.49056604	      0.01824096	      0.02599214	      0.05020636
      2.50943396	      0.01784427	      0.02570795	      0.05025069
      2.52830189	      0.01782826	      0.02569642	      0.04989656
      2.54716981	      0.01822704	      0.02598221	      0.04808635
      2.56603774	      0.01883249	      0.02641022	      0.04545053
      2.58490566	      0.01940713	      0.02681012	      0.04301357
      2.60377358	      0.01980438	      0.02708312	      0.04352873
      2.62264151	      0.01969451	      0.02700789	      0.04500295
      2.64150943	      0.01949932	      0.02687372	      0.04489019
      2.66037736	      0.01926542	      0.02671206	      0.04509758
      2.67924528	      0.01920043	      0.02666697	      0.04560378
      2.69811321	      0.01937370	      0.02678702	      0.04648800
      2.71698113	      0.01960656	      0.02694752	      0.04614547
      2.73584906	      0.01965503	      0.02698081	      0.04469917
      2.75471698	      0.01958156	      0.02693034	      0.04284618
      2.77358491	      0.01963567	      0.02696752	      0.04269580
      2.79245283	      0.01992438	      0.02716505	      0.04274152
      2.81132075	      0.02035326	      0.02745586	      0.04384258
      2.83018868	      0.02070550	      0.02769242	      0.04540251
      2.84905660	      0.02092530	      0.02783902	      0.04693290
      2.86792453	      0.02104510	      0.02791860	      0.04772106
      2.88679245	      0.02105006	      0.02792189	      0.04761499
      2.90566038	      0.02081552	      0.02776590	      0.04621332
      2.92452830	      0.02057340	      0.02760395	      0.04414493
      2.94339623	      0.02021009	      0.02735912	      0.04268367
      2.96226415	      0.01976736	      0.02705780	      0.04268513
      2.98113208	      0.01931652	      0.02674746	      0.04259695
      3.00000000	      0.01892936	      0.02647806	      0.04232670
      3.01886792	      0.01873896	      0.02634455	      0.04210173
      3.03773585	      0.01873932	      0.02634481	      0.04182717
      3.05660377	      0.01875698	      0.02635722	      0.04150656
      3.07547170	      0.01887821	      0.02644225	      0.04214001
      3.09433962	      0.01894743	      0.02649069	      0.04326321
      3.11320755	      0.01896441	      0.02650256	      0.04443976
      3.13207547	      0.01917984	      0.02665267	      0.04547736
