Coordinates
version=1
nRows=142
nColumns=63
inDegrees=yes

Units are S.I. units (second, meters, Newtons, ...)
If the header above contains a line with 'inDegrees', this indicates whether rotational values are in degrees (yes) or radians (no).

endheader
time	pelvis_tilt	pelvis_list	pelvis_rotation	pelvis_tx	pelvis_ty	pelvis_tz	hip_flexion_r	hip_adduction_r	hip_rotation_r	knee_angle_r	knee_angle_r_beta	ankle_angle_r	subtalar_angle_r	mtp_angle_r	hip_flexion_l	hip_adduction_l	hip_rotation_l	knee_angle_l	knee_angle_l_beta	ankle_angle_l	subtalar_angle_l	mtp_angle_l	L5_S1_Flex_Ext	L5_S1_Lat_Bending	L5_S1_axial_rotation	L4_L5_Flex_Ext	L4_L5_Lat_Bending	L4_L5_axial_rotation	L3_L4_Flex_Ext	L3_L4_Lat_Bending	L3_L4_axial_rotation	L2_L3_Flex_Ext	L2_L3_Lat_Bending	L2_L3_axial_rotation	L1_L2_Flex_Ext	L1_L2_Lat_Bending	L1_L2_axial_rotation	L1_T12_Flex_Ext	L1_T12_Lat_Bending	L1_T12_axial_rotation	Abs_r3	Abs_r2	Abs_r1	Abs_t1	Abs_t2	neck_flexion	neck_bending	neck_rotation	arm_flex_r	arm_add_r	arm_rot_r	elbow_flex_r	pro_sup_r	wrist_flex_r	wrist_dev_r	arm_flex_l	arm_add_l	arm_rot_l	elbow_flex_l	pro_sup_l	wrist_flex_l	wrist_dev_l
0.000000	2.417014	-3.928356	100.671271	0.016088	1.026189	0.698484	0.626564	0.559866	-3.791920	4.533263	0.079120	26.928673	6.134721	0.000000	3.047499	1.520975	7.258915	6.657048	0.116187	27.400872	-7.004151	0.000000	0.149219	-0.134717	-0.067691	0.277115	-0.179174	-0.071922	0.245152	-0.327552	-0.071922	0.170543	-0.327552	-0.059229	0.138565	-0.274716	-0.054999	0.085264	-0.208677	-0.050768	1.065857	-1.523950	-0.376476	0.000000	0.000000	27.099785	9.285171	0.930270	24.113140	-11.852114	61.981025	42.379083	0.325295	-6.894297	8.465440	24.190648	-8.484342	60.461690	41.543495	87.805055	-11.728796	-11.466678
0.016667	2.601741	-3.684404	100.579630	0.016400	1.026129	0.696645	0.128051	0.866619	-1.580407	4.115669	0.071832	26.225614	2.514213	0.000000	2.698971	1.200990	5.526459	6.639283	0.115877	27.845591	-5.109996	0.000000	0.150458	-0.106173	-0.188545	0.279415	-0.141210	-0.200329	0.247187	-0.258149	-0.200329	0.171958	-0.258149	-0.164977	0.139715	-0.216508	-0.153193	0.085972	-0.164462	-0.141409	1.074706	-1.201052	-1.048629	0.000000	0.000000	26.414407	9.207010	1.685709	21.679912	-11.074067	58.453941	42.944579	2.023046	-7.799334	9.615078	23.083219	-8.707023	60.054746	41.143245	88.283417	-7.770724	-9.248215
0.033333	2.753790	-3.472798	100.499214	0.016722	1.026103	0.695074	-0.297180	1.120935	0.173256	3.756917	0.065571	25.687523	-0.333273	0.000000	2.394950	0.927659	4.130327	6.617438	0.115496	28.230315	-3.549901	0.000000	0.150199	-0.084261	-0.287029	0.278935	-0.112067	-0.304968	0.246762	-0.204871	-0.304968	0.171663	-0.204871	-0.251150	0.139475	-0.171824	-0.233211	0.085824	-0.130520	-0.215272	1.072857	-0.953173	-1.596368	0.000000	0.000000	25.816463	9.158771	2.316731	19.601925	-10.322304	55.211569	43.315435	4.356182	-8.295970	10.352613	22.141184	-8.897410	59.646739	40.800447	87.718555	-4.407299	-7.369433
0.050000	2.876293	-3.291023	100.430080	0.017048	1.026108	0.693752	-0.655150	1.327604	1.515170	3.452274	0.060254	25.296243	-2.486532	0.000000	2.132066	0.697322	3.045297	6.592087	0.115054	28.558536	-2.300727	0.000000	0.148705	-0.068298	-0.365313	0.276161	-0.090837	-0.388145	0.244308	-0.166060	-0.388145	0.169955	-0.166060	-0.319649	0.138088	-0.139274	-0.296817	0.084970	-0.105794	-0.273985	1.062188	-0.772603	-2.031762	0.000000	0.000000	25.301275	9.136722	2.834947	17.851918	-9.600072	52.247012	43.513276	7.209809	-8.436417	10.728382	21.351476	-9.058193	59.241630	40.511749	86.274937	-1.595398	-5.804564
0.066667	2.972382	-3.136564	100.372283	0.017373	1.026138	0.692656	-0.951884	1.491418	2.491434	3.197011	0.055798	25.033617	-4.024361	0.000000	1.906945	0.506316	2.246146	6.563805	0.114560	28.833745	-1.339333	0.000000	0.146239	-0.057604	-0.425568	0.271581	-0.076614	-0.452166	0.240257	-0.140059	-0.452166	0.167137	-0.140059	-0.372372	0.135798	-0.117467	-0.345774	0.083561	-0.089229	-0.319176	1.044573	-0.651631	-2.366879	0.000000	0.000000	24.864166	9.137131	3.251969	16.402632	-8.910621	49.553374	43.559723	10.469034	-8.272888	10.792718	20.701027	-9.192067	58.843379	40.273801	84.117032	0.708104	-4.527838
0.083333	3.045189	-3.006906	100.325881	0.017690	1.026191	0.691766	-1.193405	1.617169	3.148151	2.986394	0.052122	24.881490	-5.025555	0.000000	1.716215	0.350982	1.707649	6.533166	0.114025	29.059434	-0.642579	0.000000	0.143063	-0.051497	-0.469962	0.265683	-0.068492	-0.499335	0.235039	-0.125211	-0.499335	0.163507	-0.125211	-0.411217	0.132849	-0.105014	-0.381844	0.081746	-0.079770	-0.352471	1.021888	-0.582549	-2.613787	0.000000	0.000000	24.500457	9.156265	3.579408	15.226807	-8.257197	47.123760	43.476400	14.018962	-7.857595	10.595958	20.176769	-9.301724	58.455949	40.083254	81.409306	2.546333	-3.513486
0.100000	3.097847	-2.899533	100.290929	0.017995	1.026262	0.691062	-1.385737	1.709647	3.531422	2.815693	0.049143	24.821705	-5.568911	0.000000	1.556504	0.227658	1.404584	6.500743	0.113459	29.239095	-0.187326	0.000000	0.139440	-0.049296	-0.500666	0.258954	-0.065564	-0.531958	0.229086	-0.119858	-0.531958	0.159366	-0.119858	-0.438083	0.129484	-0.100524	-0.406791	0.079676	-0.076359	-0.375499	0.996008	-0.557646	-2.784554	0.000000	0.000000	24.205471	9.190394	3.828874	14.297185	-7.643048	44.951271	43.284928	17.744701	-7.242751	10.188436	19.765637	-9.389855	58.083300	39.936755	78.316228	3.962413	-2.735740
0.116667	3.133486	-2.811930	100.267485	0.018282	1.026348	0.690523	-1.534901	1.773644	3.687346	2.680176	0.046778	24.836106	-5.733224	0.000000	1.424438	0.132681	1.311726	6.467111	0.112872	29.376219	0.049568	0.000000	0.135632	-0.050318	-0.519850	0.251883	-0.066923	-0.552340	0.222830	-0.122344	-0.552340	0.155014	-0.122344	-0.454868	0.125948	-0.102609	-0.422378	0.077500	-0.077943	-0.389887	0.968807	-0.569211	-2.891247	0.000000	0.000000	23.974529	9.235784	4.011980	13.586506	-7.071421	43.029014	43.006932	21.531356	-6.480566	9.620486	19.454561	-9.459155	57.729394	39.830956	75.002266	4.999469	-2.168829
0.133333	3.155240	-2.741582	100.255604	0.018544	1.026443	0.690127	-1.646923	1.813952	3.662027	2.575111	0.044944	24.906535	-5.597291	0.000000	1.316645	0.062392	1.403854	6.432845	0.112274	29.474297	0.091242	0.000000	0.131902	-0.053883	-0.529683	0.244955	-0.071664	-0.562788	0.216702	-0.131011	-0.562788	0.150751	-0.131011	-0.463472	0.122484	-0.109878	-0.430367	0.075369	-0.083465	-0.397262	0.942163	-0.609536	-2.945936	0.000000	0.000000	23.802954	9.288704	4.140337	13.067511	-6.545566	41.350090	42.664032	25.264034	-5.623254	8.942445	19.230475	-9.512314	57.398192	39.762506	71.631887	5.700625	-1.786984
0.150000	3.166240	-2.685975	100.255343	0.018777	1.026545	0.689855	-1.727825	1.835361	3.501563	2.495766	0.043559	25.014838	-5.239906	0.000000	1.229754	0.013129	1.655742	6.398518	0.111675	29.536822	-0.039165	0.000000	0.128512	-0.059308	-0.532335	0.238660	-0.078880	-0.565606	0.211133	-0.144202	-0.565606	0.146876	-0.144202	-0.465793	0.119336	-0.120942	-0.432522	0.073432	-0.091869	-0.399251	0.917949	-0.670909	-2.960687	0.000000	0.000000	23.686067	9.345422	4.225555	12.712940	-6.068728	39.907605	42.277853	28.827841	-4.723027	8.204647	19.080311	-9.552026	57.093655	39.728053	68.369559	6.109006	-1.564437
0.166667	3.169618	-2.642591	100.266759	0.018975	1.026649	0.689685	-1.783631	1.842664	3.252058	2.437411	0.042541	25.142858	-4.739868	0.000000	1.160391	-0.018769	2.042168	6.364704	0.111085	29.567284	-0.318511	0.000000	0.125725	-0.065913	-0.529976	0.233484	-0.087664	-0.563100	0.206554	-0.160261	-0.563100	0.143691	-0.160261	-0.463729	0.116748	-0.134410	-0.430606	0.071839	-0.102099	-0.397482	0.898042	-0.745620	-2.947570	0.000000	0.000000	23.619191	9.402207	4.279247	12.495535	-5.644156	38.694662	41.870017	32.107883	-3.832097	7.457426	18.991003	-9.580983	56.819744	39.724249	65.379750	6.267737	-1.475419
0.183333	3.176796	-2.601939	100.285058	0.019106	1.026720	0.689568	-1.834709	1.851055	3.073793	2.383133	0.041594	25.175259	-4.354103	0.000000	1.096195	-0.046776	2.489484	6.332460	0.110522	29.575316	-0.699201	0.000000	0.125678	-0.071289	-0.529287	0.233396	-0.094814	-0.562368	0.206476	-0.173331	-0.562368	0.143637	-0.173331	-0.463126	0.116704	-0.145372	-0.430046	0.071812	-0.110426	-0.396966	0.897703	-0.806431	-2.943737	0.000000	0.000000	23.572341	9.447370	4.350994	12.369675	-5.245722	37.595423	41.441247	35.250224	-2.959210	7.015008	18.857055	-9.565648	56.352864	39.703412	63.455726	6.426005	-1.420197
0.200000	3.179968	-2.565828	100.318806	0.019188	1.026812	0.689497	-1.876797	1.850825	2.869704	2.356602	0.041130	25.192402	-3.997531	0.000000	1.030185	-0.053740	3.169113	6.286143	0.109714	29.503850	-1.384825	0.000000	0.126430	-0.076541	-0.530690	0.234794	-0.101799	-0.563858	0.207712	-0.186102	-0.563858	0.144497	-0.186102	-0.464353	0.117403	-0.156082	-0.431185	0.072242	-0.118562	-0.398017	0.903080	-0.865847	-2.951536	0.000000	0.000000	23.577578	9.455168	4.446494	12.318504	-4.969028	36.958285	41.084194	37.303997	-2.307430	6.598048	18.804724	-9.575797	56.106970	39.718676	62.427033	6.350052	-1.442888
0.216667	3.185738	-2.538943	100.385082	0.019217	1.026895	0.689465	-1.906534	1.852613	2.629666	2.346166	0.040948	25.220290	-3.651027	0.000000	0.983475	-0.056208	3.892125	6.253017	0.109136	29.428489	-2.090981	0.000000	0.128641	-0.081235	-0.534384	0.238899	-0.108043	-0.567784	0.211344	-0.197515	-0.567784	0.147024	-0.197515	-0.467586	0.119456	-0.165655	-0.434187	0.073505	-0.125833	-0.400788	0.918869	-0.918948	-2.972086	0.000000	0.000000	23.636993	9.444487	4.525246	12.246762	-4.760274	36.420850	40.829297	38.457368	-2.000565	6.354286	18.843711	-9.607156	56.137344	39.762504	62.240051	6.088261	-1.559892
0.233333	3.192667	-2.517393	100.456252	0.019230	1.026961	0.689443	-1.943478	1.867620	2.797464	2.308676	0.040294	25.126660	-3.898178	0.000000	0.948237	-0.061912	4.473348	6.232668	0.108781	29.389773	-2.608143	0.000000	0.132277	-0.085224	-0.540144	0.245651	-0.113348	-0.573903	0.217318	-0.207213	-0.573903	0.151179	-0.207213	-0.472626	0.122832	-0.173789	-0.438867	0.075583	-0.132012	-0.405108	0.944840	-0.964070	-3.004121	0.000000	0.000000	23.734480	9.408597	4.572673	12.187869	-4.608756	36.078655	40.681006	38.378851	-2.074683	6.262272	18.903421	-9.657303	56.255880	39.857606	62.943699	5.700568	-1.682921
0.250000	3.211244	-2.499810	100.531772	0.019197	1.027001	0.689442	-1.972618	1.893495	3.043106	2.266928	0.039565	25.032589	-4.242795	0.000000	0.923484	-0.071146	5.049625	6.220969	0.108576	29.345433	-3.141895	0.000000	0.137263	-0.086676	-0.549359	0.254911	-0.115279	-0.583694	0.225509	-0.210744	-0.583694	0.156878	-0.210744	-0.480689	0.127462	-0.176750	-0.446354	0.078432	-0.134261	-0.412019	0.980454	-0.980498	-3.055370	0.000000	0.000000	23.852303	9.394530	4.624982	12.157508	-4.520413	35.965491	40.629229	37.170078	-2.424779	6.243688	18.950817	-9.709564	56.369182	39.995024	64.478295	5.243847	-1.802485
0.266667	3.240881	-2.475878	100.622249	0.019084	1.027018	0.689455	-2.009658	1.931802	3.459304	2.205544	0.038494	24.905006	-4.825250	0.000000	0.896852	-0.083587	5.641028	6.214344	0.108461	29.291597	-3.710229	0.000000	0.142682	-0.085263	-0.564335	0.264975	-0.113400	-0.599606	0.234413	-0.207309	-0.599606	0.163072	-0.207309	-0.493793	0.132495	-0.173869	-0.458522	0.081529	-0.132073	-0.423251	1.019165	-0.964516	-3.138664	0.000000	0.000000	23.963417	9.423200	4.693369	12.152201	-4.476635	36.000878	40.643096	35.243844	-2.967646	6.375852	18.963248	-9.751936	56.411002	40.163410	66.666187	4.797234	-1.876518
0.283333	3.284035	-2.444042	100.721195	0.018875	1.027019	0.689475	-2.049969	1.979321	3.887571	2.136844	0.037295	24.802614	-5.404292	0.000000	0.868319	-0.105952	6.146492	6.217500	0.108516	29.250578	-4.194245	0.000000	0.148392	-0.080366	-0.581750	0.275579	-0.106886	-0.618109	0.243793	-0.195401	-0.618109	0.169597	-0.195401	-0.509031	0.137797	-0.163882	-0.472672	0.084791	-0.124487	-0.436312	1.059949	-0.909113	-3.235517	0.000000	0.000000	24.059118	9.502758	4.776930	12.125929	-4.472111	36.037378	40.745268	32.855914	-3.687719	6.779543	18.957895	-9.765060	56.456652	40.304486	69.293856	4.333089	-2.001577
0.300000	3.333524	-2.396874	100.821742	0.018578	1.027023	0.689475	-2.112369	2.035404	4.526965	2.043807	0.035671	24.647851	-6.270269	0.000000	0.816813	-0.126894	6.683387	6.209203	0.108371	29.172782	-4.771642	0.000000	0.153147	-0.072833	-0.599534	0.284410	-0.096867	-0.637005	0.251606	-0.177085	-0.637005	0.175032	-0.177085	-0.524593	0.142213	-0.148520	-0.487122	0.087508	-0.112818	-0.449651	1.093916	-0.823896	-3.334431	0.000000	0.000000	24.136471	9.625042	4.864389	12.060289	-4.495957	36.035798	40.921357	30.384764	-4.494453	7.429589	18.937114	-9.758625	56.531543	40.429393	72.101704	3.869267	-2.096908
0.316667	3.393753	-2.346131	100.924962	0.018197	1.027032	0.689479	-2.173419	2.097596	5.119291	1.949328	0.034022	24.525016	-7.057553	0.000000	0.770690	-0.161378	7.035122	6.217664	0.108519	29.126068	-5.135882	0.000000	0.158043	-0.062204	-0.617265	0.293502	-0.082731	-0.655844	0.259649	-0.151243	-0.655844	0.180627	-0.151243	-0.540107	0.146759	-0.126847	-0.501528	0.090306	-0.096354	-0.462949	1.128886	-0.703665	-3.433044	0.000000	0.000000	24.196193	9.761432	4.973813	11.963744	-4.563329	36.044620	41.151434	27.846894	-5.319474	8.320756	18.940671	-9.728013	56.744982	40.468211	74.820294	3.441947	-2.324503
0.333333	3.455209	-2.291128	101.022969	0.017737	1.027055	0.689469	-2.245093	2.159631	5.836465	1.837883	0.032077	24.378337	-8.002496	0.000000	0.716624	-0.192786	7.347142	6.222161	0.108597	29.062218	-5.489084	0.000000	0.161724	-0.049716	-0.636492	0.300338	-0.066122	-0.676273	0.265696	-0.120879	-0.676273	0.184834	-0.120879	-0.556930	0.150177	-0.101381	-0.517150	0.092409	-0.077010	-0.477369	1.155179	-0.562397	-3.539977	0.000000	0.000000	24.261851	9.883459	5.080997	11.878113	-4.694460	36.243028	41.421079	25.244236	-6.096575	9.266051	18.956281	-9.696437	57.078911	40.484052	77.231939	3.027864	-2.557282
0.350000	3.532808	-2.245973	101.116121	0.017212	1.027083	0.689427	-2.300720	2.227903	6.313459	1.733544	0.030256	24.329693	-8.582172	0.000000	0.686782	-0.248446	7.391313	6.254040	0.109154	29.069160	-5.503467	0.000000	0.166056	-0.034179	-0.657108	0.308383	-0.045458	-0.698177	0.272813	-0.083102	-0.698177	0.189785	-0.083102	-0.574969	0.154200	-0.069697	-0.533900	0.094884	-0.052943	-0.492831	1.186121	-0.386638	-3.654637	0.000000	0.000000	24.348176	9.972784	5.168445	11.792222	-4.892263	36.581088	41.724933	22.799227	-6.816732	10.285890	18.970643	-9.655139	57.474277	40.466685	79.289905	2.574794	-2.862755
0.366667	3.602763	-2.223812	101.189399	0.016652	1.027110	0.689321	-2.338061	2.280791	6.775814	1.624789	0.028358	24.315922	-9.107822	0.000000	0.671300	-0.291411	7.366135	6.277622	0.109565	29.074349	-5.457569	0.000000	0.171975	-0.018708	-0.681684	0.319374	-0.024882	-0.724289	0.282537	-0.045487	-0.724289	0.196550	-0.045487	-0.596473	0.159696	-0.038150	-0.553868	0.098266	-0.028979	-0.511263	1.228399	-0.211631	-3.791319	0.000000	0.000000	24.471583	10.025890	5.252746	11.777911	-5.156548	37.269717	41.997179	20.383075	-7.361737	11.157082	18.946290	-9.617487	57.776695	40.434548	81.014646	2.233378	-3.213445
0.383333	3.670329	-2.230932	101.240642	0.016073	1.027121	0.689140	-2.351821	2.323699	7.247807	1.509689	0.026349	24.327453	-9.613487	0.000000	0.676648	-0.322942	7.382482	6.292112	0.109818	29.051092	-5.501907	0.000000	0.179674	-0.003103	-0.711857	0.333673	-0.004127	-0.756348	0.295187	-0.007545	-0.756348	0.205350	-0.007545	-0.622875	0.166846	-0.006328	-0.578384	0.102666	-0.004807	-0.533893	1.283396	-0.035105	-3.959135	0.000000	0.000000	24.663716	10.034399	5.300940	11.862807	-5.477601	38.324048	42.257749	17.890381	-7.809243	11.901227	18.848213	-9.584901	57.865908	40.428817	82.458900	1.949019	-3.591102
0.400000	3.720029	-2.261411	101.270357	0.015501	1.027135	0.688890	-2.346467	2.341056	7.568585	1.398991	0.024417	24.403585	-9.886363	0.000000	0.696090	-0.338129	7.264766	6.297562	0.109913	29.059392	-5.368061	0.000000	0.187327	0.010717	-0.744472	0.347885	0.014254	-0.791001	0.307760	0.026058	-0.791001	0.214096	0.026058	-0.651413	0.173952	0.021854	-0.604883	0.107039	0.016601	-0.558354	1.338060	0.121234	-4.140530	0.000000	0.000000	24.911334	10.009956	5.318494	12.028814	-5.822741	39.551467	42.459667	16.038642	-8.149533	12.498285	18.714140	-9.593688	57.867315	40.503036	83.364339	1.589883	-3.950420
0.416667	3.764268	-2.326988	101.283590	0.014938	1.027135	0.688584	-2.306315	2.343564	7.741747	1.297112	0.022639	24.526789	-9.947822	0.000000	0.743530	-0.339964	7.195054	6.289959	0.109781	29.047202	-5.306862	0.000000	0.197233	0.023868	-0.780004	0.366282	0.031745	-0.828755	0.324034	0.058034	-0.828755	0.225418	0.058034	-0.682504	0.183151	0.048673	-0.633754	0.112699	0.036972	-0.585003	1.408816	0.270005	-4.338151	0.000000	0.000000	25.214768	9.960913	5.300926	12.283248	-6.181907	40.931104	42.623161	14.594843	-8.390315	12.976339	18.517463	-9.620591	57.687957	40.636350	83.888278	1.200590	-4.331386
0.433333	3.798951	-2.417100	101.270874	0.014405	1.027138	0.688250	-2.241597	2.329536	7.772805	1.209318	0.021107	24.674533	-9.807674	0.000000	0.805589	-0.327452	7.173340	6.262841	0.109307	29.012002	-5.326750	0.000000	0.207690	0.035950	-0.817476	0.385700	0.047813	-0.868569	0.341213	0.087409	-0.868569	0.237369	0.087409	-0.715292	0.192861	0.073309	-0.664200	0.118674	0.055686	-0.613107	1.483506	0.406672	-4.546559	0.000000	0.000000	25.560637	9.905196	5.255108	12.648033	-6.548795	42.516803	42.725882	13.365218	-8.465769	13.307275	18.257416	-9.675578	57.316820	40.859552	83.980615	0.847125	-4.606272
0.450000	3.816982	-2.535848	101.235992	0.013913	1.027147	0.687930	-2.141114	2.291569	7.617713	1.155543	0.020168	24.846306	-9.430962	0.000000	0.890075	-0.293340	7.187133	6.219658	0.108554	28.953103	-5.406253	0.000000	0.219364	0.045883	-0.853039	0.407382	0.061024	-0.906354	0.360394	0.111560	-0.906354	0.250712	0.111560	-0.746410	0.203702	0.093564	-0.693095	0.125345	0.071073	-0.639780	1.566898	0.519036	-4.744349	0.000000	0.000000	25.937743	9.871824	5.213620	13.062655	-6.903628	44.115502	42.781849	12.455846	-8.362783	13.601534	17.980292	-9.755281	56.889271	41.118586	83.776204	0.507110	-4.879314
0.466667	3.815334	-2.683093	101.177816	0.013479	1.027172	0.687654	-1.996498	2.224291	7.185185	1.156872	0.020191	25.054450	-8.710802	0.000000	1.004637	-0.239895	7.137948	6.173247	0.107743	28.906197	-5.402803	0.000000	0.232413	0.052586	-0.882263	0.431614	0.069939	-0.937405	0.381831	0.127857	-0.937405	0.265625	0.127857	-0.771980	0.215819	0.107233	-0.716839	0.132801	0.081455	-0.661698	1.660102	0.594861	-4.906884	0.000000	0.000000	26.329100	9.842454	5.109913	13.488784	-7.237183	45.627820	42.762622	12.005102	-7.993113	13.818675	17.710409	-9.854020	56.465731	41.381070	83.456809	0.201172	-5.175929
0.483333	3.795498	-2.852000	101.103480	0.013134	1.027214	0.687442	-1.814574	2.133349	6.508029	1.212383	0.021160	25.287229	-7.697995	0.000000	1.139568	-0.171115	7.074244	6.111833	0.106672	28.852963	-5.364856	0.000000	0.246395	0.055865	-0.910340	0.457580	0.074301	-0.967237	0.404802	0.135831	-0.967237	0.281605	0.135831	-0.796548	0.228802	0.113920	-0.739652	0.140790	0.086535	-0.682755	1.759974	0.631959	-5.063040	0.000000	0.000000	26.695519	9.803075	4.973740	13.981270	-7.546863	47.238820	42.605081	12.216756	-7.332621	13.771448	17.449397	-9.996067	56.074982	41.685614	82.954624	0.033079	-5.322006
0.500000	3.750306	-3.032323	101.000372	0.012873	1.027272	0.687309	-1.610877	2.017825	5.825467	1.307504	0.022820	25.490175	-6.711057	0.000000	1.278387	-0.074485	7.093187	6.026696	0.105186	28.764873	-5.450209	0.000000	0.259378	0.054650	-0.935516	0.481691	0.072684	-0.993986	0.426132	0.132875	-0.993986	0.296443	0.132875	-0.818577	0.240859	0.111441	-0.760107	0.148209	0.084652	-0.701637	1.852712	0.618207	-5.203060	0.000000	0.000000	27.038423	9.768244	4.760593	14.563796	-7.850770	49.140364	42.342539	12.538016	-6.487495	13.305817	17.127275	-10.139920	55.438821	42.016575	82.906012	0.017609	-5.339671
0.516667	3.681395	-3.223116	100.884369	0.012719	1.027339	0.687284	-1.383653	1.883486	5.202557	1.440759	0.025146	25.653608	-5.847889	0.000000	1.427390	0.047440	7.216821	5.926232	0.103432	28.642701	-5.668840	0.000000	0.271316	0.048665	-0.959441	0.503861	0.064724	-1.019407	0.445746	0.118323	-1.019407	0.310087	0.118323	-0.839511	0.251944	0.099237	-0.779546	0.155030	0.075382	-0.719581	1.937985	0.550505	-5.336125	0.000000	0.000000	27.338360	9.731115	4.467001	15.216903	-8.133210	51.267210	41.992704	13.205974	-5.725867	12.399273	16.799454	-10.310237	54.772107	42.380282	83.034660	0.107816	-5.217661
0.533333	3.587904	-3.427381	100.752670	0.012685	1.027398	0.687403	-1.120342	1.726883	4.620073	1.619351	0.028263	25.806951	-5.058112	0.000000	1.595499	0.194552	7.387652	5.819659	0.101572	28.508553	-5.949846	0.000000	0.282287	0.037723	-0.978490	0.524235	0.050172	-1.039645	0.463769	0.091720	-1.039645	0.322625	0.091720	-0.856179	0.262131	0.076925	-0.795023	0.161299	0.058433	-0.733867	2.016346	0.426732	-5.442067	0.000000	0.000000	27.589285	9.690336	4.083298	15.887327	-8.375413	53.446706	41.588579	14.167101	-5.143218	11.072329	16.477884	-10.493175	54.089937	42.762390	83.320068	0.288751	-4.969688
0.550000	3.474938	-3.637970	100.609265	0.012782	1.027444	0.687677	-0.823453	1.556399	4.047782	1.840595	0.032124	25.984913	-4.282127	0.000000	1.781899	0.354693	7.513979	5.717591	0.099791	28.389624	-6.167159	0.000000	0.291425	0.022963	-0.990566	0.541204	0.030541	-1.052476	0.478781	0.055833	-1.052476	0.333069	0.055833	-0.866745	0.270617	0.046827	-0.804835	0.166520	0.035570	-0.742924	2.081616	0.259765	-5.509229	0.000000	0.000000	27.779745	9.685656	3.684569	16.542110	-8.562362	55.521656	41.142085	15.613094	-4.722746	9.456870	16.185229	-10.680436	53.467534	43.143020	83.698621	0.463913	-4.694212
0.566667	3.343201	-3.862335	100.444339	0.012999	1.027451	0.688102	-0.481823	1.370627	3.628211	2.101378	0.036676	26.159976	-3.695510	0.000000	1.990189	0.536646	7.686260	5.617070	0.098036	28.250638	-6.476067	0.000000	0.300487	0.004785	-0.993697	0.558035	0.006365	-1.055803	0.493671	0.011635	-1.055803	0.343427	0.011635	-0.869485	0.279033	0.009758	-0.807379	0.171699	0.007413	-0.745273	2.146352	0.054134	-5.526644	0.000000	0.000000	27.908217	9.691469	3.261243	17.150233	-8.717713	57.490814	40.725753	17.138852	-4.616741	7.509497	15.868511	-10.855107	52.746424	43.558308	84.175502	0.673608	-4.316504
0.583333	3.202136	-4.098628	100.239732	0.013337	1.027406	0.688686	-0.084853	1.181406	3.326013	2.411062	0.042081	26.372955	-3.201351	0.000000	2.220757	0.726931	7.842616	5.521891	0.096375	28.103932	-6.828514	0.000000	0.309965	-0.014188	-0.984903	0.575636	-0.018870	-1.046459	0.509242	-0.034496	-1.046459	0.354259	-0.034496	-0.861790	0.287834	-0.028932	-0.800234	0.177114	-0.021977	-0.738677	2.214049	-0.160495	-5.477735	0.000000	0.000000	27.969685	9.766746	2.968453	17.719721	-8.841282	59.346404	40.298788	18.800541	-4.626679	5.359527	15.556745	-11.010743	52.054885	43.968066	84.683888	0.693485	-4.055530
0.600000	3.056172	-4.324148	100.050032	0.013709	1.027322	0.689386	0.314662	0.996289	3.215118	2.717307	0.047426	26.558747	-2.992301	0.000000	2.442862	0.920147	8.034229	5.420463	0.094605	27.952829	-7.195716	0.000000	0.317469	-0.033724	-0.964665	0.589572	-0.044853	-1.024957	0.521570	-0.081997	-1.024957	0.362835	-0.081997	-0.844082	0.294802	-0.068771	-0.783791	0.181402	-0.052239	-0.723499	2.267649	-0.381497	-5.365180	0.000000	0.000000	27.973032	9.900917	2.772584	18.198151	-8.945472	60.967594	39.880267	20.562557	-4.758800	3.070350	15.284726	-11.138123	51.448098	44.365421	85.166480	0.606339	-3.874040
0.616667	2.913145	-4.561117	99.845019	0.014143	1.027150	0.690241	0.761731	0.821976	3.251428	3.054124	0.053305	26.757488	-2.961380	0.000000	2.697698	1.110801	8.192161	5.353520	0.093437	27.811294	-7.565525	0.000000	0.325849	-0.052118	-0.930095	0.605135	-0.069316	-0.988226	0.535338	-0.126719	-0.988226	0.372413	-0.126719	-0.813833	0.302584	-0.106278	-0.755702	0.186190	-0.080730	-0.697571	2.327509	-0.589565	-5.172910	0.000000	0.000000	27.944261	10.022809	2.696788	18.596802	-9.023958	62.366930	39.438579	22.385257	-4.967157	0.768519	15.028715	-11.236540	50.858223	44.753404	85.666011	0.382841	-3.826021
0.633333	2.778184	-4.815882	99.595680	0.014652	1.026850	0.691235	1.261338	0.685279	3.692589	3.415070	0.059604	26.904706	-3.429309	0.000000	2.983512	1.297701	8.373740	5.312384	0.092719	27.642983	-8.073238	0.000000	0.335226	-0.068365	-0.878535	0.622549	-0.090926	-0.933444	0.550744	-0.166224	-0.933444	0.383130	-0.166224	-0.768718	0.311291	-0.139411	-0.713810	0.191548	-0.105898	-0.658902	2.394489	-0.773362	-4.886150	0.000000	0.000000	27.919570	10.116598	2.755596	18.954155	-9.092507	63.631578	38.949664	24.400905	-5.167786	-1.429303	14.772166	-11.320015	50.267153	45.139750	86.172692	-0.040173	-3.958538
0.650000	2.659903	-5.094094	99.302930	0.015199	1.026400	0.692383	1.834805	0.555301	3.951969	3.834371	0.066922	27.160790	-3.574840	0.000000	3.318328	1.459255	8.294761	5.324416	0.092929	27.545186	-8.314190	0.000000	0.344622	-0.080785	-0.808940	0.639997	-0.107444	-0.859498	0.566179	-0.196421	-0.859498	0.393868	-0.196421	-0.707822	0.320016	-0.164737	-0.657264	0.196917	-0.125136	-0.606705	2.461600	-0.913857	-4.499080	0.000000	0.000000	27.929282	10.158493	2.988144	19.304212	-9.153077	64.876357	38.383801	26.613095	-5.377580	-3.463300	14.554697	-11.393821	49.811710	45.473324	86.601830	-0.795800	-4.409783
0.666667	2.557695	-5.396771	98.976152	0.015758	1.025773	0.693667	2.475892	0.433493	4.172836	4.307528	0.075181	27.468198	-3.625904	0.000000	3.700162	1.605445	8.113878	5.387676	0.094033	27.477731	-8.511218	0.000000	0.352336	-0.089281	-0.730405	0.654323	-0.118743	-0.776055	0.578852	-0.217077	-0.776055	0.402685	-0.217077	-0.639104	0.327179	-0.182061	-0.593454	0.201325	-0.138296	-0.547804	2.516699	-1.009961	-4.062293	0.000000	0.000000	27.997034	10.147305	3.424531	19.705749	-9.227636	66.322838	37.747625	28.699846	-5.596439	-5.379853	14.302719	-11.473516	49.260900	45.804637	87.129928	-1.811855	-5.033981
0.683333	2.471067	-5.727454	98.611702	0.016336	1.024963	0.695084	3.187227	0.320751	4.321831	4.834868	0.084384	27.832708	-3.523553	0.000000	4.137402	1.732496	7.757726	5.509119	0.096152	27.474351	-8.570037	0.000000	0.357437	-0.094474	-0.638240	0.663796	-0.125650	-0.678130	0.587233	-0.229704	-0.678130	0.408515	-0.229704	-0.558460	0.331916	-0.192651	-0.518570	0.204240	-0.146340	-0.478680	2.553137	-1.068707	-3.549701	0.000000	0.000000	28.129060	10.084704	4.014250	20.127282	-9.299819	67.831709	37.037101	30.794960	-5.803858	-6.983812	14.080254	-11.568672	48.824437	46.075461	87.589808	-3.160266	-5.964035
0.700000	2.380063	-6.078772	98.206783	0.016963	1.023983	0.696621	3.951926	0.193036	4.409012	5.409023	0.094405	28.238871	-3.296160	0.000000	4.609242	1.864600	7.373026	5.663722	0.098851	27.488894	-8.696900	0.000000	0.357653	-0.099988	-0.535403	0.664197	-0.132985	-0.568865	0.587588	-0.243112	-0.568865	0.408761	-0.243112	-0.468477	0.332116	-0.203896	-0.435015	0.204363	-0.154882	-0.401552	2.554678	-1.131089	-2.977750	0.000000	0.000000	28.303307	9.972451	4.673762	20.584937	-9.366774	69.461138	36.268080	32.656749	-6.013640	-8.320117	13.846391	-11.706691	48.337327	46.363495	88.063636	-4.668948	-6.934905
0.716667	2.282766	-6.439036	97.773832	0.017654	1.022873	0.698260	4.746995	0.058765	4.499175	6.014176	0.104967	28.654134	-3.045555	0.000000	5.109151	1.997384	6.944259	5.854731	0.102184	27.541149	-8.834642	0.000000	0.352374	-0.106653	-0.423524	0.654395	-0.141848	-0.449994	0.578916	-0.259315	-0.449994	0.402729	-0.259315	-0.370583	0.327215	-0.217486	-0.344113	0.201347	-0.165205	-0.317643	2.516975	-1.206476	-2.355511	0.000000	0.000000	28.429384	9.869018	5.411687	21.069257	-9.415462	71.213429	35.449544	34.182917	-6.219804	-9.325388	13.632644	-11.890407	47.894214	46.629379	88.482170	-6.364222	-7.984793
0.733333	2.169231	-6.786659	97.322693	0.018400	1.021686	0.700006	5.544347	-0.105171	4.343635	6.650703	0.116077	29.126594	-2.445023	0.000000	5.619186	2.130780	6.318842	6.082995	0.106168	27.696144	-8.738870	0.000000	0.338565	-0.116305	-0.298213	0.628749	-0.154686	-0.316851	0.556229	-0.282784	-0.316851	0.386946	-0.282784	-0.260936	0.314392	-0.237169	-0.242298	0.193456	-0.180157	-0.223660	2.418337	-1.315667	-1.658570	0.000000	0.000000	28.460008	9.744679	6.103500	21.491250	-9.454518	72.715938	34.627076	35.677116	-6.346624	-9.856890	13.482581	-12.123501	47.571381	46.885957	88.678883	-8.089100	-8.960409
0.750000	2.049957	-7.119871	96.882793	0.019175	1.020453	0.701814	6.321207	-0.283762	4.088257	7.283634	0.127123	29.582144	-1.735171	0.000000	6.128084	2.268848	5.829797	6.317968	0.110269	27.857016	-8.820271	0.000000	0.319678	-0.128688	-0.167377	0.593674	-0.171155	-0.177838	0.525199	-0.312892	-0.177838	0.365360	-0.312892	-0.146455	0.296853	-0.262421	-0.135993	0.182664	-0.199338	-0.125532	2.283429	-1.455744	-0.930898	0.000000	0.000000	28.310924	9.612234	6.703392	21.871528	-9.504398	74.132373	33.815280	36.584162	-6.306027	-10.018026	13.345665	-12.385475	47.218670	47.133773	88.890653	-9.751579	-9.776884
0.766667	1.931512	-7.413971	96.467577	0.019967	1.019246	0.703650	7.039251	-0.469068	3.632382	7.896619	0.137822	30.028113	-0.781823	0.000000	6.607721	2.397413	5.363316	6.550804	0.114333	28.065021	-8.883752	0.000000	0.294342	-0.143046	-0.032117	0.546622	-0.190251	-0.034124	0.483574	-0.347802	-0.034124	0.336403	-0.347802	-0.028102	0.273326	-0.291699	-0.026095	0.168187	-0.221578	-0.024087	2.102453	-1.618164	-0.178623	0.000000	0.000000	27.933135	9.446566	7.155534	22.157269	-9.564957	75.301502	33.032776	36.986734	-6.042593	-9.778638	13.235135	-12.664865	46.870969	47.353023	89.058626	-11.278639	-10.379414
0.783333	1.794903	-7.651337	96.082065	0.020775	1.018122	0.705502	7.677385	-0.677458	2.962343	8.490322	0.148184	30.481422	0.445516	0.000000	7.041514	2.531158	4.856165	6.789859	0.118505	28.333441	-8.823808	0.000000	0.261209	-0.161936	0.106947	0.485092	-0.215375	0.113631	0.429141	-0.393731	0.113631	0.298536	-0.393731	0.093578	0.242559	-0.330220	0.086894	0.149255	-0.250839	0.080210	1.865792	-1.831851	0.594806	0.000000	0.000000	27.325807	9.239778	7.411490	22.324428	-9.629241	76.161737	32.280054	37.128993	-5.540056	-9.224378	13.185863	-12.972664	46.632943	47.522016	89.104358	-12.625079	-10.769408
0.800000	1.673484	-7.826424	95.759360	0.021527	1.017117	0.707327	8.217414	-0.876348	2.075951	9.039977	0.157777	30.918944	1.907612	0.000000	7.426417	2.639170	4.330415	7.038601	0.122847	28.662347	-8.619814	0.000000	0.222282	-0.180978	0.240399	0.412799	-0.240701	0.255424	0.365186	-0.440030	0.255424	0.254046	-0.440030	0.210349	0.206411	-0.369050	0.195324	0.127012	-0.280335	0.180299	1.587735	-2.047258	1.337028	0.000000	0.000000	26.493424	8.955300	7.463112	22.381001	-9.735412	76.788565	31.592755	37.078644	-4.851801	-8.472905	13.157444	-13.276187	46.433063	47.615304	89.122392	-13.800867	-10.987266
0.816667	1.563450	-7.935284	95.494387	0.022205	1.016262	0.709067	8.637665	-1.067610	1.072740	9.509162	0.165966	31.317105	3.495146	0.000000	7.734058	2.741062	4.050368	7.257708	0.126671	28.943074	-8.652501	0.000000	0.178309	-0.200068	0.360884	0.331138	-0.266090	0.383439	0.292944	-0.486445	0.383439	0.203790	-0.486445	0.315774	0.165578	-0.407978	0.293218	0.101886	-0.309905	0.270663	1.273644	-2.263206	2.007130	0.000000	0.000000	25.506358	8.577938	7.325840	22.372327	-9.885357	77.362017	30.962740	36.953062	-4.081970	-7.735254	13.100577	-13.580955	46.171965	47.676719	89.108928	-14.710367	-10.933125
0.833333	1.470648	-7.983653	95.290344	0.022816	1.015589	0.710685	8.939049	-1.238447	0.052250	9.883885	0.172506	31.667455	5.080276	0.000000	7.975879	2.817458	3.802513	7.465083	0.130290	29.238364	-8.622000	0.000000	0.131547	-0.218224	0.465261	0.244296	-0.290238	0.494340	0.216119	-0.530590	0.494340	0.150345	-0.530590	0.407103	0.122155	-0.445002	0.378024	0.075166	-0.338029	0.348946	0.939627	-2.468593	2.587642	0.000000	0.000000	24.411547	8.147855	7.055695	22.289868	-10.078098	77.884713	30.420291	36.777699	-3.392210	-7.106594	13.022028	-13.877578	45.920985	47.664333	89.071281	-15.464108	-10.770719
0.850000	1.392578	-7.982254	95.181796	0.023313	1.015114	0.712126	9.120771	-1.393900	-0.992714	10.145242	0.177068	31.974519	6.633425	0.000000	8.158809	2.880841	3.683048	7.655203	0.133608	29.519798	-8.611230	0.000000	0.084783	-0.235412	0.543430	0.157451	-0.313098	0.577394	0.139291	-0.572381	0.577394	0.096899	-0.572381	0.475501	0.078730	-0.480053	0.441537	0.048445	-0.364654	0.407572	0.605599	-2.663030	3.022392	0.000000	0.000000	23.268174	7.697568	6.714556	22.095094	-10.302157	78.201871	30.003741	36.807902	-2.952357	-6.552459	12.902048	-14.158207	45.652559	47.579608	89.002637	-16.055629	-10.539093
0.866667	1.323373	-7.934527	95.128985	0.023767	1.014859	0.713339	9.185129	-1.526522	-1.911856	10.279243	0.179407	32.228984	8.020197	0.000000	8.279370	2.919004	3.476094	7.825609	0.136583	29.820769	-8.377726	0.000000	0.039111	-0.252244	0.601900	0.072633	-0.335484	0.639519	0.064255	-0.613305	0.639519	0.044700	-0.613305	0.526662	0.036318	-0.514375	0.489044	0.022348	-0.390725	0.451425	0.279364	-2.853431	3.347586	0.000000	0.000000	22.142144	7.251749	6.310504	21.773664	-10.543969	78.230458	29.718433	36.851210	-2.653968	-6.126755	12.746031	-14.414523	45.375783	47.421955	88.911322	-16.518348	-10.277747
0.883333	1.268741	-7.857035	95.126375	0.024175	1.014808	0.714286	9.148168	-1.628136	-2.630286	10.280011	0.179420	32.417657	9.140561	0.000000	8.349086	2.929802	3.205974	7.968794	0.139082	30.112375	-7.967743	0.000000	-0.002008	-0.267348	0.640461	-0.003729	-0.355573	0.680490	-0.003298	-0.650031	0.680490	-0.002295	-0.650031	0.560404	-0.001864	-0.545177	0.520375	-0.001147	-0.414123	0.480346	-0.014341	-3.024299	3.562054	0.000000	0.000000	21.079581	6.841601	5.905304	21.338290	-10.801676	77.975251	29.587965	36.806496	-2.519306	-5.829914	12.545986	-14.626828	45.063603	47.197796	88.800313	-16.870352	-10.008230
0.900000	1.228039	-7.762393	95.166106	0.024524	1.014932	0.714974	9.032547	-1.699611	-3.133376	10.165690	0.177425	32.540791	9.975480	0.000000	8.377501	2.919553	2.901730	8.079885	0.141021	30.380706	-7.430180	0.000000	-0.037317	-0.280096	0.659649	-0.069302	-0.372528	0.700877	-0.061308	-0.681027	0.700877	-0.042650	-0.681027	0.577193	-0.034653	-0.571173	0.535965	-0.021323	-0.433869	0.494737	-0.266552	-3.168507	3.668768	0.000000	0.000000	20.138245	6.453360	5.501032	20.812249	-11.057924	77.434225	29.595883	36.645741	-2.512967	-5.634095	12.304990	-14.787644	44.691350	46.933625	88.680751	-17.081016	-9.724452
0.916667	1.213210	-7.662488	95.235957	0.024800	1.015182	0.715377	8.844195	-1.726888	-3.387627	9.924400	0.173213	32.582675	10.485566	0.000000	8.372817	2.874685	2.508482	8.158252	0.142388	30.634985	-6.704520	0.000000	-0.064574	-0.287609	0.664754	-0.119920	-0.382520	0.706301	-0.106088	-0.699293	0.706301	-0.073801	-0.699293	0.581659	-0.059963	-0.586493	0.540112	-0.036897	-0.445507	0.498565	-0.461243	-3.253494	3.697160	0.000000	0.000000	19.340265	6.164180	5.232170	20.196596	-11.308684	76.543423	29.722499	36.367647	-2.552799	-5.476583	12.054992	-14.882301	44.338268	46.624495	88.567943	-17.216608	-9.450080
0.933333	1.224555	-7.553783	95.367261	0.024953	1.015517	0.715568	8.589117	-1.710397	-3.420453	9.582387	0.167244	32.536965	10.626005	0.000000	8.346553	2.804031	2.125002	8.233631	0.143704	30.865213	-5.892038	0.000000	-0.086768	-0.290004	0.655714	-0.161136	-0.385706	0.696696	-0.142551	-0.705117	0.696696	-0.099167	-0.705117	0.573750	-0.080572	-0.591377	0.532768	-0.049579	-0.449217	0.491786	-0.619772	-3.280587	3.646886	0.000000	0.000000	18.748250	5.913283	4.994900	19.539679	-11.544952	75.383158	29.934208	35.994870	-2.639231	-5.315776	11.842440	-14.914190	44.037182	46.299232	88.467346	-17.165536	-9.105072
0.950000	1.268050	-7.490144	95.495074	0.025079	1.015811	0.715618	8.355088	-1.639189	-3.132359	9.188272	0.160366	32.413687	10.342004	0.000000	8.366211	2.690354	1.511506	8.332887	0.145436	31.121483	-4.782623	0.000000	-0.097646	-0.285965	0.638872	-0.181338	-0.380334	0.678801	-0.160422	-0.695296	0.678801	-0.111599	-0.695296	0.559013	-0.090674	-0.583141	0.519083	-0.055795	-0.442960	0.479154	-0.697474	-3.234898	3.553213	0.000000	0.000000	18.433482	5.710122	4.887318	18.885268	-11.739672	73.992131	30.187866	35.606405	-2.723131	-5.001674	11.639442	-14.901279	43.745210	46.002429	88.398491	-16.981118	-8.746997
0.966667	1.337381	-7.460450	95.620833	0.025132	1.016041	0.715538	8.138843	-1.526395	-2.643716	8.768585	0.153041	32.245048	9.762866	0.000000	8.402783	2.568014	1.004637	8.422059	0.146993	31.304232	-3.848020	0.000000	-0.100143	-0.276120	0.617553	-0.185976	-0.367239	0.656150	-0.164525	-0.671357	0.656150	-0.114454	-0.671357	0.540359	-0.092993	-0.563063	0.501762	-0.057222	-0.427709	0.463165	-0.715314	-3.123521	3.434646	0.000000	0.000000	18.418838	5.562601	4.863314	18.328879	-11.906586	72.732745	30.435626	35.181301	-2.752074	-4.646316	11.496981	-14.859906	43.629236	45.728497	88.358201	-16.887533	-8.467412
0.983333	1.419802	-7.461082	95.758525	0.025110	1.016209	0.715408	7.954885	-1.416904	-2.368029	8.362656	0.145956	32.133072	9.421373	0.000000	8.465938	2.440604	0.455055	8.521770	0.148733	31.478391	-2.862656	0.000000	-0.097381	-0.262362	0.593868	-0.180846	-0.348942	0.630985	-0.159987	-0.637908	0.630985	-0.111297	-0.637908	0.519635	-0.090428	-0.535010	0.482518	-0.055644	-0.406399	0.445401	-0.695583	-2.967897	3.302917	0.000000	0.000000	18.733641	5.477235	4.911483	17.948613	-12.035952	71.938141	30.637266	34.401547	-2.741290	-4.354154	11.465426	-14.806965	43.770434	45.472442	88.350322	-16.872663	-8.291643
1.000000	1.507908	-7.495874	95.905139	0.025037	1.016295	0.715265	7.811966	-1.300639	-2.079796	7.981289	0.139300	32.014507	8.988464	0.000000	8.560749	2.326432	0.035624	8.627521	0.150579	31.606671	-2.083793	0.000000	-0.089903	-0.246171	0.570475	-0.166959	-0.327407	0.606130	-0.147702	-0.598539	0.606130	-0.102750	-0.598539	0.499166	-0.083484	-0.501991	0.463511	-0.051371	-0.381318	0.427856	-0.642168	-2.784730	3.172813	0.000000	0.000000	19.367646	5.451637	5.025615	17.711736	-12.126243	71.385335	30.775187	33.855959	-2.667443	-4.061045	11.540372	-14.755024	44.150002	45.261956	88.376218	-16.910150	-8.213720
1.016667	1.583193	-7.562538	96.035097	0.024971	1.016310	0.715157	7.716885	-1.196958	-1.787801	7.637594	0.133301	31.896689	8.518168	0.000000	8.678602	2.239221	-0.271626	8.718714	0.152170	31.686234	-1.511669	0.000000	-0.078704	-0.230804	0.554726	-0.146160	-0.306969	0.589397	-0.129302	-0.561177	0.589397	-0.089950	-0.561177	0.485386	-0.073084	-0.470656	0.450715	-0.044971	-0.357516	0.416045	-0.562171	-2.610902	3.085222	0.000000	0.000000	20.259310	5.479253	5.138494	17.650048	-12.172393	71.203156	30.817231	33.679890	-2.590928	-3.854700	11.731394	-14.714386	44.767118	45.104170	88.432026	-16.987809	-8.234224
1.033333	1.634497	-7.643869	96.149013	0.024948	1.016275	0.715125	7.659585	-1.121907	-1.575328	7.348536	0.128256	31.797600	8.113850	0.000000	8.805851	2.185647	-0.460692	8.797020	0.153537	31.727504	-1.136352	0.000000	-0.066318	-0.218489	0.548228	-0.123160	-0.290590	0.582492	-0.108955	-0.531234	0.582492	-0.075795	-0.531234	0.479699	-0.061583	-0.445542	0.445435	-0.037894	-0.338439	0.411171	-0.473706	-2.471589	3.049078	0.000000	0.000000	21.310618	5.547701	5.204979	17.758190	-12.170682	71.362334	30.756891	33.914843	-2.563497	-3.765080	12.021039	-14.677298	45.523778	45.006364	88.513525	-17.014278	-8.291454
1.050000	1.666072	-7.730244	96.223260	0.025034	1.016195	0.715178	7.643118	-1.063865	-1.374594	7.134696	0.124524	31.700802	7.715545	0.000000	8.938225	2.151418	-0.606694	8.871032	0.154829	31.758812	-0.877528	0.000000	-0.052522	-0.208889	0.555669	-0.097538	-0.277823	0.590398	-0.086288	-0.507894	0.590398	-0.060027	-0.507894	0.486210	-0.048772	-0.425967	0.451481	-0.030011	-0.323570	0.416752	-0.375158	-2.362998	3.090463	0.000000	0.000000	22.390390	5.655285	5.251918	18.008493	-12.133131	71.714746	30.613475	34.801729	-2.587583	-3.718405	12.412638	-14.653883	46.433101	44.969386	88.612565	-17.000215	-8.370258
1.066667	1.677309	-7.805773	96.292219	0.025165	1.016075	0.715313	7.642808	-1.040478	-1.371412	6.990713	0.122011	31.638447	7.534030	0.000000	9.054147	2.147609	-0.597663	8.928676	0.155835	31.760395	-0.840297	0.000000	-0.038847	-0.202149	0.571057	-0.072143	-0.268859	0.606748	-0.063822	-0.491506	0.606748	-0.044398	-0.491506	0.499675	-0.036073	-0.412223	0.463984	-0.022197	-0.313129	0.428293	-0.277479	-2.286755	3.176049	0.000000	0.000000	23.434874	5.750832	5.212929	18.377510	-12.066842	72.227264	30.408140	36.118892	-2.647569	-3.717203	12.862543	-14.629552	47.379693	44.997420	88.723668	-16.892573	-8.426499
1.083333	1.671235	-7.854889	96.380150	0.025330	1.015931	0.715479	7.625054	-1.036188	-1.460721	6.886583	0.120194	31.579247	7.409874	0.000000	9.129531	2.173415	-0.372626	8.960334	0.156387	31.718831	-1.062635	0.000000	-0.025263	-0.198139	0.588138	-0.046916	-0.263525	0.624897	-0.041505	-0.481755	0.624897	-0.028873	-0.481755	0.514621	-0.023459	-0.404045	0.477862	-0.014435	-0.306917	0.441103	-0.180451	-2.241387	3.271047	0.000000	0.000000	24.362283	5.837736	5.097250	18.857672	-11.958570	72.986303	30.144302	37.457400	-2.711856	-3.789607	13.338378	-14.605536	48.319486	45.074937	88.838697	-16.737390	-8.508665
1.100000	1.660808	-7.852836	96.468179	0.025540	1.015784	0.715652	7.575808	-1.036434	-1.638095	6.841982	0.119415	31.543027	7.379448	0.000000	9.141065	2.210244	0.025504	8.979564	0.156723	31.650332	-1.516238	0.000000	-0.014293	-0.194499	0.606836	-0.026544	-0.258683	0.644763	-0.023483	-0.472904	0.644763	-0.016336	-0.472904	0.530981	-0.013273	-0.396621	0.493054	-0.008167	-0.301278	0.455127	-0.102096	-2.200206	3.375037	0.000000	0.000000	25.134411	5.902205	4.924371	19.432434	-11.814016	73.956181	29.839910	38.745038	-2.804750	-3.936753	13.825881	-14.576329	49.235450	45.181128	88.944664	-16.652064	-8.705482
1.116667	1.638725	-7.796594	96.585190	0.025745	1.015636	0.715798	7.475858	-1.047718	-1.908271	6.829869	0.119204	31.541363	7.433819	0.000000	9.084502	2.268570	0.620960	8.993965	0.156974	31.554193	-2.192963	0.000000	-0.005789	-0.192524	0.618783	-0.010750	-0.256057	0.657457	-0.009510	-0.468103	0.657457	-0.006616	-0.468103	0.541435	-0.005375	-0.392595	0.502761	-0.003308	-0.298220	0.464087	-0.041349	-2.177873	3.441483	0.000000	0.000000	25.765081	5.950985	4.676961	20.076949	-11.629767	75.109952	29.505846	39.875791	-2.899450	-4.175593	14.294049	-14.550048	50.054167	45.338018	89.036916	-16.639112	-8.983621
1.133333	1.628274	-7.689829	96.752054	0.025908	1.015506	0.715856	7.313990	-1.047522	-2.297479	6.820911	0.119047	31.564289	7.595629	0.000000	8.960350	2.323808	1.392008	8.998829	0.157059	31.438022	-3.035205	0.000000	0.002316	-0.189513	0.615063	0.004301	-0.252052	0.653505	0.003805	-0.460781	0.653505	0.002647	-0.460781	0.538181	0.002151	-0.386454	0.499739	0.001323	-0.293555	0.461298	0.016542	-2.143805	3.420798	0.000000	0.000000	26.249428	5.974899	4.384202	20.791683	-11.419307	76.592581	29.167295	40.437550	-3.057695	-4.567807	14.702036	-14.520548	50.696217	45.545529	89.121866	-16.694567	-9.352098
1.150000	1.619065	-7.538746	96.953371	0.026034	1.015411	0.715767	7.088583	-1.043506	-2.759754	6.797462	0.118638	31.614705	7.843993	0.000000	8.759463	2.390558	2.423827	8.969864	0.156554	31.252696	-4.185858	0.000000	0.010241	-0.187042	0.597025	0.019018	-0.248765	0.634339	0.016825	-0.454773	0.634339	0.011704	-0.454773	0.522397	0.009510	-0.381415	0.485083	0.005852	-0.289727	0.447769	0.073150	-2.115851	3.320472	0.000000	0.000000	26.624694	5.980483	4.037867	21.460287	-11.180049	77.915187	28.836495	41.120448	-3.287605	-5.062877	15.022449	-14.487251	51.104241	45.826010	89.205959	-16.792699	-9.749763
1.166667	1.615790	-7.346693	97.185377	0.026147	1.015385	0.715523	6.804183	-1.024282	-3.202215	6.757408	0.117939	31.677745	8.063879	0.000000	8.497556	2.443920	3.452712	8.929544	0.155850	31.071003	-5.279870	0.000000	0.017536	-0.185219	0.563755	0.032567	-0.246341	0.598990	0.028811	-0.450341	0.598990	0.020042	-0.450341	0.493286	0.016284	-0.377698	0.458051	0.010020	-0.286904	0.422817	0.125261	-2.095230	3.135439	0.000000	0.000000	26.868316	6.017200	3.670973	22.048777	-10.922238	78.989210	28.555106	41.823842	-3.624180	-5.654625	15.247475	-14.433080	51.243134	46.147965	89.297626	-16.906832	-10.173497
1.183333	1.616938	-7.115282	97.449475	0.026215	1.015448	0.715095	6.454501	-0.994056	-3.662996	6.685680	0.116687	31.748056	8.309221	0.000000	8.165470	2.492654	4.602342	8.852572	0.154507	30.832776	-6.486753	0.000000	0.023349	-0.183753	0.511496	0.043362	-0.244392	0.543465	0.038360	-0.446778	0.543465	0.026686	-0.446778	0.447559	0.021682	-0.374710	0.415591	0.013342	-0.284634	0.383622	0.166780	-2.078653	2.844790	0.000000	0.000000	26.982666	6.095766	3.347736	22.556330	-10.658513	79.897170	28.319023	42.383964	-4.130685	-6.491917	15.356624	-14.348547	51.049122	46.519674	89.401806	-16.962637	-10.535406
1.200000	1.614163	-6.855383	97.701856	0.026329	1.015605	0.714506	6.056491	-0.948911	-3.950569	6.584724	0.114925	31.784178	8.374994	0.000000	7.783143	2.520826	5.567714	8.757709	0.152851	30.607055	-7.444025	0.000000	0.027075	-0.184651	0.455584	0.050280	-0.245585	0.484058	0.044481	-0.448960	0.484058	0.030944	-0.448960	0.398636	0.025142	-0.376540	0.370162	0.015470	-0.286024	0.341688	0.193392	-2.088805	2.533822	0.000000	0.000000	26.983701	6.198243	2.989079	22.873321	-10.372907	80.183813	28.170125	43.092630	-4.699535	-7.420730	15.394191	-14.224700	50.609037	46.909579	89.463311	-16.924482	-10.774946
1.216667	1.615275	-6.582011	97.943843	0.026448	1.015833	0.713796	5.631977	-0.893207	-4.182940	6.464811	0.112832	31.797172	8.403530	0.000000	7.368033	2.532788	6.466133	8.638060	0.150763	30.358110	-8.320810	0.000000	0.029568	-0.186148	0.396858	0.054911	-0.247577	0.421662	0.048578	-0.452600	0.421662	0.033794	-0.452600	0.347251	0.027457	-0.379593	0.322447	0.016895	-0.288343	0.297643	0.211204	-2.105742	2.207205	0.000000	0.000000	26.878355	6.345061	2.663102	22.975060	-10.081606	79.817308	28.151190	43.785071	-5.312091	-8.412496	15.360217	-14.034266	49.908128	47.281780	89.482353	-16.681967	-10.853583
1.233333	1.615449	-6.290126	98.156298	0.026589	1.016136	0.713008	5.184103	-0.832391	-4.364649	6.338773	0.110632	31.785706	8.415482	0.000000	6.916979	2.529865	7.253487	8.494759	0.148262	30.098339	-9.093500	0.000000	0.028472	-0.188455	0.343020	0.052876	-0.250645	0.364459	0.046777	-0.458208	0.364459	0.032541	-0.458208	0.300143	0.026439	-0.384297	0.278704	0.016269	-0.291916	0.257265	0.203375	-2.131836	1.907775	0.000000	0.000000	26.687950	6.506327	2.330415	22.849614	-9.785498	78.746205	28.272331	44.266261	-5.831275	-9.341049	15.292798	-13.784313	49.065941	47.620996	89.417165	-16.193313	-10.720953
1.250000	1.622985	-5.994872	98.331657	0.026760	1.016485	0.712183	4.728561	-0.756723	-4.410535	6.195781	0.108137	31.725452	8.304691	0.000000	6.462273	2.494231	7.752356	8.354076	0.145806	29.899703	-9.534413	0.000000	0.025761	-0.190222	0.301785	0.047841	-0.252995	0.320646	0.042323	-0.462505	0.320646	0.029443	-0.462505	0.264061	0.023922	-0.387900	0.245200	0.014720	-0.294653	0.226338	0.184010	-2.151825	1.678435	0.000000	0.000000	26.432398	6.675731	1.999119	22.446185	-9.479915	76.798368	28.557596	44.609454	-6.222632	-10.079490	15.240258	-13.469275	48.250731	47.886769	89.179811	-15.431820	-10.370922
1.266667	1.640488	-5.692005	98.457414	0.026960	1.016888	0.711421	4.281422	-0.665708	-4.333790	6.061528	0.105794	31.641841	8.106485	0.000000	6.012188	2.427367	8.014019	8.226470	0.143579	29.755209	-9.737131	0.000000	0.018935	-0.190296	0.273324	0.035164	-0.253094	0.290407	0.031108	-0.462686	0.290407	0.021641	-0.462686	0.239159	0.017583	-0.388052	0.222076	0.010819	-0.294769	0.204993	0.135251	-2.152668	1.520149	0.000000	0.000000	26.165488	6.820358	1.675563	21.851817	-9.178419	74.247812	28.975610	44.665725	-6.412137	-10.609201	15.233991	-13.097110	47.538037	48.069557	88.867871	-14.417875	-9.803931
1.283333	1.675970	-5.409095	98.523992	0.027196	1.017317	0.710710	3.864840	-0.552891	-4.115740	5.913524	0.103210	31.519021	7.817192	0.000000	5.590773	2.321180	7.986567	8.094793	0.141281	29.693491	-9.630532	0.000000	0.013149	-0.187666	0.257085	0.024419	-0.249596	0.273153	0.021602	-0.456292	0.273153	0.015028	-0.456292	0.224950	0.012210	-0.382689	0.208882	0.007513	-0.290695	0.192814	0.093922	-2.122917	1.429831	0.000000	0.000000	25.923325	6.963754	1.415769	21.052254	-8.876440	71.087002	29.547981	44.439634	-6.446604	-10.848751	15.255025	-12.676234	46.951459	48.166942	88.449682	-13.122922	-9.040297
1.300000	1.725263	-5.139390	98.551344	0.027390	1.017802	0.710113	3.483720	-0.433898	-3.881217	5.774099	0.100777	31.401427	7.571058	0.000000	5.201778	2.208570	7.975173	7.966190	0.139036	29.637212	-9.623785	0.000000	0.006963	-0.182062	0.246461	0.012932	-0.242142	0.261865	0.011440	-0.442665	0.261865	0.007958	-0.442665	0.215654	0.006466	-0.371260	0.200250	0.003979	-0.282013	0.184846	0.049738	-2.059517	1.370743	0.000000	0.000000	25.703740	7.064980	1.181535	20.157623	-8.593634	67.710880	30.225386	43.906394	-6.328830	-10.878980	15.328979	-12.207298	46.556295	48.137388	87.998787	-11.627602	-8.120850
1.316667	1.783182	-4.895406	98.538389	0.027565	1.018344	0.709656	3.146384	-0.307297	-3.506240	5.627154	0.098212	31.256065	7.205440	0.000000	4.860899	2.083999	7.861044	7.840289	0.136839	29.614595	-9.535969	0.000000	0.001696	-0.173876	0.239890	0.003149	-0.231256	0.254883	0.002786	-0.422763	0.254883	0.001938	-0.422763	0.209904	0.001575	-0.354569	0.194911	0.000969	-0.269335	0.179917	0.012114	-1.966925	1.334196	0.000000	0.000000	25.522500	7.157175	1.040781	19.200055	-8.327309	64.156917	30.984977	43.359443	-6.115197	-10.648577	15.468825	-11.719164	46.425036	47.989552	87.361772	-9.898756	-7.053847
1.333333	1.852626	-4.693895	98.485786	0.027695	1.018919	0.709364	2.879340	-0.180431	-3.099698	5.488535	0.095793	31.107556	6.864955	0.000000	4.594739	1.946599	7.599057	7.733313	0.134972	29.638881	-9.294176	0.000000	-0.000181	-0.162190	0.233881	-0.000336	-0.215713	0.248499	-0.000298	-0.394350	0.248499	-0.000207	-0.394350	0.204646	-0.000168	-0.330739	0.190028	-0.000104	-0.251233	0.175411	-0.001294	-1.834730	1.300777	0.000000	0.000000	25.370885	7.241446	1.037201	18.196872	-8.085760	60.377119	31.781268	43.375815	-5.880037	-10.186691	15.674437	-11.219520	46.613319	47.699681	86.475112	-8.042916	-5.962478
1.350000	1.919127	-4.533664	98.355418	0.027844	1.019522	0.709219	2.685266	-0.064717	-2.611114	5.365157	0.093640	30.954117	6.534473	0.000000	4.387132	1.804670	7.103327	7.626289	0.133104	29.704258	-8.815652	0.000000	0.001294	-0.148665	0.233849	0.002404	-0.197725	0.248464	0.002126	-0.361465	0.248464	0.001479	-0.361465	0.204618	0.001202	-0.303158	0.190002	0.000740	-0.230282	0.175387	0.009245	-1.681731	1.300597	0.000000	0.000000	25.236101	7.268550	1.106370	17.214472	-7.862561	56.627245	32.593314	43.813730	-5.740578	-9.511201	15.913704	-10.716853	46.998914	47.266278	85.447020	-6.030113	-4.864506
1.366667	1.978693	-4.407186	98.163759	0.028001	1.020138	0.709243	2.560015	0.036732	-2.042894	5.269682	0.091973	30.788701	6.172117	0.000000	4.231281	1.672313	6.535959	7.526577	0.131364	29.758555	-8.316335	0.000000	0.004816	-0.134047	0.238878	0.008943	-0.178282	0.253808	0.007912	-0.325921	0.253808	0.005504	-0.325921	0.209019	0.004472	-0.273348	0.194089	0.002752	-0.207638	0.179159	0.034399	-1.516362	1.328570	0.000000	0.000000	25.121397	7.225343	1.188897	16.282542	-7.658258	52.991089	33.388411	44.400094	-5.672823	-8.657377	16.241518	-10.229980	47.774964	46.685823	84.054561	-4.025285	-3.851586
1.383333	2.031946	-4.313453	97.871078	0.028244	1.020730	0.709387	2.510869	0.126625	-1.391122	5.219684	0.091101	30.620690	5.816509	0.000000	4.113225	1.547328	5.866169	7.427840	0.129640	29.790048	-7.824808	0.000000	0.012371	-0.118574	0.258144	0.022974	-0.157704	0.274278	0.020324	-0.288302	0.274278	0.014139	-0.288302	0.225876	0.011488	-0.241797	0.209742	0.007069	-0.183672	0.193608	0.088364	-1.341337	1.435721	0.000000	0.000000	24.977644	7.075107	1.208253	15.400801	-7.463547	49.496152	34.157903	45.046348	-5.666498	-7.672627	16.650692	-9.771389	48.940534	45.968636	82.370665	-2.100121	-2.976731
1.400000	2.071290	-4.246526	97.543659	0.028479	1.021266	0.709656	2.510626	0.193993	-0.717220	5.188197	0.090551	30.453528	5.458228	0.000000	4.028605	1.452016	5.235210	7.340538	0.128117	29.782709	-7.462325	0.000000	0.022994	-0.103082	0.276297	0.042703	-0.137100	0.293565	0.037777	-0.250635	0.293565	0.026280	-0.250635	0.241760	0.021352	-0.210206	0.224491	0.013139	-0.159675	0.207223	0.164245	-1.166090	1.536680	0.000000	0.000000	24.837352	6.855678	1.210063	14.657312	-7.262755	46.522050	34.845486	45.301850	-5.729403	-6.653596	17.100146	-9.339067	50.371241	45.124687	80.476305	-0.383737	-2.325249
1.416667	2.097117	-4.193481	97.187709	0.028707	1.021741	0.710036	2.548601	0.242936	-0.020460	5.186444	0.090521	30.293265	5.076448	0.000000	3.960781	1.381862	4.618435	7.266026	0.126816	29.750598	-7.171700	0.000000	0.035818	-0.087563	0.294014	0.066517	-0.116459	0.312390	0.058845	-0.212902	0.312390	0.040936	-0.212902	0.257262	0.033260	-0.178559	0.238887	0.020466	-0.135636	0.220511	0.255841	-0.990534	1.635219	0.000000	0.000000	24.672848	6.604237	1.216138	14.054319	-7.055322	44.060410	35.423322	45.177600	-5.824469	-5.621276	17.576487	-8.918968	51.998645	44.165395	78.458253	1.039679	-1.881445
1.433333	2.105215	-4.143499	96.778034	0.028993	1.022145	0.710457	2.613039	0.271779	0.679195	5.220295	0.091111	30.162138	4.730706	0.000000	3.881435	1.337306	4.012910	7.179628	0.125308	29.696849	-6.969767	0.000000	0.050065	-0.073979	0.323064	0.092975	-0.098393	0.343256	0.082251	-0.179873	0.343256	0.057219	-0.179873	0.282681	0.046490	-0.150859	0.262490	0.028607	-0.114594	0.242298	0.357607	-0.836870	1.796786	0.000000	0.000000	24.468107	6.270496	1.049578	13.570729	-6.833069	42.097326	35.877893	44.772468	-5.955869	-4.667533	18.080410	-8.505445	53.791627	43.104003	76.372504	2.168262	-1.628711
1.450000	2.088956	-4.111965	96.360964	0.029333	1.022456	0.710903	2.703822	0.275698	1.349963	5.270586	0.091989	30.052386	4.403248	0.000000	3.821666	1.331521	3.475883	7.109547	0.124085	29.623359	-6.891993	0.000000	0.066717	-0.064759	0.357396	0.123901	-0.086130	0.379733	0.109610	-0.157456	0.379733	0.076251	-0.157456	0.312721	0.061954	-0.132057	0.290384	0.038122	-0.100312	0.268047	0.476554	-0.732569	1.987729	0.000000	0.000000	24.286762	5.863374	0.703530	13.191143	-6.595334	40.631458	36.212418	44.021795	-6.091242	-3.842527	18.581890	-8.125992	55.660671	42.029738	74.324626	3.022330	-1.515823
1.466667	2.051385	-4.083383	95.946193	0.029703	1.022709	0.711292	2.790299	0.257558	1.975158	5.320695	0.092864	29.958745	4.118102	0.000000	3.746883	1.359735	3.073822	7.022253	0.122561	29.520406	-6.968633	0.000000	0.084132	-0.059787	0.396064	0.156241	-0.079517	0.420818	0.138220	-0.145367	0.420818	0.096154	-0.145367	0.346556	0.078125	-0.121918	0.321802	0.048073	-0.092610	0.297048	0.600945	-0.676324	2.202791	0.000000	0.000000	24.077513	5.412894	0.181076	12.912367	-6.358027	39.689007	36.416304	43.096177	-6.277992	-3.217188	19.034724	-7.775875	57.463968	40.979025	72.358972	3.684197	-1.444381
1.483333	2.003545	-4.051152	95.564420	0.030033	1.022927	0.711576	2.858449	0.227928	2.530859	5.368884	0.093705	29.873915	3.859416	0.000000	3.629622	1.414796	2.905187	6.870648	0.119915	29.341668	-7.282160	0.000000	0.101242	-0.057682	0.436616	0.188016	-0.076717	0.463904	0.166330	-0.140248	0.463904	0.115709	-0.140248	0.382039	0.094013	-0.117625	0.354750	0.057850	-0.089350	0.327462	0.723159	-0.652512	2.428325	0.000000	0.000000	23.821791	4.929573	-0.504329	12.647016	-6.141095	38.856297	36.510804	42.642128	-6.542431	-2.663231	19.411911	-7.429629	59.098411	39.954639	70.519481	4.191203	-1.358931
1.500000	1.942924	-4.017688	95.219154	0.030344	1.023121	0.711795	2.914556	0.183202	2.990309	5.422597	0.094642	29.791982	3.666595	0.000000	3.486667	1.494189	2.896680	6.678074	0.116554	29.108630	-7.732975	0.000000	0.116728	-0.059257	0.479417	0.216776	-0.078811	0.509380	0.191773	-0.144077	0.509380	0.133409	-0.144077	0.419490	0.108394	-0.120836	0.389526	0.066699	-0.091789	0.359562	0.833780	-0.670323	2.666371	0.000000	0.000000	23.523693	4.437480	-1.315057	12.432556	-5.950980	38.364311	36.507945	42.212817	-6.866479	-2.304348	19.702046	-7.095699	60.494776	38.987750	68.851715	4.594687	-1.234589
1.516667	1.866861	-3.992281	94.899767	0.030643	1.023264	0.711912	2.964783	0.119694	3.347583	5.480058	0.095645	29.725663	3.555720	0.000000	3.337209	1.602120	3.025343	6.472354	0.112964	28.827373	-8.332040	0.000000	0.132152	-0.064411	0.529766	0.245420	-0.085666	0.562876	0.217113	-0.156608	0.562876	0.151037	-0.156608	0.463545	0.122717	-0.131346	0.430435	0.075512	-0.099772	0.397324	0.943951	-0.728627	2.946399	0.000000	0.000000	23.234536	3.966212	-2.158679	12.229465	-5.800607	38.179925	36.436439	41.772144	-7.234032	-2.274108	19.884855	-6.781256	61.643417	38.110260	67.399930	4.834174	-1.126708
1.533333	1.789816	-3.959230	94.599792	0.030986	1.023394	0.711961	3.003297	0.056247	3.636581	5.557381	0.096995	29.670897	3.497068	0.000000	3.149089	1.709915	3.180638	6.215620	0.108483	28.526139	-8.910259	0.000000	0.145620	-0.071969	0.590415	0.270430	-0.095719	0.627316	0.239238	-0.174986	0.627316	0.166429	-0.174986	0.516613	0.135222	-0.146759	0.479712	0.083207	-0.111480	0.442811	1.040146	-0.814128	3.283712	0.000000	0.000000	22.922764	3.526498	-3.044736	11.982884	-5.646669	37.906572	36.288683	41.615579	-7.532364	-2.317372	19.966295	-6.479142	62.479888	37.298236	66.285976	4.982984	-1.007641
1.550000	1.719308	-3.906500	94.369566	0.031303	1.023512	0.711952	3.001922	0.002174	3.836056	5.624955	0.098174	29.624184	3.459735	0.000000	2.918148	1.814147	3.538188	5.920124	0.103326	28.164477	-9.679599	0.000000	0.156012	-0.081235	0.653178	0.289729	-0.108043	0.694002	0.256312	-0.197515	0.694002	0.178306	-0.197515	0.571531	0.144872	-0.165655	0.530707	0.089145	-0.125833	0.489883	1.114376	-0.918950	3.632780	0.000000	0.000000	22.599843	3.080579	-4.005044	11.724548	-5.520574	37.749134	36.118300	41.319826	-7.791175	-2.461832	19.968157	-6.191858	63.096100	36.535606	65.353610	5.179511	-0.875569
1.566667	1.658925	-3.817725	94.188269	0.031638	1.023651	0.711908	2.954693	-0.042668	3.809792	5.693794	0.099375	29.642626	3.673386	0.000000	2.642957	1.891957	3.654959	5.617638	0.098046	27.906040	-10.040229	0.000000	0.161325	-0.090919	0.720141	0.299597	-0.120922	0.765149	0.265041	-0.221060	0.765149	0.184379	-0.221060	0.630123	0.149807	-0.185402	0.585114	0.092181	-0.140833	0.540105	1.152329	-1.028492	4.005206	0.000000	0.000000	22.276520	2.666329	-4.939663	11.451251	-5.399094	37.582837	35.917083	40.969926	-7.963786	-2.595842	19.887531	-5.933411	63.466836	35.856545	64.633745	5.333980	-0.671899
1.583333	1.622568	-3.689079	94.079288	0.031975	1.023813	0.711829	2.849188	-0.054316	3.711964	5.739773	0.100178	29.701201	3.913953	0.000000	2.323003	1.928807	3.755938	5.304138	0.092575	27.691350	-10.273905	0.000000	0.162107	-0.099513	0.789231	0.301049	-0.132352	0.838558	0.266326	-0.241955	0.838558	0.185272	-0.241955	0.690577	0.150533	-0.202927	0.641250	0.092628	-0.154145	0.591923	1.157915	-1.125709	4.389464	0.000000	0.000000	21.957406	2.277732	-5.849245	11.154733	-5.288566	37.382184	35.705185	40.601130	-8.102120	-2.717724	19.783463	-5.696974	63.805382	35.229283	63.980462	5.494834	-0.444214
1.600000	1.615736	-3.522565	94.069971	0.032258	1.023999	0.711723	2.680307	-0.026993	3.595544	5.746984	0.100304	29.787646	4.086532	0.000000	1.969479	1.923789	3.972634	4.985898	0.087020	27.496292	-10.513170	0.000000	0.158671	-0.105931	0.850466	0.294667	-0.140888	0.903620	0.260680	-0.257560	0.903620	0.181345	-0.257560	0.744158	0.147341	-0.216014	0.691004	0.090664	-0.164087	0.637849	1.133368	-1.198308	4.730036	0.000000	0.000000	21.647186	1.931020	-6.684791	10.858459	-5.196294	37.194335	35.491056	40.234816	-8.229069	-2.806555	19.652615	-5.479551	64.093927	34.662567	63.455360	5.695067	-0.154550
1.616667	1.641096	-3.330571	94.166403	0.032475	1.024197	0.711581	2.455640	0.045391	3.569828	5.704941	0.099570	29.853832	4.020416	0.000000	1.601641	1.874577	4.339532	4.668076	0.081473	27.327860	-10.787381	0.000000	0.152682	-0.109721	0.897566	0.283545	-0.145929	0.953664	0.250841	-0.266776	0.953664	0.174500	-0.266776	0.785370	0.141780	-0.223744	0.729272	0.087242	-0.169958	0.673175	1.090590	-1.241190	4.991993	0.000000	0.000000	21.354607	1.652834	-7.406875	10.565160	-5.119511	36.997256	35.300221	39.926374	-8.398432	-2.807762	19.492056	-5.292159	64.345171	34.172594	62.934684	5.932506	0.212905
1.633333	1.692666	-3.124698	94.390981	0.032581	1.024394	0.711430	2.184555	0.151682	3.553309	5.613143	0.097968	29.916522	3.798480	0.000000	1.247477	1.787493	4.811274	4.373316	0.076329	27.212648	-10.986181	0.000000	0.144585	-0.111718	0.922120	0.268509	-0.148585	0.979753	0.237539	-0.271631	0.979753	0.165246	-0.271631	0.806855	0.134262	-0.227816	0.749223	0.082616	-0.173051	0.691590	1.032757	-1.263778	5.128556	0.000000	0.000000	21.087986	1.447256	-8.029458	10.317750	-5.070898	36.871321	35.121205	39.701345	-8.544093	-2.680604	19.327891	-5.143941	64.590051	33.748622	62.391202	6.284270	0.667650
1.650000	1.751747	-2.920429	94.734405	0.032607	1.024585	0.711302	1.888247	0.274504	3.602356	5.487447	0.095774	29.950483	3.339932	0.000000	0.936355	1.687782	5.411697	4.129075	0.072066	27.140344	-11.175520	0.000000	0.135804	-0.114144	0.921372	0.252201	-0.151812	0.978958	0.223112	-0.277530	0.978958	0.155210	-0.277530	0.806201	0.126107	-0.232763	0.748615	0.077598	-0.176809	0.691029	0.970031	-1.291221	5.124395	0.000000	0.000000	20.815097	1.304919	-8.535123	10.149637	-5.020933	36.818112	34.911148	39.605395	-8.645537	-2.335647	19.204678	-5.061153	64.947195	33.393506	61.669463	6.667225	1.194372
1.666667	1.820611	-2.725516	95.133176	0.032562	1.024762	0.711117	1.586182	0.402335	3.545041	5.353624	0.093438	29.994142	2.959210	0.000000	0.657976	1.568597	6.016738	3.911193	0.068263	27.123033	-11.266937	0.000000	0.128090	-0.116061	0.912401	0.237875	-0.154361	0.969426	0.210439	-0.282191	0.969426	0.146394	-0.282191	0.798351	0.118944	-0.236672	0.741326	0.073190	-0.179779	0.684301	0.914932	-1.312908	5.074502	0.000000	0.000000	20.542085	1.169548	-9.049067	9.924478	-4.940765	36.349262	34.765646	40.267581	-8.842893	-1.795147	19.136195	-5.001590	65.456654	33.073481	60.737446	7.076459	1.740290
1.683333	1.878767	-2.538272	95.591364	0.032447	1.024931	0.710920	1.268864	0.525245	3.587089	5.203217	0.090813	29.957845	2.332800	0.000000	0.415266	1.459575	6.712820	3.732186	0.065139	27.127527	-11.397740	0.000000	0.120876	-0.119466	0.883465	0.224478	-0.158889	0.938681	0.198587	-0.290469	0.938681	0.138149	-0.290469	0.773032	0.112245	-0.243615	0.717815	0.069068	-0.185052	0.662599	0.863404	-1.351421	4.913566	0.000000	0.000000	20.247441	1.047883	-9.502221	9.780861	-4.859142	36.032510	34.604949	40.718286	-9.013124	-1.077311	19.103322	-4.993351	65.990268	32.818898	59.685636	7.518181	2.340231
1.700000	1.917300	-2.365152	96.089113	0.032281	1.025083	0.710814	0.958452	0.631579	3.714346	5.058729	0.088291	29.839223	1.483362	0.000000	0.233966	1.377762	7.512674	3.627891	0.063319	27.149380	-11.652770	0.000000	0.113479	-0.125001	0.835458	0.210742	-0.166251	0.887674	0.186434	-0.303926	0.887674	0.129695	-0.303926	0.731026	0.105376	-0.254901	0.678810	0.064842	-0.193626	0.626594	0.810568	-1.414031	4.646567	0.000000	0.000000	19.961264	0.953788	-9.869241	9.791656	-4.776477	36.153952	34.360403	40.528953	-9.021794	-0.248635	19.171679	-5.040086	66.719648	32.604369	58.488107	7.894095	2.855299
1.716667	1.929787	-2.199746	96.603868	0.032055	1.025218	0.710691	0.638755	0.718422	3.994729	4.912692	0.085743	29.606506	0.332498	0.000000	0.079683	1.325258	8.367665	3.562493	0.062177	27.176993	-11.993533	0.000000	0.107091	-0.133014	0.774807	0.198878	-0.176908	0.823232	0.175940	-0.323409	0.823232	0.122394	-0.323409	0.677956	0.099445	-0.271241	0.629530	0.061192	-0.206038	0.581105	0.764939	-1.504677	4.309242	0.000000	0.000000	19.630676	0.874744	-10.217599	9.807253	-4.651857	36.278685	34.125013	39.881756	-9.070557	0.646526	19.266678	-5.116506	67.467793	32.443312	57.098972	8.249756	3.434849
1.733333	1.913449	-2.056713	97.121523	0.031769	1.025305	0.710690	0.349015	0.771106	4.281178	4.792605	0.083647	29.327577	-0.896560	0.000000	-0.003450	1.307714	9.154703	3.583003	0.062535	27.275382	-12.275975	0.000000	0.100287	-0.142533	0.699284	0.186242	-0.189570	0.742990	0.164761	-0.346556	0.742990	0.114618	-0.346556	0.611874	0.093126	-0.290654	0.568169	0.057304	-0.220784	0.524463	0.716338	-1.612367	3.889210	0.000000	0.000000	19.357359	0.844467	-10.401497	9.929029	-4.502308	36.767978	33.812744	38.677292	-9.011294	1.645024	19.386646	-5.214453	68.168344	32.324079	55.840294	8.567769	3.979671
1.750000	1.865674	-1.936149	97.594802	0.031455	1.025350	0.710787	0.097869	0.783517	4.575608	4.706676	0.082147	29.022403	-2.135744	0.000000	-0.027657	1.329351	9.846683	3.671734	0.064084	27.431282	-12.506225	0.000000	0.093040	-0.153310	0.623956	0.172784	-0.203902	0.662954	0.152855	-0.372757	0.662954	0.106335	-0.372757	0.545962	0.086397	-0.312629	0.506965	0.053163	-0.237477	0.467967	0.664573	-1.734271	3.470258	0.000000	0.000000	19.146752	0.861833	-10.461240	10.117436	-4.329278	37.592465	33.418364	36.992985	-8.792004	2.677950	19.535657	-5.304105	68.887061	32.207789	54.811585	8.831420	4.421610
1.766667	1.787235	-1.843175	97.978035	0.031174	1.025341	0.710955	-0.106412	0.760892	4.986772	4.648742	0.081136	28.684065	-3.465166	0.000000	-0.000224	1.393370	10.468260	3.808235	0.066466	27.617091	-12.783222	0.000000	0.085636	-0.165786	0.564356	0.159034	-0.220495	0.599628	0.140691	-0.403092	0.599628	0.097873	-0.403092	0.493812	0.079521	-0.338070	0.458539	0.048932	-0.256802	0.423267	0.611686	-1.875402	3.138779	0.000000	0.000000	19.042407	0.847250	-10.547657	10.377221	-4.147365	38.900388	32.938778	34.878946	-8.347420	3.651453	19.730396	-5.386285	69.741898	32.086015	54.020341	9.068757	4.691737
1.783333	1.685129	-1.787597	98.274140	0.030904	1.025270	0.711216	-0.237105	0.696566	5.301768	4.645907	0.081086	28.388833	-4.576544	0.000000	0.108822	1.490768	10.910625	4.032115	0.070374	27.874688	-12.954074	0.000000	0.078854	-0.178073	0.518025	0.146440	-0.236837	0.550402	0.129549	-0.432966	0.550402	0.090122	-0.432966	0.453272	0.073224	-0.363126	0.420896	0.045057	-0.275835	0.388519	0.563246	-2.014395	2.881102	0.000000	0.000000	19.082837	0.858331	-10.515384	10.700121	-3.967780	40.582393	32.369885	32.860590	-7.658519	4.533541	19.932231	-5.469561	70.629700	31.975072	53.715966	9.201254	4.730360
1.800000	1.578638	-1.760665	98.502509	0.030537	1.025155	0.711537	-0.316792	0.604715	5.495719	4.668087	0.081473	28.138352	-5.433362	0.000000	0.265644	1.605292	11.216258	4.293209	0.074931	28.179422	-13.006337	0.000000	0.074074	-0.186676	0.478350	0.137563	-0.248279	0.508247	0.121696	-0.453885	0.508247	0.084659	-0.453885	0.418556	0.068785	-0.380670	0.388659	0.042326	-0.289162	0.358762	0.529102	-2.111719	2.660438	0.000000	0.000000	19.197288	0.898752	-10.337415	11.096330	-3.815836	42.681836	31.716696	31.138827	-6.765336	5.266514	20.089935	-5.530380	71.426326	31.846178	53.813056	9.281289	4.587080
1.816667	1.463507	-1.752701	98.649592	0.030112	1.025003	0.711949	-0.341464	0.485421	5.595992	4.734581	0.082634	27.954231	-6.049353	0.000000	0.456827	1.742792	11.387726	4.588713	0.080088	28.488259	-13.005854	0.000000	0.070050	-0.193060	0.449935	0.130090	-0.256770	0.478056	0.115085	-0.469406	0.478056	0.080060	-0.469406	0.393693	0.065049	-0.393688	0.365572	0.040027	-0.299050	0.337451	0.500362	-2.183932	2.502405	0.000000	0.000000	19.362120	0.940604	-10.111074	11.530711	-3.691959	44.969056	31.023542	29.859846	-5.709943	5.879576	20.211182	-5.573754	72.074874	31.689282	54.617852	9.301523	4.219445
1.833333	1.359001	-1.771730	98.714070	0.029622	1.024797	0.712506	-0.295982	0.355337	5.584183	4.840818	0.084488	27.844678	-6.364491	0.000000	0.710734	1.882079	11.357050	4.955959	0.086498	28.820669	-12.872002	0.000000	0.069438	-0.193773	0.425444	0.128954	-0.257718	0.452034	0.114080	-0.471139	0.452034	0.079361	-0.471139	0.372263	0.064480	-0.395141	0.345673	0.039677	-0.300154	0.319083	0.495991	-2.191994	2.366191	0.000000	0.000000	19.547350	1.008766	-9.657156	12.029875	-3.606213	47.571538	30.306860	28.827039	-4.522142	6.266332	20.265473	-5.611619	72.567735	31.533384	55.599488	9.224051	3.677408
1.850000	1.269390	-1.804810	98.690022	0.029090	1.024543	0.713198	-0.193899	0.221277	5.471285	4.981632	0.086946	27.830366	-6.371694	0.000000	1.002421	2.017053	11.125548	5.377856	0.093861	29.150922	-12.625194	0.000000	0.071888	-0.188872	0.403900	0.133503	-0.251200	0.429144	0.118104	-0.459223	0.429144	0.082161	-0.459223	0.353413	0.066755	-0.385148	0.328169	0.041077	-0.292563	0.302925	0.513487	-2.136556	2.246373	0.000000	0.000000	19.728302	1.100856	-9.004437	12.583579	-3.555474	50.385055	29.585283	28.059632	-3.242517	6.417418	20.251114	-5.649843	72.876751	31.380474	56.773798	9.065431	2.975896
1.866667	1.211379	-1.825330	98.608688	0.028517	1.024278	0.714069	-0.055707	0.103350	5.232735	5.167190	0.090184	27.915206	-6.059273	0.000000	1.284668	2.123433	10.731057	5.805785	0.101330	29.475929	-12.240173	0.000000	0.074224	-0.177390	0.375654	0.137841	-0.235929	0.399132	0.121942	-0.431306	0.399132	0.084830	-0.431306	0.328697	0.068924	-0.361734	0.305219	0.042411	-0.274777	0.281741	0.530171	-2.006672	2.089275	0.000000	0.000000	19.817347	1.195027	-8.222258	13.210123	-3.512315	53.303730	28.834419	27.583153	-1.938296	6.427338	20.195456	-5.682798	72.982381	31.204252	58.136004	8.912045	2.210975
1.883333	1.193674	-1.824028	98.509615	0.027845	1.024001	0.715074	0.083721	0.014336	4.871346	5.348429	0.093348	28.079425	-5.477351	0.000000	1.557163	2.191463	10.215807	6.258526	0.109232	29.805055	-11.733924	0.000000	0.075681	-0.158444	0.336644	0.140547	-0.210730	0.357685	0.124336	-0.385240	0.357685	0.086496	-0.385240	0.294564	0.070277	-0.323098	0.273524	0.043244	-0.245429	0.252483	0.540580	-1.792347	1.872315	0.000000	0.000000	19.820260	1.218183	-7.358897	13.863436	-3.513008	56.233026	28.150419	27.268976	-0.692975	6.298186	20.110692	-5.704030	72.974481	31.007446	59.337087	8.730680	1.393201
1.900000	1.211873	-1.803439	98.376332	0.027134	1.023710	0.716205	0.238674	-0.051001	4.330859	5.545915	0.096794	28.360401	-4.543655	0.000000	1.817521	2.218431	9.406254	6.725745	0.117386	30.197345	-10.880859	0.000000	0.076536	-0.132795	0.291360	0.142135	-0.176618	0.309570	0.125741	-0.322878	0.309570	0.087473	-0.322878	0.254940	0.071071	-0.270796	0.236730	0.043733	-0.205700	0.218520	0.546690	-1.502206	1.620457	0.000000	0.000000	19.722418	1.231008	-6.349686	14.526823	-3.545837	59.032235	27.537316	27.269438	0.463171	6.064445	19.992206	-5.716401	72.810020	30.826265	60.443517	8.446779	0.586755
1.916667	1.269875	-1.772759	98.249760	0.026391	1.023403	0.717384	0.393265	-0.076830	3.840156	5.718052	0.099799	28.676147	-3.603724	0.000000	2.052309	2.206525	8.793278	7.155970	0.124895	30.500112	-10.273518	0.000000	0.078622	-0.102390	0.242008	0.146010	-0.136179	0.257133	0.129169	-0.248952	0.257133	0.089858	-0.248952	0.211757	0.073009	-0.208794	0.196631	0.044925	-0.158603	0.181506	0.561592	-1.158260	1.345975	0.000000	0.000000	19.550470	1.185088	-5.360074	15.170265	-3.611476	61.646802	27.007251	27.496622	1.489039	5.716859	19.902567	-5.709154	72.721192	30.609298	61.275469	8.124235	-0.254779
1.933333	1.362543	-1.733601	98.146608	0.025615	1.023091	0.718590	0.543396	-0.063389	3.439363	5.861436	0.102301	28.989526	-2.777267	0.000000	2.268516	2.160010	8.288120	7.554201	0.131846	30.748414	-9.789342	0.000000	0.080923	-0.068297	0.187513	0.150282	-0.090835	0.199232	0.132948	-0.166058	0.199232	0.092487	-0.166058	0.164074	0.075145	-0.139271	0.152354	0.046239	-0.105792	0.140634	0.578025	-0.772590	1.042889	0.000000	0.000000	19.308598	1.109964	-4.402310	15.782153	-3.702056	63.971461	26.574099	28.035092	2.370995	5.294755	19.831208	-5.688941	72.637750	30.385120	61.903099	7.755484	-1.094162
1.950000	1.487616	-1.679663	98.074872	0.024833	1.022808	0.719742	0.669887	-0.011650	3.057623	5.966126	0.104129	29.298115	-1.982300	0.000000	2.453985	2.069665	7.834721	7.913207	0.138112	30.980710	-9.305585	0.000000	0.082453	-0.031462	0.129217	0.153124	-0.041845	0.137294	0.135462	-0.076497	0.137294	0.094236	-0.076497	0.113065	0.076566	-0.064158	0.104989	0.047114	-0.048735	0.096913	0.588954	-0.355907	0.718669	0.000000	0.000000	18.994042	1.010031	-3.495293	16.344853	-3.813713	65.922736	26.246464	28.872037	3.076946	4.792697	19.757029	-5.658957	72.502782	30.180799	62.235467	7.315431	-1.861882
1.966667	1.627086	-1.617497	98.015190	0.024103	1.022567	0.720800	0.785224	0.053006	2.529036	6.057717	0.105727	29.642949	-0.972724	0.000000	2.613267	1.946146	7.273649	8.236419	0.143753	31.251493	-8.627249	0.000000	0.083096	0.005219	0.071706	0.154317	0.006941	0.076187	0.136518	0.012689	0.076187	0.094970	0.012689	0.062743	0.077163	0.010642	0.058261	0.047481	0.008084	0.053779	0.593544	0.059035	0.398807	0.000000	0.000000	18.610767	0.897048	-2.651729	16.818939	-3.922473	67.248831	26.033860	30.097963	3.635625	4.317761	19.662859	-5.618955	72.201303	29.991956	62.299526	6.928824	-2.475269
1.983333	1.764498	-1.548663	97.938912	0.023482	1.022391	0.721712	0.880002	0.125320	2.107795	6.127323	0.106942	29.944785	-0.072666	0.000000	2.726459	1.820392	6.831789	8.493616	0.148242	31.453191	-8.131416	0.000000	0.083704	0.039249	0.023174	0.155446	0.052202	0.024623	0.137517	0.095431	0.024623	0.095665	0.095431	0.020278	0.077727	0.080037	0.018829	0.047828	0.060797	0.017381	0.597888	0.443996	0.128888	0.000000	0.000000	18.129472	0.765259	-1.915802	17.219860	-4.017493	68.051390	25.938342	31.380340	3.962544	3.883334	19.586746	-5.570690	71.931912	29.816373	61.918291	6.560133	-2.945423
2.000000	1.923842	-1.471013	97.875117	0.022915	1.022275	0.722424	0.938525	0.232413	1.746787	6.160043	0.107513	30.178081	0.709043	0.000000	2.790895	1.665609	6.519876	8.682753	0.151543	31.585387	-7.820011	0.000000	0.084193	0.073594	-0.026367	0.156354	0.097880	-0.028015	0.138320	0.178936	-0.028015	0.096224	0.178936	-0.023071	0.078181	0.150073	-0.021423	0.048108	0.113997	-0.019775	0.601380	0.832508	-0.146644	0.000000	0.000000	17.577361	0.576360	-1.314266	17.514448	-4.088194	68.274762	25.967964	32.923682	4.038952	3.388477	19.502553	-5.519366	71.657889	29.685451	60.991148	6.233281	-3.239995
2.016667	2.065129	-1.383294	97.825712	0.022463	1.022235	0.722978	0.951301	0.343468	1.643866	6.157856	0.107475	30.280443	1.081025	0.000000	2.811731	1.522603	6.301196	8.828993	0.154095	31.657059	-7.642881	0.000000	0.083217	0.103052	-0.081142	0.154543	0.137059	-0.086213	0.136718	0.250561	-0.086213	0.095109	0.250561	-0.070999	0.077276	0.210144	-0.065928	0.047550	0.159628	-0.060856	0.594413	1.165746	-0.451285	0.000000	0.000000	16.971012	0.457048	-0.702838	17.822884	-4.167947	68.395774	26.019980	33.666961	4.021803	2.958575	19.440755	-5.498726	71.470792	29.610807	59.587659	5.994480	-3.352581
2.033333	2.183231	-1.283389	97.750903	0.022181	1.022271	0.723294	0.917502	0.450110	1.711383	6.137656	0.107122	30.291931	1.202314	0.000000	2.768133	1.395505	6.134537	8.913614	0.155572	31.669329	-7.596660	0.000000	0.080536	0.126553	-0.129789	0.149564	0.168315	-0.137901	0.132313	0.307700	-0.137901	0.092045	0.307700	-0.113565	0.074786	0.258066	-0.105453	0.046018	0.196030	-0.097342	0.575261	1.431589	-0.721847	0.000000	0.000000	16.364122	0.345565	-0.210711	18.097368	-4.229259	68.407269	26.119451	33.660574	3.838964	2.567788	19.372583	-5.491546	71.262886	29.574145	58.186598	5.864403	-3.361958
2.050000	2.269086	-1.168400	97.629174	0.022089	1.022386	0.723282	0.828896	0.544216	1.978498	6.104549	0.106544	30.211001	1.043939	0.000000	2.634369	1.295102	6.049361	8.907812	0.155471	31.585478	-7.740328	0.000000	0.076883	0.142751	-0.160827	0.142780	0.189858	-0.170879	0.126311	0.347084	-0.170879	0.087870	0.347084	-0.140724	0.071394	0.291097	-0.130672	0.043931	0.221121	-0.120621	0.549169	1.614824	-0.894474	0.000000	0.000000	15.772604	0.275262	0.104056	18.219281	-4.252354	68.013747	26.311658	32.961161	3.395993	2.291143	19.291147	-5.487209	71.070385	29.587562	56.752175	5.846663	-3.178235
2.066667	2.320441	-1.052057	97.435597	0.022249	1.022543	0.723016	0.718361	0.614517	2.305835	6.085849	0.106218	30.124587	0.842730	0.000000	2.451363	1.223032	5.904482	8.862804	0.154685	31.481750	-7.911513	0.000000	0.072294	0.152038	-0.174599	0.134258	0.202211	-0.185512	0.118773	0.369666	-0.185512	0.082625	0.369666	-0.152774	0.067133	0.310036	-0.141862	0.041309	0.235507	-0.130949	0.516392	1.719887	-0.971068	0.000000	0.000000	15.309428	0.246964	0.352577	18.302697	-4.262105	67.708918	26.482552	31.592998	2.948781	2.129277	19.216887	-5.504798	70.938322	29.649757	55.698481	5.912341	-3.028819
2.083333	2.325048	-0.926486	97.153126	0.022644	1.022760	0.722459	0.571136	0.648779	2.788029	6.072694	0.105989	29.999382	0.491783	0.000000	2.192034	1.199540	5.798288	8.745094	0.152631	31.296907	-8.251883	0.000000	0.066884	0.153334	-0.160306	0.124211	0.203934	-0.170325	0.109885	0.372816	-0.170325	0.076442	0.372816	-0.140267	0.062109	0.312678	-0.130248	0.038218	0.237514	-0.120229	0.477749	1.734543	-0.891571	0.000000	0.000000	14.981554	0.285761	0.474776	18.291983	-4.256415	67.374449	26.637685	29.706265	2.502296	2.070454	19.158861	-5.524762	70.943307	29.738195	54.982408	6.032837	-2.928033
2.100000	2.287426	-0.787846	96.783941	0.023271	1.023034	0.721617	0.379418	0.651977	3.439639	6.053319	0.105650	29.841760	-0.020943	0.000000	1.855919	1.218089	5.681157	8.557121	0.149350	31.059342	-8.670349	0.000000	0.060996	0.147484	-0.120255	0.113275	0.196154	-0.127771	0.100210	0.358593	-0.127771	0.069712	0.358593	-0.105223	0.056641	0.300750	-0.097707	0.034853	0.228453	-0.090191	0.435686	1.668369	-0.668821	0.000000	0.000000	14.799204	0.382414	0.500754	18.192773	-4.239802	67.049325	26.779815	27.590358	2.068428	2.062584	19.101810	-5.554990	71.052927	29.852873	54.689055	6.151754	-2.925259
2.116667	2.213056	-0.646214	96.324564	0.024110	1.023341	0.720550	0.180890	0.614090	4.009894	6.070862	0.105957	29.746472	-0.330566	0.000000	1.470738	1.277013	5.548966	8.323013	0.145264	30.776238	-9.167936	0.000000	0.056676	0.135312	-0.053038	0.105253	0.179965	-0.056353	0.093113	0.328998	-0.056353	0.064775	0.328998	-0.046408	0.052629	0.275929	-0.043093	0.032385	0.209599	-0.039779	0.404832	1.530678	-0.294982	0.000000	0.000000	14.746404	0.539964	0.417531	17.990845	-4.219626	66.620579	26.913511	25.467561	1.720848	2.095396	19.030658	-5.588032	71.167136	29.979114	54.831132	6.337734	-2.964366
2.133333	2.105206	-0.497383	95.793202	0.025114	1.023687	0.719308	-0.037033	0.543101	4.616511	6.095221	0.106382	29.673106	-0.602681	0.000000	1.038998	1.376825	5.426440	8.044942	0.140411	30.433842	-9.770810	0.000000	0.053850	0.117953	0.033258	0.100005	0.156877	0.035336	0.088470	0.286790	0.035336	0.061545	0.286790	0.029101	0.050005	0.240529	0.027022	0.030770	0.182708	0.024943	0.384645	1.334303	0.184970	0.000000	0.000000	14.780222	0.738058	0.268445	17.724117	-4.207862	66.203398	27.061625	23.228041	1.436290	2.138706	18.938913	-5.638072	71.288868	30.122845	55.236554	6.547679	-3.079393
2.150000	1.963084	-0.327021	95.195852	0.026276	1.024087	0.717940	-0.287033	0.438957	5.258749	6.119461	0.106805	29.629614	-0.822857	0.000000	0.556778	1.510170	5.180786	7.740477	0.135097	30.088194	-10.285875	0.000000	0.050107	0.095257	0.135742	0.093054	0.126692	0.144226	0.082321	0.231608	0.144226	0.057268	0.231608	0.118774	0.046530	0.194248	0.110290	0.028631	0.147553	0.101806	0.357911	1.077567	0.754954	0.000000	0.000000	14.842238	0.987806	0.049993	17.375625	-4.198140	65.627722	27.257352	21.004929	1.197562	2.201872	18.807661	-5.713589	71.288038	30.298745	55.970763	6.791747	-3.212828
2.166667	1.811781	-0.157408	94.584244	0.027475	1.024512	0.716552	-0.534783	0.319335	5.816027	6.151288	0.107360	29.626243	-0.883063	0.000000	0.074612	1.655194	4.892719	7.439065	0.129836	29.737417	-10.768339	0.000000	0.048828	0.071356	0.238725	0.090679	0.094904	0.253645	0.080220	0.173496	0.253645	0.055806	0.173496	0.208884	0.045342	0.145510	0.193964	0.027900	0.110531	0.179044	0.348775	0.807197	1.327716	0.000000	0.000000	14.900903	1.288325	-0.120450	17.008326	-4.198949	65.099039	27.476448	18.618454	1.059497	2.273399	18.657485	-5.809111	71.318219	30.491306	56.309216	7.109376	-3.279088
2.183333	1.643757	0.022127	93.910873	0.028760	1.024970	0.715180	-0.779614	0.177906	6.373783	6.197890	0.108174	29.662053	-0.823963	0.000000	-0.430673	1.822409	4.580581	7.114533	0.124172	29.358304	-11.311434	0.000000	0.046895	0.045385	0.351537	0.087089	0.060363	0.373508	0.077044	0.110350	0.373508	0.053596	0.110350	0.307595	0.043547	0.092550	0.285624	0.026796	0.070302	0.263653	0.334966	0.513409	1.955144	0.000000	0.000000	14.941936	1.599135	-0.320001	16.620837	-4.218093	64.526706	27.745483	16.310068	1.013669	2.315875	18.499575	-5.919165	71.326722	30.676990	56.540625	7.533098	-3.345089
2.200000	1.447076	0.193034	93.246451	0.030067	1.025394	0.713901	-1.007790	0.004000	6.906897	6.276877	0.109552	29.728976	-0.751738	0.000000	-0.920152	2.024941	4.284241	6.795452	0.118603	28.998911	-11.808467	0.000000	0.045048	0.014475	0.459758	0.083658	0.019252	0.488493	0.074009	0.035194	0.488493	0.051485	0.035194	0.402288	0.041831	0.029517	0.373554	0.025740	0.022422	0.344819	0.321772	0.163744	2.557037	0.000000	0.000000	15.003874	1.944861	-0.558278	16.190312	-4.218186	63.985387	28.002215	13.733839	0.991568	2.514460	18.365759	-6.045377	71.322965	30.875609	57.173870	7.891825	-3.427325
2.216667	1.255085	0.336353	92.636769	0.031295	1.025784	0.712743	-1.200981	-0.170872	7.335555	6.351811	0.110860	29.819255	-0.586870	0.000000	-1.354279	2.221796	4.003254	6.494931	0.113358	28.672586	-12.230940	0.000000	0.043681	-0.016619	0.562744	0.081120	-0.022103	0.597915	0.071763	-0.040407	0.597915	0.049923	-0.040407	0.492401	0.040562	-0.033889	0.457229	0.024959	-0.025742	0.422058	0.312007	-0.187995	3.129811	0.000000	0.000000	15.083561	2.284585	-0.813065	15.760147	-4.217799	63.404637	28.261176	11.330108	1.031850	2.752541	18.249192	-6.165236	71.321870	31.067833	57.719478	8.243336	-3.464342
2.233333	1.076437	0.442790	92.108912	0.032391	1.026125	0.711753	-1.347738	-0.339088	7.630325	6.417069	0.111999	29.931879	-0.319445	0.000000	-1.710935	2.402916	3.748335	6.224180	0.108632	28.392797	-12.555352	0.000000	0.042856	-0.046777	0.656778	0.079587	-0.062214	0.697826	0.070408	-0.113734	0.697826	0.048980	-0.113734	0.574680	0.039796	-0.095388	0.533632	0.024488	-0.072458	0.492583	0.306114	-0.529155	3.652800	0.000000	0.000000	15.178146	2.605944	-1.077905	15.344403	-4.216951	62.781280	28.517155	9.188436	1.137789	3.026133	18.156682	-6.272021	71.328567	31.247196	58.114569	8.576853	-3.442159
2.250000	0.919782	0.503049	91.689964	0.033304	1.026400	0.710980	-1.436609	-0.493027	7.761776	6.467026	0.112871	30.065837	0.060448	0.000000	-1.967999	2.558241	3.530199	5.994413	0.104622	28.173010	-12.758200	0.000000	0.042634	-0.074882	0.738145	0.079176	-0.099593	0.784279	0.070044	-0.182069	0.784279	0.048726	-0.182069	0.645877	0.039590	-0.152700	0.599743	0.024361	-0.115993	0.553609	0.304531	-0.847083	4.105339	0.000000	0.000000	15.284780	2.896576	-1.346345	14.957142	-4.215660	62.112135	28.764942	7.398386	1.312660	3.331248	18.095035	-6.359010	71.348186	31.407236	58.296260	8.881597	-3.346795
2.266667	0.793773	0.507837	91.407012	0.033984	1.026594	0.710472	-1.456145	-0.625069	7.700475	6.496057	0.113378	30.220118	0.562723	0.000000	-2.103353	2.677715	3.359560	5.816842	0.101523	28.026693	-12.815982	0.000000	0.043078	-0.099815	0.803129	0.080000	-0.132754	0.853325	0.070772	-0.242690	0.853325	0.049233	-0.242690	0.702738	0.040002	-0.203543	0.652542	0.024615	-0.154613	0.602347	0.307699	-1.129126	4.466763	0.000000	0.000000	15.400614	3.144117	-1.611927	14.612426	-4.213946	61.394026	28.999325	6.049521	1.559738	3.663903	18.071059	-6.419482	71.385856	31.541486	58.201670	9.146789	-3.164268
2.283333	0.707060	0.447861	91.287138	0.034379	1.026692	0.710275	-1.394894	-0.727592	7.416989	6.498537	0.113421	30.393711	1.197293	0.000000	-2.094876	2.751278	3.247131	5.702678	0.099531	27.967312	-12.705196	0.000000	0.044248	-0.120457	0.848015	0.082173	-0.160208	0.901016	0.072695	-0.292879	0.901016	0.050571	-0.292879	0.742013	0.041089	-0.245636	0.689012	0.025283	-0.186588	0.636011	0.316059	-1.362632	4.716407	0.000000	0.000000	15.522798	3.336206	-1.868198	14.324316	-4.211826	60.623774	29.215092	5.231402	1.882299	4.020109	18.091562	-6.446716	71.446707	31.643484	57.767918	9.361651	-2.880598
2.300000	0.668295	0.313826	91.357430	0.034439	1.026677	0.710438	-1.241408	-0.792975	6.881887	6.468842	0.112903	30.585605	1.974069	0.000000	-1.920449	2.768871	3.203628	5.663135	0.098840	28.008334	-12.402339	0.000000	0.046207	-0.135690	0.869087	0.085811	-0.180467	0.923405	0.075913	-0.329916	0.923405	0.052810	-0.329916	0.760452	0.042908	-0.276698	0.706134	0.026403	-0.210183	0.651816	0.330050	-1.534947	4.833604	0.000000	0.000000	15.648481	3.460479	-2.108702	14.106873	-4.209320	59.798200	29.407034	5.033593	2.283618	4.395883	18.163350	-6.433990	71.535869	31.706765	56.932123	9.515403	-2.481802
2.316667	0.686131	0.096438	91.644972	0.034110	1.026534	0.711008	-0.984235	-0.813598	6.065737	6.401347	0.111725	30.794789	2.902965	0.000000	-1.557952	2.720436	3.239765	5.709424	0.099648	28.163226	-11.883910	0.000000	0.049016	-0.144394	0.862630	0.091027	-0.192045	0.916544	0.080528	-0.351081	0.916544	0.056020	-0.351081	0.754801	0.045516	-0.294449	0.700887	0.028008	-0.223667	0.646972	0.350114	-1.633419	4.797689	0.000000	0.000000	15.774816	3.504574	-2.326983	13.974160	-4.206445	58.914127	29.569939	5.545657	2.766970	4.787237	18.293231	-6.374584	71.658471	31.724865	55.631402	9.597267	-1.953900
2.333333	0.769217	-0.213597	92.176848	0.033344	1.026248	0.712033	-0.611925	-0.781839	4.939106	6.290427	0.109789	31.020252	3.993894	0.000000	-0.985267	2.595916	3.366256	5.852759	0.102150	28.445455	-11.126406	0.000000	0.052736	-0.145453	0.824927	0.097936	-0.193453	0.876485	0.086640	-0.353655	0.876485	0.060272	-0.353655	0.721811	0.048971	-0.296608	0.670253	0.030133	-0.225307	0.618695	0.376689	-1.645395	4.587997	0.000000	0.000000	15.898950	3.456127	-2.516587	13.940238	-4.203222	57.968376	29.698595	6.857154	3.335630	5.190185	18.488011	-6.261776	71.819644	31.691319	53.802875	9.596464	-1.282911
2.350000	0.926207	-0.625573	92.980143	0.032088	1.025802	0.713561	-0.113027	-0.690077	3.472562	6.130458	0.106997	31.260983	5.256768	0.000000	-0.180272	2.385250	3.593815	6.104350	0.106541	28.868487	-10.106325	0.000000	0.057430	-0.137747	0.752263	0.106653	-0.183204	0.799280	0.094352	-0.334918	0.799280	0.065637	-0.334918	0.658230	0.053329	-0.280894	0.611214	0.032815	-0.213370	0.564197	0.410216	-1.558222	4.183862	0.000000	0.000000	16.018036	3.302776	-2.671058	14.019168	-4.199667	56.957768	29.787792	9.057649	3.992873	5.600743	18.754499	-6.088844	72.024517	31.599664	51.383661	9.502215	-0.454852
