Model Marker Errors from IK
version=1
nRows=176
nColumns=4
inDegrees=no
endheader
time	total_squared_error	marker_error_RMS	marker_error_max
      0.00000000	      0.01956831	      0.02692122	      0.04907531
      0.01666667	      0.01864129	      0.02627581	      0.04490046
      0.03333333	      0.01809765	      0.02588983	      0.04540783
      0.05000000	      0.01767483	      0.02558561	      0.04584067
      0.06666667	      0.01729429	      0.02530868	      0.04576641
      0.08333333	      0.01696746	      0.02506840	      0.04566381
      0.10000000	      0.01671775	      0.02488324	      0.04563910
      0.11666667	      0.01649000	      0.02471317	      0.04551186
      0.13333333	      0.01632084	      0.02458608	      0.04543266
      0.15000000	      0.01627391	      0.02455071	      0.04516117
      0.16666667	      0.01628627	      0.02456004	      0.04506093
      0.18333333	      0.01641073	      0.02465370	      0.04481696
      0.20000000	      0.01640684	      0.02465078	      0.04465000
      0.21666667	      0.01646498	      0.02469441	      0.04437198
      0.23333333	      0.01652503	      0.02473940	      0.04429989
      0.25000000	      0.01660299	      0.02479769	      0.04434772
      0.26666667	      0.01669476	      0.02486613	      0.04446513
      0.28333333	      0.01681716	      0.02495712	      0.04435987
      0.30000000	      0.01698277	      0.02507970	      0.04437084
      0.31666667	      0.01715202	      0.02520437	      0.04425912
      0.33333333	      0.01723039	      0.02526188	      0.04414600
      0.35000000	      0.01722734	      0.02525965	      0.04401017
      0.36666667	      0.01715707	      0.02520808	      0.04398207
      0.38333333	      0.01709066	      0.02515924	      0.04420765
      0.40000000	      0.01705842	      0.02513550	      0.04406271
      0.41666667	      0.01707040	      0.02514433	      0.04479927
      0.43333333	      0.01714119	      0.02519641	      0.04557595
      0.45000000	      0.01725581	      0.02528051	      0.04602982
      0.46666667	      0.01741840	      0.02539933	      0.04623655
      0.48333333	      0.01750883	      0.02546518	      0.04573422
      0.50000000	      0.01754208	      0.02548935	      0.04508330
      0.51666667	      0.01755727	      0.02550038	      0.04449338
      0.53333333	      0.01752723	      0.02547856	      0.04395895
      0.55000000	      0.01754618	      0.02549232	      0.04380412
      0.56666667	      0.01759143	      0.02552517	      0.04392697
      0.58333333	      0.01765464	      0.02557099	      0.04439800
      0.60000000	      0.01770717	      0.02560901	      0.04458363
      0.61666667	      0.01776580	      0.02565137	      0.04501145
      0.63333333	      0.01776502	      0.02565081	      0.04522454
      0.65000000	      0.01771999	      0.02561827	      0.04539985
      0.66666667	      0.01761063	      0.02553910	      0.04535407
      0.68333333	      0.01751878	      0.02547241	      0.04543612
      0.70000000	      0.01746001	      0.02542965	      0.04550374
      0.71666667	      0.01741971	      0.02540029	      0.04535584
      0.73333333	      0.01745889	      0.02542884	      0.04551548
      0.75000000	      0.01754501	      0.02549147	      0.04568528
      0.76666667	      0.01771477	      0.02561450	      0.04584997
      0.78333333	      0.01797941	      0.02580512	      0.04625510
      0.80000000	      0.01830322	      0.02603646	      0.04688064
      0.81666667	      0.01854457	      0.02620756	      0.04709805
      0.83333333	      0.01878377	      0.02637603	      0.04752308
      0.85000000	      0.01898297	      0.02651552	      0.04797875
      0.86666667	      0.01907911	      0.02658259	      0.04818188
      0.88333333	      0.01909041	      0.02659045	      0.04839408
      0.90000000	      0.01904623	      0.02655967	      0.04860569
      0.91666667	      0.01896538	      0.02650324	      0.04846024
      0.93333333	      0.01887566	      0.02644047	      0.04841249
      0.95000000	      0.01875216	      0.02635383	      0.04833148
      0.96666667	      0.01862217	      0.02626233	      0.04815794
      0.98333333	      0.01854922	      0.02621084	      0.04784749
      1.00000000	      0.01857006	      0.02622556	      0.04728877
      1.01666667	      0.01868113	      0.02630387	      0.04643830
      1.03333333	      0.01875650	      0.02635688	      0.04515712
      1.05000000	      0.01876917	      0.02636578	      0.04365552
      1.06666667	      0.01869302	      0.02631225	      0.04218817
      1.08333333	      0.01853208	      0.02619873	      0.04160703
      1.10000000	      0.01829786	      0.02603264	      0.04176805
      1.11666667	      0.01798790	      0.02581121	      0.04178359
      1.13333333	      0.01761018	      0.02553877	      0.04166978
      1.15000000	      0.01716408	      0.02521323	      0.04133792
      1.16666667	      0.01669330	      0.02486504	      0.04117438
      1.18333333	      0.01625586	      0.02453710	      0.04084287
      1.20000000	      0.01593400	      0.02429296	      0.04055542
      1.21666667	      0.01576243	      0.02416183	      0.04035379
      1.23333333	      0.01575658	      0.02415734	      0.04012828
      1.25000000	      0.01583189	      0.02421500	      0.03999680
      1.26666667	      0.01598819	      0.02433424	      0.04064068
      1.28333333	      0.01617842	      0.02447858	      0.04169127
      1.30000000	      0.01637695	      0.02462831	      0.04254287
      1.31666667	      0.01655375	      0.02476089	      0.04313090
      1.33333333	      0.01668252	      0.02485702	      0.04339282
      1.35000000	      0.01680119	      0.02494526	      0.04342126
      1.36666667	      0.01695600	      0.02505993	      0.04321496
      1.38333333	      0.01712353	      0.02518342	      0.04280387
      1.40000000	      0.01724584	      0.02527320	      0.04194406
      1.41666667	      0.01734076	      0.02534266	      0.04065675
      1.43333333	      0.01745765	      0.02542793	      0.04170903
      1.45000000	      0.01763386	      0.02555594	      0.04389266
      1.46666667	      0.01781325	      0.02568560	      0.04561598
      1.48333333	      0.01796756	      0.02579661	      0.04708115
      1.50000000	      0.01799808	      0.02581852	      0.04779521
      1.51666667	      0.01790788	      0.02575373	      0.04798773
      1.53333333	      0.01768267	      0.02559128	      0.04766709
      1.55000000	      0.01730512	      0.02531660	      0.04642042
      1.56666667	      0.01687703	      0.02500150	      0.04458401
      1.58333333	      0.01654321	      0.02475301	      0.04237667
      1.60000000	      0.01630197	      0.02457187	      0.04232298
      1.61666667	      0.01625328	      0.02453514	      0.04263823
      1.63333333	      0.01637762	      0.02462881	      0.04317470
      1.65000000	      0.01657614	      0.02477763	      0.04399240
      1.66666667	      0.01688053	      0.02500410	      0.04439979
      1.68333333	      0.01716109	      0.02521103	      0.04456331
      1.70000000	      0.01736931	      0.02536352	      0.04402575
      1.71666667	      0.01740130	      0.02538686	      0.04280326
      1.73333333	      0.01725669	      0.02528116	      0.04111490
      1.75000000	      0.01697472	      0.02507376	      0.03937379
      1.76666667	      0.01668654	      0.02486001	      0.03788763
      1.78333333	      0.01648034	      0.02470593	      0.03693414
      1.80000000	      0.01644624	      0.02468036	      0.03685114
      1.81666667	      0.01655172	      0.02475938	      0.03853318
      1.83333333	      0.01678603	      0.02493401	      0.04018917
      1.85000000	      0.01716053	      0.02521062	      0.04150139
      1.86666667	      0.01763660	      0.02555792	      0.04226889
      1.88333333	      0.01819076	      0.02595635	      0.04195332
      1.90000000	      0.01901719	      0.02653941	      0.04249759
      1.91666667	      0.02006717	      0.02726222	      0.04518519
      1.93333333	      0.02117718	      0.02800607	      0.04864440
      1.95000000	      0.02228967	      0.02873227	      0.05146335
      1.96666667	      0.02322372	      0.02932811	      0.05354193
      1.98333333	      0.02393355	      0.02977294	      0.05474251
      2.00000000	      0.02477216	      0.03029006	      0.05539991
      2.01666667	      0.02561781	      0.03080272	      0.05611384
      2.03333333	      0.02601522	      0.03104072	      0.05747596
      2.05000000	      0.02589628	      0.03096969	      0.05958311
      2.06666667	      0.02577946	      0.03089976	      0.06247473
      2.08333333	      0.02594175	      0.03099687	      0.06541054
      2.10000000	      0.02612979	      0.03110900	      0.06629389
      2.11666667	      0.02623300	      0.03117038	      0.06856778
      2.13333333	      0.02612587	      0.03110667	      0.07019602
      2.15000000	      0.02598847	      0.03102476	      0.07102388
      2.16666667	      0.02595385	      0.03100409	      0.07054285
      2.18333333	      0.02611018	      0.03109733	      0.06990694
      2.20000000	      0.02635636	      0.03124358	      0.06687376
      2.21666667	      0.02704158	      0.03164712	      0.06498164
      2.23333333	      0.02784481	      0.03211369	      0.06528898
      2.25000000	      0.02923179	      0.03290378	      0.06382912
      2.26666667	      0.03010014	      0.03338892	      0.06241964
      2.28333333	      0.03005065	      0.03336146	      0.06090613
      2.30000000	      0.02934257	      0.03296607	      0.05917086
      2.31666667	      0.02737342	      0.03184070	      0.05658786
      2.33333333	      0.02640663	      0.03127337	      0.05534079
      2.35000000	      0.02553760	      0.03075446	      0.05323570
      2.36666667	      0.02478089	      0.03029539	      0.05061031
      2.38333333	      0.02398781	      0.02980667	      0.05171373
      2.40000000	      0.02308159	      0.02923822	      0.05179028
      2.41666667	      0.02213431	      0.02863197	      0.05291502
      2.43333333	      0.02118430	      0.02801078	      0.05114772
      2.45000000	      0.02045115	      0.02752181	      0.04969287
      2.46666667	      0.02000255	      0.02721829	      0.04720254
      2.48333333	      0.01988666	      0.02713933	      0.04525188
      2.50000000	      0.02011127	      0.02729216	      0.04389255
      2.51666667	      0.02058766	      0.02761351	      0.04712868
      2.53333333	      0.02115552	      0.02799174	      0.05064459
      2.55000000	      0.02148926	      0.02821167	      0.05312568
      2.56666667	      0.02151028	      0.02822547	      0.05358796
      2.58333333	      0.02136485	      0.02812989	      0.05217413
      2.60000000	      0.02124185	      0.02804880	      0.04984741
      2.61666667	      0.02132205	      0.02810170	      0.04721966
      2.63333333	      0.02172418	      0.02836546	      0.04510598
      2.65000000	      0.02232437	      0.02875462	      0.04446353
      2.66666667	      0.02288164	      0.02911131	      0.04487933
      2.68333333	      0.02321419	      0.02932209	      0.04473241
      2.70000000	      0.02316450	      0.02929069	      0.04575760
      2.71666667	      0.02279459	      0.02905588	      0.04680817
      2.73333333	      0.02229070	      0.02873294	      0.04818975
      2.75000000	      0.02216359	      0.02865089	      0.04884222
      2.76666667	      0.02239810	      0.02880207	      0.04982335
      2.78333333	      0.02287523	      0.02910723	      0.05046341
      2.80000000	      0.02324116	      0.02933912	      0.05016822
      2.81666667	      0.02322852	      0.02933113	      0.04891596
      2.83333333	      0.02287288	      0.02910573	      0.04641850
      2.85000000	      0.02240429	      0.02880605	      0.04526697
      2.86666667	      0.02203183	      0.02856560	      0.04526224
      2.88333333	      0.02183150	      0.02843544	      0.04564882
      2.90000000	      0.02185025	      0.02844765	      0.04521983
      2.91666667	      0.02243084	      0.02882311	      0.04859987
