Model Marker Errors from IK
version=1
nRows=292
nColumns=4
inDegrees=no
endheader
time	total_squared_error	marker_error_RMS	marker_error_max
      0.00000000	      0.02007083	      0.02726470	      0.05289160
      0.01694915	      0.01954319	      0.02690394	      0.05098054
      0.03389831	      0.01927750	      0.02672043	      0.05033374
      0.05084746	      0.01918913	      0.02665911	      0.04980394
      0.06779661	      0.01916758	      0.02664415	      0.04982423
      0.08474576	      0.01913507	      0.02662154	      0.05004901
      0.10169492	      0.01899932	      0.02652694	      0.05046506
      0.11864407	      0.01872519	      0.02633487	      0.05051564
      0.13559322	      0.01848467	      0.02616519	      0.05082419
      0.15254237	      0.01834324	      0.02606490	      0.05077831
      0.16949153	      0.01838015	      0.02609112	      0.05078290
      0.18644068	      0.01867869	      0.02630216	      0.05089111
      0.20338983	      0.01914011	      0.02662505	      0.05087849
      0.22033898	      0.01966515	      0.02698776	      0.05078369
      0.23728814	      0.02018764	      0.02734393	      0.05049680
      0.25423729	      0.02063814	      0.02764734	      0.05062386
      0.27118644	      0.02087554	      0.02780590	      0.05064382
      0.28813559	      0.02088079	      0.02780940	      0.05075956
      0.30508475	      0.02073719	      0.02771361	      0.05083057
      0.32203390	      0.02056655	      0.02759935	      0.05104235
      0.33898305	      0.02040941	      0.02749371	      0.05108275
      0.35593220	      0.02028007	      0.02740645	      0.05092335
      0.37288136	      0.02018893	      0.02734480	      0.05096674
      0.38983051	      0.02007773	      0.02726939	      0.05121081
      0.40677966	      0.02002347	      0.02723252	      0.05125836
      0.42372881	      0.01998465	      0.02720610	      0.05151206
      0.44067797	      0.01989872	      0.02714755	      0.05149429
      0.45762712	      0.01978401	      0.02706919	      0.05154071
      0.47457627	      0.01959197	      0.02693749	      0.05169258
      0.49152542	      0.01924798	      0.02669996	      0.05136596
      0.50847458	      0.01884080	      0.02641605	      0.05132174
      0.52542373	      0.01833104	      0.02605624	      0.05089954
      0.54237288	      0.01790600	      0.02575238	      0.05066493
      0.55932203	      0.01761087	      0.02553928	      0.05074144
      0.57627119	      0.01752169	      0.02547452	      0.05099826
      0.59322034	      0.01764670	      0.02556524	      0.05124264
      0.61016949	      0.01793234	      0.02577132	      0.05168394
      0.62711864	      0.01821125	      0.02597096	      0.05198370
      0.64406780	      0.01828307	      0.02602212	      0.05216587
      0.66101695	      0.01818550	      0.02595260	      0.05213164
      0.67796610	      0.01792159	      0.02576359	      0.05158152
      0.69491525	      0.01757513	      0.02551335	      0.05074143
      0.71186441	      0.01730667	      0.02531774	      0.05198718
      0.72881356	      0.01714015	      0.02519564	      0.05333028
      0.74576271	      0.01725198	      0.02527770	      0.05457303
      0.76271186	      0.01766715	      0.02558005	      0.05579302
      0.77966102	      0.01835032	      0.02606993	      0.05712543
      0.79661017	      0.01919711	      0.02666466	      0.05862952
      0.81355932	      0.02004338	      0.02724605	      0.06042736
      0.83050847	      0.02089818	      0.02782098	      0.06257894
      0.84745763	      0.02179915	      0.02841436	      0.06496471
      0.86440678	      0.02278931	      0.02905251	      0.07017400
      0.88135593	      0.02397553	      0.02979903	      0.07597704
      0.89830508	      0.02538858	      0.03066460	      0.08125430
      0.91525424	      0.02699383	      0.03161916	      0.08641337
      0.93220339	      0.02873188	      0.03262122	      0.09105471
      0.94915254	      0.03045904	      0.03358739	      0.09552483
      0.96610169	      0.03195475	      0.03440217	      0.09948517
      0.98305085	      0.03311319	      0.03502020	      0.10270242
      1.00000000	      0.03398639	      0.03547894	      0.10517949
      1.01694915	      0.03459688	      0.03579617	      0.10665272
      1.03389831	      0.03518992	      0.03610167	      0.10736428
      1.05084746	      0.03583615	      0.03643164	      0.10763496
      1.06779661	      0.03650027	      0.03676768	      0.10740734
      1.08474576	      0.03705693	      0.03704698	      0.10680683
      1.10169492	      0.03736855	      0.03720242	      0.10598643
      1.11864407	      0.03732879	      0.03718263	      0.10516023
      1.13559322	      0.03694965	      0.03699332	      0.10443183
      1.15254237	      0.03639286	      0.03671354	      0.10409348
      1.16949153	      0.03582430	      0.03642562	      0.10386439
      1.18644068	      0.03528357	      0.03614967	      0.10350244
      1.20338983	      0.03485975	      0.03593191	      0.10330150
      1.22033898	      0.03463227	      0.03581448	      0.10319259
      1.23728814	      0.03466384	      0.03583080	      0.10332430
      1.25423729	      0.03489497	      0.03595005	      0.10387568
      1.27118644	      0.03506379	      0.03603691	      0.10460219
      1.28813559	      0.03506801	      0.03603908	      0.10530209
      1.30508475	      0.03486174	      0.03593293	      0.10590139
      1.32203390	      0.03459499	      0.03579519	      0.10636453
      1.33898305	      0.03451779	      0.03575523	      0.10659168
      1.35593220	      0.03474157	      0.03587095	      0.10667633
      1.37288136	      0.03510440	      0.03605777	      0.10657929
      1.38983051	      0.03537706	      0.03619754	      0.10637954
      1.40677966	      0.03545901	      0.03623944	      0.10599899
      1.42372881	      0.03538334	      0.03620075	      0.10553184
      1.44067797	      0.03537455	      0.03619625	      0.10506898
      1.45762712	      0.03547004	      0.03624507	      0.10456774
      1.47457627	      0.03567411	      0.03634919	      0.10394056
      1.49152542	      0.03596014	      0.03649461	      0.10289582
      1.50847458	      0.03618323	      0.03660764	      0.10161074
      1.52542373	      0.03617366	      0.03660280	      0.10039824
      1.54237288	      0.03586384	      0.03644572	      0.09921359
      1.55932203	      0.03527115	      0.03614331	      0.09806560
      1.57627119	      0.03447087	      0.03573092	      0.09691104
      1.59322034	      0.03354929	      0.03525005	      0.09552968
      1.61016949	      0.03261949	      0.03475816	      0.09389193
      1.62711864	      0.03175816	      0.03429618	      0.09181607
      1.64406780	      0.03107461	      0.03392509	      0.09019119
      1.66101695	      0.03057216	      0.03364970	      0.08867732
      1.67796610	      0.03021852	      0.03345451	      0.08700398
      1.69491525	      0.02993744	      0.03329856	      0.08572448
      1.71186441	      0.02977034	      0.03320550	      0.08433429
      1.72881356	      0.02965859	      0.03314312	      0.08307707
      1.74576271	      0.02956962	      0.03309337	      0.08205624
      1.76271186	      0.02942235	      0.03301086	      0.08141137
      1.77966102	      0.02916017	      0.03286345	      0.08118992
      1.79661017	      0.02873335	      0.03262205	      0.08126502
      1.81355932	      0.02817776	      0.03230512	      0.08170065
      1.83050847	      0.02773180	      0.03204846	      0.08262877
      1.84745763	      0.02750988	      0.03191997	      0.08441204
      1.86440678	      0.02760869	      0.03197724	      0.08642384
      1.88135593	      0.02810091	      0.03226104	      0.08852581
      1.89830508	      0.02905144	      0.03280212	      0.09078013
      1.91525424	      0.03041947	      0.03356556	      0.09327252
      1.93220339	      0.03201021	      0.03443201	      0.09612663
      1.94915254	      0.03345476	      0.03520036	      0.09908583
      1.96610169	      0.03432601	      0.03565577	      0.10187043
      1.98305085	      0.03435499	      0.03567082	      0.10390406
      2.00000000	      0.03365418	      0.03530512	      0.10541626
      2.01694915	      0.03279439	      0.03485121	      0.10632532
      2.03389831	      0.03245130	      0.03466843	      0.10685727
      2.05084746	      0.03294384	      0.03493053	      0.10746576
      2.06779661	      0.03393460	      0.03545190	      0.10761093
      2.08474576	      0.03481887	      0.03591083	      0.10738501
      2.10169492	      0.03553618	      0.03627885	      0.10659655
      2.11864407	      0.03578443	      0.03640535	      0.10550101
      2.13559322	      0.03520681	      0.03611033	      0.10394704
      2.15254237	      0.03392290	      0.03544579	      0.10244062
      2.16949153	      0.03240745	      0.03464500	      0.10054654
      2.18644068	      0.03133154	      0.03406504	      0.09861511
      2.20338983	      0.03087891	      0.03381809	      0.09653223
      2.22033898	      0.03087853	      0.03381788	      0.09434656
      2.23728814	      0.03101348	      0.03389170	      0.09228918
      2.25423729	      0.03098340	      0.03387526	      0.09035708
      2.27118644	      0.03066256	      0.03369941	      0.08876988
      2.28813559	      0.03045340	      0.03358428	      0.08765460
      2.30508475	      0.03055994	      0.03364297	      0.08727419
      2.32203390	      0.03095216	      0.03385818	      0.08731905
      2.33898305	      0.03136577	      0.03408365	      0.08783993
      2.35593220	      0.03168032	      0.03425413	      0.08810254
      2.37288136	      0.03195800	      0.03440392	      0.08811167
      2.38983051	      0.03241303	      0.03464798	      0.08790310
      2.40677966	      0.03316966	      0.03505005	      0.08761487
      2.42372881	      0.03417861	      0.03557913	      0.08733491
      2.44067797	      0.03529460	      0.03615532	      0.08701367
      2.45762712	      0.03637101	      0.03670251	      0.08661880
      2.47457627	      0.03733353	      0.03718499	      0.08591402
      2.49152542	      0.03806233	      0.03754619	      0.08527525
      2.50847458	      0.03845814	      0.03774090	      0.08424053
      2.52542373	      0.03833589	      0.03768087	      0.08302527
      2.54237288	      0.03769355	      0.03736385	      0.08137124
      2.55932203	      0.03661307	      0.03682444	      0.07934815
      2.57627119	      0.03516667	      0.03608974	      0.07667132
      2.59322034	      0.03349285	      0.03522039	      0.07349498
      2.61016949	      0.03181593	      0.03432736	      0.06991892
      2.62711864	      0.03040216	      0.03355601	      0.06671863
      2.64406780	      0.02941438	      0.03300638	      0.06680724
      2.66101695	      0.02876762	      0.03264150	      0.06683916
      2.67796610	      0.02834085	      0.03239847	      0.06676142
      2.69491525	      0.02812949	      0.03227743	      0.06683574
      2.71186441	      0.02803919	      0.03222559	      0.06680270
      2.72881356	      0.02796335	      0.03218198	      0.06645512
      2.74576271	      0.02781218	      0.03209487	      0.06568826
      2.76271186	      0.02743774	      0.03187809	      0.06493932
      2.77966102	      0.02706888	      0.03166309	      0.06433635
      2.79661017	      0.02670056	      0.03144693	      0.06399357
      2.81355932	      0.02641906	      0.03128073	      0.06372608
      2.83050847	      0.02626542	      0.03118964	      0.06348035
      2.84745763	      0.02625987	      0.03118634	      0.06333539
      2.86440678	      0.02635030	      0.03123999	      0.06328605
      2.88135593	      0.02632685	      0.03122608	      0.06343774
      2.89830508	      0.02593769	      0.03099444	      0.06381092
      2.91525424	      0.02514041	      0.03051436	      0.06444466
      2.93220339	      0.02408190	      0.02986506	      0.06499367
      2.94915254	      0.02302990	      0.02920546	      0.06565366
      2.96610169	      0.02217811	      0.02866028	      0.06647446
      2.98305085	      0.02166408	      0.02832619	      0.06712152
      3.00000000	      0.02147920	      0.02820507	      0.06820094
      3.01694915	      0.02174500	      0.02837905	      0.06903175
      3.03389831	      0.02244855	      0.02883449	      0.06974251
      3.05084746	      0.02342978	      0.02945793	      0.07083581
      3.06779661	      0.02442712	      0.03007837	      0.07152021
      3.08474576	      0.02521988	      0.03056255	      0.07232107
      3.10169492	      0.02579776	      0.03091072	      0.07316607
      3.11864407	      0.02623213	      0.03116986	      0.07292587
      3.13559322	      0.02648411	      0.03131921	      0.07297729
      3.15254237	      0.02656649	      0.03136788	      0.07289898
      3.16949153	      0.02659219	      0.03138305	      0.07270035
      3.18644068	      0.02654732	      0.03135656	      0.07245402
      3.20338983	      0.02650139	      0.03132943	      0.07218962
      3.22033898	      0.02641686	      0.03127942	      0.07210702
      3.23728814	      0.02650984	      0.03133442	      0.07188298
      3.25423729	      0.02718374	      0.03173020	      0.07100623
      3.27118644	      0.02861149	      0.03255280	      0.07824967
      3.28813559	      0.03063095	      0.03368204	      0.08624292
      3.30508475	      0.03274430	      0.03482459	      0.09282804
      3.32203390	      0.03446386	      0.03572729	      0.09679930
      3.33898305	      0.03535738	      0.03618747	      0.09900004
      3.35593220	      0.03535314	      0.03618529	      0.09934828
      3.37288136	      0.03480108	      0.03590165	      0.09864105
      3.38983051	      0.03413609	      0.03555699	      0.09745952
      3.40677966	      0.03361239	      0.03528319	      0.09565406
      3.42372881	      0.03325932	      0.03509739	      0.09400588
      3.44067797	      0.03317112	      0.03505082	      0.09300611
      3.45762712	      0.03353696	      0.03524358	      0.09283500
      3.47457627	      0.03448027	      0.03573580	      0.09382294
      3.49152542	      0.03592608	      0.03647733	      0.09527863
      3.50847458	      0.03758238	      0.03730871	      0.09677024
      3.52542373	      0.03908910	      0.03804924	      0.09765710
      3.54237288	      0.04010167	      0.03853890	      0.09789322
      3.55932203	      0.04034795	      0.03865706	      0.09712620
      3.57627119	      0.03979186	      0.03838974	      0.09554001
      3.59322034	      0.03883398	      0.03792487	      0.09439776
      3.61016949	      0.03809021	      0.03755993	      0.09485351
      3.62711864	      0.03809101	      0.03756033	      0.09774070
      3.64406780	      0.03907933	      0.03804448	      0.10312473
      3.66101695	      0.04092203	      0.03893110	      0.11002338
      3.67796610	      0.04330425	      0.04004824	      0.11727736
      3.69491525	      0.04557972	      0.04108695	      0.12267339
      3.71186441	      0.04698878	      0.04171720	      0.12741365
      3.72881356	      0.04681492	      0.04163996	      0.12789743
      3.74576271	      0.04513868	      0.04088769	      0.12503519
      3.76271186	      0.04278649	      0.03980810	      0.12027046
      3.77966102	      0.04075323	      0.03885073	      0.11567355
      3.79661017	      0.03970595	      0.03834828	      0.11297816
      3.81355932	      0.03971327	      0.03835182	      0.11141893
      3.83050847	      0.04035667	      0.03866124	      0.11141251
      3.84745763	      0.04140807	      0.03916162	      0.11120575
      3.86440678	      0.04247826	      0.03966445	      0.11118365
      3.88135593	      0.04329329	      0.04004317	      0.11132250
      3.89830508	      0.04331083	      0.04005128	      0.11048657
      3.91525424	      0.04267715	      0.03975720	      0.10942216
      3.93220339	      0.04137907	      0.03914790	      0.10747554
      3.94915254	      0.03970065	      0.03834572	      0.10462946
      3.96610169	      0.03785085	      0.03744173	      0.10061822
      3.98305085	      0.03608802	      0.03655945	      0.09678657
      4.00000000	      0.03440264	      0.03569554	      0.09242635
      4.01694915	      0.03309536	      0.03501077	      0.08934958
      4.03389831	      0.03230123	      0.03458817	      0.08734526
      4.05084746	      0.03212093	      0.03449151	      0.08669625
      4.06779661	      0.03264339	      0.03477088	      0.08789930
      4.08474576	      0.03394848	      0.03545915	      0.09040995
      4.10169492	      0.03615009	      0.03659088	      0.09450365
      4.11864407	      0.03908361	      0.03804656	      0.09979257
      4.13559322	      0.04231899	      0.03959002	      0.10479188
      4.15254237	      0.04540308	      0.04100726	      0.10979448
      4.16949153	      0.04788306	      0.04211231	      0.11337110
      4.18644068	      0.04943917	      0.04279112	      0.11651303
      4.20338983	      0.04976193	      0.04293058	      0.11807943
      4.22033898	      0.04906944	      0.04263082	      0.11900702
      4.23728814	      0.04797333	      0.04215199	      0.11951313
      4.25423729	      0.04714470	      0.04178636	      0.12085958
      4.27118644	      0.04696025	      0.04170454	      0.12328319
      4.28813559	      0.04725679	      0.04183601	      0.12588393
      4.30508475	      0.04758938	      0.04198297	      0.12723026
      4.32203390	      0.04752329	      0.04195381	      0.12673136
      4.33898305	      0.04667193	      0.04157632	      0.12331179
      4.35593220	      0.04490246	      0.04078056	      0.11702885
      4.37288136	      0.04257281	      0.03970857	      0.10980640
      4.38983051	      0.04015928	      0.03856658	      0.10264663
      4.40677966	      0.03817710	      0.03760275	      0.09744852
      4.42372881	      0.03687221	      0.03695453	      0.09549857
      4.44067797	      0.03620634	      0.03661933	      0.09602410
      4.45762712	      0.03590025	      0.03646421	      0.09840618
      4.47457627	      0.03527625	      0.03614592	      0.09837712
      4.49152542	      0.03404865	      0.03551142	      0.09505959
      4.50847458	      0.03205355	      0.03445531	      0.08639481
      4.52542373	      0.02970196	      0.03316734	      0.07427790
      4.54237288	      0.02736199	      0.03183406	      0.06819320
      4.55932203	      0.02524838	      0.03057982	      0.06670436
      4.57627119	      0.02342114	      0.02945250	      0.06531300
      4.59322034	      0.02188815	      0.02847231	      0.06422109
      4.61016949	      0.02075116	      0.02772294	      0.06290180
      4.62711864	      0.02002517	      0.02723367	      0.06246479
      4.64406780	      0.01997888	      0.02720218	      0.06182699
      4.66101695	      0.02059075	      0.02761558	      0.06135740
      4.67796610	      0.02181182	      0.02842261	      0.06120563
      4.69491525	      0.02337450	      0.02942316	      0.06102198
      4.71186441	      0.02472630	      0.03026200	      0.06052742
      4.72881356	      0.02539788	      0.03067022	      0.06162268
      4.74576271	      0.02558615	      0.03078369	      0.05971699
      4.76271186	      0.02555222	      0.03076326	      0.05854706
      4.77966102	      0.02563779	      0.03081473	      0.05779587
      4.79661017	      0.02602696	      0.03104773	      0.05715018
      4.81355932	      0.02670624	      0.03145028	      0.05655651
      4.83050847	      0.02750587	      0.03191764	      0.05608492
      4.84745763	      0.02830608	      0.03237859	      0.05570485
      4.86440678	      0.02884980	      0.03268809	      0.05530864
      4.88135593	      0.02914963	      0.03285751	      0.05470052
      4.89830508	      0.02920788	      0.03289032	      0.05381213
      4.91525424	      0.02895537	      0.03274784	      0.05136521
      4.93220339	      0.02837987	      0.03242077	      0.05013082
