Model Marker Errors from IK
version=1
nRows=857
nColumns=4
inDegrees=no
endheader
time	total_squared_error	marker_error_RMS	marker_error_max
      0.00000000	      0.01838277	      0.02609297	      0.04761977
      0.01666667	      0.01862979	      0.02626770	      0.04796294
      0.03333333	      0.01951310	      0.02688322	      0.04944050
      0.05000000	      0.02051308	      0.02756345	      0.04834541
      0.06666667	      0.02166501	      0.02832681	      0.05062460
      0.08333333	      0.02278361	      0.02904888	      0.05307877
      0.10000000	      0.02362224	      0.02957867	      0.05477442
      0.11666667	      0.02439161	      0.03005650	      0.05629316
      0.13333333	      0.02487008	      0.03034986	      0.05787929
      0.15000000	      0.02490195	      0.03036930	      0.05854985
      0.16666667	      0.02464433	      0.03021180	      0.05876528
      0.18333333	      0.02439444	      0.03005824	      0.05858754
      0.20000000	      0.02445148	      0.03009336	      0.05820136
      0.21666667	      0.02494260	      0.03039408	      0.05733558
      0.23333333	      0.02568770	      0.03084471	      0.05942835
      0.25000000	      0.02631414	      0.03121855	      0.06137249
      0.26666667	      0.02656895	      0.03136934	      0.06181795
      0.28333333	      0.02607562	      0.03107674	      0.06081983
      0.30000000	      0.02283582	      0.02908214	      0.05146825
      0.31666667	      0.02190862	      0.02848562	      0.05100742
      0.33333333	      0.02122588	      0.02803825	      0.05132440
      0.35000000	      0.02085595	      0.02779285	      0.05293875
      0.36666667	      0.02055844	      0.02759391	      0.05495299
      0.38333333	      0.02033600	      0.02744422	      0.05642289
      0.40000000	      0.02001560	      0.02722717	      0.05681124
      0.41666667	      0.01959368	      0.02693867	      0.05659310
      0.43333333	      0.01937263	      0.02678628	      0.05665093
      0.45000000	      0.01944359	      0.02683529	      0.05831267
      0.46666667	      0.01983744	      0.02710572	      0.06056373
      0.48333333	      0.02033483	      0.02744343	      0.06302131
      0.50000000	      0.02074515	      0.02771893	      0.06485809
      0.51666667	      0.02092447	      0.02783847	      0.06603432
      0.53333333	      0.02083005	      0.02777559	      0.06567735
      0.55000000	      0.02051951	      0.02756777	      0.06394178
      0.56666667	      0.02008127	      0.02727179	      0.06117089
      0.58333333	      0.02003893	      0.02724303	      0.05797997
      0.60000000	      0.02092598	      0.02783947	      0.05851521
      0.61666667	      0.02254871	      0.02889875	      0.05702308
      0.63333333	      0.02407561	      0.02986116	      0.06804031
      0.65000000	      0.02491709	      0.03037853	      0.07527062
      0.66666667	      0.02477347	      0.03029086	      0.07807628
      0.68333333	      0.02356216	      0.02954103	      0.07613905
      0.70000000	      0.02178546	      0.02840544	      0.07080985
      0.71666667	      0.02013772	      0.02731010	      0.06359451
      0.73333333	      0.01919778	      0.02666512	      0.05669392
      0.75000000	      0.01931619	      0.02674723	      0.05181763
      0.76666667	      0.02059493	      0.02761839	      0.04930055
      0.78333333	      0.02294469	      0.02915139	      0.05015823
      0.80000000	      0.02605354	      0.03106358	      0.05199739
      0.81666667	      0.02918987	      0.03288018	      0.05352586
      0.83333333	      0.03165536	      0.03424063	      0.05410342
      0.85000000	      0.03325401	      0.03509459	      0.05330086
      0.86666667	      0.03429550	      0.03563992	      0.05322220
      0.88333333	      0.03521600	      0.03611504	      0.06143485
      0.90000000	      0.03607952	      0.03655514	      0.06901758
      0.91666667	      0.03636355	      0.03669875	      0.07288943
      0.93333333	      0.03585857	      0.03644304	      0.07145296
      0.95000000	      0.03483678	      0.03592007	      0.06659854
      0.96666667	      0.03389416	      0.03543077	      0.06384274
      0.98333333	      0.03329671	      0.03511711	      0.06201143
      1.00000000	      0.03299699	      0.03495870	      0.06018935
      1.01666667	      0.03295574	      0.03493684	      0.05968414
      1.03333333	      0.03303094	      0.03497668	      0.06725682
      1.05000000	      0.03294832	      0.03493291	      0.07193999
      1.06666667	      0.03247015	      0.03467850	      0.07402012
      1.08333333	      0.03165879	      0.03424248	      0.07442093
      1.10000000	      0.03081043	      0.03378057	      0.07230375
      1.11666667	      0.03027740	      0.03348709	      0.06926311
      1.13333333	      0.03012232	      0.03340122	      0.06582872
      1.15000000	      0.03009675	      0.03338704	      0.06298871
      1.16666667	      0.02995516	      0.03330841	      0.05997303
      1.18333333	      0.02960781	      0.03311473	      0.05842265
      1.20000000	      0.02906817	      0.03281156	      0.05793588
      1.21666667	      0.02815176	      0.03229021	      0.05851876
      1.23333333	      0.02729316	      0.03179399	      0.05817736
      1.25000000	      0.02652989	      0.03134627	      0.05774070
      1.26666667	      0.02607763	      0.03107794	      0.05732715
      1.28333333	      0.02592578	      0.03098732	      0.05657659
      1.30000000	      0.02603922	      0.03105504	      0.05547233
      1.31666667	      0.02637409	      0.03125409	      0.05432937
      1.33333333	      0.02686758	      0.03154513	      0.05358568
      1.35000000	      0.02735581	      0.03183046	      0.05340771
      1.36666667	      0.02766043	      0.03200719	      0.05337040
      1.38333333	      0.02767237	      0.03201410	      0.05399136
      1.40000000	      0.02743299	      0.03187533	      0.05421121
      1.41666667	      0.02708064	      0.03166996	      0.05359547
      1.43333333	      0.02677663	      0.03149170	      0.05287728
      1.45000000	      0.02655345	      0.03136018	      0.05208484
      1.46666667	      0.02650214	      0.03132987	      0.05225190
      1.48333333	      0.02649554	      0.03132597	      0.05259269
      1.50000000	      0.02658842	      0.03138083	      0.05335381
      1.51666667	      0.02685864	      0.03153989	      0.05371815
      1.53333333	      0.02734320	      0.03182312	      0.05372196
      1.55000000	      0.02808335	      0.03225096	      0.05495974
      1.56666667	      0.02900635	      0.03277666	      0.05581756
      1.58333333	      0.02985825	      0.03325449	      0.05665267
      1.60000000	      0.03060593	      0.03366828	      0.05696897
      1.61666667	      0.03107910	      0.03392754	      0.05695656
      1.63333333	      0.03134173	      0.03407059	      0.05664428
      1.65000000	      0.03136928	      0.03408556	      0.05618100
      1.66666667	      0.03107811	      0.03392700	      0.05639593
      1.68333333	      0.03057019	      0.03364862	      0.05649556
      1.70000000	      0.02986189	      0.03325651	      0.05655987
      1.71666667	      0.02920841	      0.03289062	      0.05636894
      1.73333333	      0.02849934	      0.03248894	      0.05576092
      1.75000000	      0.02786845	      0.03212732	      0.05500398
      1.76666667	      0.02713952	      0.03170437	      0.05425575
      1.78333333	      0.02640501	      0.03127241	      0.05351591
      1.80000000	      0.02584047	      0.03093630	      0.05300005
      1.81666667	      0.02576166	      0.03088909	      0.05291553
      1.83333333	      0.02622222	      0.03116397	      0.05307626
      1.85000000	      0.02698376	      0.03161326	      0.05303991
      1.86666667	      0.02788112	      0.03213463	      0.05300732
      1.88333333	      0.02873806	      0.03262472	      0.05760433
      1.90000000	      0.02938780	      0.03299147	      0.06289007
      1.91666667	      0.02965405	      0.03314058	      0.06479195
      1.93333333	      0.02947778	      0.03304194	      0.06421952
      1.95000000	      0.02902800	      0.03278889	      0.06165319
      1.96666667	      0.02845929	      0.03246610	      0.05824187
      1.98333333	      0.02776314	      0.03206656	      0.05752584
      2.00000000	      0.02704000	      0.03164619	      0.05803261
      2.01666667	      0.02633263	      0.03122952	      0.05827699
      2.03333333	      0.02584106	      0.03093665	      0.05764207
      2.05000000	      0.02565950	      0.03082778	      0.05661015
      2.06666667	      0.02578234	      0.03090148	      0.05558436
      2.08333333	      0.02612250	      0.03110466	      0.05472399
      2.10000000	      0.02645377	      0.03130127	      0.05605031
      2.11666667	      0.02667482	      0.03143177	      0.05669409
      2.13333333	      0.02646222	      0.03130626	      0.05520738
      2.15000000	      0.02582378	      0.03092630	      0.05316038
      2.16666667	      0.02507327	      0.03047359	      0.05334122
      2.18333333	      0.02454018	      0.03014789	      0.05345919
      2.20000000	      0.02439412	      0.03005804	      0.05401624
      2.21666667	      0.02444711	      0.03009067	      0.05439371
      2.23333333	      0.02462181	      0.03019799	      0.05525332
      2.25000000	      0.02479936	      0.03030668	      0.05591519
      2.26666667	      0.02510455	      0.03049259	      0.05676574
      2.28333333	      0.02546486	      0.03071063	      0.05723248
      2.30000000	      0.02577005	      0.03089411	      0.05700957
      2.31666667	      0.02598157	      0.03102064	      0.05619498
      2.33333333	      0.02614531	      0.03111824	      0.05503580
      2.35000000	      0.02633358	      0.03123008	      0.05376373
      2.36666667	      0.02652152	      0.03134132	      0.05273807
      2.38333333	      0.02672042	      0.03145863	      0.05373258
      2.40000000	      0.02672770	      0.03146291	      0.05327723
      2.41666667	      0.02651926	      0.03133999	      0.05297299
      2.43333333	      0.02623527	      0.03117173	      0.05352585
      2.45000000	      0.02587534	      0.03095716	      0.05366484
      2.46666667	      0.02563407	      0.03081250	      0.05364446
      2.48333333	      0.02557036	      0.03077418	      0.05321356
      2.50000000	      0.02568227	      0.03084145	      0.05403061
      2.51666667	      0.02597042	      0.03101399	      0.05450600
      2.53333333	      0.02640487	      0.03127232	      0.05488746
      2.55000000	      0.02676816	      0.03148672	      0.05423559
      2.56666667	      0.02695916	      0.03159885	      0.05368139
      2.58333333	      0.02678139	      0.03149450	      0.05298595
      2.60000000	      0.02622835	      0.03116762	      0.05278742
      2.61666667	      0.02550920	      0.03073736	      0.05242356
      2.63333333	      0.02477342	      0.03029083	      0.05239658
      2.65000000	      0.02405804	      0.02985027	      0.05222068
      2.66666667	      0.02341079	      0.02944599	      0.05206710
      2.68333333	      0.02283629	      0.02908244	      0.05177731
      2.70000000	      0.02239166	      0.02879793	      0.05097577
      2.71666667	      0.02198427	      0.02853475	      0.04964301
      2.73333333	      0.02151138	      0.02822619	      0.04863132
      2.75000000	      0.02103631	      0.02791277	      0.04893892
      2.76666667	      0.02063602	      0.02764592	      0.04935241
      2.78333333	      0.02037739	      0.02747214	      0.04960824
      2.80000000	      0.02027282	      0.02740155	      0.05037999
      2.81666667	      0.02025442	      0.02738912	      0.05147383
      2.83333333	      0.02033008	      0.02744023	      0.05256975
      2.85000000	      0.02060607	      0.02762585	      0.05380853
      2.86666667	      0.02101567	      0.02789907	      0.05300616
      2.88333333	      0.02169580	      0.02834692	      0.05422732
      2.90000000	      0.02264342	      0.02895937	      0.06294368
      2.91666667	      0.02392442	      0.02976726	      0.07070275
      2.93333333	      0.02527788	      0.03059768	      0.07705466
      2.95000000	      0.02629078	      0.03120469	      0.08180141
      2.96666667	      0.02665179	      0.03141820	      0.08394902
      2.98333333	      0.02638385	      0.03125987	      0.08263830
      3.00000000	      0.02564274	      0.03081771	      0.07781395
      3.01666667	      0.02489216	      0.03036333	      0.07145051
      3.03333333	      0.02440731	      0.03006617	      0.06479752
      3.05000000	      0.02444189	      0.03008746	      0.05826434
      3.06666667	      0.02523126	      0.03056945	      0.05665212
      3.08333333	      0.02681009	      0.03151137	      0.06951866
      3.10000000	      0.02415505	      0.02991039	      0.06194618
      3.11666667	      0.02430239	      0.03000148	      0.05891149
      3.13333333	      0.02435235	      0.03003229	      0.06119697
      3.15000000	      0.02445115	      0.03009316	      0.06286437
      3.16666667	      0.02500628	      0.03043285	      0.06460377
      3.18333333	      0.02622002	      0.03116267	      0.06532323
      3.20000000	      0.02635703	      0.03124398	      0.06148458
      3.21666667	      0.02815653	      0.03229295	      0.06614185
      3.23333333	      0.02978030	      0.03321105	      0.06853728
      3.25000000	      0.03060871	      0.03366981	      0.07181945
      3.26666667	      0.03046885	      0.03359280	      0.07251559
      3.28333333	      0.02958993	      0.03310473	      0.07102963
      3.30000000	      0.02824072	      0.03234119	      0.06807005
      3.31666667	      0.02684690	      0.03153299	      0.06502095
      3.33333333	      0.02584245	      0.03093748	      0.06248147
      3.35000000	      0.02550082	      0.03073231	      0.06113318
      3.36666667	      0.02563869	      0.03081527	      0.06085466
      3.38333333	      0.02581965	      0.03092383	      0.06095952
      3.40000000	      0.02557637	      0.03077780	      0.06104808
      3.41666667	      0.02490788	      0.03037292	      0.06023055
      3.43333333	      0.02396501	      0.02979250	      0.05927541
      3.45000000	      0.02310152	      0.02925085	      0.05826352
      3.46666667	      0.02250546	      0.02887102	      0.05721111
      3.48333333	      0.02213376	      0.02863161	      0.05614832
      3.50000000	      0.02190186	      0.02848122	      0.05452107
      3.51666667	      0.02176336	      0.02839103	      0.05344013
      3.53333333	      0.02179505	      0.02841169	      0.05318922
      3.55000000	      0.02195132	      0.02851336	      0.05387600
      3.56666667	      0.02228659	      0.02873028	      0.05559986
      3.58333333	      0.02284879	      0.02909040	      0.05804732
      3.60000000	      0.02344916	      0.02947011	      0.06062348
      3.61666667	      0.02421108	      0.02994506	      0.06325963
      3.63333333	      0.02485613	      0.03034135	      0.06545460
      3.65000000	      0.02526471	      0.03058971	      0.06657948
      3.66666667	      0.02535399	      0.03064371	      0.06611636
      3.68333333	      0.02524339	      0.03057680	      0.06437457
      3.70000000	      0.02509625	      0.03048755	      0.06180130
      3.71666667	      0.02507833	      0.03047667	      0.05885800
      3.73333333	      0.02525575	      0.03058428	      0.05647333
      3.75000000	      0.02572262	      0.03086567	      0.05497867
      3.76666667	      0.02642900	      0.03128661	      0.05444662
      3.78333333	      0.02727957	      0.03178608	      0.05509470
      3.80000000	      0.02818010	      0.03230646	      0.05669282
      3.81666667	      0.02906298	      0.03280863	      0.05896334
      3.83333333	      0.02987469	      0.03326364	      0.06123307
      3.85000000	      0.03069280	      0.03371603	      0.06310233
      3.86666667	      0.03149815	      0.03415550	      0.06474809
      3.88333333	      0.03221213	      0.03454044	      0.06537686
      3.90000000	      0.03276106	      0.03483350	      0.06874843
      3.91666667	      0.03317750	      0.03505419	      0.07187900
      3.93333333	      0.03341565	      0.03517977	      0.07290382
      3.95000000	      0.03363802	      0.03529663	      0.07418373
      3.96666667	      0.03361459	      0.03528434	      0.07412191
      3.98333333	      0.03379123	      0.03537693	      0.07434848
      4.00000000	      0.03317992	      0.03505547	      0.07280659
      4.01666667	      0.03300512	      0.03496301	      0.07124937
      4.03333333	      0.03298900	      0.03495447	      0.06920360
      4.05000000	      0.03315080	      0.03504008	      0.06693166
      4.06666667	      0.03350094	      0.03522465	      0.06500369
      4.08333333	      0.03397315	      0.03547203	      0.06318675
      4.10000000	      0.03441151	      0.03570014	      0.06491362
      4.11666667	      0.03459373	      0.03579454	      0.06604799
      4.13333333	      0.03424966	      0.03561609	      0.06577857
      4.15000000	      0.03344972	      0.03519771	      0.06379864
      4.16666667	      0.03233042	      0.03460380	      0.05985636
      4.18333333	      0.03120032	      0.03399364	      0.05787873
      4.20000000	      0.03029471	      0.03349666	      0.05808470
      4.21666667	      0.02973066	      0.03318336	      0.05842236
      4.23333333	      0.02950874	      0.03305928	      0.05878577
      4.25000000	      0.02965347	      0.03314026	      0.05937252
      4.26666667	      0.03003339	      0.03335188	      0.06008010
      4.28333333	      0.03038585	      0.03354701	      0.05996559
      4.30000000	      0.03048659	      0.03360257	      0.05902420
      4.31666667	      0.03042176	      0.03356683	      0.05950081
      4.33333333	      0.03046363	      0.03358992	      0.06143565
      4.35000000	      0.03040278	      0.03355635	      0.05393559
      4.36666667	      0.02989183	      0.03327318	      0.05485709
      4.38333333	      0.02880658	      0.03266360	      0.05636559
      4.40000000	      0.02633533	      0.03123111	      0.05557879
      4.41666667	      0.02278740	      0.02905130	      0.05147380
      4.43333333	      0.01963029	      0.02696383	      0.04676280
      4.45000000	      0.01805073	      0.02585625	      0.04518572
      4.46666667	      0.01853832	      0.02620314	      0.04393256
      4.48333333	      0.02052869	      0.02757393	      0.04305958
      4.50000000	      0.02273727	      0.02901932	      0.05053696
      4.51666667	      0.02427652	      0.02998550	      0.05504999
      4.53333333	      0.02460672	      0.03018874	      0.05647617
      4.55000000	      0.02396936	      0.02979520	      0.05648059
      4.56666667	      0.02299366	      0.02918248	      0.05640549
      4.58333333	      0.02241072	      0.02881018	      0.05630331
      4.60000000	      0.02261715	      0.02894257	      0.05793476
      4.61666667	      0.02363101	      0.02958416	      0.06202574
      4.63333333	      0.02545149	      0.03070257	      0.06750860
      4.65000000	      0.02784376	      0.03211309	      0.07357408
      4.66666667	      0.03066166	      0.03369892	      0.07924769
      4.68333333	      0.03363843	      0.03529685	      0.08381566
      4.70000000	      0.03631454	      0.03667401	      0.08674034
      4.71666667	      0.03789586	      0.03746399	      0.08776275
      4.73333333	      0.03800868	      0.03751972	      0.08692668
      4.75000000	      0.03670842	      0.03687236	      0.08555978
      4.76666667	      0.03467234	      0.03583519	      0.08138372
      4.78333333	      0.03200013	      0.03442659	      0.07781435
      4.80000000	      0.02913362	      0.03284848	      0.07272077
      4.81666667	      0.02642453	      0.03128396	      0.06757451
      4.83333333	      0.02424734	      0.02996747	      0.06317119
      4.85000000	      0.02212419	      0.02862542	      0.04962625
      4.86666667	      0.02102433	      0.02790482	      0.04902850
      4.88333333	      0.02030593	      0.02742392	      0.04909704
      4.90000000	      0.01988044	      0.02713508	      0.04914179
      4.91666667	      0.01969331	      0.02700707	      0.04910696
      4.93333333	      0.01975101	      0.02704661	      0.04914096
      4.95000000	      0.01983061	      0.02710106	      0.04902512
      4.96666667	      0.02006257	      0.02725910	      0.04891909
      4.98333333	      0.02040555	      0.02749111	      0.04885923
      5.00000000	      0.02085772	      0.02779403	      0.04888870
      5.01666667	      0.02139962	      0.02815277	      0.04880856
      5.03333333	      0.02192385	      0.02849551	      0.05192690
      5.05000000	      0.02229442	      0.02873533	      0.05422389
      5.06666667	      0.02231423	      0.02874810	      0.05587275
      5.08333333	      0.02200766	      0.02854993	      0.05641021
      5.10000000	      0.02149707	      0.02821680	      0.05609150
      5.11666667	      0.02085420	      0.02779168	      0.05486773
      5.13333333	      0.01991046	      0.02715556	      0.05177123
      5.15000000	      0.01875338	      0.02635469	      0.04874558
      5.16666667	      0.01736908	      0.02536334	      0.04556370
      5.18333333	      0.01615022	      0.02445724	      0.04478787
      5.20000000	      0.01511124	      0.02365746	      0.04395064
      5.21666667	      0.01431549	      0.02302614	      0.04310800
      5.23333333	      0.01376535	      0.02257937	      0.04240447
      5.25000000	      0.01347386	      0.02233902	      0.04198879
      5.26666667	      0.01329422	      0.02218961	      0.04124077
      5.28333333	      0.01323621	      0.02214114	      0.04082620
      5.30000000	      0.01324061	      0.02214481	      0.04053273
      5.31666667	      0.01332319	      0.02221377	      0.04030930
      5.33333333	      0.01353276	      0.02238780	      0.04021018
      5.35000000	      0.01390531	      0.02269386	      0.04011405
      5.36666667	      0.01442060	      0.02311052	      0.04020132
      5.38333333	      0.01505751	      0.02361536	      0.04027723
      5.40000000	      0.01573834	      0.02414335	      0.04246707
      5.41666667	      0.01631080	      0.02457852	      0.04456012
      5.43333333	      0.01666210	      0.02484180	      0.04560664
      5.45000000	      0.01670791	      0.02487592	      0.04620295
      5.46666667	      0.01647760	      0.02470388	      0.04543070
      5.48333333	      0.01614645	      0.02445438	      0.04374573
      5.50000000	      0.01588717	      0.02425724	      0.04362088
      5.51666667	      0.01575788	      0.02415833	      0.04379918
      5.53333333	      0.01572737	      0.02413494	      0.04475889
      5.55000000	      0.01570682	      0.02411916	      0.04566915
      5.56666667	      0.01559679	      0.02403453	      0.04570329
      5.58333333	      0.01541469	      0.02389382	      0.04473999
      5.60000000	      0.01522537	      0.02374663	      0.04397434
      5.61666667	      0.01507183	      0.02362660	      0.04408787
      5.63333333	      0.01491962	      0.02350698	      0.04430486
      5.65000000	      0.01470279	      0.02333555	      0.04445099
      5.66666667	      0.01440675	      0.02309942	      0.04454866
      5.68333333	      0.01407761	      0.02283403	      0.04458791
      5.70000000	      0.01380049	      0.02260817	      0.04468403
      5.71666667	      0.01364981	      0.02248441	      0.04474189
      5.73333333	      0.01364949	      0.02248414	      0.04479191
      5.75000000	      0.01380886	      0.02261502	      0.04476295
      5.76666667	      0.01411570	      0.02286490	      0.04465370
      5.78333333	      0.01452670	      0.02319538	      0.04439524
      5.80000000	      0.01502834	      0.02359248	      0.04410060
      5.81666667	      0.01558308	      0.02402397	      0.04582735
      5.83333333	      0.01605932	      0.02438831	      0.04939008
      5.85000000	      0.01639556	      0.02464230	      0.05200481
      5.86666667	      0.01650918	      0.02472753	      0.05300087
      5.88333333	      0.01637630	      0.02462782	      0.05227260
      5.90000000	      0.01601305	      0.02435315	      0.04990725
      5.91666667	      0.01551266	      0.02396963	      0.04662975
      5.93333333	      0.01499499	      0.02356629	      0.04324292
      5.95000000	      0.01454313	      0.02320850	      0.04097421
      5.96666667	      0.01417943	      0.02291646	      0.04046811
      5.98333333	      0.01393061	      0.02271450	      0.03983896
      6.00000000	      0.01383851	      0.02263929	      0.03915324
      6.01666667	      0.01387656	      0.02267039	      0.03867559
      6.03333333	      0.01401349	      0.02278197	      0.03839309
      6.05000000	      0.01416124	      0.02290176	      0.03846754
      6.06666667	      0.01429437	      0.02300915	      0.03894848
      6.08333333	      0.01443815	      0.02312458	      0.03969227
      6.10000000	      0.01460729	      0.02325963	      0.04058629
      6.11666667	      0.01481067	      0.02342100	      0.04134954
      6.13333333	      0.01502851	      0.02359261	      0.04237284
      6.15000000	      0.01527193	      0.02378291	      0.04373872
      6.16666667	      0.01558965	      0.02402903	      0.04540480
      6.18333333	      0.01602877	      0.02436510	      0.04714050
      6.20000000	      0.01658368	      0.02478326	      0.04858434
      6.21666667	      0.01710881	      0.02517260	      0.04938112
      6.23333333	      0.01749081	      0.02545207	      0.04908514
      6.25000000	      0.01756532	      0.02550622	      0.04777589
      6.26666667	      0.01729445	      0.02530880	      0.04596593
      6.28333333	      0.01672568	      0.02488915	      0.04410978
      6.30000000	      0.01599702	      0.02434096	      0.04226026
      6.31666667	      0.01524913	      0.02376515	      0.03975099
      6.33333333	      0.01458536	      0.02324217	      0.03710236
      6.35000000	      0.01405239	      0.02281357	      0.03674938
      6.36666667	      0.01363894	      0.02247545	      0.03698004
      6.38333333	      0.01333228	      0.02222135	      0.03736033
      6.40000000	      0.01310014	      0.02202704	      0.03775987
      6.41666667	      0.01293467	      0.02188748	      0.03774214
      6.43333333	      0.01281875	      0.02178918	      0.03793030
      6.45000000	      0.01272266	      0.02170736	      0.03791142
      6.46666667	      0.01262836	      0.02162677	      0.03796311
      6.48333333	      0.01254421	      0.02155459	      0.03819815
      6.50000000	      0.01248965	      0.02150767	      0.03866983
      6.51666667	      0.01249153	      0.02150929	      0.03932342
      6.53333333	      0.01256172	      0.02156963	      0.03986311
      6.55000000	      0.01272550	      0.02170979	      0.04029538
      6.56666667	      0.01300187	      0.02194426	      0.04057165
      6.58333333	      0.01336437	      0.02224807	      0.04050200
      6.60000000	      0.01372472	      0.02254602	      0.04020230
      6.61666667	      0.01402955	      0.02279502	      0.03986197
      6.63333333	      0.01415508	      0.02289677	      0.03979045
      6.65000000	      0.01404635	      0.02280867	      0.03993851
      6.66666667	      0.01372373	      0.02254521	      0.04021694
      6.68333333	      0.01326789	      0.02216762	      0.04053897
      6.70000000	      0.01279330	      0.02176754	      0.04068461
      6.71666667	      0.01241247	      0.02144110	      0.04063100
      6.73333333	      0.01216238	      0.02122401	      0.04063279
      6.75000000	      0.01199805	      0.02108014	      0.04056164
      6.76666667	      0.01191453	      0.02100664	      0.04043166
      6.78333333	      0.01194715	      0.02103537	      0.04059515
      6.80000000	      0.01223486	      0.02128716	      0.04085200
      6.81666667	      0.01280700	      0.02177920	      0.04116893
      6.83333333	      0.01359333	      0.02243784	      0.04175149
      6.85000000	      0.01432420	      0.02303315	      0.04272359
      6.86666667	      0.01473504	      0.02336113	      0.04140860
      6.88333333	      0.01477346	      0.02339156	      0.04459395
      6.90000000	      0.01470579	      0.02333793	      0.04548875
      6.91666667	      0.01472392	      0.02335231	      0.04532433
      6.93333333	      0.01476552	      0.02338527	      0.04484193
      6.95000000	      0.01474706	      0.02337065	      0.04302179
      6.96666667	      0.01474635	      0.02337009	      0.04306423
      6.98333333	      0.01477988	      0.02339665	      0.04366824
      7.00000000	      0.01476405	      0.02338411	      0.04450512
      7.01666667	      0.01463076	      0.02327831	      0.04424757
      7.03333333	      0.01439763	      0.02309211	      0.04315242
      7.05000000	      0.01430058	      0.02301415	      0.04238488
      7.06666667	      0.01434185	      0.02304733	      0.04269560
      7.08333333	      0.01456379	      0.02322498	      0.04323726
      7.10000000	      0.01488247	      0.02347770	      0.04371801
      7.11666667	      0.01514562	      0.02368436	      0.04415130
      7.13333333	      0.01525098	      0.02376659	      0.04409572
      7.15000000	      0.01529779	      0.02380304	      0.04355357
      7.16666667	      0.01524944	      0.02376540	      0.04258436
      7.18333333	      0.01505250	      0.02361144	      0.04177076
      7.20000000	      0.01473998	      0.02336504	      0.04255445
      7.21666667	      0.01447498	      0.02315405	      0.04246558
      7.23333333	      0.01441394	      0.02310518	      0.04204725
      7.25000000	      0.01455461	      0.02321765	      0.04009859
      7.26666667	      0.01485519	      0.02345618	      0.03849974
      7.28333333	      0.01512074	      0.02366490	      0.03932855
      7.30000000	      0.01526764	      0.02377957	      0.03995028
      7.31666667	      0.01524242	      0.02375993	      0.04092892
      7.33333333	      0.01500076	      0.02357082	      0.04182789
      7.35000000	      0.01486485	      0.02346380	      0.04259627
      7.36666667	      0.01520908	      0.02373392	      0.04350182
      7.38333333	      0.01547645	      0.02394163	      0.04438620
      7.40000000	      0.01652759	      0.02474132	      0.04993068
      7.41666667	      0.01742727	      0.02540580	      0.05625923
      7.43333333	      0.01864451	      0.02627808	      0.06198140
      7.45000000	      0.01714871	      0.02520193	      0.04660883
      7.46666667	      0.01688249	      0.02500555	      0.04537371
      7.48333333	      0.01647422	      0.02470134	      0.04626698
      7.50000000	      0.01618856	      0.02448625	      0.04830733
      7.51666667	      0.01627550	      0.02455191	      0.04954565
      7.53333333	      0.01559140	      0.02403038	      0.05488806
      7.55000000	      0.01468861	      0.02332429	      0.04727793
      7.56666667	      0.01411175	      0.02286170	      0.04251103
      7.58333333	      0.01383389	      0.02263551	      0.04214081
      7.60000000	      0.01382590	      0.02262897	      0.04206282
      7.61666667	      0.01401888	      0.02278635	      0.04223007
      7.63333333	      0.01428615	      0.02300254	      0.04246054
      7.65000000	      0.01451775	      0.02318824	      0.04277376
      7.66666667	      0.01468320	      0.02332000	      0.04308274
      7.68333333	      0.01485281	      0.02345430	      0.04338854
      7.70000000	      0.01501257	      0.02358010	      0.04372129
      7.71666667	      0.01515703	      0.02369328	      0.04385273
      7.73333333	      0.01526301	      0.02377597	      0.04394040
      7.75000000	      0.01530072	      0.02380532	      0.04397059
      7.76666667	      0.01533559	      0.02383243	      0.04405970
      7.78333333	      0.01540570	      0.02388685	      0.04424643
      7.80000000	      0.01552089	      0.02397598	      0.04461689
      7.81666667	      0.01569663	      0.02411134	      0.04490333
      7.83333333	      0.01589424	      0.02426264	      0.04689527
      7.85000000	      0.01597951	      0.02432763	      0.04806567
      7.86666667	      0.01594513	      0.02430145	      0.04878239
      7.88333333	      0.01580543	      0.02419476	      0.04822643
      7.90000000	      0.01556487	      0.02400993	      0.04697816
      7.91666667	      0.01531483	      0.02381630	      0.04548919
      7.93333333	      0.01495738	      0.02353672	      0.04563313
      7.95000000	      0.01446230	      0.02314391	      0.04560483
      7.96666667	      0.01395244	      0.02273229	      0.04553309
      7.98333333	      0.01348489	      0.02234816	      0.04524428
      8.00000000	      0.01313392	      0.02205542	      0.04462511
      8.01666667	      0.01289582	      0.02185458	      0.04393936
      8.03333333	      0.01280595	      0.02177830	      0.04295298
      8.05000000	      0.01280700	      0.02177920	      0.04194347
      8.06666667	      0.01289594	      0.02185469	      0.04087573
      8.08333333	      0.01301387	      0.02195438	      0.03991762
      8.10000000	      0.01318185	      0.02209563	      0.03946701
      8.11666667	      0.01338602	      0.02226608	      0.03948987
      8.13333333	      0.01374910	      0.02256604	      0.03970785
      8.15000000	      0.01434157	      0.02304711	      0.04048248
      8.16666667	      0.01507815	      0.02363155	      0.04303754
      8.18333333	      0.01577800	      0.02417376	      0.04334735
      8.20000000	      0.01640270	      0.02464767	      0.04509262
      8.21666667	      0.01688027	      0.02500391	      0.04603772
      8.23333333	      0.01718392	      0.02522779	      0.04681476
      8.25000000	      0.01705276	      0.02513133	      0.04708887
      8.26666667	      0.01697655	      0.02507511	      0.04727625
      8.28333333	      0.01668793	      0.02486104	      0.04758544
      8.30000000	      0.01651765	      0.02473388	      0.04749687
      8.31666667	      0.01648477	      0.02470925	      0.04748520
      8.33333333	      0.01655611	      0.02476266	      0.04748252
      8.35000000	      0.01670675	      0.02487506	      0.04756710
      8.36666667	      0.01687614	      0.02500085	      0.04803063
      8.38333333	      0.01709287	      0.02516087	      0.04783737
      8.40000000	      0.01705307	      0.02513156	      0.04575528
      8.41666667	      0.01678572	      0.02493378	      0.04742518
      8.43333333	      0.01664769	      0.02483105	      0.04727806
      8.45000000	      0.01657274	      0.02477509	      0.04761295
      8.46666667	      0.01655840	      0.02476437	      0.04934175
      8.48333333	      0.01653080	      0.02474372	      0.05062770
      8.50000000	      0.01639123	      0.02463905	      0.05107195
      8.51666667	      0.01615196	      0.02445855	      0.05021686
      8.53333333	      0.01582876	      0.02421260	      0.04825292
      8.55000000	      0.01560074	      0.02403758	      0.04647207
      8.56666667	      0.01566692	      0.02408851	      0.04568534
      8.58333333	      0.01599002	      0.02433563	      0.04634869
      8.60000000	      0.01657870	      0.02477955	      0.04647882
      8.61666667	      0.01708111	      0.02515221	      0.04567245
      8.63333333	      0.01749504	      0.02545515	      0.04611996
      8.65000000	      0.01777094	      0.02565508	      0.04630155
      8.66666667	      0.01788480	      0.02573713	      0.04675960
      8.68333333	      0.01781021	      0.02568341	      0.04720817
      8.70000000	      0.01759947	      0.02553101	      0.04734370
      8.71666667	      0.01730853	      0.02531910	      0.04738973
      8.73333333	      0.01705922	      0.02513609	      0.04561897
      8.75000000	      0.01695628	      0.02506014	      0.04531626
      8.76666667	      0.01700700	      0.02509759	      0.04577422
      8.78333333	      0.01725404	      0.02527921	      0.04577842
      8.80000000	      0.01762852	      0.02555207	      0.04555541
      8.81666667	      0.01799647	      0.02581736	      0.04625537
      8.83333333	      0.01836387	      0.02607955	      0.04691075
      8.85000000	      0.01843964	      0.02613330	      0.04763531
      8.86666667	      0.01842830	      0.02612527	      0.04810195
      8.88333333	      0.01833626	      0.02605994	      0.04787164
      8.90000000	      0.01760663	      0.02553620	      0.04603170
      8.91666667	      0.01677674	      0.02492711	      0.04406420
      8.93333333	      0.01613868	      0.02444850	      0.04379138
      8.95000000	      0.01569089	      0.02410693	      0.04332705
      8.96666667	      0.01544181	      0.02391482	      0.04339328
      8.98333333	      0.01539241	      0.02387654	      0.04426987
      9.00000000	      0.01541852	      0.02389678	      0.04531557
      9.01666667	      0.01555407	      0.02400160	      0.04647300
      9.03333333	      0.01565822	      0.02408182	      0.04804496
      9.05000000	      0.01563655	      0.02406515	      0.04897450
      9.06666667	      0.01563512	      0.02406405	      0.04935601
      9.08333333	      0.01601916	      0.02435780	      0.05017879
      9.10000000	      0.01719984	      0.02523948	      0.05160778
      9.11666667	      0.01935580	      0.02677464	      0.05420189
      9.13333333	      0.02237057	      0.02878436	      0.05762054
      9.15000000	      0.02584554	      0.03093933	      0.06200213
      9.16666667	      0.02913578	      0.03284970	      0.06732457
      9.18333333	      0.03123542	      0.03401275	      0.07128970
      9.20000000	      0.03173694	      0.03428472	      0.07397285
      9.21666667	      0.03059002	      0.03365953	      0.07370870
      9.23333333	      0.02851347	      0.03249699	      0.07023698
      9.25000000	      0.02642089	      0.03128181	      0.06514717
      9.26666667	      0.02489883	      0.03036740	      0.05974474
      9.28333333	      0.02395585	      0.02978680	      0.05387228
      9.30000000	      0.02336763	      0.02941883	      0.05275547
      9.31666667	      0.02277289	      0.02904204	      0.05182873
      9.33333333	      0.02228816	      0.02873130	      0.05125677
      9.35000000	      0.02188556	      0.02847062	      0.05060861
      9.36666667	      0.02160101	      0.02828494	      0.05107699
      9.38333333	      0.02164256	      0.02831212	      0.05192767
      9.40000000	      0.02192856	      0.02849858	      0.05347966
      9.41666667	      0.02203792	      0.02856955	      0.05430747
      9.43333333	      0.02197552	      0.02852907	      0.05423504
      9.45000000	      0.02160551	      0.02828788	      0.05189691
      9.46666667	      0.02074482	      0.02771871	      0.04738622
      9.48333333	      0.01951108	      0.02688182	      0.04752129
      9.50000000	      0.01812350	      0.02590832	      0.04823806
      9.51666667	      0.01702487	      0.02511077	      0.04854184
      9.53333333	      0.01552013	      0.02397540	      0.04842949
      9.55000000	      0.01475217	      0.02337470	      0.04827089
      9.56666667	      0.01435833	      0.02306057	      0.04829553
      9.58333333	      0.01417393	      0.02291202	      0.04840820
      9.60000000	      0.01408713	      0.02284175	      0.04879265
      9.61666667	      0.01404217	      0.02280527	      0.04924028
      9.63333333	      0.01404366	      0.02280648	      0.04950598
      9.65000000	      0.01429158	      0.02300691	      0.04983290
      9.66666667	      0.01447829	      0.02315670	      0.04936592
      9.68333333	      0.01484359	      0.02344701	      0.04889519
      9.70000000	      0.01525689	      0.02377120	      0.04825971
      9.71666667	      0.01559899	      0.02403623	      0.04751301
      9.73333333	      0.01563826	      0.02406647	      0.04697686
      9.75000000	      0.01560504	      0.02404089	      0.04631462
      9.76666667	      0.01542648	      0.02390295	      0.04565333
      9.78333333	      0.01518057	      0.02371167	      0.04496567
      9.80000000	      0.01517504	      0.02370735	      0.04426597
      9.81666667	      0.01527159	      0.02378265	      0.04386276
      9.83333333	      0.01526321	      0.02377612	      0.04382794
      9.85000000	      0.01512450	      0.02366784	      0.04400351
      9.86666667	      0.01491867	      0.02350624	      0.04424661
      9.88333333	      0.01467871	      0.02331643	      0.04438309
      9.90000000	      0.01442632	      0.02311510	      0.04448252
      9.91666667	      0.01437420	      0.02307331	      0.04452470
      9.93333333	      0.01449712	      0.02317175	      0.04447639
      9.95000000	      0.01469988	      0.02333324	      0.04428293
      9.96666667	      0.01473920	      0.02336442	      0.04413821
      9.98333333	      0.01467154	      0.02331073	      0.04390786
     10.00000000	      0.01451883	      0.02318910	      0.04358213
     10.01666667	      0.01445296	      0.02313644	      0.04336160
     10.03333333	      0.01462460	      0.02327342	      0.04317833
     10.05000000	      0.01488534	      0.02347997	      0.04340455
     10.06666667	      0.01536818	      0.02385775	      0.04388639
     10.08333333	      0.01596989	      0.02432031	      0.04477014
     10.10000000	      0.01652775	      0.02474144	      0.04593457
     10.11666667	      0.01691517	      0.02502974	      0.04729054
     10.13333333	      0.01708375	      0.02515415	      0.04860726
     10.15000000	      0.01701544	      0.02510381	      0.04944409
     10.16666667	      0.01700083	      0.02509304	      0.04966571
     10.18333333	      0.01734356	      0.02534471	      0.04928536
     10.20000000	      0.01799564	      0.02581677	      0.04857789
     10.21666667	      0.01888272	      0.02644542	      0.04784591
     10.23333333	      0.01956152	      0.02691655	      0.04717141
     10.25000000	      0.01975123	      0.02704676	      0.04727447
     10.26666667	      0.01964310	      0.02697262	      0.04734686
     10.28333333	      0.01935782	      0.02677604	      0.04894546
     10.30000000	      0.01898511	      0.02651702	      0.05024523
     10.31666667	      0.01863354	      0.02627035	      0.05158217
     10.33333333	      0.01826628	      0.02601017	      0.05278621
     10.35000000	      0.01775585	      0.02564418	      0.05252360
     10.36666667	      0.01715351	      0.02520546	      0.05131918
     10.38333333	      0.01655742	      0.02476364	      0.04892623
     10.40000000	      0.01603823	      0.02437229	      0.04910650
     10.41666667	      0.01563263	      0.02406213	      0.05040106
     10.43333333	      0.01537573	      0.02386360	      0.05151205
     10.45000000	      0.01531588	      0.02381711	      0.05244003
     10.46666667	      0.01543941	      0.02391296	      0.05308028
     10.48333333	      0.01560371	      0.02403987	      0.05361257
     10.50000000	      0.01565489	      0.02407926	      0.05398040
     10.51666667	      0.01554995	      0.02399842	      0.05403994
     10.53333333	      0.01543932	      0.02391290	      0.05386362
     10.55000000	      0.01545381	      0.02392411	      0.05338821
     10.56666667	      0.01582368	      0.02420873	      0.05265522
     10.58333333	      0.01647296	      0.02470040	      0.05164979
     10.60000000	      0.01727912	      0.02529758	      0.05051115
     10.61666667	      0.01811839	      0.02590466	      0.04929997
     10.63333333	      0.01880764	      0.02639279	      0.04835614
     10.65000000	      0.01924009	      0.02669449	      0.05047601
     10.66666667	      0.01910442	      0.02660021	      0.05260315
     10.68333333	      0.01879464	      0.02638367	      0.05113089
     10.70000000	      0.01848171	      0.02616310	      0.05058351
     10.71666667	      0.01837309	      0.02608610	      0.05109711
     10.73333333	      0.01844317	      0.02613581	      0.05147027
     10.75000000	      0.01832575	      0.02605247	      0.04888029
     10.76666667	      0.01805309	      0.02585794	      0.04852478
     10.78333333	      0.01777373	      0.02565709	      0.04765814
     10.80000000	      0.01763609	      0.02555755	      0.04735124
     10.81666667	      0.01761630	      0.02554321	      0.04710961
     10.83333333	      0.01754211	      0.02548937	      0.04709662
     10.85000000	      0.01721049	      0.02524729	      0.04775319
     10.86666667	      0.01670801	      0.02487600	      0.04407818
     10.88333333	      0.01619025	      0.02448752	      0.04188067
     10.90000000	      0.01587253	      0.02424606	      0.04191015
     10.91666667	      0.01579374	      0.02418581	      0.04195052
     10.93333333	      0.01583203	      0.02421511	      0.04208322
     10.95000000	      0.01586570	      0.02424084	      0.04240628
     10.96666667	      0.01586836	      0.02424288	      0.04285805
     10.98333333	      0.01583684	      0.02421879	      0.04347520
     11.00000000	      0.01582068	      0.02420643	      0.04424285
     11.01666667	      0.01565973	      0.02408298	      0.04490191
     11.03333333	      0.01559614	      0.02403404	      0.04565726
     11.05000000	      0.01562832	      0.02405882	      0.04622439
     11.06666667	      0.01571314	      0.02412402	      0.04699449
     11.08333333	      0.01581837	      0.02420466	      0.04757043
     11.10000000	      0.01597820	      0.02432664	      0.04804253
     11.11666667	      0.01580252	      0.02419253	      0.04866094
     11.13333333	      0.01568070	      0.02409910	      0.04862181
     11.15000000	      0.01560361	      0.02403979	      0.04872333
     11.16666667	      0.01562718	      0.02405794	      0.04883570
     11.18333333	      0.01580406	      0.02419371	      0.04891303
     11.20000000	      0.01616109	      0.02446547	      0.04891246
     11.21666667	      0.01664383	      0.02482817	      0.04882425
     11.23333333	      0.01706315	      0.02513898	      0.04846064
     11.25000000	      0.01730491	      0.02531645	      0.04850950
     11.26666667	      0.01693468	      0.02504417	      0.04782372
     11.28333333	      0.01648778	      0.02471151	      0.04764259
     11.30000000	      0.01596037	      0.02431306	      0.04746991
     11.31666667	      0.01554840	      0.02399722	      0.04729427
     11.33333333	      0.01528656	      0.02379430	      0.04703317
     11.35000000	      0.01517891	      0.02371038	      0.04670257
     11.36666667	      0.01525145	      0.02376696	      0.04623802
     11.38333333	      0.01558103	      0.02402239	      0.04564852
     11.40000000	      0.01602711	      0.02436384	      0.04532642
     11.41666667	      0.01655935	      0.02476508	      0.04500196
     11.43333333	      0.01702129	      0.02510813	      0.04533608
     11.45000000	      0.01744715	      0.02542028	      0.04580393
     11.46666667	      0.01777634	      0.02565898	      0.04621441
     11.48333333	      0.01788796	      0.02573941	      0.04654704
     11.50000000	      0.01770378	      0.02560655	      0.04630082
     11.51666667	      0.01725231	      0.02527795	      0.04522842
     11.53333333	      0.01670609	      0.02487457	      0.04380743
     11.55000000	      0.01645579	      0.02468752	      0.04370638
     11.56666667	      0.01666044	      0.02484056	      0.04362568
     11.58333333	      0.01723122	      0.02526249	      0.04345079
     11.60000000	      0.01797433	      0.02580147	      0.04370656
     11.61666667	      0.01908550	      0.02658703	      0.04719868
     11.63333333	      0.02085248	      0.02779054	      0.05037977
     11.65000000	      0.02337868	      0.02942579	      0.05281646
     11.66666667	      0.02619403	      0.03114722	      0.05447335
     11.68333333	      0.02845323	      0.03246265	      0.06015907
     11.70000000	      0.02974181	      0.03318958	      0.06247886
     11.71666667	      0.02991370	      0.03328535	      0.06184579
     11.73333333	      0.02935356	      0.03297224	      0.06041771
     11.75000000	      0.02845823	      0.03246550	      0.06107254
     11.76666667	      0.02786109	      0.03212308	      0.06132255
     11.78333333	      0.02777260	      0.03207202	      0.06049608
     11.80000000	      0.02800329	      0.03220495	      0.05892154
     11.81666667	      0.02827818	      0.03236263	      0.05739666
     11.83333333	      0.02856354	      0.03252551	      0.05597918
     11.85000000	      0.02919924	      0.03288546	      0.05328579
     11.86666667	      0.03029747	      0.03349819	      0.05741287
     11.88333333	      0.03047848	      0.03359811	      0.06185026
     11.90000000	      0.03168032	      0.03425413	      0.06509499
     11.91666667	      0.03228234	      0.03457806	      0.06640963
     11.93333333	      0.03233081	      0.03460401	      0.06542620
     11.95000000	      0.03206360	      0.03446071	      0.06401339
     11.96666667	      0.03169878	      0.03426410	      0.06144424
     11.98333333	      0.03122003	      0.03400437	      0.06665471
     12.00000000	      0.03056360	      0.03364499	      0.06841760
     12.01666667	      0.02986329	      0.03325730	      0.06918491
     12.03333333	      0.02935750	      0.03297446	      0.07001379
     12.05000000	      0.02907817	      0.03281721	      0.06890774
     12.06666667	      0.02905806	      0.03280586	      0.06811828
     12.08333333	      0.02930821	      0.03294676	      0.06732809
     12.10000000	      0.02982648	      0.03323679	      0.06706590
     12.11666667	      0.03049843	      0.03360910	      0.06709520
     12.13333333	      0.03114047	      0.03396102	      0.06767595
     12.15000000	      0.03164386	      0.03423441	      0.06801997
     12.16666667	      0.03186308	      0.03435279	      0.06837569
     12.18333333	      0.03177546	      0.03430552	      0.06853910
     12.20000000	      0.03145850	      0.03413400	      0.06838181
     12.21666667	      0.03105684	      0.03391539	      0.06811915
     12.23333333	      0.03075317	      0.03374917	      0.06797631
     12.25000000	      0.03066557	      0.03370106	      0.06812427
     12.26666667	      0.03082410	      0.03378806	      0.06834142
     12.28333333	      0.03114126	      0.03396145	      0.06892859
     12.30000000	      0.03153806	      0.03417713	      0.06945133
     12.31666667	      0.03181452	      0.03432660	      0.06986475
     12.33333333	      0.03188248	      0.03436324	      0.06991155
     12.35000000	      0.03167180	      0.03424952	      0.07002984
     12.36666667	      0.03129010	      0.03404251	      0.07007504
     12.38333333	      0.03084032	      0.03379695	      0.07025199
     12.40000000	      0.03035988	      0.03353267	      0.07001927
     12.41666667	      0.02995224	      0.03330679	      0.06814868
     12.43333333	      0.02974618	      0.03319202	      0.06496733
     12.45000000	      0.02974212	      0.03318976	      0.06114540
     12.46666667	      0.02977609	      0.03320871	      0.05725793
     12.48333333	      0.02953695	      0.03307508	      0.05510616
     12.50000000	      0.02885433	      0.03269066	      0.05354229
     12.51666667	      0.02798349	      0.03219357	      0.05424608
     12.53333333	      0.02741858	      0.03186696	      0.05736019
     12.55000000	      0.02739835	      0.03185520	      0.05973471
     12.56666667	      0.02791137	      0.03215205	      0.06241906
     12.58333333	      0.02891395	      0.03272441	      0.06627444
     12.60000000	      0.02922214	      0.03289835	      0.07298049
     12.61666667	      0.03021649	      0.03345339	      0.07880219
     12.63333333	      0.03101119	      0.03389045	      0.08437522
     12.65000000	      0.03143843	      0.03412311	      0.08904764
     12.66666667	      0.03135987	      0.03408044	      0.09296610
     12.68333333	      0.03061797	      0.03367490	      0.09641333
     12.70000000	      0.02891877	      0.03272714	      0.09766839
     12.71666667	      0.02651391	      0.03133683	      0.09653658
     12.73333333	      0.02414186	      0.02990222	      0.09359410
     12.75000000	      0.02259584	      0.02892893	      0.08984521
     12.76666667	      0.02206383	      0.02858634	      0.08596189
     12.78333333	      0.02179194	      0.02840966	      0.08069644
     12.80000000	      0.02148992	      0.02821211	      0.07638484
     12.81666667	      0.02119441	      0.02801746	      0.07433095
     12.83333333	      0.02106509	      0.02793186	      0.07277474
     12.85000000	      0.02131795	      0.02809900	      0.07323004
     12.86666667	      0.02183487	      0.02843763	      0.07407267
     12.88333333	      0.02240229	      0.02880477	      0.07705505
     12.90000000	      0.02278614	      0.02905049	      0.08054586
     12.91666667	      0.02268759	      0.02898761	      0.08020266
     12.93333333	      0.02243017	      0.02882268	      0.08066106
     12.95000000	      0.02217216	      0.02865643	      0.07959440
     12.96666667	      0.02208733	      0.02860156	      0.07879944
     12.98333333	      0.02218329	      0.02866362	      0.07849925
     13.00000000	      0.02241499	      0.02881293	      0.07866171
     13.01666667	      0.02278458	      0.02904950	      0.07986768
     13.03333333	      0.02311319	      0.02925823	      0.08063798
     13.05000000	      0.02315023	      0.02928166	      0.07781989
     13.06666667	      0.02315299	      0.02928341	      0.07737465
     13.08333333	      0.01593638	      0.02429478	      0.04391772
     13.10000000	      0.01587103	      0.02424492	      0.04423454
     13.11666667	      0.01587707	      0.02424953	      0.04446201
     13.13333333	      0.01600124	      0.02434417	      0.04464761
     13.15000000	      0.01624521	      0.02452905	      0.04476985
     13.16666667	      0.01659826	      0.02479416	      0.04491255
     13.18333333	      0.01697803	      0.02507621	      0.04507735
     13.20000000	      0.01727582	      0.02529516	      0.04507701
     13.21666667	      0.01751376	      0.02546876	      0.04481409
     13.23333333	      0.01760818	      0.02553732	      0.04459142
     13.25000000	      0.01757001	      0.02550963	      0.04410196
     13.26666667	      0.01736945	      0.02536361	      0.04346515
     13.28333333	      0.01701276	      0.02510184	      0.04267482
     13.30000000	      0.01654816	      0.02475671	      0.04207908
     13.31666667	      0.01604642	      0.02437851	      0.04182046
     13.33333333	      0.01555462	      0.02400202	      0.04104224
     13.35000000	      0.01508814	      0.02363937	      0.04034283
     13.36666667	      0.01465204	      0.02329524	      0.03983164
     13.38333333	      0.01427126	      0.02299055	      0.04003643
     13.40000000	      0.01397322	      0.02274921	      0.04045477
     13.41666667	      0.01377850	      0.02259015	      0.04084449
     13.43333333	      0.01363270	      0.02247031	      0.04073689
     13.45000000	      0.01354827	      0.02240062	      0.04066570
     13.46666667	      0.01348703	      0.02234994	      0.04043683
     13.48333333	      0.01353253	      0.02238761	      0.04035812
     13.50000000	      0.01370677	      0.02253127	      0.04140365
     13.51666667	      0.01400396	      0.02277422	      0.04372753
     13.53333333	      0.01432890	      0.02303693	      0.04565499
     13.55000000	      0.01457966	      0.02323763	      0.04689448
     13.56666667	      0.01469703	      0.02333097	      0.04712429
     13.58333333	      0.01436211	      0.02306361	      0.04719759
     13.60000000	      0.01380937	      0.02261544	      0.04454417
     13.61666667	      0.01318844	      0.02210115	      0.04054958
     13.63333333	      0.01268141	      0.02167215	      0.04083771
     13.65000000	      0.01242742	      0.02145401	      0.04129359
     13.66666667	      0.01232240	      0.02136318	      0.04105242
     13.68333333	      0.01234222	      0.02138035	      0.04054366
     13.70000000	      0.01240557	      0.02143515	      0.03999101
     13.71666667	      0.01244518	      0.02146934	      0.03964116
     13.73333333	      0.01250053	      0.02151703	      0.03952906
     13.75000000	      0.01254224	      0.02155290	      0.04010236
     13.76666667	      0.01263689	      0.02163407	      0.04078868
     13.78333333	      0.01280511	      0.02177758	      0.04180707
     13.80000000	      0.01303764	      0.02197443	      0.04277707
     13.81666667	      0.01325604	      0.02215771	      0.04363722
     13.83333333	      0.01337954	      0.02226070	      0.04411182
     13.85000000	      0.01344973	      0.02231901	      0.04454978
     13.86666667	      0.01350832	      0.02236757	      0.04480369
     13.88333333	      0.01363336	      0.02247086	      0.04492742
     13.90000000	      0.01388251	      0.02267525	      0.04495607
     13.91666667	      0.01415441	      0.02289624	      0.04419458
     13.93333333	      0.01440962	      0.02310172	      0.04311323
     13.95000000	      0.01448315	      0.02316059	      0.04192178
     13.96666667	      0.01432510	      0.02303387	      0.04148868
     13.98333333	      0.01389490	      0.02268537	      0.04143226
     14.00000000	      0.01345255	      0.02232135	      0.04170729
     14.01666667	      0.01317424	      0.02208925	      0.04290590
     14.03333333	      0.01324532	      0.02214875	      0.04506453
     14.05000000	      0.01363391	      0.02247131	      0.04770570
     14.06666667	      0.01417743	      0.02291484	      0.04899255
     14.08333333	      0.01447960	      0.02315775	      0.04534539
     14.10000000	      0.01458426	      0.02324129	      0.04460951
     14.11666667	      0.01467885	      0.02331654	      0.04468903
     14.13333333	      0.01469670	      0.02333072	      0.04487435
     14.15000000	      0.01469192	      0.02332692	      0.04486984
     14.16666667	      0.01466798	      0.02330791	      0.04480500
     14.18333333	      0.01470160	      0.02333460	      0.04482957
     14.20000000	      0.01484093	      0.02344492	      0.04551684
     14.21666667	      0.01491608	      0.02350420	      0.04548733
     14.23333333	      0.01506579	      0.02362186	      0.04593013
     14.25000000	      0.01522391	      0.02374550	      0.04580306
     14.26666667	      0.01544329	      0.02391597	      0.04530743
