Model Marker Errors from IK
version=1
nRows=224
nColumns=4
inDegrees=no
endheader
time	total_squared_error	marker_error_RMS	marker_error_max
      0.00000000	      0.02051118	      0.02756217	      0.04322384
      0.01960784	      0.02036398	      0.02746309	      0.04386425
      0.03921569	      0.02053009	      0.02757487	      0.04450007
      0.05882353	      0.02080273	      0.02775737	      0.04508359
      0.07843137	      0.02110390	      0.02795757	      0.04563022
      0.09803922	      0.02117898	      0.02800726	      0.05263600
      0.11764706	      0.02123464	      0.02804404	      0.05353878
      0.13725490	      0.02138404	      0.02814252	      0.05438673
      0.15686275	      0.02104854	      0.02792088	      0.04492845
      0.17647059	      0.02053488	      0.02757809	      0.04510840
      0.19607843	      0.01986278	      0.02712303	      0.04524200
      0.21568627	      0.01918539	      0.02665652	      0.04517651
      0.23529412	      0.01846987	      0.02615472	      0.04538586
      0.25490196	      0.01785867	      0.02571832	      0.04494811
      0.27450980	      0.01750853	      0.02546496	      0.04468886
      0.29411765	      0.01731050	      0.02532054	      0.04457480
      0.31372549	      0.01721140	      0.02524795	      0.04438089
      0.33333333	      0.01722490	      0.02525786	      0.04393697
      0.35294118	      0.01732461	      0.02533086	      0.04352687
      0.37254902	      0.01742795	      0.02540629	      0.04310049
      0.39215686	      0.01750059	      0.02545919	      0.04248001
      0.41176471	      0.01753485	      0.02548409	      0.04186660
      0.43137255	      0.01757935	      0.02551641	      0.04154126
      0.45098039	      0.01768096	      0.02559005	      0.04134997
      0.47058824	      0.01778445	      0.02566483	      0.04138028
      0.49019608	      0.01787646	      0.02573113	      0.04151476
      0.50980392	      0.01792953	      0.02576930	      0.04173264
      0.52941176	      0.01804682	      0.02585345	      0.04212934
      0.54901961	      0.01835051	      0.02607007	      0.04267722
      0.56862745	      0.01894686	      0.02649029	      0.04329729
      0.58823529	      0.01977446	      0.02706266	      0.04383542
      0.60784314	      0.02072811	      0.02770754	      0.04432572
      0.62745098	      0.02173707	      0.02837387	      0.04464334
      0.64705882	      0.02269583	      0.02899287	      0.04498681
      0.66666667	      0.02341271	      0.02944720	      0.04529624
      0.68627451	      0.02375604	      0.02966232	      0.04555174
      0.70588235	      0.02374542	      0.02965569	      0.04569447
      0.72549020	      0.02341487	      0.02944855	      0.04553086
      0.74509804	      0.02281809	      0.02907085	      0.04519499
      0.76470588	      0.02205881	      0.02858309	      0.04473929
      0.78431373	      0.02136095	      0.02812732	      0.04413218
      0.80392157	      0.02089418	      0.02781832	      0.04353805
      0.82352941	      0.02069225	      0.02768356	      0.04542494
      0.84313725	      0.02068964	      0.02768181	      0.04722950
      0.86274510	      0.02075420	      0.02772497	      0.04870291
      0.88235294	      0.02080712	      0.02776030	      0.04640134
      0.90196078	      0.02085667	      0.02779333	      0.04492077
      0.92156863	      0.02096619	      0.02786621	      0.04413911
      0.94117647	      0.02112240	      0.02796983	      0.04404092
      0.96078431	      0.02123111	      0.02804171	      0.04479777
      0.98039216	      0.02125550	      0.02805781	      0.04521815
      1.00000000	      0.02127665	      0.02807177	      0.04547348
      1.01960784	      0.02135596	      0.02812404	      0.04559079
      1.03921569	      0.02142817	      0.02817155	      0.04571508
      1.05882353	      0.02142044	      0.02816646	      0.04542350
      1.07843137	      0.02130325	      0.02808931	      0.04597648
      1.09803922	      0.02125310	      0.02805623	      0.04671501
      1.11764706	      0.02143488	      0.02817595	      0.04776918
      1.13725490	      0.02182031	      0.02842815	      0.05008279
      1.15686275	      0.02232028	      0.02875199	      0.05251740
      1.17647059	      0.02278289	      0.02904842	      0.05449281
      1.19607843	      0.02320006	      0.02931316	      0.05493984
      1.21568627	      0.02344436	      0.02946709	      0.05704864
      1.23529412	      0.02359833	      0.02956370	      0.05629728
      1.25490196	      0.02352164	      0.02951562	      0.05523166
      1.27450980	      0.02327280	      0.02935908	      0.05362928
      1.29411765	      0.02302285	      0.02920100	      0.05287969
      1.31372549	      0.02296657	      0.02916528	      0.05199193
      1.33333333	      0.02309452	      0.02924641	      0.05195739
      1.35294118	      0.02331643	      0.02938658	      0.05240212
      1.37254902	      0.02358081	      0.02955272	      0.05323220
      1.39215686	      0.02394401	      0.02977944	      0.05433352
      1.41176471	      0.02431049	      0.03000648	      0.05548382
      1.43137255	      0.02455947	      0.03015974	      0.05622068
      1.45098039	      0.02465032	      0.03021547	      0.05614951
      1.47058824	      0.02462980	      0.03020289	      0.05596154
      1.49019608	      0.02459883	      0.03018390	      0.05543355
      1.50980392	      0.02468079	      0.03023414	      0.05392580
      1.52941176	      0.02467200	      0.03022875	      0.05428687
      1.54901961	      0.02470626	      0.03024974	      0.05442092
      1.56862745	      0.02497908	      0.03041630	      0.05903954
      1.58823529	      0.02511866	      0.03050116	      0.05898336
      1.60784314	      0.02532695	      0.03062736	      0.05774749
      1.62745098	      0.02563949	      0.03081576	      0.05930292
      1.64705882	      0.02584575	      0.03093946	      0.05938845
      1.66666667	      0.02597746	      0.03101819	      0.06068886
      1.68627451	      0.02602363	      0.03104575	      0.06344893
      1.70588235	      0.02595942	      0.03100742	      0.06569798
      1.72549020	      0.02591063	      0.03097826	      0.06789396
      1.74509804	      0.02595905	      0.03100719	      0.06897364
      1.76470588	      0.02609002	      0.03108532	      0.06911613
      1.78431373	      0.02627199	      0.03119354	      0.06990355
      1.80392157	      0.02637025	      0.03125182	      0.06977245
      1.82352941	      0.02633669	      0.03123192	      0.06900964
      1.84313725	      0.02620522	      0.03115387	      0.06825840
      1.86274510	      0.02595841	      0.03100681	      0.06704623
      1.88235294	      0.02566915	      0.03083358	      0.06508446
      1.90196078	      0.02537649	      0.03065730	      0.06277568
      1.92156863	      0.02517593	      0.03053591	      0.06071981
      1.94117647	      0.02502657	      0.03044520	      0.05791326
      1.96078431	      0.02498567	      0.03042031	      0.05508764
      1.98039216	      0.02511257	      0.03049746	      0.05391274
      2.00000000	      0.02529129	      0.03060579	      0.05238172
      2.01960784	      0.02556903	      0.03077338	      0.05178030
      2.03921569	      0.02594004	      0.03099584	      0.05147123
      2.05882353	      0.02632398	      0.03122438	      0.05112476
      2.07843137	      0.02652924	      0.03134588	      0.05479300
      2.09803922	      0.02644930	      0.03129862	      0.05877148
      2.11764706	      0.02606092	      0.03106798	      0.06059639
      2.13725490	      0.02544290	      0.03069739	      0.06015963
      2.15686275	      0.02314868	      0.02928068	      0.05404912
      2.17647059	      0.02233637	      0.02876236	      0.05073427
      2.19607843	      0.02184551	      0.02844456	      0.04884510
      2.21568627	      0.02155368	      0.02825393	      0.04877623
      2.23529412	      0.02138566	      0.02814359	      0.04875466
      2.25490196	      0.02123459	      0.02804400	      0.04415178
      2.27450980	      0.02101987	      0.02790186	      0.04370380
      2.29411765	      0.02094378	      0.02785131	      0.04186569
      2.31372549	      0.02086269	      0.02779734	      0.04073683
      2.33333333	      0.02078159	      0.02774326	      0.03938334
      2.35294118	      0.02064687	      0.02765319	      0.03969304
      2.37254902	      0.02053566	      0.02757861	      0.04185265
      2.39215686	      0.02053276	      0.02757667	      0.04386397
      2.41176471	      0.02071083	      0.02769599	      0.04568493
      2.43137255	      0.02083086	      0.02777613	      0.04662730
      2.45098039	      0.02111729	      0.02796644	      0.04731012
      2.47058824	      0.02151991	      0.02823179	      0.04785649
      2.49019608	      0.02196703	      0.02852356	      0.04919130
      2.50980392	      0.02232056	      0.02875217	      0.05029240
      2.52941176	      0.02240708	      0.02880784	      0.05090888
      2.54901961	      0.02218864	      0.02866708	      0.05021354
      2.56862745	      0.02178531	      0.02840534	      0.04839369
      2.58823529	      0.02143236	      0.02817430	      0.04721326
      2.60784314	      0.02114952	      0.02798777	      0.04593747
      2.62745098	      0.02095514	      0.02785886	      0.04529686
      2.64705882	      0.02083976	      0.02778206	      0.04511038
      2.66666667	      0.02085343	      0.02779117	      0.04549484
      2.68627451	      0.02092440	      0.02783842	      0.04589670
      2.70588235	      0.02102001	      0.02790195	      0.04641672
      2.72549020	      0.02106773	      0.02793360	      0.04665156
      2.74509804	      0.02108561	      0.02794546	      0.04675378
      2.76470588	      0.02112030	      0.02796844	      0.04689721
      2.78431373	      0.02119679	      0.02801903	      0.04695359
      2.80392157	      0.02124976	      0.02805402	      0.04688196
      2.82352941	      0.02126850	      0.02806639	      0.04697470
      2.84313725	      0.02117494	      0.02800459	      0.04689391
      2.86274510	      0.02097753	      0.02787374	      0.04728680
      2.88235294	      0.02079056	      0.02774925	      0.04769683
      2.90196078	      0.02051944	      0.02756772	      0.04813489
      2.92156863	      0.02040052	      0.02748772	      0.04855483
      2.94117647	      0.02037510	      0.02747059	      0.04902235
      2.96078431	      0.02034226	      0.02744844	      0.04932495
      2.98039216	      0.02030097	      0.02742057	      0.04956152
      3.00000000	      0.02022372	      0.02736835	      0.04956741
      3.01960784	      0.02017783	      0.02733728	      0.04954560
      3.03921569	      0.02016917	      0.02733141	      0.04970768
      3.05882353	      0.02012419	      0.02730092	      0.04986143
      3.07843137	      0.02000450	      0.02721961	      0.05014117
      3.09803922	      0.01981078	      0.02708750	      0.05000449
      3.11764706	      0.01965058	      0.02697775	      0.05001132
      3.13725490	      0.01953733	      0.02689990	      0.04992058
      3.15686275	      0.01957592	      0.02692646	      0.05019004
      3.17647059	      0.01970123	      0.02701250	      0.05062038
      3.19607843	      0.01990254	      0.02715016	      0.05125402
      3.21568627	      0.02010020	      0.02728464	      0.05152646
      3.23529412	      0.02024018	      0.02737949	      0.05125398
      3.25490196	      0.02032208	      0.02743482	      0.05051384
      3.27450980	      0.02037859	      0.02747294	      0.05035705
      3.29411765	      0.02048691	      0.02754586	      0.05051479
      3.31372549	      0.02062522	      0.02763869	      0.05094053
      3.33333333	      0.02076439	      0.02773178	      0.05126107
      3.35294118	      0.02081662	      0.02776664	      0.05197076
      3.37254902	      0.02073912	      0.02771490	      0.05244522
      3.39215686	      0.02054588	      0.02758548	      0.05260778
      3.41176471	      0.02026015	      0.02739299	      0.05277400
      3.43137255	      0.01993164	      0.02717000	      0.05248992
      3.45098039	      0.01961495	      0.02695328	      0.05203765
      3.47058824	      0.01934089	      0.02676432	      0.05132707
      3.49019608	      0.01908607	      0.02658743	      0.05051974
      3.50980392	      0.01881324	      0.02639672	      0.04999513
      3.52941176	      0.01841748	      0.02611760	      0.05007093
      3.54901961	      0.01812839	      0.02591181	      0.04934902
      3.56862745	      0.01808416	      0.02588018	      0.04803595
      3.58823529	      0.01823588	      0.02598852	      0.04681823
      3.60784314	      0.01817681	      0.02594639	      0.04596840
      3.62745098	      0.01774112	      0.02563355	      0.04548790
      3.64705882	      0.01705050	      0.02512966	      0.04497785
      3.66666667	      0.01641441	      0.02465646	      0.04453506
      3.68627451	      0.01568178	      0.02409993	      0.04516175
      3.70588235	      0.01538125	      0.02386789	      0.04534808
      3.72549020	      0.01591907	      0.02428158	      0.04537571
      3.74509804	      0.01673804	      0.02489834	      0.04532222
      3.76470588	      0.01684587	      0.02497841	      0.04476544
      3.78431373	      0.01608050	      0.02440438	      0.04266622
      3.80392157	      0.01505542	      0.02361373	      0.04047999
      3.82352941	      0.01425353	      0.02297626	      0.04034628
      3.84313725	      0.01397386	      0.02274973	      0.04000935
      3.86274510	      0.01420798	      0.02293952	      0.03988900
      3.88235294	      0.01456093	      0.02322270	      0.03931549
      3.90196078	      0.01481302	      0.02342286	      0.03849013
      3.92156863	      0.01515746	      0.02369361	      0.03756498
      3.94117647	      0.01617637	      0.02447703	      0.03974533
      3.96078431	      0.01742907	      0.02540711	      0.04533650
      3.98039216	      0.01860730	      0.02625185	      0.05206590
      4.00000000	      0.01958894	      0.02693541	      0.05639395
      4.01960784	      0.02044833	      0.02751991	      0.05840273
      4.03921569	      0.02113319	      0.02797697	      0.05923318
      4.05882353	      0.02168251	      0.02833824	      0.05846779
      4.07843137	      0.02199486	      0.02854163	      0.05684909
      4.09803922	      0.02213520	      0.02863254	      0.05541344
      4.11764706	      0.02206628	      0.02858793	      0.05474613
      4.13725490	      0.02179164	      0.02840947	      0.05477722
      4.15686275	      0.02144775	      0.02818441	      0.05486105
      4.17647059	      0.02109774	      0.02795349	      0.05478770
      4.19607843	      0.02086206	      0.02779692	      0.05438381
      4.21568627	      0.02067801	      0.02767404	      0.05392886
      4.23529412	      0.02051447	      0.02756438	      0.05344009
      4.25490196	      0.02025468	      0.02738929	      0.05286733
      4.27450980	      0.01987902	      0.02713411	      0.05212994
      4.29411765	      0.01942163	      0.02682014	      0.05111531
      4.31372549	      0.01898913	      0.02651983	      0.05058634
      4.33333333	      0.01868165	      0.02630424	      0.04952866
      4.35294118	      0.01857493	      0.02622900	      0.04842510
      4.37254902	      0.01890602	      0.02646173	      0.04686328
