Coordinates
version=1
nRows=68
nColumns=63
inDegrees=yes

Units are S.I. units (second, meters, Newtons, ...)
If the header above contains a line with 'inDegrees', this indicates whether rotational values are in degrees (yes) or radians (no).

endheader
time	pelvis_tilt	pelvis_list	pelvis_rotation	pelvis_tx	pelvis_ty	pelvis_tz	hip_flexion_r	hip_adduction_r	hip_rotation_r	knee_angle_r	knee_angle_r_beta	ankle_angle_r	subtalar_angle_r	mtp_angle_r	hip_flexion_l	hip_adduction_l	hip_rotation_l	knee_angle_l	knee_angle_l_beta	ankle_angle_l	subtalar_angle_l	mtp_angle_l	L5_S1_Flex_Ext	L5_S1_Lat_Bending	L5_S1_axial_rotation	L4_L5_Flex_Ext	L4_L5_Lat_Bending	L4_L5_axial_rotation	L3_L4_Flex_Ext	L3_L4_Lat_Bending	L3_L4_axial_rotation	L2_L3_Flex_Ext	L2_L3_Lat_Bending	L2_L3_axial_rotation	L1_L2_Flex_Ext	L1_L2_Lat_Bending	L1_L2_axial_rotation	L1_T12_Flex_Ext	L1_T12_Lat_Bending	L1_T12_axial_rotation	Abs_r3	Abs_r2	Abs_r1	Abs_t1	Abs_t2	neck_flexion	neck_bending	neck_rotation	arm_flex_r	arm_add_r	arm_rot_r	elbow_flex_r	pro_sup_r	wrist_flex_r	wrist_dev_r	arm_flex_l	arm_add_l	arm_rot_l	elbow_flex_l	pro_sup_l	wrist_flex_l	wrist_dev_l
0.000000	-2.612419	-4.368561	98.776478	0.267001	0.399158	0.867702	-2.528867	-1.870133	4.492571	0.555752	0.009700	18.476743	-14.634598	0.000000	0.528857	3.240424	19.061022	0.420427	0.007338	20.731415	-8.967701	0.000000	0.230709	-0.365776	-1.085242	0.428449	-0.486483	-1.153070	0.379031	-0.889349	-1.153070	0.263677	-0.889349	-0.949587	0.214236	-0.745891	-0.881759	0.131827	-0.566588	-0.813932	1.647929	-4.137736	-6.035792	0.000000	0.000000	26.303209	2.429979	2.940790	24.125151	-4.413943	85.208667	40.130360	15.831121	3.646431	11.898251	15.054909	-9.671620	54.928551	45.082643	87.278931	16.687661	18.037281
0.016667	-2.758119	-4.360412	98.525029	0.267774	0.400048	0.867447	-2.333164	-2.025702	4.386476	0.894116	0.015605	18.404594	-14.376040	0.000000	0.744806	3.365490	16.675776	0.990545	0.017288	21.004796	-6.496805	0.000000	0.218602	-0.382355	-0.875966	0.405966	-0.508532	-0.930713	0.359141	-0.929657	-0.930713	0.249840	-0.929657	-0.766470	0.202994	-0.779697	-0.711722	0.124909	-0.592267	-0.656974	1.561453	-4.325271	-4.871858	0.000000	0.000000	26.411827	1.994894	2.371819	23.375782	-4.741723	82.762455	40.274300	18.345415	3.695730	11.162277	15.531651	-9.470983	56.060538	44.823090	87.281606	14.348060	16.309700
0.033333	-2.865626	-4.326247	98.361912	0.268265	0.400770	0.867192	-2.200043	-2.139138	4.227365	1.201640	0.020973	18.382458	-14.127679	0.000000	0.918964	3.456240	14.633624	1.516780	0.026473	21.304242	-4.302016	0.000000	0.207865	-0.393315	-0.735017	0.386025	-0.523109	-0.780955	0.341501	-0.956305	-0.780955	0.237568	-0.956305	-0.643139	0.193023	-0.802047	-0.597201	0.118774	-0.609244	-0.551262	1.484756	-4.449254	-4.087941	0.000000	0.000000	26.444006	1.686796	2.031035	22.841062	-4.960739	81.019391	40.357095	20.186865	3.727733	10.566627	15.878199	-9.330778	56.871919	44.644834	87.292697	12.498928	15.085540
0.050000	-2.938115	-4.269559	98.278923	0.268502	0.401339	0.866936	-2.123251	-2.213813	4.024278	1.478017	0.025796	18.405182	-13.891385	0.000000	1.054696	3.515526	12.911447	1.999944	0.034906	21.623219	-2.369324	0.000000	0.198429	-0.399227	-0.654938	0.368502	-0.530972	-0.695872	0.325999	-0.970680	-0.695872	0.226784	-0.970680	-0.573071	0.184261	-0.814103	-0.532137	0.113382	-0.618402	-0.491204	1.417358	-4.516133	-3.642570	0.000000	0.000000	26.409602	1.491861	1.889368	22.496933	-5.084609	79.901711	40.387324	21.430806	3.744031	10.102205	16.112843	-9.244028	57.410732	44.537534	87.311989	11.101207	14.314335
0.066667	-2.978768	-4.193844	98.267863	0.268514	0.401770	0.866678	-2.096536	-2.253098	3.786252	1.722940	0.030071	18.467608	-13.669028	0.000000	1.155367	3.546199	11.486130	2.440852	0.042601	21.955191	-0.684720	0.000000	0.190228	-0.400661	-0.628274	0.353273	-0.532879	-0.667541	0.312526	-0.974167	-0.667541	0.217412	-0.974167	-0.549740	0.176646	-0.817028	-0.510473	0.108696	-0.620624	-0.471205	1.358781	-4.532356	-3.494271	0.000000	0.000000	26.318469	1.396261	1.917747	22.319335	-5.126953	79.331653	40.373567	22.152575	3.746217	9.759919	16.253872	-9.203758	57.725015	44.490849	87.339266	10.115839	13.945615
0.083333	-2.990761	-4.102595	98.320530	0.268331	0.402078	0.866418	-2.113645	-2.260364	3.522327	1.936103	0.033791	18.564584	-13.462476	0.000000	1.224340	3.551109	10.334556	2.840320	0.049573	22.293624	0.765805	0.000000	0.183195	-0.398187	-0.647567	0.340212	-0.529589	-0.688040	0.300972	-0.968152	-0.688040	0.209374	-0.968152	-0.566621	0.170115	-0.811983	-0.526148	0.104678	-0.616792	-0.485675	1.308546	-4.504371	-3.601571	0.000000	0.000000	26.180466	1.386170	2.087103	22.284210	-5.101389	79.231454	40.324404	22.427507	3.735882	9.530673	16.319575	-9.202993	57.862803	44.494439	87.374314	9.503769	13.928912
0.100000	-2.977274	-3.999308	98.428722	0.267981	0.402278	0.866153	-2.168324	-2.238984	3.241540	2.117199	0.036952	18.690953	-13.273599	0.000000	1.264981	3.533108	9.433606	3.199161	0.055836	22.631985	1.996261	0.000000	0.177263	-0.392375	-0.705360	0.329195	-0.521859	-0.749445	0.291225	-0.954021	-0.749445	0.202594	-0.954021	-0.617190	0.164606	-0.800131	-0.573105	0.101288	-0.607789	-0.529020	1.266172	-4.438625	-3.922999	0.000000	0.000000	26.005448	1.447761	2.368365	22.367499	-5.021535	79.523350	40.248413	22.330937	3.714620	9.405374	16.328240	-9.234757	57.872136	44.537963	87.416916	9.225937	14.213758
0.116667	-2.941486	-3.887478	98.584237	0.267492	0.402385	0.865883	-2.254322	-2.192329	2.952931	2.265922	0.039548	18.841560	-13.104266	0.000000	1.280655	3.495045	8.760166	3.518189	0.061404	22.963738	3.020658	0.000000	0.172365	-0.383795	-0.794196	0.320098	-0.510447	-0.843834	0.283178	-0.933159	-0.843834	0.196995	-0.933159	-0.694922	0.160058	-0.782635	-0.645284	0.098489	-0.594499	-0.595647	1.231182	-4.341567	-4.417081	0.000000	0.000000	25.803271	1.567207	2.732462	22.545143	-4.901010	80.129580	40.154174	21.938203	3.684022	9.374927	16.298156	-9.292074	57.801049	44.611082	87.466858	9.243287	14.749685
0.133333	-2.886574	-3.770598	98.778875	0.266894	0.402413	0.865607	-2.365384	-2.123771	2.665537	2.381965	0.041573	19.011251	-12.956348	0.000000	1.274726	3.439774	8.291117	3.798219	0.066291	23.282349	3.853005	0.000000	0.168433	-0.373017	-0.906619	0.312796	-0.496113	-0.963283	0.276718	-0.906954	-0.963283	0.192502	-0.906954	-0.793292	0.156406	-0.760656	-0.736628	0.096242	-0.577803	-0.679965	1.203097	-4.219643	-5.042345	0.000000	0.000000	25.583792	1.730682	3.150324	22.793083	-4.753434	80.972380	40.050267	21.324639	3.645681	9.430239	16.247613	-9.367967	57.697580	44.703454	87.523924	9.516761	15.486225
0.150000	-2.815718	-3.652163	99.004433	0.266215	0.402378	0.865324	-2.495257	-2.036682	2.388397	2.465021	0.043023	19.194870	-12.831713	0.000000	1.250560	3.370143	8.003343	4.040065	0.070512	23.581285	4.507311	0.000000	0.165400	-0.360611	-1.035173	0.307165	-0.479613	-1.099871	0.271736	-0.876789	-1.099871	0.189036	-0.876789	-0.905776	0.153591	-0.735358	-0.841078	0.094510	-0.558586	-0.776379	1.181436	-4.079303	-5.757319	0.000000	0.000000	25.356866	1.924359	3.592881	23.087261	-4.592423	81.973988	39.945272	20.565582	3.601188	9.562215	16.194899	-9.455463	57.609767	44.804740	87.587899	10.007302	16.372909
0.166667	-2.732096	-3.535668	99.252711	0.265485	0.402294	0.865034	-2.637690	-1.934432	2.130550	2.514784	0.043891	19.387262	-12.732231	0.000000	1.211520	3.289004	7.873727	4.244542	0.074081	23.854009	4.997586	0.000000	0.163200	-0.347147	-1.172399	0.303079	-0.461705	-1.245674	0.268122	-0.844053	-1.245674	0.186521	-0.844053	-1.025849	0.151548	-0.707902	-0.952574	0.093253	-0.537730	-0.879299	1.165722	-3.926994	-6.520529	0.000000	0.000000	25.132350	2.134413	4.031063	23.403617	-4.431597	83.056640	39.847766	19.736367	3.552136	9.761760	16.158304	-9.547583	57.585647	44.904598	87.658568	10.675852	17.359269
0.183333	-2.632629	-3.421305	99.498332	0.264774	0.402234	0.864773	-2.775435	-1.815580	1.935720	2.513908	0.043876	19.618955	-12.605346	0.000000	1.170416	3.190171	7.777096	4.426512	0.077257	24.130030	5.479330	0.000000	0.159777	-0.332459	-1.295230	0.296723	-0.442170	-1.376182	0.262498	-0.808341	-1.376182	0.182610	-0.808341	-1.133326	0.148369	-0.677950	-1.052374	0.091297	-0.514979	-0.971422	1.141275	-3.760843	-7.203680	0.000000	0.000000	24.942217	2.303021	4.363076	23.660415	-4.327424	83.892442	39.791290	19.342179	3.506756	10.016748	16.271176	-9.613383	58.034817	44.922279	87.770440	11.458852	18.286150
0.200000	-2.522428	-3.319831	99.775301	0.264032	0.402155	0.864466	-2.921127	-1.681267	1.820895	2.454654	0.042842	19.820149	-12.602687	0.000000	1.102896	3.087212	8.027813	4.535775	0.079164	24.261554	5.487609	0.000000	0.156792	-0.317043	-1.421447	0.291179	-0.421667	-1.510288	0.257594	-0.770857	-1.510288	0.179198	-0.770857	-1.243766	0.145597	-0.646513	-1.154926	0.089591	-0.491099	-1.066085	1.119950	-3.586449	-7.905662	0.000000	0.000000	24.800298	2.485914	4.697494	23.953669	-4.245725	84.864136	39.762284	18.828451	3.471564	10.286556	16.395544	-9.668961	58.496729	44.945183	87.884372	12.451221	19.286851
0.216667	-2.410261	-3.247391	100.019974	0.263370	0.402051	0.864076	-3.042715	-1.547387	1.771776	2.362713	0.041237	20.023701	-12.608908	0.000000	1.032703	2.982303	8.316220	4.596181	0.080218	24.332005	5.395579	0.000000	0.157248	-0.303399	-1.517962	0.292024	-0.403521	-1.612835	0.258342	-0.737685	-1.612835	0.179718	-0.737685	-1.328217	0.146020	-0.618692	-1.233344	0.089851	-0.469966	-1.138472	1.123203	-3.432115	-8.442451	0.000000	0.000000	24.700360	2.589886	4.797833	24.104936	-4.236628	85.450281	39.793301	18.547228	3.422363	10.671635	16.613020	-9.711080	59.265664	44.944510	87.982752	13.346950	20.146321
0.233333	-2.307630	-3.206361	100.254254	0.262805	0.401929	0.863647	-3.144099	-1.419854	1.850078	2.236893	0.039041	20.158660	-12.792336	0.000000	0.973809	2.886279	8.607456	4.623121	0.080689	24.352118	5.276373	0.000000	0.160765	-0.292921	-1.592459	0.298556	-0.389584	-1.691988	0.264120	-0.712207	-1.691988	0.183738	-0.712207	-1.393402	0.149286	-0.597324	-1.293873	0.091861	-0.453734	-1.194344	1.148326	-3.313577	-8.856780	0.000000	0.000000	24.644229	2.663449	4.764779	24.167750	-4.267586	85.810008	39.860922	18.384994	3.372756	11.084463	16.869741	-9.736714	60.127083	44.920749	88.075022	14.320434	20.930223
0.250000	-2.212682	-3.176145	100.487010	0.262311	0.401830	0.863251	-3.234928	-1.297674	1.798703	2.105131	0.036741	20.301730	-12.816192	0.000000	0.929023	2.795258	8.873679	4.653014	0.081210	24.356256	5.178192	0.000000	0.163381	-0.284628	-1.637998	0.303415	-0.378555	-1.740373	0.268419	-0.692043	-1.740373	0.186728	-0.692043	-1.433248	0.151716	-0.580412	-1.330873	0.093356	-0.440888	-1.228498	1.167014	-3.219764	-9.110052	0.000000	0.000000	24.625014	2.681883	4.585628	24.127835	-4.364798	85.860756	39.973845	18.431307	3.318455	11.486123	17.229592	-9.726791	61.238399	44.849083	88.165946	15.197428	21.523223
0.266667	-2.140213	-3.156878	100.698950	0.261944	0.401759	0.862890	-3.315497	-1.192985	1.756727	1.975813	0.034484	20.383918	-12.894353	0.000000	0.884506	2.723952	9.136691	4.660204	0.081336	24.331108	5.055246	0.000000	0.165699	-0.280635	-1.652133	0.307720	-0.373244	-1.755391	0.272227	-0.682335	-1.755391	0.189378	-0.682335	-1.445616	0.153868	-0.572270	-1.342358	0.094681	-0.434703	-1.239099	1.183574	-3.174594	-9.188666	0.000000	0.000000	24.626934	2.663257	4.270481	23.992106	-4.507549	85.627009	40.113692	18.625212	3.260821	11.856816	17.670213	-9.693958	62.543100	44.735293	88.243085	15.960128	21.912796
0.283333	-2.097394	-3.139133	100.841283	0.261755	0.401729	0.862615	-3.372523	-1.117714	1.652970	1.883250	0.032869	20.449352	-12.873624	0.000000	0.842569	2.676544	9.260056	4.666060	0.081438	24.312951	5.026604	0.000000	0.166306	-0.280904	-1.629797	0.308847	-0.373602	-1.731659	0.273225	-0.682990	-1.731659	0.190072	-0.682990	-1.426072	0.154432	-0.572819	-1.324210	0.095027	-0.435120	-1.222348	1.187910	-3.177642	-9.064442	0.000000	0.000000	24.643321	2.627342	3.877371	23.778430	-4.690314	85.113224	40.283933	18.947057	3.174850	12.248869	18.165254	-9.627681	63.933656	44.569146	88.329911	16.594739	22.115845
0.300000	-2.071713	-3.125529	101.006127	0.261614	0.401728	0.862433	-3.428360	-1.051652	1.505366	1.803656	0.031480	20.439928	-12.927031	0.000000	0.826086	2.640869	9.313084	4.696580	0.081971	24.331388	5.130836	0.000000	0.167120	-0.283517	-1.604433	0.310359	-0.377078	-1.704710	0.274562	-0.689344	-1.704710	0.191002	-0.689344	-1.403879	0.155188	-0.578148	-1.303602	0.095492	-0.439168	-1.203325	1.193722	-3.207204	-8.923374	0.000000	0.000000	24.650221	2.629667	3.566765	23.556826	-4.863045	84.536817	40.420149	19.392336	3.123137	12.580557	18.620901	-9.558735	65.177734	44.392765	88.384240	17.148204	22.162439
0.316667	-2.061417	-3.104190	101.123950	0.261573	0.401767	0.862315	-3.485418	-0.997382	1.456505	1.736108	0.030301	20.333560	-13.141750	0.000000	0.799377	2.617503	9.309845	4.715247	0.082297	24.366158	5.250869	0.000000	0.167388	-0.287546	-1.570554	0.310856	-0.382437	-1.668713	0.275002	-0.699140	-1.668713	0.191308	-0.699140	-1.374234	0.155436	-0.586364	-1.276075	0.095645	-0.445409	-1.177915	1.195635	-3.252782	-8.734948	0.000000	0.000000	24.636164	2.655524	3.320973	23.371172	-5.017644	84.040115	40.524511	19.833462	3.085906	12.795131	19.018073	-9.488099	66.247789	44.213959	88.393542	17.498414	22.069480
0.333333	-2.056258	-3.074643	101.208590	0.261583	0.401835	0.862243	-3.543463	-0.947301	1.448197	1.682544	0.029366	20.170898	-13.431192	0.000000	0.767762	2.596558	9.237742	4.733006	0.082607	24.432470	5.426056	0.000000	0.167528	-0.291116	-1.540110	0.311117	-0.387184	-1.636367	0.275232	-0.707819	-1.636367	0.191468	-0.707819	-1.347596	0.155567	-0.593643	-1.251340	0.095726	-0.450938	-1.155083	1.196638	-3.293160	-8.565631	0.000000	0.000000	24.601213	2.712176	3.191347	23.229135	-5.135555	83.642762	40.591429	20.307098	3.054477	12.923166	19.308502	-9.424692	67.018573	44.058637	88.360998	17.645203	21.841890
0.350000	-2.046075	-3.029249	101.243329	0.261626	0.401944	0.862192	-3.604127	-0.897977	1.416871	1.649514	0.028789	20.000310	-13.639620	0.000000	0.715634	2.568669	9.105088	4.737808	0.082690	24.512160	5.621262	0.000000	0.166277	-0.292183	-1.512130	0.308793	-0.388603	-1.606638	0.273177	-0.710414	-1.606638	0.190038	-0.710414	-1.323114	0.154405	-0.595820	-1.228605	0.095011	-0.452591	-1.134097	1.187701	-3.305233	-8.410012	0.000000	0.000000	24.549188	2.787555	3.199410	23.118484	-5.227311	83.286943	40.625853	20.921800	3.042571	12.986301	19.501722	-9.367013	67.525116	43.920522	88.278208	17.521297	21.457496
0.366667	-2.035666	-2.990743	101.260771	0.261662	0.402054	0.862134	-3.654870	-0.852283	1.441421	1.624087	0.028346	19.787369	-13.934578	0.000000	0.671824	2.540918	8.903087	4.741635	0.082757	24.602468	5.893462	0.000000	0.167503	-0.291918	-1.499550	0.311070	-0.388251	-1.593272	0.275191	-0.709769	-1.593272	0.191439	-0.709769	-1.312106	0.155543	-0.595279	-1.218385	0.095711	-0.452181	-1.124663	1.196458	-3.302233	-8.340048	0.000000	0.000000	24.478387	2.901454	3.363193	23.075695	-5.260093	83.137147	40.615152	21.444971	3.056132	12.960596	19.541876	-9.331190	67.624245	43.851667	88.176795	17.244959	21.037866
0.383333	-2.029328	-2.962305	101.229764	0.261740	0.402153	0.862029	-3.688750	-0.818751	1.602084	1.609499	0.028091	19.528949	-14.372266	0.000000	0.619222	2.519548	8.700609	4.714072	0.082276	24.664265	6.118369	0.000000	0.171306	-0.291287	-1.491527	0.318132	-0.387411	-1.584748	0.281439	-0.708235	-1.584748	0.195786	-0.708235	-1.305086	0.159075	-0.593992	-1.211866	0.097884	-0.451203	-1.118645	1.223621	-3.295095	-8.295426	0.000000	0.000000	24.398326	3.040594	3.614863	23.078553	-5.254030	83.120245	40.578210	21.846579	3.099827	12.886421	19.453920	-9.319074	67.372746	43.847120	88.065853	16.914363	20.671987
0.400000	-2.005740	-2.929758	101.204869	0.261764	0.402267	0.861929	-3.724155	-0.772735	1.654431	1.598707	0.027903	19.317167	-14.625735	0.000000	0.582816	2.483355	8.505989	4.717364	0.082334	24.737939	6.340850	0.000000	0.174500	-0.287104	-1.490131	0.324065	-0.381848	-1.583264	0.286687	-0.698065	-1.583264	0.199436	-0.698065	-1.303864	0.162041	-0.585463	-1.210731	0.099710	-0.444724	-1.117598	1.246439	-3.247779	-8.287661	0.000000	0.000000	24.313693	3.168836	3.948366	23.085167	-5.252896	83.076214	40.544057	22.493053	3.147674	12.720170	19.334534	-9.323142	67.059663	43.883042	87.958378	16.375584	20.225258
0.416667	-1.988113	-2.904682	101.160287	0.261802	0.402374	0.861807	-3.744741	-0.741061	1.682996	1.603256	0.027982	19.160364	-14.777455	0.000000	0.551126	2.453422	8.276696	4.715782	0.082306	24.801874	6.596041	0.000000	0.178653	-0.283418	-1.486781	0.331776	-0.376946	-1.579705	0.293509	-0.689103	-1.579705	0.204182	-0.689103	-1.300933	0.165897	-0.577946	-1.208010	0.102082	-0.439015	-1.115086	1.276099	-3.206082	-8.269030	0.000000	0.000000	24.230581	3.297792	4.288222	23.087420	-5.244915	83.011000	40.502155	23.137965	3.225480	12.544961	19.193846	-9.351405	66.708136	43.962494	87.865986	15.805991	19.815027
0.433333	-1.972214	-2.886537	101.105350	0.261824	0.402464	0.861664	-3.762136	-0.717110	1.805502	1.598469	0.027899	19.012391	-14.995818	0.000000	0.510144	2.433673	8.223210	4.682244	0.081721	24.809474	6.612534	0.000000	0.183629	-0.279599	-1.483378	0.341018	-0.371867	-1.576090	0.301684	-0.679817	-1.576090	0.209870	-0.679817	-1.297956	0.170518	-0.570158	-1.205245	0.104926	-0.433099	-1.112534	1.311644	-3.162879	-8.250106	0.000000	0.000000	24.150856	3.422045	4.632118	23.097161	-5.239217	82.979873	40.471093	23.688188	3.305398	12.356362	19.037717	-9.393172	66.343622	44.074415	87.800476	15.297901	19.474122
0.450000	-1.958775	-2.874080	101.050901	0.261822	0.402531	0.861517	-3.775183	-0.704158	1.956352	1.587978	0.027715	18.927292	-15.165463	0.000000	0.467993	2.420198	8.228834	4.633907	0.080877	24.797696	6.558954	0.000000	0.188771	-0.275949	-1.483563	0.350567	-0.367013	-1.576286	0.310133	-0.670943	-1.576286	0.215747	-0.670943	-1.298118	0.175293	-0.562716	-1.205395	0.107864	-0.427446	-1.112673	1.348375	-3.121595	-8.251135	0.000000	0.000000	24.081796	3.548317	4.976712	23.129812	-5.228234	83.036839	40.447760	24.096972	3.384460	12.144736	18.870873	-9.452221	65.993235	44.227332	87.767635	14.884596	19.257103
0.466667	-1.947527	-2.874804	101.010772	0.261780	0.402564	0.861379	-3.776337	-0.702741	2.143199	1.568206	0.027370	18.908404	-15.310454	0.000000	0.434894	2.415763	8.344893	4.573757	0.079827	24.759230	6.385548	0.000000	0.194768	-0.273045	-1.488745	0.361704	-0.363150	-1.581792	0.319984	-0.663881	-1.581792	0.222600	-0.663881	-1.302652	0.180862	-0.556793	-1.209606	0.111290	-0.422947	-1.116559	1.391208	-3.088739	-8.279956	0.000000	0.000000	24.034772	3.659988	5.262769	23.168893	-5.211113	83.138480	40.434675	24.277693	3.460217	11.991081	18.691713	-9.518843	65.645336	44.400718	87.770655	14.665711	19.171250
0.483333	-1.924180	-2.874763	101.002552	0.261642	0.402580	0.861275	-3.781184	-0.699778	2.258445	1.529704	0.026698	19.004139	-15.261665	0.000000	0.413950	2.404041	8.520415	4.530282	0.079068	24.724058	6.170925	0.000000	0.199105	-0.268146	-1.501103	0.369758	-0.356634	-1.594922	0.327110	-0.651970	-1.594922	0.227557	-0.651970	-1.313465	0.184889	-0.546803	-1.219646	0.113769	-0.415358	-1.125827	1.422188	-3.033322	-8.348685	0.000000	0.000000	24.010849	3.743177	5.517959	23.184399	-5.208457	83.173797	40.434860	24.494523	3.527091	11.893766	18.534890	-9.584847	65.400790	44.583710	87.808242	14.529709	19.149286
0.500000	-1.896852	-2.886406	101.026325	0.261428	0.402561	0.861195	-3.778166	-0.702759	2.425257	1.473302	0.025714	19.160930	-15.222012	0.000000	0.403576	2.394602	8.805498	4.479249	0.078178	24.659581	5.859753	0.000000	0.203696	-0.262687	-1.526628	0.378284	-0.349373	-1.622042	0.334653	-0.638697	-1.622042	0.232804	-0.638697	-1.335799	0.189152	-0.535671	-1.240385	0.116392	-0.406902	-1.144971	1.454982	-2.971566	-8.490645	0.000000	0.000000	24.013859	3.815999	5.759740	23.237146	-5.188849	83.380005	40.441963	24.377012	3.559108	11.793302	18.345257	-9.662695	65.101474	44.790458	87.876220	14.561938	19.261007
0.516667	-1.854404	-2.899058	101.065706	0.261136	0.402517	0.861169	-3.770425	-0.701322	2.571368	1.408194	0.024578	19.387565	-15.077458	0.000000	0.407597	2.376878	9.151942	4.446699	0.077610	24.588389	5.470251	0.000000	0.206718	-0.254320	-1.557671	0.383897	-0.338246	-1.655026	0.339618	-0.618354	-1.655026	0.236259	-0.618354	-1.362962	0.191959	-0.518610	-1.265608	0.118119	-0.393942	-1.168253	1.476569	-2.876921	-8.663300	0.000000	0.000000	24.035524	3.854995	5.995690	23.301527	-5.181198	83.660261	40.471263	24.036746	3.542031	11.693944	18.153763	-9.735339	64.818899	45.002941	87.975268	14.635261	19.410798
0.533333	-1.810834	-2.917995	101.145924	0.260756	0.402442	0.861194	-3.761521	-0.705607	2.667964	1.339965	0.023387	19.662985	-14.865426	0.000000	0.425869	2.366597	9.607419	4.423791	0.077210	24.491589	4.973742	0.000000	0.209077	-0.245815	-1.595602	0.388276	-0.326934	-1.695327	0.343492	-0.597674	-1.695327	0.238954	-0.597674	-1.396152	0.194149	-0.501266	-1.296427	0.119466	-0.380767	-1.196702	1.493413	-2.780707	-8.874261	0.000000	0.000000	24.074472	3.861127	6.169273	23.358794	-5.176656	83.979804	40.513605	23.440833	3.486778	11.600703	17.970573	-9.803297	64.553723	45.208051	88.096051	14.810300	19.601852
0.550000	-1.769580	-2.948438	101.266870	0.260315	0.402328	0.861310	-3.739870	-0.716764	2.659497	1.284606	0.022421	19.973521	-14.551713	0.000000	0.482112	2.359964	9.971593	4.439255	0.077480	24.430340	4.653272	0.000000	0.211559	-0.237983	-1.637340	0.392887	-0.316517	-1.739673	0.347571	-0.578632	-1.739673	0.241791	-0.578632	-1.432672	0.196454	-0.485295	-1.330338	0.120885	-0.368635	-1.228005	1.511147	-2.692110	-9.106391	0.000000	0.000000	24.114859	3.833785	6.270434	23.399138	-5.173885	84.297140	40.563502	22.630344	3.403834	11.513187	17.794810	-9.859218	64.279485	45.402193	88.236543	15.064850	19.850858
0.566667	-1.743967	-2.985281	101.435412	0.259829	0.402177	0.861526	-3.716924	-0.743536	2.514141	1.245347	0.021735	20.302748	-14.140270	0.000000	0.565803	2.372524	10.323188	4.485783	0.078292	24.390660	4.395102	0.000000	0.213352	-0.232767	-1.682273	0.396216	-0.309580	-1.787415	0.350516	-0.565950	-1.787415	0.243840	-0.565950	-1.471989	0.198119	-0.474659	-1.366847	0.121909	-0.360556	-1.261705	1.523952	-2.633110	-9.356297	0.000000	0.000000	24.159082	3.798864	6.318260	23.436779	-5.171507	84.647255	40.625306	21.592644	3.275172	11.402185	17.638527	-9.903174	63.987628	45.575931	88.382166	15.465165	20.173621
0.583333	-1.728433	-3.019139	101.644363	0.259303	0.402013	0.861867	-3.694978	-0.778667	2.133766	1.238024	0.021608	20.671122	-13.498251	0.000000	0.677533	2.396033	10.599506	4.577930	0.079900	24.401395	4.272770	0.000000	0.213026	-0.229234	-1.725766	0.395611	-0.304882	-1.833627	0.349981	-0.557360	-1.833627	0.243468	-0.557360	-1.510045	0.197816	-0.467455	-1.402185	0.121723	-0.355084	-1.294325	1.521626	-2.593144	-9.598194	0.000000	0.000000	24.196741	3.750496	6.307078	23.461597	-5.176960	84.974727	40.688216	20.464268	3.109049	11.253104	17.542486	-9.929194	63.790495	45.718666	88.521869	15.867679	20.487385
0.600000	-1.735759	-3.064106	101.889753	0.258771	0.401818	0.862305	-3.665296	-0.830738	1.687885	1.258596	0.021967	20.993223	-12.906741	0.000000	0.818489	2.444106	10.805105	4.694971	0.081943	24.449579	4.285174	0.000000	0.213302	-0.229698	-1.769523	0.396123	-0.305499	-1.880119	0.350434	-0.558488	-1.880119	0.243783	-0.558488	-1.548333	0.198072	-0.468401	-1.437738	0.121881	-0.355803	-1.327143	1.523596	-2.598393	-9.841559	0.000000	0.000000	24.229994	3.705905	6.242024	23.483726	-5.171285	85.314482	40.739494	19.174438	2.924060	11.096733	17.467097	-9.950678	63.575355	45.839440	88.639951	16.338829	20.829118
0.616667	-1.760912	-3.118963	102.180050	0.258209	0.401599	0.862835	-3.628331	-0.893034	1.150897	1.304322	0.022765	21.275993	-12.339500	0.000000	0.999406	2.509962	10.885628	4.859241	0.084810	24.558989	4.515076	0.000000	0.214095	-0.233265	-1.817709	0.397595	-0.310242	-1.931315	0.351736	-0.567160	-1.931315	0.244689	-0.567160	-1.590495	0.198808	-0.475673	-1.476888	0.122334	-0.361327	-1.363281	1.529256	-2.638737	-10.109550	0.000000	0.000000	24.257026	3.684863	6.171639	23.519004	-5.153457	85.690025	40.781471	17.793434	2.714291	10.926176	17.410651	-9.972710	63.342488	45.942836	88.739655	16.831883	21.170974
0.633333	-1.795096	-3.178020	102.497021	0.257631	0.401378	0.863416	-3.586469	-0.959659	0.473237	1.371063	0.023930	21.548899	-11.677448	0.000000	1.203221	2.582769	10.835123	5.051157	0.088159	24.711821	4.945409	0.000000	0.214995	-0.238725	-1.866999	0.399267	-0.317504	-1.983687	0.353215	-0.580436	-1.983687	0.245718	-0.580436	-1.633624	0.199644	-0.486808	-1.516937	0.122848	-0.369785	-1.400250	1.535688	-2.700506	-10.383691	0.000000	0.000000	24.282560	3.671087	6.070097	23.538625	-5.133486	85.984867	40.808295	16.582619	2.514250	10.764157	17.390740	-10.000776	63.182186	46.029006	88.784791	17.212528	21.428222
0.650000	-1.828066	-3.242596	102.813932	0.257051	0.401157	0.864017	-3.535086	-1.020318	-0.186414	1.443598	0.025196	21.763554	-11.103365	0.000000	1.421490	2.655349	10.701426	5.255150	0.091720	24.886908	5.475670	0.000000	0.216785	-0.244197	-1.917390	0.402591	-0.324782	-2.037227	0.356156	-0.593741	-2.037227	0.247763	-0.593741	-1.677716	0.201306	-0.497967	-1.557879	0.123871	-0.378261	-1.438042	1.548472	-2.762407	-10.663947	0.000000	0.000000	24.302777	3.663117	5.976701	23.570506	-5.112744	86.274156	40.832728	15.529874	2.308168	10.584379	17.393377	-10.034580	63.070577	46.096055	88.799015	17.483154	21.584410
0.666667	-1.848755	-3.310568	103.135915	0.256455	0.400944	0.864615	-3.475859	-1.062781	-0.791387	1.513137	0.026409	21.908077	-10.667568	0.000000	1.651872	2.717380	10.529188	5.469185	0.095455	25.069362	6.056255	0.000000	0.219563	-0.247994	-1.974242	0.407750	-0.329832	-2.097632	0.360720	-0.602972	-2.097632	0.250938	-0.602972	-1.727462	0.203886	-0.505709	-1.604071	0.125458	-0.384142	-1.480681	1.568315	-2.805355	-10.980141	0.000000	0.000000	24.320666	3.659754	5.913791	23.626284	-5.087444	86.580737	40.853645	14.690325	2.117185	10.367672	17.403930	-10.085575	63.000970	46.164618	88.791851	17.598379	21.628681
0.683333	-1.858098	-3.379895	103.448612	0.255854	0.400752	0.865172	-3.409418	-1.088179	-1.361084	1.577000	0.027524	21.992218	-10.327974	0.000000	1.882627	2.768831	10.294380	5.681695	0.099164	25.244656	6.690388	0.000000	0.223545	-0.250094	-2.034003	0.415146	-0.332625	-2.161129	0.367263	-0.608078	-2.161129	0.255490	-0.608078	-1.779753	0.207584	-0.509991	-1.652628	0.127734	-0.387395	-1.525503	1.596763	-2.829109	-11.312516	0.000000	0.000000	24.328232	3.661560	5.885374	23.691551	-5.066432	86.850461	40.875807	14.156944	1.956807	10.137813	17.415856	-10.147431	62.981883	46.227441	88.772278	17.538109	21.547239
0.700000	-1.859353	-3.454477	103.755775	0.255258	0.400581	0.865672	-3.334835	-1.097404	-1.806770	1.627224	0.028400	21.979752	-10.226664	0.000000	2.105060	2.811715	10.020205	5.866808	0.102395	25.395342	7.373170	0.000000	0.229620	-0.251276	-2.097525	0.426428	-0.334197	-2.228621	0.377243	-0.610952	-2.228621	0.262433	-0.610952	-1.835335	0.213226	-0.512401	-1.704239	0.131205	-0.389226	-1.573144	1.640156	-2.842480	-11.665806	0.000000	0.000000	24.325150	3.669978	5.874076	23.762956	-5.042645	87.075863	40.897735	13.942695	1.842759	9.893191	17.419304	-10.230064	63.005096	46.304526	88.742599	17.315298	21.367279
0.716667	-1.834350	-3.517249	104.004212	0.254729	0.400442	0.866117	-3.256727	-1.074931	-2.112465	1.668378	0.029119	21.881153	-10.285441	0.000000	2.312795	2.829000	9.781741	6.047945	0.105557	25.528265	7.913015	0.000000	0.235178	-0.248142	-2.154850	0.436749	-0.330028	-2.289528	0.386374	-0.603331	-2.289528	0.268785	-0.603331	-1.885494	0.218386	-0.506010	-1.750816	0.134381	-0.384371	-1.616137	1.679853	-2.807027	-11.984629	0.000000	0.000000	24.304206	3.673025	5.920182	23.862664	-5.041515	87.311572	40.943546	13.996474	1.760854	9.575799	17.407589	-10.307734	63.028154	46.384772	88.719517	16.948420	21.134946
0.733333	-1.779228	-3.555661	104.244487	0.254203	0.400372	0.866529	-3.188667	-1.016108	-2.660540	1.713904	0.029913	21.844657	-10.000722	0.000000	2.511419	2.804778	9.424469	6.251695	0.109113	25.692716	8.597900	0.000000	0.237481	-0.240153	-2.207747	0.441026	-0.319403	-2.345732	0.390157	-0.583908	-2.345732	0.271417	-0.583908	-1.931779	0.220525	-0.489720	-1.793795	0.135697	-0.371997	-1.655811	1.696302	-2.716657	-12.278829	0.000000	0.000000	24.283577	3.652334	6.009729	23.924752	-5.082855	87.335323	41.014836	14.589129	1.718397	9.254856	17.453699	-10.386610	63.288218	46.458916	88.698262	16.226939	20.687664
0.750000	-1.721790	-3.592910	104.417391	0.253788	0.400311	0.866838	-3.118129	-0.948736	-2.935872	1.743970	0.030438	21.687815	-10.069613	0.000000	2.668779	2.777043	9.151957	6.389333	0.111515	25.800130	9.089757	0.000000	0.240627	-0.231527	-2.251607	0.446869	-0.307931	-2.392332	0.395326	-0.562935	-2.392332	0.275013	-0.562935	-1.970156	0.223446	-0.472130	-1.829431	0.137494	-0.358636	-1.688705	1.718775	-2.619081	-12.522762	0.000000	0.000000	24.265174	3.642102	6.136861	24.005917	-5.126002	87.393200	41.097626	15.148366	1.709349	8.952835	17.454153	-10.473769	63.464180	46.556530	88.682648	15.521355	20.279401
0.766667	-1.659768	-3.625773	104.556302	0.253450	0.400263	0.867086	-3.049146	-0.869416	-3.061119	1.763663	0.030782	21.465236	-10.338761	0.000000	2.801377	2.743374	8.954824	6.493725	0.113337	25.868383	9.431474	0.000000	0.243195	-0.222502	-2.290224	0.451638	-0.295927	-2.433363	0.399546	-0.540991	-2.433363	0.277948	-0.540991	-2.003946	0.225831	-0.453726	-1.860807	0.138962	-0.344655	-1.717668	1.737120	-2.516985	-12.737537	0.000000	0.000000	24.258054	3.652182	6.283319	24.095709	-5.169991	87.451351	41.188341	15.671832	1.716698	8.667729	17.437308	-10.567866	63.606516	46.675835	88.675910	14.873426	19.932613
0.783333	-1.587694	-3.644585	104.642658	0.253188	0.400232	0.867273	-2.985998	-0.779119	-3.156885	1.779304	0.031055	21.250245	-10.573727	0.000000	2.897648	2.692568	8.768018	6.563575	0.114556	25.915375	9.693479	0.000000	0.243473	-0.211385	-2.316359	0.452154	-0.281142	-2.461131	0.400002	-0.513961	-2.461131	0.278265	-0.513961	-2.026814	0.226089	-0.431055	-1.882042	0.139121	-0.327435	-1.737269	1.739104	-2.391225	-12.882894	0.000000	0.000000	24.274140	3.664013	6.471866	24.173639	-5.241421	87.439457	41.307384	16.254266	1.695190	8.430178	17.439381	-10.654002	63.826883	46.791393	88.675666	14.161675	19.522304
0.800000	-1.512251	-3.657223	104.702582	0.252992	0.400200	0.867419	-2.926028	-0.684582	-3.210007	1.785620	0.031165	21.051601	-10.806752	0.000000	2.978635	2.633812	8.604455	6.626131	0.115648	25.950543	9.883256	0.000000	0.242449	-0.200340	-2.332736	0.450252	-0.266453	-2.478532	0.398319	-0.487108	-2.478532	0.277095	-0.487108	-2.041144	0.225138	-0.408534	-1.895348	0.138535	-0.310327	-1.749552	1.731788	-2.266292	-12.973978	0.000000	0.000000	24.314761	3.680800	6.615594	24.215331	-5.328193	87.312449	41.437807	16.821721	1.669336	8.282776	17.464711	-10.730774	64.098221	46.895768	88.685312	13.534281	19.112032
0.816667	-1.431455	-3.663597	104.735135	0.252868	0.400156	0.867521	-2.873431	-0.583725	-3.164929	1.773314	0.030950	20.861948	-11.098761	0.000000	3.036627	2.565415	8.482936	6.667412	0.116368	25.969859	9.981088	0.000000	0.240278	-0.188911	-2.341781	0.446221	-0.251251	-2.488142	0.394753	-0.459318	-2.488142	0.274614	-0.459318	-2.049058	0.223122	-0.385227	-1.902697	0.137295	-0.292623	-1.756336	1.716284	-2.136996	-13.024282	0.000000	0.000000	24.378193	3.708538	6.754605	24.234754	-5.421751	87.134154	41.563742	17.427971	1.672748	8.173183	17.505219	-10.800308	64.398208	47.004734	88.701071	13.024031	18.799927
0.833333	-1.340560	-3.657329	104.735195	0.252800	0.400116	0.867602	-2.827431	-0.475486	-3.105575	1.755069	0.030632	20.711777	-11.316339	0.000000	3.071020	2.480083	8.406764	6.696361	0.116874	25.976509	9.991095	0.000000	0.236184	-0.175840	-2.341088	0.438617	-0.233867	-2.487406	0.388027	-0.427538	-2.487406	0.269935	-0.427538	-2.048452	0.219321	-0.358573	-1.902134	0.134956	-0.272377	-1.755816	1.687039	-1.989140	-13.020428	0.000000	0.000000	24.452649	3.730999	6.896700	24.246121	-5.540074	86.965410	41.716709	17.929017	1.650443	8.086774	17.600117	-10.855526	64.838737	47.085604	88.724401	12.511316	18.422730
0.850000	-1.244281	-3.642566	104.694995	0.252808	0.400068	0.867664	-2.787255	-0.364779	-3.016251	1.730668	0.030206	20.598471	-11.468310	0.000000	3.087415	2.386219	8.364469	6.719646	0.117280	25.978316	9.909485	0.000000	0.230541	-0.161817	-2.331318	0.428137	-0.215216	-2.477025	0.378755	-0.393441	-2.477025	0.263485	-0.393441	-2.039903	0.214080	-0.329977	-1.894196	0.131731	-0.250654	-1.748488	1.646729	-1.830504	-12.966090	0.000000	0.000000	24.529932	3.748482	7.047933	24.237775	-5.674980	86.762630	41.888055	18.481628	1.631963	8.026800	17.720934	-10.896070	65.320186	47.154627	88.757653	12.115739	18.134108
0.866667	-1.162709	-3.632688	104.635790	0.252886	0.399996	0.867681	-2.755266	-0.266919	-2.784943	1.694456	0.029574	20.468660	-11.771449	0.000000	3.081185	2.305633	8.415838	6.708434	0.117084	25.952101	9.715527	0.000000	0.225355	-0.150329	-2.319974	0.418507	-0.199938	-2.464973	0.370236	-0.365511	-2.464973	0.257558	-0.365511	-2.029978	0.209265	-0.306551	-1.884979	0.128768	-0.232860	-1.739981	1.609687	-1.700555	-12.903001	0.000000	0.000000	24.607942	3.777543	7.185287	24.229300	-5.794645	86.618067	42.056311	18.969122	1.666785	7.969166	17.831463	-10.941979	65.740106	47.228773	88.794665	11.949143	18.018508
0.883333	-1.089503	-3.630345	104.570117	0.253015	0.399900	0.867705	-2.716642	-0.182923	-2.650428	1.675586	0.029244	20.405571	-11.899881	0.000000	3.077855	2.231819	8.492252	6.697317	0.116890	25.932740	9.517152	0.000000	0.220289	-0.140236	-2.312164	0.409099	-0.186515	-2.456674	0.361913	-0.340971	-2.456674	0.251769	-0.340971	-2.023143	0.204561	-0.285970	-1.878633	0.125873	-0.217226	-1.734123	1.573505	-1.586383	-12.859561	0.000000	0.000000	24.679205	3.812001	7.350640	24.235371	-5.893048	86.552943	42.212290	19.421804	1.798860	7.906238	17.913697	-10.991849	66.030617	47.319279	88.834391	12.018638	18.136581
0.900000	-1.036338	-3.640178	104.490061	0.253197	0.399775	0.867710	-2.673951	-0.124414	-2.580027	1.677038	0.029270	20.398310	-11.899175	0.000000	3.069169	2.180053	8.625804	6.669837	0.116411	25.906400	9.260551	0.000000	0.216214	-0.133017	-2.306504	0.401530	-0.176913	-2.450660	0.355217	-0.323418	-2.450660	0.247111	-0.323418	-2.018191	0.200776	-0.271249	-1.874034	0.123544	-0.206044	-1.729878	1.544393	-1.504718	-12.828081	0.000000	0.000000	24.735973	3.854340	7.537567	24.243507	-5.967387	86.528216	42.359398	19.870702	2.005284	7.864678	17.966198	-11.058049	66.200619	47.431726	88.877527	12.300909	18.445066
0.916667	-1.001765	-3.661103	104.400610	0.253424	0.399628	0.867731	-2.627215	-0.088296	-2.539610	1.705120	0.029760	20.413883	-11.850042	0.000000	3.066518	2.147138	8.764127	6.644346	0.115966	25.893573	9.024495	0.000000	0.212448	-0.128347	-2.305136	0.394537	-0.170701	-2.449207	0.349031	-0.312063	-2.449207	0.242807	-0.312063	-2.016994	0.197279	-0.261725	-1.872923	0.121393	-0.198809	-1.728852	1.517493	-1.451886	-12.820473	0.000000	0.000000	24.775068	3.897846	7.753950	24.284445	-6.004845	86.630743	42.479993	20.236831	2.289684	7.780871	17.990483	-11.149183	66.258915	47.570199	88.919361	12.720266	18.884807
0.933333	-0.992916	-3.695814	104.311781	0.253671	0.399461	0.867766	-2.576897	-0.082985	-2.575201	1.764772	0.030801	20.458382	-11.718167	0.000000	3.068712	2.144086	8.954967	6.615454	0.115461	25.879671	8.755155	0.000000	0.209412	-0.127207	-2.307976	0.388899	-0.169185	-2.452225	0.344043	-0.309290	-2.452225	0.239337	-0.309290	-2.019479	0.194460	-0.259399	-1.875231	0.119658	-0.197043	-1.730982	1.495809	-1.438985	-12.836272	0.000000	0.000000	24.788324	3.933688	7.978790	24.336933	-6.012800	86.777057	42.581202	20.600777	2.644020	7.696308	17.985116	-11.267320	66.209734	47.734064	88.958816	13.241736	19.408931
0.950000	-1.008280	-3.746704	104.223517	0.253933	0.399272	0.867820	-2.516816	-0.109966	-2.728817	1.863299	0.032521	20.538618	-11.456009	0.000000	3.082300	2.169705	9.168516	6.587520	0.114974	25.867796	8.486490	0.000000	0.207641	-0.129496	-2.315621	0.385611	-0.172230	-2.460347	0.341134	-0.314856	-2.460347	0.237313	-0.314856	-2.026168	0.192816	-0.264068	-1.881442	0.118646	-0.200589	-1.736716	1.483162	-1.464883	-12.878788	0.000000	0.000000	24.767843	3.961119	8.206720	24.400181	-5.988255	86.951750	42.659178	20.978662	3.057950	7.624353	17.941747	-11.415859	66.043037	47.923950	88.993263	13.824255	19.968015
0.966667	-1.051062	-3.812985	104.155009	0.254196	0.399073	0.867897	-2.453755	-0.167541	-2.905223	1.968395	0.034355	20.651983	-11.171723	0.000000	3.113745	2.224585	9.362323	6.572397	0.114710	25.864687	8.295429	0.000000	0.207989	-0.136311	-2.331252	0.386257	-0.181294	-2.476955	0.341706	-0.331428	-2.476955	0.237711	-0.331428	-2.039846	0.193139	-0.277966	-1.894142	0.118845	-0.211146	-1.748439	1.485648	-1.541982	-12.965724	0.000000	0.000000	24.737042	4.003548	8.403287	24.470893	-5.925486	87.198116	42.708716	21.341637	3.521581	7.546472	17.876594	-11.596880	65.827791	48.133620	89.021936	14.511085	20.593049
0.983333	-1.116244	-3.885989	104.090579	0.254452	0.398888	0.867978	-2.391697	-0.249277	-3.122999	2.089676	0.036472	20.764988	-10.866090	0.000000	3.151727	2.304892	9.550244	6.562949	0.114545	25.851447	8.118960	0.000000	0.209198	-0.145969	-2.349118	0.388501	-0.194138	-2.495938	0.343691	-0.354908	-2.495938	0.239092	-0.354908	-2.055478	0.194261	-0.297659	-1.908658	0.119536	-0.226106	-1.761839	1.494280	-1.651227	-13.065090	0.000000	0.000000	24.686710	4.043469	8.595417	24.544946	-5.840151	87.465247	42.735037	21.697301	3.994132	7.465316	17.785713	-11.788632	65.545633	48.343341	89.045591	15.192110	21.187191
1.000000	-1.204344	-3.964112	104.031569	0.254691	0.398727	0.868063	-2.332160	-0.354878	-3.380441	2.226078	0.038852	20.868479	-10.551621	0.000000	3.196385	2.411453	9.724223	6.561010	0.114511	25.824778	7.961034	0.000000	0.211205	-0.158394	-2.368615	0.392229	-0.210664	-2.516654	0.346989	-0.385119	-2.516654	0.241386	-0.385119	-2.072538	0.196125	-0.322997	-1.924500	0.120683	-0.245352	-1.776461	1.508618	-1.791786	-13.173527	0.000000	0.000000	24.616593	4.079483	8.781403	24.620204	-5.734169	87.742572	42.736897	22.046585	4.460067	7.379999	17.669507	-11.987153	65.202373	48.546942	89.063459	15.833442	21.715673
1.016667	-1.315880	-4.045747	103.979319	0.254903	0.398601	0.868148	-2.276659	-0.484047	-3.675843	2.376542	0.041478	20.953299	-10.240823	0.000000	3.247861	2.545096	9.876206	6.568411	0.114640	25.781379	7.825602	0.000000	0.213950	-0.173514	-2.389140	0.397326	-0.230773	-2.538461	0.351498	-0.421882	-2.538461	0.244523	-0.421882	-2.090497	0.198674	-0.353829	-1.941176	0.122251	-0.268773	-1.791855	1.528223	-1.962824	-13.287679	0.000000	0.000000	24.526432	4.110197	8.959541	24.694530	-5.609460	88.019521	42.713050	22.390421	4.903845	7.289634	17.528378	-12.188481	64.803822	48.738253	89.074775	16.401191	22.143723
1.033333	-1.451370	-4.129290	103.935168	0.255078	0.398517	0.868235	-2.226712	-0.636486	-4.007498	2.540005	0.044331	21.010294	-9.946207	0.000000	3.306296	2.706648	9.998137	6.586984	0.114965	25.717952	7.716617	0.000000	0.217370	-0.191254	-2.410088	0.403678	-0.254368	-2.560719	0.357118	-0.465016	-2.560719	0.248432	-0.465016	-2.108827	0.201850	-0.390006	-1.958197	0.124205	-0.296253	-1.807566	1.552654	-2.163507	-13.404188	0.000000	0.000000	24.415973	4.134213	9.128125	24.765789	-5.467944	88.285523	42.662250	22.729740	5.309929	7.193335	17.362729	-12.388655	64.355792	48.911102	89.078770	16.861468	22.436573
1.050000	-1.611330	-4.213133	103.900458	0.255207	0.398487	0.868320	-2.183836	-0.811900	-4.373702	2.715406	0.047393	21.030307	-9.680281	0.000000	3.371829	2.896937	10.081962	6.618561	0.115516	25.631198	7.638030	0.000000	0.221405	-0.211542	-2.430857	0.411171	-0.281351	-2.582786	0.363746	-0.514343	-2.582786	0.253044	-0.514343	-2.127000	0.205597	-0.431376	-1.975071	0.126511	-0.327678	-1.823143	1.581473	-2.393003	-13.519698	0.000000	0.000000	24.284960	4.150135	9.285449	24.831846	-5.311540	88.530006	42.583252	23.065475	5.662781	7.090216	17.172963	-12.583713	63.864094	49.059319	89.074676	17.180383	22.559451
1.066667	-1.796278	-4.295673	103.876529	0.255279	0.398519	0.868403	-2.149547	-1.009990	-4.772747	2.901685	0.050644	21.004184	-9.455555	0.000000	3.444602	3.116790	10.119626	6.664974	0.116326	25.517817	7.593792	0.000000	0.225992	-0.234303	-2.450843	0.419690	-0.311622	-2.604020	0.371282	-0.569683	-2.604020	0.258286	-0.569683	-2.144487	0.209856	-0.477790	-1.991310	0.129132	-0.362935	-1.838132	1.614239	-2.650477	-13.630852	0.000000	0.000000	24.133136	4.156568	9.429808	24.890564	-5.142168	88.742401	42.474812	23.398556	5.946863	6.979389	16.959481	-12.769693	63.334539	49.176732	89.061727	17.324049	22.477589
1.083333	-2.006733	-4.375302	103.864721	0.255285	0.398623	0.868483	-2.125363	-1.230460	-5.202928	3.097779	0.054066	20.922769	-9.284537	0.000000	3.524756	3.367034	10.103073	6.728056	0.117427	25.374512	7.587856	0.000000	0.231070	-0.259463	-2.469441	0.429121	-0.345086	-2.623781	0.379626	-0.630858	-2.623781	0.264090	-0.630858	-2.160761	0.214572	-0.529097	-2.006421	0.132034	-0.401908	-1.852081	1.650513	-2.935096	-13.734292	0.000000	0.000000	23.960245	4.152115	9.559497	24.939808	-4.961747	88.912135	42.335684	23.729916	6.146635	6.859970	16.722687	-12.942633	62.772937	49.257172	89.039154	17.258574	22.156216
1.100000	-2.243211	-4.450416	103.866375	0.255216	0.398809	0.868558	-2.112800	-1.473013	-5.662540	3.302627	0.057642	20.776906	-9.179738	0.000000	3.612430	3.648496	10.024250	6.809637	0.118851	25.197982	7.624171	0.000000	0.236578	-0.286949	-2.486050	0.439349	-0.381642	-2.641428	0.388674	-0.697688	-2.641428	0.270385	-0.697688	-2.175293	0.219686	-0.585146	-2.019915	0.135181	-0.444484	-1.864537	1.689854	-3.246025	-13.826662	0.000000	0.000000	23.766031	4.135381	9.672809	24.977442	-4.772197	89.028639	42.164623	24.060486	6.246559	6.731071	16.462982	-13.098572	62.185101	49.294467	89.006191	16.950071	21.560562
1.116667	-2.506231	-4.519408	103.882832	0.255060	0.399085	0.868627	-2.113374	-1.737353	-6.149876	3.515169	0.061351	20.557441	-9.153666	0.000000	3.707765	3.962005	9.875101	6.911551	0.120629	24.984929	7.706691	0.000000	0.242454	-0.316687	-2.500064	0.450261	-0.421194	-2.656318	0.398327	-0.769994	-2.656318	0.277101	-0.769994	-2.187556	0.225143	-0.645789	-2.031302	0.138538	-0.490549	-1.875048	1.731824	-3.582431	-13.904603	0.000000	0.000000	23.550239	4.104969	9.768040	25.001330	-4.575438	89.081341	41.960383	24.391198	6.231098	6.591807	16.180770	-13.233549	61.576840	49.282446	88.962070	16.364649	20.655858
