Model Marker Errors from IK
version=1
nRows=352
nColumns=4
inDegrees=no
endheader
time	total_squared_error	marker_error_RMS	marker_error_max
      0.00000000	      0.02948012	      0.03304325	      0.05568034
      0.01694915	      0.02715231	      0.03171184	      0.05198946
      0.03389831	      0.02575218	      0.03088340	      0.05019822
      0.05084746	      0.02503585	      0.03045084	      0.04976206
      0.06779661	      0.02464894	      0.03021463	      0.04989297
      0.08474576	      0.02439725	      0.03005997	      0.04904151
      0.10169492	      0.02431084	      0.03000669	      0.04913903
      0.11864407	      0.02430860	      0.03000531	      0.04922084
      0.13559322	      0.02425438	      0.02997183	      0.04906196
      0.15254237	      0.02417934	      0.02992543	      0.04906354
      0.16949153	      0.02420275	      0.02993991	      0.04899261
      0.18644068	      0.02410158	      0.02987727	      0.04901409
      0.20338983	      0.02419514	      0.02993520	      0.04907581
      0.22033898	      0.02423681	      0.02996097	      0.04871846
      0.23728814	      0.02453512	      0.03014479	      0.04869541
      0.25423729	      0.02471952	      0.03025785	      0.04856116
      0.27118644	      0.02484955	      0.03033733	      0.04831742
      0.28813559	      0.02504307	      0.03045523	      0.04824668
      0.30508475	      0.02515213	      0.03052147	      0.04813198
      0.32203390	      0.02513316	      0.03050996	      0.04809411
      0.33898305	      0.02503527	      0.03045049	      0.04815027
      0.35593220	      0.02498533	      0.03042010	      0.04820317
      0.37288136	      0.02508297	      0.03047948	      0.04851421
      0.38983051	      0.02524225	      0.03057610	      0.04871609
      0.40677966	      0.02544326	      0.03069761	      0.04910170
      0.42372881	      0.02557418	      0.03077648	      0.04922647
      0.44067797	      0.02562413	      0.03080652	      0.04920068
      0.45762712	      0.02575032	      0.03088229	      0.04935496
      0.47457627	      0.02598404	      0.03102212	      0.04974505
      0.49152542	      0.02623568	      0.03117197	      0.05014437
      0.50847458	      0.02637900	      0.03125700	      0.05081964
      0.52542373	      0.02620140	      0.03115160	      0.05059230
      0.54237288	      0.02551948	      0.03074355	      0.05140114
      0.55932203	      0.02418955	      0.02993174	      0.05151189
      0.57627119	      0.02216241	      0.02865013	      0.05103250
      0.59322034	      0.01977975	      0.02706628	      0.04993723
      0.61016949	      0.01726417	      0.02528663	      0.04750558
      0.62711864	      0.01516097	      0.02369636	      0.04381021
      0.64406780	      0.01372947	      0.02254992	      0.03999039
      0.66101695	      0.01318890	      0.02210153	      0.03850293
      0.67796610	      0.01348486	      0.02234814	      0.03833738
      0.69491525	      0.01428877	      0.02300464	      0.03906170
      0.71186441	      0.01524600	      0.02376272	      0.04198091
      0.72881356	      0.01606149	      0.02438996	      0.04498796
      0.74576271	      0.01658904	      0.02478727	      0.04568304
      0.76271186	      0.01666756	      0.02484586	      0.04394167
      0.77966102	      0.01626647	      0.02454510	      0.04671287
      0.79661017	      0.01560520	      0.02404101	      0.04692197
      0.81355932	      0.01484205	      0.02344580	      0.04425763
      0.83050847	      0.01406112	      0.02282065	      0.03985365
      0.84745763	      0.01328790	      0.02218433	      0.03874802
      0.86440678	      0.01260847	      0.02160973	      0.03703850
      0.88135593	      0.01218394	      0.02124281	      0.03689701
      0.89830508	      0.01208610	      0.02115735	      0.03820870
      0.91525424	      0.01235741	      0.02139350	      0.03958982
      0.93220339	      0.01284906	      0.02181493	      0.04091261
      0.94915254	      0.01340650	      0.02228311	      0.04229858
      0.96610169	      0.01384733	      0.02264650	      0.04372063
      0.98305085	      0.01407583	      0.02283259	      0.04537251
      1.00000000	      0.01415291	      0.02289502	      0.04702416
      1.01694915	      0.01424619	      0.02297035	      0.04881398
      1.03389831	      0.01443230	      0.02311989	      0.05062075
      1.05084746	      0.01457722	      0.02323569	      0.05228741
      1.06779661	      0.01468383	      0.02332049	      0.05364951
      1.08474576	      0.01479822	      0.02341115	      0.05460509
      1.10169492	      0.01487689	      0.02347330	      0.05512138
      1.11864407	      0.01492980	      0.02351501	      0.05502916
      1.13559322	      0.01502570	      0.02359041	      0.05443257
      1.15254237	      0.01523452	      0.02375377	      0.05365709
      1.16949153	      0.01556141	      0.02400726	      0.05277595
      1.18644068	      0.01590271	      0.02426910	      0.05187048
      1.20338983	      0.01620238	      0.02449670	      0.05116159
      1.22033898	      0.01645047	      0.02468353	      0.05053932
      1.23728814	      0.01671570	      0.02488172	      0.05013767
      1.25423729	      0.01703244	      0.02511635	      0.04993672
      1.27118644	      0.01735564	      0.02535353	      0.04991248
      1.28813559	      0.01765570	      0.02557176	      0.05012318
      1.30508475	      0.01794058	      0.02577723	      0.05033846
      1.32203390	      0.01823679	      0.02598917	      0.05075021
      1.33898305	      0.01842495	      0.02612290	      0.05108871
      1.35593220	      0.01844403	      0.02613641	      0.05144362
      1.37288136	      0.01834151	      0.02606368	      0.05173671
      1.38983051	      0.01823194	      0.02598571	      0.05199679
      1.40677966	      0.01817428	      0.02594459	      0.05220160
      1.42372881	      0.01810223	      0.02589311	      0.05242059
      1.44067797	      0.01806424	      0.02586592	      0.05251073
      1.45762712	      0.01797655	      0.02580306	      0.05279912
      1.47457627	      0.01795129	      0.02578493	      0.05305376
      1.49152542	      0.01797749	      0.02580374	      0.05331273
      1.50847458	      0.01805791	      0.02586139	      0.05328389
      1.52542373	      0.01815094	      0.02592792	      0.05306916
      1.54237288	      0.01823884	      0.02599062	      0.05249107
      1.55932203	      0.01825749	      0.02600391	      0.05185275
      1.57627119	      0.01795321	      0.02578631	      0.05109497
      1.59322034	      0.01765329	      0.02557002	      0.05055172
      1.61016949	      0.01727303	      0.02529312	      0.05012929
      1.62711864	      0.01700121	      0.02509332	      0.05007562
      1.64406780	      0.01685222	      0.02498312	      0.05000907
      1.66101695	      0.01681977	      0.02495906	      0.05009536
      1.67796610	      0.01686798	      0.02499480	      0.05002545
      1.69491525	      0.01694158	      0.02504927	      0.04976900
      1.71186441	      0.01702507	      0.02511092	      0.04976822
      1.72881356	      0.01704013	      0.02512202	      0.04950401
      1.74576271	      0.01701586	      0.02510413	      0.04955122
      1.76271186	      0.01694410	      0.02505113	      0.04953064
      1.77966102	      0.01680449	      0.02494772	      0.04945774
      1.79661017	      0.01667287	      0.02484983	      0.04954541
      1.81355932	      0.01665248	      0.02483462	      0.04973854
      1.83050847	      0.01673964	      0.02489953	      0.04992979
      1.84745763	      0.01693914	      0.02504747	      0.05010524
      1.86440678	      0.01713792	      0.02519401	      0.05025604
      1.88135593	      0.01716340	      0.02521273	      0.05051777
      1.89830508	      0.01708259	      0.02515330	      0.05020218
      1.91525424	      0.01684025	      0.02497424	      0.04956239
      1.93220339	      0.01651335	      0.02473066	      0.04884252
      1.94915254	      0.01614977	      0.02445690	      0.04762428
      1.96610169	      0.01587654	      0.02424912	      0.04719889
      1.98305085	      0.01568539	      0.02410270	      0.04640954
      2.00000000	      0.01565868	      0.02408217	      0.04591140
      2.01694915	      0.01578316	      0.02417771	      0.04549176
      2.03389831	      0.01599213	      0.02433724	      0.04514143
      2.05084746	      0.01622861	      0.02451652	      0.04514208
      2.06779661	      0.01640983	      0.02465302	      0.04513079
      2.08474576	      0.01648488	      0.02470933	      0.04534817
      2.10169492	      0.01651899	      0.02473489	      0.04564807
      2.11864407	      0.01653630	      0.02474784	      0.04589323
      2.13559322	      0.01653084	      0.02474375	      0.04559946
      2.15254237	      0.01655656	      0.02476300	      0.04552857
      2.16949153	      0.01653747	      0.02474871	      0.04548131
      2.18644068	      0.01645429	      0.02468640	      0.04550785
      2.20338983	      0.01631199	      0.02457942	      0.04527598
      2.22033898	      0.01620108	      0.02449572	      0.04537004
      2.23728814	      0.01602636	      0.02436327	      0.04552003
      2.25423729	      0.01585892	      0.02423566	      0.04541513
      2.27118644	      0.01579948	      0.02419020	      0.04544231
      2.28813559	      0.01587074	      0.02424470	      0.04549918
      2.30508475	      0.01599406	      0.02433871	      0.04601060
      2.32203390	      0.01616843	      0.02447102	      0.04624223
      2.33898305	      0.01629374	      0.02456566	      0.04636992
      2.35593220	      0.01632718	      0.02459086	      0.04637780
      2.37288136	      0.01631029	      0.02457814	      0.04663074
      2.38983051	      0.01624875	      0.02453173	      0.04657691
      2.40677966	      0.01627353	      0.02455042	      0.04642419
      2.42372881	      0.01640780	      0.02465149	      0.04643334
      2.44067797	      0.01668360	      0.02485782	      0.04641986
      2.45762712	      0.01704827	      0.02512802	      0.04633155
      2.47457627	      0.01744830	      0.02542112	      0.04698244
      2.49152542	      0.01777344	      0.02565688	      0.04736162
      2.50847458	      0.01796529	      0.02579498	      0.04769526
      2.52542373	      0.01807278	      0.02587204	      0.04804041
      2.54237288	      0.01812310	      0.02590803	      0.04816245
      2.55932203	      0.01818784	      0.02595427	      0.04848620
      2.57627119	      0.01825373	      0.02600124	      0.04852379
      2.59322034	      0.01820924	      0.02596952	      0.04814738
      2.61016949	      0.01807636	      0.02587460	      0.04791156
      2.62711864	      0.01792001	      0.02576245	      0.04786843
      2.64406780	      0.01776442	      0.02565037	      0.04792518
      2.66101695	      0.01764115	      0.02556122	      0.04790738
      2.67796610	      0.01759554	      0.02552815	      0.04804991
      2.69491525	      0.01750907	      0.02546535	      0.04783376
      2.71186441	      0.01752096	      0.02547400	      0.04742496
      2.72881356	      0.01753406	      0.02548352	      0.04687002
      2.74576271	      0.01756849	      0.02550852	      0.04638602
      2.76271186	      0.01759751	      0.02552958	      0.04575665
      2.77966102	      0.01761325	      0.02554100	      0.04540755
      2.79661017	      0.01755220	      0.02549670	      0.04486405
      2.81355932	      0.01735501	      0.02535307	      0.04425017
      2.83050847	      0.01719801	      0.02523813	      0.04435183
      2.84745763	      0.01700693	      0.02509754	      0.04437633
      2.86440678	      0.01688242	      0.02500549	      0.04456297
      2.88135593	      0.01677565	      0.02492630	      0.04463183
      2.89830508	      0.01669785	      0.02486843	      0.04456851
      2.91525424	      0.01672638	      0.02488966	      0.04456265
      2.93220339	      0.01691257	      0.02502782	      0.04462231
      2.94915254	      0.01725143	      0.02527730	      0.04503962
      2.96610169	      0.01760991	      0.02553858	      0.04523019
      2.98305085	      0.01795963	      0.02579092	      0.04548904
      3.00000000	      0.01823454	      0.02598756	      0.04547129
      3.01694915	      0.01850393	      0.02617882	      0.04537452
      3.03389831	      0.01879344	      0.02638282	      0.04528347
      3.05084746	      0.01895933	      0.02649901	      0.04542756
      3.06779661	      0.01918617	      0.02665706	      0.04519363
      3.08474576	      0.01941797	      0.02681761	      0.04504494
      3.10169492	      0.01958867	      0.02693523	      0.04454174
      3.11864407	      0.01967105	      0.02699180	      0.04518459
      3.13559322	      0.01965385	      0.02698000	      0.04594695
      3.15254237	      0.01958390	      0.02693194	      0.04567703
      3.16949153	      0.01953705	      0.02689971	      0.04624030
      3.18644068	      0.01966982	      0.02699096	      0.04588539
      3.20338983	      0.02002059	      0.02723056	      0.04532241
      3.22033898	      0.02047849	      0.02754020	      0.04286902
      3.23728814	      0.02103665	      0.02791299	      0.04400071
      3.25423729	      0.02157399	      0.02826724	      0.04653798
      3.27118644	      0.02189303	      0.02847548	      0.04900314
      3.28813559	      0.02213238	      0.02863072	      0.04972722
      3.30508475	      0.02184791	      0.02844612	      0.04867386
      3.32203390	      0.02095653	      0.02785979	      0.04778898
      3.33898305	      0.01981743	      0.02709205	      0.04771491
      3.35593220	      0.01888924	      0.02644998	      0.04677686
      3.37288136	      0.01865810	      0.02628765	      0.04582343
      3.38983051	      0.01908544	      0.02658699	      0.04541564
      3.40677966	      0.01972353	      0.02702778	      0.04602140
      3.42372881	      0.02023215	      0.02737406	      0.04696649
      3.44067797	      0.02039274	      0.02748248	      0.04754093
      3.45762712	      0.02022814	      0.02737135	      0.04762498
      3.47457627	      0.01996136	      0.02719025	      0.04753627
      3.49152542	      0.01987257	      0.02712971	      0.04723119
      3.50847458	      0.02005505	      0.02725398	      0.04704155
      3.52542373	      0.02044898	      0.02752035	      0.04686754
      3.54237288	      0.02099574	      0.02788584	      0.04658259
      3.55932203	      0.02166051	      0.02832386	      0.04631572
      3.57627119	      0.02222191	      0.02868857	      0.04613397
      3.59322034	      0.02279833	      0.02905826	      0.04627355
      3.61016949	      0.02313827	      0.02927410	      0.04725249
      3.62711864	      0.02322058	      0.02932612	      0.04966853
      3.64406780	      0.02307304	      0.02923281	      0.05038971
      3.66101695	      0.02274185	      0.02902225	      0.05068907
      3.67796610	      0.02228911	      0.02873191	      0.05006023
      3.69491525	      0.02179081	      0.02840892	      0.04925869
      3.71186441	      0.02136275	      0.02812851	      0.04854787
      3.72881356	      0.02105122	      0.02792265	      0.04738190
      3.74576271	      0.02075203	      0.02772352	      0.04558304
      3.76271186	      0.02030233	      0.02742149	      0.04463021
      3.77966102	      0.01993652	      0.02717333	      0.04259295
      3.79661017	      0.01960093	      0.02694365	      0.04315289
      3.81355932	      0.01935198	      0.02677200	      0.04409565
      3.83050847	      0.01906439	      0.02657233	      0.04529515
      3.84745763	      0.01876878	      0.02636551	      0.04645399
      3.86440678	      0.01862782	      0.02626632	      0.04759454
      3.88135593	      0.01871180	      0.02632546	      0.04875392
      3.89830508	      0.01898886	      0.02651964	      0.04990459
      3.91525424	      0.01935805	      0.02677620	      0.05092369
      3.93220339	      0.01966434	      0.02698720	      0.05173892
      3.94915254	      0.02001265	      0.02722516	      0.05238582
      3.96610169	      0.02031504	      0.02743007	      0.05292007
      3.98305085	      0.02053027	      0.02757500	      0.05326138
      4.00000000	      0.02070066	      0.02768919	      0.05355862
      4.01694915	      0.02083453	      0.02777858	      0.05368361
      4.03389831	      0.02110159	      0.02795604	      0.05351824
      4.05084746	      0.02148438	      0.02820847	      0.05328571
      4.06779661	      0.02188460	      0.02847000	      0.05300116
      4.08474576	      0.02215976	      0.02864842	      0.05265506
      4.10169492	      0.02217858	      0.02866058	      0.05237103
      4.11864407	      0.02196023	      0.02851915	      0.05212837
      4.13559322	      0.02165268	      0.02831874	      0.05193217
      4.15254237	      0.02134129	      0.02811438	      0.05188488
      4.16949153	      0.02110385	      0.02795754	      0.05196527
      4.18644068	      0.02097252	      0.02787041	      0.05198319
      4.20338983	      0.02097143	      0.02786969	      0.05197512
      4.22033898	      0.02103963	      0.02791497	      0.05190681
      4.23728814	      0.02119135	      0.02801544	      0.05134568
      4.25423729	      0.02142877	      0.02817194	      0.05068546
      4.27118644	      0.02174218	      0.02837721	      0.04971620
      4.28813559	      0.02209635	      0.02860740	      0.04980423
      4.30508475	      0.02239724	      0.02880152	      0.04979132
      4.32203390	      0.02257910	      0.02891821	      0.04938758
      4.33898305	      0.02262558	      0.02894796	      0.04831047
      4.35593220	      0.02272467	      0.02901128	      0.04726529
      4.37288136	      0.02290074	      0.02912345	      0.04623563
      4.38983051	      0.02317692	      0.02929854	      0.04551906
      4.40677966	      0.02346584	      0.02948059	      0.04506791
      4.42372881	      0.02365691	      0.02960037	      0.04596650
      4.44067797	      0.02351108	      0.02950899	      0.04582261
      4.45762712	      0.02357170	      0.02954701	      0.04674299
      4.47457627	      0.02366044	      0.02960258	      0.04757321
      4.49152542	      0.02369406	      0.02962360	      0.04808632
      4.50847458	      0.02363364	      0.02958580	      0.04811881
      4.52542373	      0.02348284	      0.02949127	      0.04778395
      4.54237288	      0.02331979	      0.02938871	      0.04791429
      4.55932203	      0.02316837	      0.02929313	      0.04804578
      4.57627119	      0.02301059	      0.02919322	      0.04893390
      4.59322034	      0.02259386	      0.02892766	      0.04959340
      4.61016949	      0.02240545	      0.02880680	      0.05027853
      4.62711864	      0.02221044	      0.02868116	      0.05075411
      4.64406780	      0.02191046	      0.02848682	      0.05106799
      4.66101695	      0.02148623	      0.02820968	      0.05121751
      4.67796610	      0.02092796	      0.02784079	      0.05106293
      4.69491525	      0.02023913	      0.02737878	      0.05070111
      4.71186441	      0.01954570	      0.02690567	      0.05026444
      4.72881356	      0.01886779	      0.02643496	      0.04946655
      4.74576271	      0.01835867	      0.02607587	      0.04902783
      4.76271186	      0.01799639	      0.02581730	      0.04865060
      4.77966102	      0.01776193	      0.02564857	      0.04835804
      4.79661017	      0.01761071	      0.02553916	      0.04805647
      4.81355932	      0.01747414	      0.02543994	      0.04777437
      4.83050847	      0.01736411	      0.02535972	      0.04776023
      4.84745763	      0.01725947	      0.02528319	      0.04771058
      4.86440678	      0.01711491	      0.02517708	      0.04792539
      4.88135593	      0.01695561	      0.02505964	      0.04812567
      4.89830508	      0.01686040	      0.02498919	      0.04824326
      4.91525424	      0.01679852	      0.02494328	      0.04818061
      4.93220339	      0.01683244	      0.02496845	      0.04806006
      4.94915254	      0.01682658	      0.02496410	      0.04771469
      4.96610169	      0.01679660	      0.02494186	      0.04716310
      4.98305085	      0.01671910	      0.02488425	      0.04704698
      5.00000000	      0.01675746	      0.02491278	      0.04638001
      5.01694915	      0.01703213	      0.02511612	      0.04557215
      5.03389831	      0.01759780	      0.02552979	      0.04466951
      5.05084746	      0.01845216	      0.02614218	      0.04398502
      5.06779661	      0.01942093	      0.02681965	      0.04348695
      5.08474576	      0.02020478	      0.02735553	      0.04316736
      5.10169492	      0.02048348	      0.02754356	      0.04263443
      5.11864407	      0.02025690	      0.02739079	      0.04195441
      5.13559322	      0.01970271	      0.02701351	      0.04177022
      5.15254237	      0.01905104	      0.02656302	      0.04140607
      5.16949153	      0.01836887	      0.02608311	      0.04169464
      5.18644068	      0.01770261	      0.02560571	      0.04298548
      5.20338983	      0.01698930	      0.02508452	      0.04393564
      5.22033898	      0.01655297	      0.02476031	      0.04581025
      5.23728814	      0.01647046	      0.02469853	      0.04722974
      5.25423729	      0.01661325	      0.02480536	      0.04758890
      5.27118644	      0.01695448	      0.02505881	      0.04944786
      5.28813559	      0.01732674	      0.02533241	      0.05103481
      5.30508475	      0.01730060	      0.02531329	      0.05189554
      5.32203390	      0.01674826	      0.02490594	      0.05217120
      5.33898305	      0.01607662	      0.02440144	      0.05196521
      5.35593220	      0.01585147	      0.02422997	      0.05148529
      5.37288136	      0.01635728	      0.02461352	      0.05075882
      5.38983051	      0.01702808	      0.02511314	      0.04993176
      5.40677966	      0.01746723	      0.02543491	      0.04843362
      5.42372881	      0.01730732	      0.02531821	      0.04704335
      5.44067797	      0.01673803	      0.02489833	      0.04596765
      5.45762712	      0.01622014	      0.02451012	      0.04526000
      5.47457627	      0.01654584	      0.02475498	      0.04730443
      5.49152542	      0.01812178	      0.02590709	      0.05296054
      5.50847458	      0.02090154	      0.02782321	      0.05906406
      5.52542373	      0.02416964	      0.02991942	      0.06363296
      5.54237288	      0.02753424	      0.03193410	      0.06639434
      5.55932203	      0.03047478	      0.03359606	      0.06740108
      5.57627119	      0.03271123	      0.03480700	      0.06805300
      5.59322034	      0.03398057	      0.03547590	      0.06799562
      5.61016949	      0.03410710	      0.03554189	      0.06893277
      5.62711864	      0.03373134	      0.03534556	      0.07054017
      5.64406780	      0.03265575	      0.03477747	      0.06999938
      5.66101695	      0.03139266	      0.03409826	      0.06809279
      5.67796610	      0.03044028	      0.03357704	      0.06667053
      5.69491525	      0.02977269	      0.03320681	      0.06557861
      5.71186441	      0.02931946	      0.03295309	      0.06525006
      5.72881356	      0.02906791	      0.03281142	      0.06500654
      5.74576271	      0.02911349	      0.03283713	      0.06476373
      5.76271186	      0.02955872	      0.03308727	      0.06440293
      5.77966102	      0.03021814	      0.03345430	      0.06390272
      5.79661017	      0.03093513	      0.03384886	      0.06332680
      5.81355932	      0.03150596	      0.03415973	      0.06294064
      5.83050847	      0.03170702	      0.03426856	      0.06237940
      5.84745763	      0.03144813	      0.03412837	      0.06175796
      5.86440678	      0.03077818	      0.03376289	      0.06128087
      5.88135593	      0.02960665	      0.03311409	      0.05966398
      5.89830508	      0.02815308	      0.03229097	      0.05738052
      5.91525424	      0.02656202	      0.03136524	      0.05413978
      5.93220339	      0.02489550	      0.03036537	      0.05278875
      5.94915254	      0.02350380	      0.02950443	      0.05172985
