Model Marker Errors from IK
version=1
nRows=274
nColumns=4
inDegrees=no
endheader
time	total_squared_error	marker_error_RMS	marker_error_max
      0.00000000	      0.02539152	      0.03066638	      0.06480283
      0.01818182	      0.02150217	      0.02822015	      0.05522561
      0.03636364	      0.02057409	      0.02760441	      0.05567447
      0.05454545	      0.01991652	      0.02715969	      0.05583885
      0.07272727	      0.01935921	      0.02677700	      0.05567567
      0.09090909	      0.01892809	      0.02647717	      0.05534385
      0.10909091	      0.01865678	      0.02628672	      0.05499862
      0.12727273	      0.01853464	      0.02620054	      0.05475753
      0.14545455	      0.01844302	      0.02613570	      0.05474301
      0.16363636	      0.01829904	      0.02603348	      0.05472241
      0.18181818	      0.01805489	      0.02585923	      0.05471130
      0.20000000	      0.01799015	      0.02581282	      0.05466292
      0.21818182	      0.01817890	      0.02594788	      0.05436169
      0.23636364	      0.01860472	      0.02625002	      0.05393032
      0.25454545	      0.01920591	      0.02667077	      0.05338768
      0.27272727	      0.01992930	      0.02716841	      0.05274266
      0.29090909	      0.02071472	      0.02769859	      0.05208894
      0.30909091	      0.02153958	      0.02824469	      0.05141901
      0.32727273	      0.02236012	      0.02877764	      0.05099812
      0.34545455	      0.02316195	      0.02928908	      0.05085707
      0.36363636	      0.02383030	      0.02970865	      0.05266801
      0.38181818	      0.02409894	      0.02987563	      0.05375664
      0.40000000	      0.02377077	      0.02967152	      0.05315936
      0.41818182	      0.02300444	      0.02918932	      0.05356756
      0.43636364	      0.02196007	      0.02851904	      0.05444189
      0.45454545	      0.02093241	      0.02784375	      0.05533161
      0.47272727	      0.02067358	      0.02767107	      0.05601234
      0.49090909	      0.02075046	      0.02772248	      0.05647271
      0.50909091	      0.02076631	      0.02773306	      0.05677096
      0.52727273	      0.02059696	      0.02761975	      0.05705665
      0.54545455	      0.02025523	      0.02738966	      0.05731968
      0.56363636	      0.01983028	      0.02710082	      0.05758832
      0.58181818	      0.01950888	      0.02688031	      0.05782711
      0.60000000	      0.01955508	      0.02691212	      0.05787830
      0.61818182	      0.02008813	      0.02727645	      0.05781755
      0.63636364	      0.02094149	      0.02784979	      0.05766341
      0.65454545	      0.02174049	      0.02837611	      0.05714329
      0.67272727	      0.02241694	      0.02881418	      0.05672112
      0.69090909	      0.02308745	      0.02924194	      0.05649512
      0.70909091	      0.02382601	      0.02970597	      0.05656635
      0.72727273	      0.02463487	      0.03020600	      0.05689449
      0.74545455	      0.02525279	      0.03058249	      0.05744614
      0.76363636	      0.02533544	      0.03063249	      0.05812854
      0.78181818	      0.02467968	      0.03023346	      0.05874358
      0.80000000	      0.02342595	      0.02945552	      0.05912758
      0.81818182	      0.02196358	      0.02852133	      0.05910259
      0.83636364	      0.02064971	      0.02765509	      0.05912577
      0.85454545	      0.01948128	      0.02686129	      0.05880976
      0.87272727	      0.01857838	      0.02623144	      0.05829568
      0.89090909	      0.01815706	      0.02593229	      0.05731523
      0.90909091	      0.01830126	      0.02603506	      0.05588175
      0.92727273	      0.01886341	      0.02643189	      0.05421179
      0.94545455	      0.01968388	      0.02700060	      0.05268737
      0.96363636	      0.02033756	      0.02744527	      0.05196702
      0.98181818	      0.02080996	      0.02776219	      0.05626548
      1.00000000	      0.02103812	      0.02791397	      0.05982552
      1.01818182	      0.02109290	      0.02795029	      0.06138842
      1.03636364	      0.02115147	      0.02798906	      0.06062468
      1.05454545	      0.02128027	      0.02807415	      0.05756704
      1.07272727	      0.02150905	      0.02822466	      0.05318968
      1.09090909	      0.02175870	      0.02838798	      0.05407109
      1.10909091	      0.02212444	      0.02862558	      0.05529050
      1.12727273	      0.02255611	      0.02890349	      0.05595005
      1.14545455	      0.02300813	      0.02919166	      0.05600919
      1.16363636	      0.02351222	      0.02950971	      0.05564997
      1.18181818	      0.02413600	      0.02989859	      0.05530400
      1.20000000	      0.02474943	      0.03027616	      0.05502397
      1.21818182	      0.02546374	      0.03070996	      0.05494657
      1.23636364	      0.02625427	      0.03118301	      0.05500509
      1.25454545	      0.02715961	      0.03171611	      0.05503714
      1.27272727	      0.02810893	      0.03226564	      0.05540561
      1.29090909	      0.02887142	      0.03270033	      0.05682458
      1.30909091	      0.02923886	      0.03290776	      0.05793440
      1.32727273	      0.02883487	      0.03267963	      0.05822482
      1.34545455	      0.02850792	      0.03249383	      0.05824909
      1.36363636	      0.02788549	      0.03213714	      0.05704259
      1.38181818	      0.02697957	      0.03161081	      0.05594431
      1.40000000	      0.02595155	      0.03100272	      0.05683763
      1.41818182	      0.02489431	      0.03036464	      0.05786040
      1.43636364	      0.02395000	      0.02978317	      0.05896192
      1.45454545	      0.02305732	      0.02922285	      0.05978017
      1.47272727	      0.02215465	      0.02864511	      0.06044299
      1.49090909	      0.02114597	      0.02798543	      0.06061079
      1.50909091	      0.02008565	      0.02727477	      0.06022959
      1.52727273	      0.01907411	      0.02657910	      0.05943201
      1.54545455	      0.01829423	      0.02603006	      0.05839729
      1.56363636	      0.01773668	      0.02563033	      0.05735377
      1.58181818	      0.01739294	      0.02538076	      0.05626771
      1.60000000	      0.01721894	      0.02525349	      0.05550266
      1.61818182	      0.01728571	      0.02530240	      0.05484503
      1.63636364	      0.01762824	      0.02555186	      0.05454853
      1.65454545	      0.01842149	      0.02612044	      0.05484528
      1.67272727	      0.01943342	      0.02682828	      0.05569620
      1.69090909	      0.02038665	      0.02747837	      0.05694623
      1.70909091	      0.02099520	      0.02788548	      0.05835504
      1.72727273	      0.02105340	      0.02792410	      0.05967375
      1.74545455	      0.02067695	      0.02767333	      0.06083756
      1.76363636	      0.02016672	      0.02732976	      0.06171722
      1.78181818	      0.01981173	      0.02708815	      0.06215324
      1.80000000	      0.01977747	      0.02706472	      0.06216192
      1.81818182	      0.02003578	      0.02724089	      0.06190737
      1.83636364	      0.02040886	      0.02749334	      0.06161792
      1.85454545	      0.02070978	      0.02769529	      0.06117828
      1.87272727	      0.02096252	      0.02786377	      0.06106362
      1.89090909	      0.02110848	      0.02796061	      0.06086262
      1.90909091	      0.02114221	      0.02798294	      0.06040811
      1.92727273	      0.02110294	      0.02795694	      0.05984085
      1.94545455	      0.02099337	      0.02788427	      0.05913478
      1.96363636	      0.02085159	      0.02778995	      0.05843366
      1.98181818	      0.02071196	      0.02769675	      0.05785518
      2.00000000	      0.02052605	      0.02757216	      0.05724341
      2.01818182	      0.02039579	      0.02748453	      0.05689848
      2.03636364	      0.02023802	      0.02737803	      0.05655324
      2.05454545	      0.02004565	      0.02724760	      0.05659887
      2.07272727	      0.01981804	      0.02709246	      0.05676916
      2.09090909	      0.01963183	      0.02696488	      0.05698713
      2.10909091	      0.01954463	      0.02690493	      0.05704349
      2.12727273	      0.01961432	      0.02695285	      0.05721418
      2.14545455	      0.01977265	      0.02706142	      0.05729291
      2.16363636	      0.01995662	      0.02718702	      0.05741045
      2.18181818	      0.02017730	      0.02733692	      0.05705618
      2.20000000	      0.02032234	      0.02743500	      0.05704683
      2.21818182	      0.02049153	      0.02754897	      0.05734744
      2.23636364	      0.02052278	      0.02756996	      0.05744811
      2.25454545	      0.02046185	      0.02752901	      0.05745639
      2.27272727	      0.02053395	      0.02757747	      0.05760334
      2.29090909	      0.02088291	      0.02781081	      0.05771762
      2.30909091	      0.02147196	      0.02820031	      0.05792199
      2.32727273	      0.02219883	      0.02867366	      0.05812026
      2.34545455	      0.02285395	      0.02909369	      0.05821311
      2.36363636	      0.02343035	      0.02945829	      0.05863624
      2.38181818	      0.02362605	      0.02958106	      0.05900880
      2.40000000	      0.02328522	      0.02936691	      0.05923942
      2.41818182	      0.02258390	      0.02892128	      0.05930897
      2.43636364	      0.02190163	      0.02848107	      0.05943910
      2.45454545	      0.02166707	      0.02832815	      0.05966690
      2.47272727	      0.02206764	      0.02858881	      0.05956925
      2.49090909	      0.02301033	      0.02919305	      0.06000351
      2.50909091	      0.02438918	      0.03005500	      0.06040952
      2.52727273	      0.02608803	      0.03108413	      0.06068252
      2.54545455	      0.02641172	      0.03127638	      0.06172055
      2.56363636	      0.02766192	      0.03200805	      0.06183293
      2.58181818	      0.02822858	      0.03233424	      0.06307811
      2.60000000	      0.02828637	      0.03236732	      0.06426531
      2.61818182	      0.02841720	      0.03244209	      0.06653227
      2.63636364	      0.02887554	      0.03270267	      0.07032044
      2.65454545	      0.02978277	      0.03321243	      0.07565847
      2.67272727	      0.03077731	      0.03376241	      0.08144683
      2.69090909	      0.03185743	      0.03434974	      0.08739916
      2.70909091	      0.03285830	      0.03488515	      0.09248105
      2.72727273	      0.03360683	      0.03528027	      0.09588175
      2.74545455	      0.03384972	      0.03540753	      0.09716718
      2.76363636	      0.03350716	      0.03522791	      0.09663878
      2.78181818	      0.03272586	      0.03481478	      0.09454393
      2.80000000	      0.03168193	      0.03425500	      0.09152869
      2.81818182	      0.03084796	      0.03380114	      0.08825610
      2.83636364	      0.02989435	      0.03327458	      0.08576659
      2.85454545	      0.02964680	      0.03313653	      0.08479070
      2.87272727	      0.02929325	      0.03293835	      0.08501986
      2.89090909	      0.02941306	      0.03300565	      0.08607374
      2.90909091	      0.03004407	      0.03335781	      0.08777956
      2.92727273	      0.03002992	      0.03334995	      0.08911338
      2.94545455	      0.03024499	      0.03346916	      0.09012821
      2.96363636	      0.03041422	      0.03356267	      0.09034344
      2.98181818	      0.02979163	      0.03321737	      0.08908471
      3.00000000	      0.02954548	      0.03307986	      0.08745003
      3.01818182	      0.02879728	      0.03265832	      0.08541110
      3.03636364	      0.02837717	      0.03241923	      0.08335296
      3.05454545	      0.02790384	      0.03214771	      0.08090259
      3.07272727	      0.02735228	      0.03182841	      0.07815130
      3.09090909	      0.02661300	      0.03139533	      0.07495162
      3.10909091	      0.02581065	      0.03091844	      0.07146509
      3.12727273	      0.02504592	      0.03045697	      0.06766537
      3.14545455	      0.02434609	      0.03002844	      0.06624401
      3.16363636	      0.02382842	      0.02970748	      0.06610161
      3.18181818	      0.02345580	      0.02947428	      0.06570731
      3.20000000	      0.02327023	      0.02935746	      0.06504816
      3.21818182	      0.02322548	      0.02932922	      0.06435318
      3.23636364	      0.02323933	      0.02933796	      0.06380519
      3.25454545	      0.02335081	      0.02940824	      0.06329222
      3.27272727	      0.02354880	      0.02953266	      0.06288541
      3.29090909	      0.02386420	      0.02972977	      0.06258505
      3.30909091	      0.02413780	      0.02989971	      0.06217341
      3.32727273	      0.02442970	      0.03007995	      0.06185793
      3.34545455	      0.02456606	      0.03016379	      0.06157716
      3.36363636	      0.02454176	      0.03014886	      0.06146883
      3.38181818	      0.02441255	      0.03006940	      0.06127600
      3.40000000	      0.02422181	      0.02995169	      0.06128962
      3.41818182	      0.02401068	      0.02982087	      0.06138197
      3.43636364	      0.02381073	      0.02969645	      0.06160053
      3.45454545	      0.02372958	      0.02964580	      0.06190983
      3.47272727	      0.02372815	      0.02964490	      0.06206517
      3.49090909	      0.02384711	      0.02971912	      0.06223980
      3.50909091	      0.02400260	      0.02981586	      0.06232847
      3.52727273	      0.02412636	      0.02989262	      0.06241582
      3.54545455	      0.02410605	      0.02988004	      0.06253463
      3.56363636	      0.02378769	      0.02968207	      0.06266577
      3.58181818	      0.02314096	      0.02927580	      0.06316968
      3.60000000	      0.02217586	      0.02865883	      0.06357226
      3.61818182	      0.02112180	      0.02796943	      0.06429113
      3.63636364	      0.02014699	      0.02731638	      0.06491261
      3.65454545	      0.01937599	      0.02678861	      0.06534601
      3.67272727	      0.01888287	      0.02644552	      0.06554834
      3.69090909	      0.01869323	      0.02631239	      0.06561285
      3.70909091	      0.01881889	      0.02640068	      0.06535584
      3.72727273	      0.01918435	      0.02665580	      0.06507913
      3.74545455	      0.01957320	      0.02692459	      0.06472283
      3.76363636	      0.01986579	      0.02712508	      0.06430917
      3.78181818	      0.01998550	      0.02720668	      0.06388525
      3.80000000	      0.01983088	      0.02710124	      0.06353505
      3.81818182	      0.01960482	      0.02694633	      0.06323031
      3.83636364	      0.01936605	      0.02678173	      0.06280955
      3.85454545	      0.01925222	      0.02670290	      0.06235437
      3.87272727	      0.01926441	      0.02671136	      0.06185534
      3.89090909	      0.01930393	      0.02673874	      0.06110534
      3.90909091	      0.01928076	      0.02672269	      0.06049000
      3.92727273	      0.01927297	      0.02671730	      0.05964332
      3.94545455	      0.01931803	      0.02674851	      0.05871781
      3.96363636	      0.01947525	      0.02685714	      0.05778708
      3.98181818	      0.01978619	      0.02707068	      0.05684614
      4.00000000	      0.02029710	      0.02741796	      0.05611542
      4.01818182	      0.02107679	      0.02793961	      0.05551083
      4.03636364	      0.02213902	      0.02863501	      0.05494631
      4.05454545	      0.02323136	      0.02933293	      0.05440225
      4.07272727	      0.02396610	      0.02979317	      0.05395410
      4.09090909	      0.02402785	      0.02983153	      0.05371587
      4.10909091	      0.02355887	      0.02953897	      0.05375563
      4.12727273	      0.02291834	      0.02913464	      0.05386244
      4.14545455	      0.02213690	      0.02863363	      0.05392463
      4.16363636	      0.02132967	      0.02810672	      0.05382363
      4.18181818	      0.02029743	      0.02741818	      0.05199582
      4.20000000	      0.01996771	      0.02719457	      0.05171744
      4.21818182	      0.02005980	      0.02725721	      0.05118888
      4.23636364	      0.02038919	      0.02748009	      0.05081902
      4.25454545	      0.02066935	      0.02766824	      0.05047329
      4.27272727	      0.02078510	      0.02774560	      0.05038490
      4.29090909	      0.02076163	      0.02772994	      0.05066427
      4.30909091	      0.02075930	      0.02772838	      0.05112578
      4.32727273	      0.02092372	      0.02783797	      0.05193372
      4.34545455	      0.02119413	      0.02801727	      0.05250702
      4.36363636	      0.02148483	      0.02820876	      0.05303319
      4.38181818	      0.02168349	      0.02833888	      0.05343888
      4.40000000	      0.02186168	      0.02845508	      0.05370073
      4.41818182	      0.02214655	      0.02863988	      0.05397726
      4.43636364	      0.02250821	      0.02887278	      0.05404497
      4.45454545	      0.02291032	      0.02912954	      0.05418486
      4.47272727	      0.02329650	      0.02937403	      0.05432679
      4.49090909	      0.02363291	      0.02958535	      0.05456927
      4.50909091	      0.02377965	      0.02967706	      0.05464407
      4.52727273	      0.02347603	      0.02948699	      0.05500408
      4.54545455	      0.02292454	      0.02913859	      0.05524826
      4.56363636	      0.02222950	      0.02869346	      0.05545686
      4.58181818	      0.02151921	      0.02823133	      0.05555367
      4.60000000	      0.02082719	      0.02777368	      0.05546576
      4.61818182	      0.02030257	      0.02742166	      0.05545128
      4.63636364	      0.02035251	      0.02745536	      0.05521289
      4.65454545	      0.02092598	      0.02783948	      0.05502458
      4.67272727	      0.02182232	      0.02842946	      0.05471339
      4.69090909	      0.02249982	      0.02886740	      0.05455629
      4.70909091	      0.02269781	      0.02899413	      0.05447104
      4.72727273	      0.02236262	      0.02877925	      0.05442854
      4.74545455	      0.02167352	      0.02833237	      0.05459439
      4.76363636	      0.02114561	      0.02798518	      0.05468195
      4.78181818	      0.02136035	      0.02812693	      0.05477087
      4.80000000	      0.02255078	      0.02890007	      0.05479592
      4.81818182	      0.02430371	      0.03000229	      0.05468768
      4.83636364	      0.02610056	      0.03109159	      0.05651686
      4.85454545	      0.02728573	      0.03178966	      0.06119402
      4.87272727	      0.02752377	      0.03192802	      0.06270865
      4.89090909	      0.02650272	      0.03133021	      0.06108960
      4.90909091	      0.02538501	      0.03066245	      0.05777048
      4.92727273	      0.02447490	      0.03010777	      0.05405106
      4.94545455	      0.02403092	      0.02983344	      0.05412997
      4.96363636	      0.02457707	      0.03017055	      0.05449735
