Coordinates
version=1
nRows=134
nColumns=63
inDegrees=yes

Units are S.I. units (second, meters, Newtons, ...)
If the header above contains a line with 'inDegrees', this indicates whether rotational values are in degrees (yes) or radians (no).

endheader
time	pelvis_tilt	pelvis_list	pelvis_rotation	pelvis_tx	pelvis_ty	pelvis_tz	hip_flexion_r	hip_adduction_r	hip_rotation_r	knee_angle_r	knee_angle_r_beta	ankle_angle_r	subtalar_angle_r	mtp_angle_r	hip_flexion_l	hip_adduction_l	hip_rotation_l	knee_angle_l	knee_angle_l_beta	ankle_angle_l	subtalar_angle_l	mtp_angle_l	L5_S1_Flex_Ext	L5_S1_Lat_Bending	L5_S1_axial_rotation	L4_L5_Flex_Ext	L4_L5_Lat_Bending	L4_L5_axial_rotation	L3_L4_Flex_Ext	L3_L4_Lat_Bending	L3_L4_axial_rotation	L2_L3_Flex_Ext	L2_L3_Lat_Bending	L2_L3_axial_rotation	L1_L2_Flex_Ext	L1_L2_Lat_Bending	L1_L2_axial_rotation	L1_T12_Flex_Ext	L1_T12_Lat_Bending	L1_T12_axial_rotation	Abs_r3	Abs_r2	Abs_r1	Abs_t1	Abs_t2	neck_flexion	neck_bending	neck_rotation	arm_flex_r	arm_add_r	arm_rot_r	elbow_flex_r	pro_sup_r	wrist_flex_r	wrist_dev_r	arm_flex_l	arm_add_l	arm_rot_l	elbow_flex_l	pro_sup_l	wrist_flex_l	wrist_dev_l
0.000000	-1.076097	-6.208125	82.516811	0.233334	0.406156	0.935686	0.063880	4.589972	2.263013	0.924875	0.016142	16.515345	-13.362878	0.000000	9.696233	-5.614944	-13.732951	20.262490	0.353647	29.098819	18.904852	0.000000	-0.126300	0.591548	-1.903539	-0.234552	0.786759	-2.022511	-0.207498	1.438290	-2.022511	-0.144348	1.438290	-1.665597	-0.117282	1.206285	-1.546626	-0.072168	0.916308	-1.427655	-0.902149	6.691708	-10.586916	0.000000	0.000000	17.142224	-0.793656	8.534828	16.407646	-3.004946	74.605544	27.778235	87.970106	2.554324	-0.909594	15.763865	-1.597552	68.581641	30.794526	85.496913	-6.440715	0.132372
0.021277	-1.748321	-6.069654	81.718552	0.233665	0.405576	0.935190	0.274220	3.558538	-0.845540	2.092701	0.036525	18.219347	-7.746855	0.000000	8.839775	-4.741358	-12.767761	18.858662	0.329146	28.548037	18.086487	0.000000	-0.113899	0.516261	-1.785738	-0.211522	0.686627	-1.897346	-0.187124	1.255236	-1.897346	-0.130175	1.255236	-1.562520	-0.105766	1.052759	-1.450912	-0.065082	0.799688	-1.339303	-0.813568	5.840043	-9.931737	0.000000	0.000000	16.894591	-0.768563	8.371231	16.287239	-2.819668	74.175992	28.133432	88.045612	2.689488	-0.518468	15.282344	-2.216991	66.342565	31.855939	84.481611	-5.335296	1.421375
0.042553	-2.269107	-5.946478	81.077572	0.233942	0.405058	0.934740	0.416080	2.745743	-3.368907	3.024207	0.052782	19.638907	-3.191855	0.000000	8.084155	-4.044838	-11.915344	17.633089	0.307755	28.085937	17.390184	0.000000	-0.104549	0.457771	-1.688835	-0.194157	0.608836	-1.794387	-0.171763	1.113025	-1.794387	-0.119489	1.113025	-1.477730	-0.097084	0.933487	-1.372178	-0.059739	0.709088	-1.266626	-0.746780	5.178401	-9.392791	0.000000	0.000000	16.715989	-0.743093	8.229287	16.192479	-2.680631	73.972772	28.380324	88.107218	2.799776	-0.344907	14.888144	-2.708273	64.592123	32.709450	83.633995	-4.467444	2.393170
0.063830	-2.652603	-5.838386	80.576745	0.234167	0.404599	0.934332	0.497511	2.131486	-5.352625	3.740290	0.065280	20.796724	0.391552	0.000000	7.423136	-3.509406	-11.171583	16.573540	0.289263	27.707609	16.806677	0.000000	-0.097981	0.414546	-1.610655	-0.181961	0.551347	-1.711321	-0.160973	1.007928	-1.711321	-0.111983	1.007928	-1.409323	-0.090985	0.845343	-1.308657	-0.055986	0.642132	-1.207991	-0.699869	4.689430	-8.957979	0.000000	0.000000	16.599591	-0.717504	8.107200	16.122654	-2.584173	73.968222	28.534399	88.156247	2.883887	-0.353517	14.572886	-3.083606	63.279405	33.374542	82.944729	-3.816335	3.079702
0.085106	-2.912954	-5.745167	80.198948	0.234345	0.404200	0.933958	0.526562	1.695671	-6.842231	4.261848	0.074383	21.715498	3.092793	0.000000	6.850481	-3.119083	-10.532362	15.667783	0.273454	27.408138	16.326703	0.000000	-0.093928	0.385051	-1.549023	-0.174434	0.512118	-1.645837	-0.154315	0.936213	-1.645837	-0.107351	0.936213	-1.355395	-0.087222	0.785196	-1.258581	-0.053671	0.596444	-1.161767	-0.670920	4.355776	-8.615200	0.000000	0.000000	16.538571	-0.692060	8.003174	16.077048	-2.526631	74.134680	28.611142	88.194024	2.940523	-0.508899	14.328190	-3.355199	62.353503	33.870694	82.404475	-3.361146	3.512917
0.106383	-3.064308	-5.666612	79.927056	0.234480	0.403860	0.933614	0.511282	1.418200	-7.883261	4.609777	0.080456	22.417930	5.001296	0.000000	6.359952	-2.857893	-9.993564	14.903586	0.260117	27.182613	15.940998	0.000000	-0.092122	0.367752	-1.501763	-0.171080	0.489110	-1.595623	-0.151347	0.894153	-1.595623	-0.105286	0.894153	-1.314042	-0.085544	0.749920	-1.220182	-0.052638	0.569648	-1.126322	-0.658018	4.160086	-8.352354	0.000000	0.000000	16.526098	-0.667021	7.915414	16.054949	-2.504343	74.444485	28.626043	88.221871	2.968381	-0.775657	14.145675	-3.535261	61.763508	34.217387	82.003894	-3.081056	3.724762
0.127660	-3.120810	-5.602510	79.743945	0.234575	0.403579	0.933293	0.459720	1.278974	-8.521251	4.804977	0.083863	22.926720	6.206489	0.000000	5.945314	-2.709857	-9.551071	14.268717	0.249036	27.026122	15.640298	0.000000	-0.092294	0.361115	-1.466699	-0.171399	0.480283	-1.558368	-0.151630	0.878015	-1.558368	-0.105483	0.878015	-1.283362	-0.085704	0.736386	-1.191693	-0.052737	0.559367	-1.100024	-0.659247	4.085007	-8.157341	0.000000	0.000000	16.555347	-0.642647	7.842122	16.055642	-2.513647	74.869975	28.594588	88.241113	2.966162	-1.118396	14.016962	-3.635999	61.458512	34.434102	81.733650	-2.955241	3.747182
0.148936	-3.096608	-5.552651	79.632491	0.234633	0.403357	0.932989	0.379926	1.257897	-8.801738	4.868343	0.084969	23.264568	6.797801	0.000000	5.600328	-2.658998	-9.200767	13.750944	0.239999	26.933753	15.415340	0.000000	-0.094176	0.363606	-1.441657	-0.174895	0.483596	-1.531760	-0.154722	0.884072	-1.531760	-0.107634	0.884072	-1.261450	-0.087452	0.741466	-1.171346	-0.053812	0.563226	-1.081242	-0.672691	4.113186	-8.018062	0.000000	0.000000	16.619489	-0.619201	7.781502	16.078413	-2.550881	75.383488	28.532265	88.253072	2.932565	-1.501719	13.933672	-3.669622	61.387607	34.540320	81.584405	-2.962879	3.612123
0.170213	-3.005848	-5.516824	79.575570	0.234660	0.403192	0.932697	0.279949	1.334870	-8.770258	4.820774	0.084138	23.454174	6.864658	0.000000	5.318759	-2.689337	-8.938534	13.338035	0.232793	26.900592	15.256860	0.000000	-0.097500	0.373691	-1.424459	-0.181068	0.497009	-1.513488	-0.160183	0.908593	-1.513488	-0.111433	0.908593	-1.246402	-0.090539	0.762031	-1.157373	-0.055712	0.578848	-1.068345	-0.696436	4.227270	-7.922416	0.000000	0.000000	16.711697	-0.596943	7.731760	16.122549	-2.612381	75.957361	28.454561	88.259074	2.866290	-1.890228	13.887424	-3.648337	61.499883	34.555522	81.546820	-3.083147	3.351532
0.191489	-2.862677	-5.494819	79.556056	0.234658	0.403084	0.932411	0.167838	1.489795	-8.472348	4.683166	0.081737	23.518238	6.496489	0.000000	5.094368	-2.784897	-8.760257	13.017759	0.227203	26.921729	15.155593	0.000000	-0.101998	0.389836	-1.412932	-0.189421	0.518482	-1.501240	-0.167573	0.947848	-1.501240	-0.116574	0.947848	-1.236315	-0.094716	0.794954	-1.148007	-0.058282	0.603856	-1.059699	-0.728565	4.409905	-7.858304	0.000000	0.000000	16.825142	-0.576135	7.691098	16.187335	-2.694487	76.563934	28.376964	88.260440	2.766037	-2.248529	13.869839	-3.584354	61.744433	34.499189	81.611559	-3.295222	2.997355
0.212766	-2.681241	-5.486426	79.556827	0.234632	0.403033	0.932124	0.051643	1.702575	-7.953544	4.476419	0.078128	23.479460	5.782723	0.000000	4.920920	-2.929700	-8.661816	12.777883	0.223016	26.992250	15.102277	0.000000	-0.107402	0.410507	-1.404899	-0.199457	0.545975	-1.492705	-0.176451	0.998107	-1.492705	-0.122750	0.998107	-1.229286	-0.099734	0.837106	-1.141480	-0.061370	0.635876	-1.053674	-0.767164	4.643740	-7.813626	0.000000	0.000000	16.952997	-0.557037	7.657721	16.272057	-2.793535	77.175544	28.314960	88.258496	2.630504	-2.541224	13.872537	-3.489881	62.070349	34.390801	81.769284	-3.578281	2.581538
0.234043	-2.436075	-5.520628	79.530788	0.234412	0.402943	0.931883	-0.001926	1.969644	-7.501815	4.310745	0.075237	23.398861	5.199228	0.000000	4.824635	-3.142839	-8.632494	12.620140	0.220263	27.159477	15.067930	0.000000	-0.115337	0.442817	-1.394629	-0.214192	0.588947	-1.481793	-0.189487	1.076666	-1.481793	-0.131818	1.076666	-1.220300	-0.107102	0.902993	-1.133136	-0.065903	0.685924	-1.045971	-0.823839	5.009239	-7.756506	0.000000	0.000000	17.161994	-0.600170	7.726020	16.622535	-2.919368	78.696502	27.981272	88.424859	2.236649	-3.058241	13.823827	-3.389794	62.242180	34.268168	81.777033	-3.831470	2.251484
0.255319	-2.156597	-5.570271	79.468802	0.234091	0.402906	0.931529	-0.073033	2.280327	-6.703768	4.065775	0.070961	23.232375	4.195002	0.000000	4.735725	-3.388712	-8.678761	12.494047	0.218062	27.409877	15.047278	0.000000	-0.124295	0.481732	-1.379820	-0.230829	0.640704	-1.466059	-0.204205	1.171283	-1.466059	-0.142057	1.171283	-1.207342	-0.115421	0.982348	-1.121104	-0.071022	0.746203	-1.034865	-0.887829	5.449449	-7.674144	0.000000	0.000000	17.379130	-0.688504	7.860581	16.995508	-3.072119	79.714111	27.375878	92.595389	3.028294	-3.042473	13.741024	-3.259000	62.288427	34.092478	81.941533	-4.028810	1.980293
0.276596	-1.912558	-5.620254	79.359956	0.233841	0.402957	0.931078	-0.149473	2.562845	-5.697505	3.778314	0.065944	23.038066	2.976922	0.000000	4.640733	-3.599633	-8.791754	12.371724	0.215927	27.683004	15.036488	0.000000	-0.132221	0.515193	-1.360760	-0.245547	0.685207	-1.445808	-0.217226	1.252641	-1.445808	-0.151115	1.252641	-1.190665	-0.122780	1.050582	-1.105618	-0.075551	0.798034	-1.020570	-0.944441	5.827970	-7.568141	0.000000	0.000000	17.570017	-0.762277	7.948888	17.238520	-3.203236	80.301392	26.893619	92.622656	2.945790	-2.834689	13.620435	-3.165294	62.165548	33.910026	82.308672	-4.232581	1.807921
0.297872	-1.717622	-5.668173	79.240557	0.233732	0.403120	0.930605	-0.237216	2.812476	-4.440517	3.434366	0.059941	22.766656	1.433239	0.000000	4.585786	-3.780510	-8.975980	12.329715	0.215194	27.964950	15.098142	0.000000	-0.137810	0.538654	-1.344313	-0.255927	0.716410	-1.428333	-0.226408	1.309684	-1.428333	-0.157503	1.309684	-1.176274	-0.127970	1.098423	-1.092254	-0.078745	0.834375	-1.008235	-0.984361	6.093363	-7.476666	0.000000	0.000000	17.706242	-0.769408	7.917413	17.322962	-3.326092	80.321474	26.663159	89.997804	1.974436	-2.195531	13.525074	-3.124352	62.035001	33.698257	82.855996	-4.581240	1.686023
0.319149	-1.642369	-5.692705	79.046120	0.233850	0.403429	0.930132	-0.269702	2.917834	-3.592812	3.210551	0.056035	22.691340	0.566028	0.000000	4.505103	-3.837922	-9.214655	12.246106	0.213735	28.174753	15.137167	0.000000	-0.141375	0.542602	-1.318064	-0.262547	0.721660	-1.400443	-0.232264	1.319282	-1.400443	-0.161577	1.319282	-1.153306	-0.131281	1.106473	-1.070927	-0.080781	0.840490	-0.988548	-1.009825	6.138018	-7.330679	0.000000	0.000000	17.751462	-0.676688	7.680341	17.177347	-3.440061	79.534454	26.899097	86.620005	0.694057	-1.004231	13.471663	-3.140645	61.839542	33.500683	83.580416	-5.020579	1.697058
0.340426	-1.667759	-5.704293	78.814830	0.234169	0.403869	0.929688	-0.276387	2.918684	-2.826885	3.032163	0.052921	22.633249	-0.147803	0.000000	4.458292	-3.810964	-9.520519	12.216375	0.213216	28.327249	15.220676	0.000000	-0.141629	0.529678	-1.282398	-0.263019	0.704472	-1.362548	-0.232682	1.287859	-1.362548	-0.161868	1.287859	-1.122098	-0.131517	1.080120	-1.041949	-0.080927	0.820471	-0.961799	-1.011643	5.991825	-7.132314	0.000000	0.000000	17.673815	-0.490246	7.249470	16.783404	-3.566471	77.877655	27.838634	83.361190	-0.547134	0.601695	13.539586	-3.157931	61.753389	33.287631	84.470388	-5.578169	1.738823
0.361702	-1.821340	-5.698851	78.493303	0.234708	0.404429	0.929225	-0.243183	2.782778	-2.126407	2.936735	0.051256	22.599256	-0.690702	0.000000	4.394928	-3.653126	-9.863830	12.138241	0.211852	28.367582	15.260966	0.000000	-0.137883	0.498265	-1.232170	-0.256062	0.662692	-1.309181	-0.226527	1.211481	-1.309181	-0.157586	1.211481	-1.078149	-0.128038	1.016062	-1.001138	-0.078786	0.771812	-0.924128	-0.984881	5.636472	-6.852961	0.000000	0.000000	17.462375	-0.223844	6.676059	16.210325	-3.693998	75.505756	29.629053	80.478317	-1.673553	2.475300	13.701093	-3.177782	61.689803	33.146139	85.319962	-6.272667	1.713455
0.382979	-2.082536	-5.692114	78.081728	0.235398	0.405105	0.928824	-0.135523	2.517154	-1.723310	2.976820	0.051955	22.611380	-0.771549	0.000000	4.352531	-3.390941	-10.223764	12.054992	0.210399	28.290384	15.227329	0.000000	-0.130210	0.453302	-1.169488	-0.241813	0.602892	-1.242581	-0.213922	1.102159	-1.242581	-0.148817	1.102159	-1.023302	-0.120913	0.924374	-0.950209	-0.074402	0.702165	-0.877116	-0.930076	5.127844	-6.504340	0.000000	0.000000	17.112003	0.074194	6.068286	15.595346	-3.808286	72.680037	32.295914	78.070787	-2.588575	4.492157	14.016779	-3.205141	61.777344	33.099100	86.001302	-7.190410	1.359651
0.404255	-2.439279	-5.691146	77.602330	0.236168	0.405891	0.928486	0.047270	2.138905	-1.601015	3.145920	0.054907	22.633394	-0.476297	0.000000	4.342851	-3.033053	-10.530454	11.970286	0.208921	28.085343	15.071828	0.000000	-0.118936	0.398484	-1.103766	-0.220876	0.529984	-1.172751	-0.195400	0.968874	-1.172751	-0.135932	0.968874	-0.965795	-0.110444	0.812589	-0.896810	-0.067960	0.617252	-0.827824	-0.849547	4.507732	-6.138815	0.000000	0.000000	16.629914	0.380306	5.554146	15.059433	-3.883262	69.665786	35.803151	76.239174	-3.162492	6.601129	14.442732	-3.308609	61.885115	33.307986	86.595374	-8.268237	0.608577
0.425532	-2.870990	-5.703598	77.041588	0.237000	0.406785	0.928233	0.310412	1.669676	-1.777300	3.438176	0.060007	22.660735	0.230923	0.000000	4.370870	-2.607128	-10.809568	11.891140	0.207540	27.759314	14.810430	0.000000	-0.105837	0.337677	-1.039175	-0.196549	0.449111	-1.104123	-0.173879	0.821028	-1.104123	-0.120961	0.821028	-0.909278	-0.098280	0.688591	-0.844330	-0.060475	0.523062	-0.779381	-0.755980	3.819871	-5.779579	0.000000	0.000000	16.050246	0.671091	5.191195	14.688018	-3.898762	66.674384	40.093276	75.031062	-3.283693	8.759177	14.886267	-3.523835	61.833947	33.967527	87.099658	-9.060582	-0.363860
0.446809	-3.369090	-5.751332	76.394845	0.237896	0.407749	0.928080	0.676148	1.131164	-2.179490	3.841903	0.067054	22.690940	1.266451	0.000000	4.460038	-2.132250	-11.076535	11.820227	0.206302	27.314889	14.450037	0.000000	-0.089914	0.273036	-0.980730	-0.166978	0.363138	-1.042026	-0.147719	0.663860	-1.042026	-0.102762	0.663860	-0.858139	-0.083494	0.556775	-0.796843	-0.051377	0.422933	-0.735548	-0.642243	3.088640	-5.454527	0.000000	0.000000	15.410858	0.982763	5.035929	14.523549	-3.814335	63.923890	45.083548	74.365068	-2.950429	10.920932	15.213529	-3.852589	61.340687	35.273946	87.966793	-9.227456	-1.358797
0.468085	-3.911991	-5.844923	75.697940	0.238806	0.408743	0.928031	1.142587	0.547876	-2.876154	4.335164	0.075663	22.746269	2.702467	0.000000	4.628170	-1.639000	-11.346667	11.773850	0.205492	26.781656	14.048477	0.000000	-0.071845	0.207597	-0.936383	-0.133423	0.276105	-0.994907	-0.118034	0.504752	-0.994907	-0.082112	0.504752	-0.819335	-0.066715	0.423333	-0.760811	-0.041052	0.321568	-0.702287	-0.513182	2.348384	-5.207881	0.000000	0.000000	14.751639	1.344175	5.125041	14.566083	-3.606790	61.531059	50.705164	73.993569	-2.196471	13.068450	15.394962	-4.299672	60.498071	37.346143	88.724676	-8.664665	-2.188109
0.489362	-4.480957	-5.986077	74.974973	0.239709	0.409725	0.928127	1.710055	-0.055925	-3.808360	4.913274	0.085753	22.837506	4.435088	0.000000	4.883022	-1.152071	-11.643492	11.765739	0.205351	26.191302	13.649360	0.000000	-0.053702	0.143589	-0.906276	-0.099730	0.190974	-0.962918	-0.088227	0.349123	-0.962918	-0.061376	0.349123	-0.792992	-0.049868	0.292808	-0.736349	-0.030685	0.222420	-0.679707	-0.383587	1.624312	-5.040436	0.000000	0.000000	14.130168	1.725101	5.432005	14.793837	-3.255051	59.582256	56.878373	73.760494	-1.088052	15.171135	15.436263	-4.869146	59.406465	40.268803	89.292001	-7.540612	-2.779400
0.510638	-5.061417	-6.155547	74.273159	0.240600	0.410666	0.928314	2.301201	-0.645383	-4.562897	5.462307	0.095335	22.848787	5.865157	0.000000	5.212056	-0.687157	-11.984961	11.816625	0.206239	25.587362	13.320102	0.000000	-0.037925	0.081369	-0.889826	-0.070430	0.108221	-0.945440	-0.062307	0.197842	-0.945440	-0.043344	0.197842	-0.778598	-0.035217	0.165928	-0.722984	-0.021670	0.126041	-0.667370	-0.270893	0.920467	-4.948946	0.000000	0.000000	13.551505	2.125451	5.896478	15.141791	-2.744677	58.056422	63.500205	73.605836	0.301205	17.174705	15.360266	-5.546483	58.171964	44.081576	89.491198	-5.984852	-3.034691
0.531915	-5.637202	-6.359757	73.619144	0.241408	0.411541	0.928658	2.941931	-1.217629	-5.411878	6.027051	0.105192	22.885197	7.349887	0.000000	5.620268	-0.252847	-12.326803	11.913970	0.207938	24.983229	13.023832	0.000000	-0.025365	0.023818	-0.888094	-0.047106	0.031678	-0.943600	-0.041673	0.057911	-0.943600	-0.028990	0.057911	-0.777082	-0.023554	0.048570	-0.721577	-0.014494	0.036894	-0.666071	-0.181183	0.269435	-4.939314	0.000000	0.000000	13.014905	2.474343	6.507098	15.619408	-2.041837	57.088115	70.393001	73.568439	1.799138	18.970872	15.176472	-6.283516	56.886568	48.771620	89.116050	-4.153302	-2.903582
0.553191	-6.201416	-6.580318	73.025936	0.242129	0.412342	0.929097	3.589811	-1.767836	-6.298434	6.569966	0.114668	22.930000	8.815344	0.000000	6.083648	0.145589	-12.705236	12.062076	0.210523	24.420781	12.826095	0.000000	-0.017735	-0.029071	-0.895899	-0.032936	-0.038665	-0.951893	-0.029137	-0.070684	-0.951893	-0.020269	-0.070684	-0.783912	-0.016469	-0.059282	-0.727918	-0.010134	-0.045031	-0.671925	-0.126680	-0.328859	-4.982723	0.000000	0.000000	12.538540	2.742019	7.194030	16.185068	-1.145160	56.637489	77.418452	73.641305	3.214407	20.545600	14.908930	-7.026097	55.717441	54.223831	88.112686	-2.209836	-2.528241
0.574468	-6.730313	-6.816893	72.513088	0.242716	0.413065	0.929651	4.235350	-2.271735	-7.174029	7.081599	0.123597	22.956472	10.187514	0.000000	6.597323	0.491771	-13.081611	12.254217	0.213876	23.912547	12.702935	0.000000	-0.015511	-0.074320	-0.915714	-0.028806	-0.098846	-0.972947	-0.025483	-0.180702	-0.972947	-0.017728	-0.180702	-0.801250	-0.014404	-0.151554	-0.744018	-0.008863	-0.115122	-0.686786	-0.110794	-0.840726	-5.092929	0.000000	0.000000	12.107142	2.873146	7.954631	16.857646	-0.046248	56.834846	84.300462	73.671798	4.449038	21.711835	14.601772	-7.743473	54.758407	60.293492	86.445332	-0.264558	-1.997638
0.595745	-7.193486	-7.089692	72.053042	0.243134	0.413663	0.930274	4.888556	-2.699642	-7.984747	7.556526	0.131886	22.938518	11.431314	0.000000	7.160411	0.756252	-13.477364	12.481858	0.217850	23.487995	12.656888	0.000000	-0.016231	-0.106068	-0.945861	-0.030142	-0.141070	-1.004977	-0.026665	-0.257894	-1.004977	-0.018550	-0.257894	-0.827628	-0.015072	-0.216294	-0.768512	-0.009274	-0.164299	-0.709395	-0.115934	-1.199863	-5.260593	0.000000	0.000000	11.778284	2.770841	8.819550	17.708478	1.214014	58.096599	90.750438	73.876865	5.216668	22.374647	14.233725	-8.411949	53.973901	66.829481	84.382449	1.567362	-1.398666
0.617021	-7.551056	-7.389804	71.660695	0.243307	0.414132	0.930921	5.521552	-3.017055	-8.688877	7.976316	0.139213	22.873697	12.494552	0.000000	7.750478	0.912283	-13.858096	12.747875	0.222492	23.171676	12.656711	0.000000	-0.020613	-0.120590	-0.983204	-0.038280	-0.160385	-1.044654	-0.033865	-0.293204	-1.044654	-0.023559	-0.293204	-0.860303	-0.019141	-0.245908	-0.798853	-0.011778	-0.186795	-0.737403	-0.147236	-1.364143	-5.468285	0.000000	0.000000	11.516605	2.483669	9.777803	18.761562	2.539829	60.412677	96.455464	74.146605	5.625354	22.513187	13.880392	-8.995337	53.435608	73.609561	81.972070	3.282213	-0.686888
0.638298	-7.784786	-7.716054	71.336623	0.243206	0.414480	0.931547	6.124907	-3.210554	-9.278506	8.337635	0.145519	22.771036	13.391848	0.000000	8.346271	0.951704	-14.191089	13.036150	0.227524	22.959949	12.673070	0.000000	-0.027656	-0.116250	-1.034929	-0.051361	-0.154613	-1.099612	-0.045437	-0.282650	-1.099612	-0.031608	-0.282650	-0.905563	-0.025682	-0.237057	-0.840880	-0.015803	-0.180071	-0.776197	-0.197547	-1.315043	-5.755966	0.000000	0.000000	11.289654	2.087992	10.928375	20.063792	3.864433	63.712908	101.130722	74.441444	5.718980	22.205242	13.550705	-9.476613	52.983452	80.448854	79.278091	4.955627	0.269549
0.659574	-7.906506	-8.060592	71.086453	0.242886	0.414713	0.932098	6.681136	-3.286837	-9.712209	8.621364	0.150471	22.637054	14.067457	0.000000	8.929276	0.890620	-14.475859	13.335440	0.232747	22.848768	12.706381	0.000000	-0.034886	-0.097903	-1.094556	-0.064787	-0.130210	-1.162966	-0.057314	-0.238040	-1.162966	-0.039871	-0.238040	-0.957737	-0.032395	-0.199643	-0.889327	-0.019934	-0.151651	-0.820917	-0.249188	-1.107494	-6.087593	0.000000	0.000000	11.070956	1.650034	12.136566	21.414205	5.069069	67.084367	104.778001	74.976122	5.794005	21.873096	13.315520	-9.818165	52.611482	87.123644	76.172727	6.592705	1.610152
0.680851	-7.974806	-8.386449	70.898616	0.242586	0.414867	0.932560	7.156343	-3.296711	-9.899025	8.807424	0.153719	22.478373	14.427585	0.000000	9.453672	0.788383	-14.740361	13.611055	0.237558	22.798730	12.779505	0.000000	-0.040839	-0.079976	-1.141645	-0.075842	-0.106369	-1.212998	-0.067095	-0.194454	-1.212998	-0.046675	-0.194454	-0.998939	-0.037923	-0.163088	-0.927586	-0.023335	-0.123883	-0.856234	-0.291710	-0.904708	-6.349486	0.000000	0.000000	10.820737	1.334402	13.121972	22.499647	6.149675	69.728161	107.505999	75.782874	5.990819	21.915155	13.346019	-10.002302	52.538158	93.372466	72.464165	8.120772	3.282001
0.702128	-8.041307	-8.674250	70.810945	0.242330	0.414989	0.932952	7.545753	-3.304443	-9.992774	8.912111	0.155546	22.350011	14.645046	0.000000	9.913428	0.706230	-14.941267	13.857197	0.241854	22.768765	12.887848	0.000000	-0.042896	-0.069705	-1.194533	-0.079661	-0.092708	-1.269191	-0.070473	-0.169481	-1.269191	-0.049025	-0.169481	-1.045216	-0.039833	-0.142143	-0.970558	-0.024511	-0.107973	-0.895900	-0.306399	-0.788518	-6.643633	0.000000	0.000000	10.492893	1.146439	13.992138	23.336539	7.090404	72.186533	109.673014	70.456344	4.366250	21.768872	13.605758	-10.063880	52.832752	99.022659	68.458195	9.275868	5.185406
0.723404	-8.122938	-8.888600	70.771318	0.242274	0.415118	0.933334	7.826530	-3.323349	-9.867935	8.928340	0.155829	22.231165	14.615267	0.000000	10.273036	0.659285	-15.148586	14.066452	0.245506	22.742221	13.036980	0.000000	-0.043450	-0.073277	-1.221778	-0.080691	-0.097459	-1.298139	-0.071384	-0.178167	-1.298139	-0.049659	-0.178167	-1.069056	-0.040348	-0.149427	-0.992695	-0.024827	-0.113507	-0.916334	-0.310358	-0.828928	-6.795163	0.000000	0.000000	10.057461	1.181677	14.488918	23.851999	7.848222	73.999119	111.295933	65.928415	2.595301	21.932068	14.254347	-9.927827	53.744729	103.811392	64.096834	10.078857	7.137493
0.744681	-8.211588	-9.027740	70.771335	0.242370	0.415267	0.933722	8.001077	-3.352793	-9.566276	8.865107	0.154725	22.113369	14.392446	0.000000	10.530036	0.645785	-15.358449	14.235534	0.248457	22.713897	13.213092	0.000000	-0.043396	-0.087378	-1.214442	-0.080591	-0.116212	-1.290345	-0.071295	-0.212450	-1.290345	-0.049597	-0.212450	-1.062637	-0.040298	-0.178180	-0.986735	-0.024796	-0.135348	-0.910832	-0.309974	-0.988433	-6.754365	0.000000	0.000000	9.506703	1.352659	14.614993	24.034901	8.429055	75.014197	112.601935	62.879057	1.209688	22.288354	15.304564	-9.556998	55.302413	107.612027	59.568280	10.477194	9.000199
0.765957	-8.303875	-9.090941	70.800435	0.242598	0.415457	0.934075	8.069086	-3.392508	-9.084253	8.732223	0.152406	21.979395	13.951947	0.000000	10.680745	0.666847	-15.566829	14.361139	0.250649	22.684315	13.409663	0.000000	-0.043977	-0.109419	-1.165999	-0.081670	-0.145527	-1.238873	-0.072250	-0.266041	-1.238873	-0.050262	-0.266041	-1.020249	-0.040837	-0.223127	-0.947374	-0.025129	-0.169490	-0.874499	-0.314126	-1.237769	-6.484934	0.000000	0.000000	8.865115	1.573946	14.352090	23.946124	8.860967	75.368677	113.733533	61.059998	0.184514	22.575609	16.746063	-8.957357	57.453120	110.412249	55.069027	10.323182	10.604521
0.787234	-8.389943	-9.085172	70.840609	0.242876	0.415719	0.934381	8.046217	-3.442978	-8.495339	8.556419	0.149338	21.820612	13.390912	0.000000	10.730270	0.718591	-15.754919	14.441343	0.252049	22.655842	13.593594	0.000000	-0.045872	-0.134991	-1.074838	-0.085189	-0.179537	-1.142016	-0.075363	-0.328216	-1.142016	-0.052427	-0.328216	-0.940483	-0.042597	-0.275273	-0.873306	-0.026211	-0.209100	-0.806129	-0.327658	-1.527040	-5.977928	0.000000	0.000000	8.137920	1.795425	13.757133	23.759025	9.152939	75.291069	114.721312	59.613968	-0.659287	22.763621	18.541398	-8.121732	60.051266	112.131011	50.881094	10.069414	11.777859
0.808511	-8.481682	-9.029983	70.901558	0.243181	0.416043	0.934628	7.953529	-3.509433	-7.836043	8.339518	0.145552	21.626841	12.715956	0.000000	10.706366	0.805722	-15.915680	14.479744	0.252719	22.621959	13.775901	0.000000	-0.046677	-0.163164	-0.943932	-0.086683	-0.217008	-1.002927	-0.076685	-0.396717	-1.002927	-0.053347	-0.396717	-0.825940	-0.043344	-0.332724	-0.766944	-0.026671	-0.252741	-0.707949	-0.333407	-1.845743	-5.249864	0.000000	0.000000	7.307239	2.012280	12.886708	23.589482	9.335069	74.866166	115.522479	58.718017	-1.073515	22.955238	20.719147	-7.174852	63.020213	112.992468	47.153535	9.481993	12.345623
0.829787	-8.558850	-8.931945	70.971399	0.243400	0.416439	0.934826	7.811636	-3.585924	-7.243118	8.120186	0.141724	21.426067	12.115362	0.000000	10.615106	0.911973	-16.040294	14.479682	0.252718	22.583866	13.924754	0.000000	-0.049174	-0.189069	-0.783828	-0.091320	-0.251462	-0.832818	-0.080787	-0.459704	-0.832818	-0.056201	-0.459704	-0.685850	-0.045663	-0.385550	-0.636861	-0.028098	-0.292869	-0.587871	-0.351243	-2.138792	-4.359419	0.000000	0.000000	6.398913	2.246412	11.856997	23.639820	9.355915	74.286873	116.159274	58.064891	-1.149747	23.126425	23.048270	-6.124962	65.866557	113.156058	44.147293	9.457769	12.793682
0.851064	-8.618700	-8.801791	71.034250	0.243546	0.416873	0.934991	7.633252	-3.660320	-6.701752	7.898053	0.137847	21.214610	11.560788	0.000000	10.474191	1.021379	-16.158858	14.459521	0.252366	22.545194	14.064404	0.000000	-0.054507	-0.212986	-0.596641	-0.101225	-0.283272	-0.633931	-0.089550	-0.517855	-0.633931	-0.062296	-0.517855	-0.522061	-0.050615	-0.434322	-0.484771	-0.031145	-0.329916	-0.447481	-0.389339	-2.409343	-3.318337	0.000000	0.000000	5.460633	2.567314	10.624734	23.970886	9.183336	73.635603	116.650859	57.068264	-0.885978	23.215276	25.444563	-5.001033	68.346723	112.877883	41.960477	10.326965	13.257932
0.872340	-8.665593	-8.662702	71.085755	0.243584	0.417292	0.935109	7.456277	-3.736012	-6.265915	7.705669	0.134489	21.020465	11.111286	0.000000	10.306982	1.132611	-16.253308	14.414997	0.251589	22.491592	14.170016	0.000000	-0.060726	-0.233515	-0.395788	-0.112773	-0.310575	-0.420525	-0.099766	-0.567769	-0.420525	-0.069403	-0.567769	-0.346315	-0.056390	-0.476184	-0.321578	-0.034699	-0.361715	-0.296841	-0.433757	-2.641571	-2.201256	0.000000	0.000000	4.505456	2.988090	9.337103	24.575101	8.859586	72.957218	117.093388	55.954545	-0.489266	23.376241	27.760218	-3.819982	70.344592	112.349490	40.309793	12.080698	14.016160
0.893617	-8.695438	-8.517751	71.136287	0.243493	0.417672	0.935183	7.288019	-3.811188	-5.966457	7.559222	0.131933	20.853289	10.787387	0.000000	10.125235	1.237491	-16.321776	14.367210	0.250755	22.427239	14.248154	0.000000	-0.068956	-0.249688	-0.189535	-0.128058	-0.332086	-0.201381	-0.113288	-0.607092	-0.201381	-0.078810	-0.607092	-0.165843	-0.064033	-0.509165	-0.153997	-0.039402	-0.386767	-0.142151	-0.492547	-2.824526	-1.054135	0.000000	0.000000	3.574741	3.476865	8.051757	25.348892	8.454137	72.236393	117.565161	55.080491	0.060537	23.640570	29.925729	-2.637585	71.937955	111.723395	38.894463	14.366444	15.038134
0.914894	-8.730451	-8.376195	71.199967	0.243300	0.417982	0.935217	7.144381	-3.899660	-5.773706	7.461608	0.130230	20.716215	10.521888	0.000000	9.940747	1.354159	-16.359958	14.302820	0.249631	22.328899	14.311719	0.000000	-0.076664	-0.263959	0.015456	-0.142372	-0.351065	0.016422	-0.125951	-0.641790	0.016422	-0.087619	-0.641790	0.013524	-0.071190	-0.538265	0.012558	-0.043806	-0.408872	0.011592	-0.547601	-2.985956	0.085963	0.000000	0.000000	2.666798	3.954628	6.776804	26.202076	8.057365	71.498889	118.110047	54.150168	0.537874	24.013419	31.844432	-1.515106	73.193223	111.138290	37.577649	16.885858	16.356780
0.936170	-8.765981	-8.230306	71.279325	0.243034	0.418233	0.935216	7.014325	-4.000571	-5.733478	7.411303	0.129352	20.622390	10.384868	0.000000	9.750099	1.475013	-16.386235	14.233268	0.248417	22.203673	14.373430	0.000000	-0.085605	-0.275423	0.212771	-0.158977	-0.366312	0.226069	-0.140640	-0.669663	0.226069	-0.097838	-0.669663	0.186174	-0.079493	-0.561642	0.172876	-0.048915	-0.426630	0.159578	-0.611467	-3.115636	1.183366	0.000000	0.000000	1.787023	4.335814	5.567917	27.038648	7.780340	70.715481	118.740018	53.676312	1.038449	24.474741	33.406146	-0.497964	74.120128	110.696688	36.531425	19.458735	17.825348
0.957447	-8.804663	-8.084404	71.383268	0.242721	0.418427	0.935143	6.901933	-4.115862	-5.858562	7.421736	0.129534	20.581294	10.384662	0.000000	9.555576	1.600458	-16.402806	14.154211	0.247038	22.057341	14.440509	0.000000	-0.095236	-0.283810	0.391626	-0.176862	-0.377467	0.416103	-0.156463	-0.690056	0.416103	-0.108845	-0.690056	0.342673	-0.088436	-0.578746	0.318196	-0.054418	-0.439622	0.293720	-0.680260	-3.210516	2.178106	0.000000	0.000000	0.949143	4.546585	4.481530	27.776295	7.719718	69.908802	119.443072	53.730352	1.478520	25.040103	34.470722	0.380762	74.684712	110.462043	35.889185	21.941441	19.375719
0.978723	-8.853934	-7.940734	71.532748	0.242401	0.418580	0.934943	6.795097	-4.252262	-6.203582	7.484957	0.130637	20.592901	10.560325	0.000000	9.362567	1.736118	-16.380790	14.069972	0.245567	21.899191	14.510170	0.000000	-0.104395	-0.290687	0.540713	-0.193871	-0.386613	0.574508	-0.171510	-0.706776	0.574508	-0.119313	-0.706776	0.473124	-0.096941	-0.592768	0.439330	-0.059651	-0.450274	0.405535	-0.745681	-3.288306	3.007285	0.000000	0.000000	0.156833	4.571815	3.538534	28.341703	7.927984	69.109832	120.181553	54.385038	1.793645	25.626475	35.006796	1.054165	74.945049	110.438743	35.873772	24.164304	20.714281
1.000000	-8.911473	-7.796709	71.715039	0.242090	0.418719	0.934559	6.697849	-4.405555	-6.696603	7.626133	0.133101	20.663052	10.830556	0.000000	9.159109	1.880740	-16.337250	13.966382	0.243759	21.736777	14.594327	0.000000	-0.113048	-0.295380	0.659728	-0.209942	-0.392855	0.700961	-0.185727	-0.718186	0.700961	-0.129203	-0.718186	0.577262	-0.104977	-0.602338	0.536029	-0.064596	-0.457543	0.494796	-0.807493	-3.341393	3.669209	0.000000	0.000000	-0.601856	4.392580	2.784413	28.649635	8.401903	68.299858	120.883725	55.404581	2.119743	26.232605	35.002648	1.507715	74.891659	110.577669	36.477315	26.204867	21.935938
1.021277	-8.970059	-7.670735	71.976457	0.241711	0.418841	0.933978	6.610024	-4.568962	-7.416005	7.826134	0.136592	20.792431	11.261273	0.000000	8.969812	2.027989	-16.233656	13.852694	0.241775	21.579887	14.693816	0.000000	-0.119209	-0.297333	0.735430	-0.221383	-0.395453	0.781395	-0.195848	-0.722936	0.781395	-0.136244	-0.722936	0.643501	-0.110697	-0.606322	0.597537	-0.068116	-0.460569	0.551573	-0.851497	-3.363491	4.090242	0.000000	0.000000	-1.304566	4.050908	2.234212	28.724089	9.059765	67.530468	121.496131	57.011519	2.400353	26.773574	34.530673	1.714693	74.570079	110.850469	37.907767	27.960011	22.871595
1.042553	-9.015741	-7.552799	72.310385	0.241258	0.418952	0.933230	6.523198	-4.729619	-8.297678	8.084187	0.141096	20.986681	11.790064	0.000000	8.787372	2.167318	-16.073950	13.741045	0.239826	21.442531	14.792560	0.000000	-0.125046	-0.297510	0.770377	-0.232223	-0.395689	0.818526	-0.205438	-0.723367	0.818526	-0.142915	-0.723367	0.674080	-0.116118	-0.606683	0.625931	-0.071451	-0.460844	0.577783	-0.893192	-3.365496	4.284606	0.000000	0.000000	-1.947130	3.702440	1.868016	28.614321	9.785030	66.845087	121.976553	58.959490	2.624443	27.162139	33.733580	1.695033	74.075186	111.197633	39.792148	29.517756	23.535475
1.063830	-9.042989	-7.451663	72.709214	0.240722	0.419034	0.932315	6.444395	-4.878123	-9.307819	8.391212	0.146454	21.243936	12.391990	0.000000	8.617149	2.291534	-15.863128	13.630314	0.237894	21.328988	14.890497	0.000000	-0.128808	-0.295464	0.763998	-0.239210	-0.392967	0.811748	-0.211619	-0.718392	0.811748	-0.147215	-0.718392	0.668498	-0.119612	-0.602511	0.620749	-0.073601	-0.457674	0.572999	-0.920066	-3.342350	4.249129	0.000000	0.000000	-2.509075	3.376575	1.711759	28.349298	10.491041	66.284880	122.313378	61.331041	2.726983	27.456331	32.713152	1.482477	73.501121	111.588969	41.912927	30.806189	23.919802
1.085106	-9.058107	-7.357604	73.143458	0.240154	0.419079	0.931253	6.365637	-5.016435	-10.349809	8.730193	0.152371	21.553048	12.985970	0.000000	8.446294	2.406628	-15.628106	13.515512	0.235890	21.242076	14.988210	0.000000	-0.130392	-0.293921	0.727615	-0.242150	-0.390915	0.773091	-0.214220	-0.714640	0.773091	-0.149025	-0.714640	0.636663	-0.121082	-0.599365	0.591187	-0.074506	-0.455284	0.545711	-0.931375	-3.324898	4.046777	0.000000	0.000000	-2.968597	3.116753	1.682130	27.934690	11.098892	65.844895	122.541323	64.275130	2.612163	27.611421	31.608474	1.118561	72.997436	111.992221	43.991427	31.632915	24.024709
1.106383	-9.055856	-7.251223	73.648049	0.239502	0.419113	0.930042	6.250076	-5.143601	-11.443549	9.072803	0.158350	21.906426	13.563516	0.000000	8.259735	2.515799	-15.336124	13.406676	0.233991	21.188223	15.080266	0.000000	-0.131222	-0.293545	0.656615	-0.243693	-0.390415	0.697653	-0.215585	-0.713725	0.697653	-0.149974	-0.713725	0.574538	-0.121853	-0.598597	0.533500	-0.074980	-0.454701	0.492461	-0.937307	-3.320638	3.651896	0.000000	0.000000	-3.335567	2.949939	1.779572	27.432598	11.576107	65.531637	122.695681	67.446054	2.269077	27.613164	30.560802	0.642224	72.687664	112.350677	45.773007	31.944716	23.770171
1.127660	-9.050202	-7.157596	74.192691	0.238760	0.419111	0.928684	6.130369	-5.270282	-12.543074	9.403768	0.164127	22.286271	14.119134	0.000000	8.086342	2.627327	-15.025081	13.304782	0.232212	21.162352	15.185574	0.000000	-0.126139	-0.293939	0.554198	-0.234253	-0.390938	0.588835	-0.207234	-0.714682	0.588835	-0.144165	-0.714682	0.484923	-0.117133	-0.599400	0.450286	-0.072076	-0.455311	0.415648	-0.901001	-3.325092	3.082281	0.000000	0.000000	-3.650509	2.821043	2.053468	26.969876	11.907076	65.411527	122.827196	71.551505	1.603792	27.418998	29.649491	0.077580	72.596919	112.725862	47.578426	31.426836	23.089135
1.148936	-9.035913	-7.035251	74.776776	0.237977	0.419137	0.927232	5.956357	-5.390580	-13.612737	9.698649	0.169273	22.671768	14.610333	0.000000	7.882806	2.741508	-14.688441	13.206787	0.230502	21.160469	15.291560	0.000000	-0.121535	-0.297077	0.438434	-0.225703	-0.395113	0.465836	-0.199670	-0.722313	0.465836	-0.138903	-0.722313	0.383629	-0.112858	-0.605800	0.356227	-0.069445	-0.460173	0.328825	-0.868115	-3.360596	2.438436	0.000000	0.000000	-3.946794	2.760812	2.345174	26.617441	12.111405	65.376516	122.928110	75.153027	0.905695	27.156556	29.059840	-0.472834	72.778046	112.994039	49.009847	30.657958	22.183835
1.170213	-8.991228	-6.904908	75.402857	0.237055	0.419184	0.925668	5.742589	-5.487632	-14.658165	9.951152	0.173680	23.055218	15.050117	0.000000	7.671912	2.839129	-14.322913	13.125872	0.229090	21.202911	15.396589	0.000000	-0.116309	-0.297708	0.306620	-0.215998	-0.395951	0.325784	-0.191085	-0.723846	0.325784	-0.132930	-0.723846	0.268293	-0.108005	-0.607085	0.249129	-0.066459	-0.461149	0.229965	-0.830786	-3.367729	1.705331	0.000000	0.000000	-4.220509	2.647344	2.614408	26.498421	12.198317	65.501180	123.007789	78.144132	0.176191	26.742724	28.811009	-0.966335	73.141066	113.197779	50.270064	29.576226	21.203058
1.191489	-8.931524	-6.757806	76.079443	0.236010	0.419310	0.923961	5.467568	-5.570984	-15.662724	10.134884	0.176887	23.415444	15.406423	0.000000	7.441836	2.939925	-13.889110	13.052641	0.227812	21.270934	15.482109	0.000000	-0.111394	-0.296416	0.157498	-0.206870	-0.394233	0.167342	-0.183009	-0.720706	0.167342	-0.127312	-0.720706	0.137811	-0.103440	-0.604451	0.127967	-0.063651	-0.459148	0.118123	-0.795676	-3.353117	0.875956	0.000000	0.000000	-4.550477	2.462597	2.927059	26.674280	12.201441	65.861608	123.032218	80.093516	-0.707543	26.042783	28.868091	-1.385710	73.602839	113.311902	51.215128	28.517050	20.321196
1.212766	-8.854202	-6.612256	76.782835	0.234807	0.419515	0.922180	5.160777	-5.639726	-16.658373	10.257735	0.179031	23.754340	15.767306	0.000000	7.215203	3.035765	-13.413500	12.991453	0.226744	21.358905	15.556206	0.000000	-0.105184	-0.291191	-0.006217	-0.195337	-0.387284	-0.006605	-0.172806	-0.708002	-0.006605	-0.120215	-0.708002	-0.005440	-0.097674	-0.593797	-0.005051	-0.060102	-0.451055	-0.004663	-0.751317	-3.294011	-0.034576	0.000000	0.000000	-4.987713	2.224025	3.336615	27.204643	12.102533	66.544171	123.035656	80.825477	-2.123621	25.178088	29.294669	-1.680853	74.116394	113.238554	51.844870	28.064997	19.491579
1.234043	-8.782173	-6.474451	77.477895	0.233540	0.419776	0.920392	4.838006	-5.703097	-17.540097	10.308459	0.179917	24.055816	16.027348	0.000000	7.002359	3.138646	-12.939192	12.940175	0.225849	21.445394	15.627515	0.000000	-0.096868	-0.285429	-0.174627	-0.179894	-0.379621	-0.185541	-0.159144	-0.693992	-0.185541	-0.110710	-0.693992	-0.152798	-0.089952	-0.582047	-0.141884	-0.055350	-0.442129	-0.130970	-0.691918	-3.228829	-0.971221	0.000000	0.000000	-5.546278	2.006085	3.828037	28.017756	11.896795	67.428040	122.996990	80.691288	-3.748701	24.352480	30.148378	-1.888306	74.694052	113.056536	52.175943	28.198704	18.655083
1.255319	-8.698104	-6.334987	78.122917	0.232210	0.420107	0.918681	4.502115	-5.753893	-18.362806	10.303615	0.179832	24.327047	16.319289	0.000000	6.789426	3.233355	-12.479973	12.898718	0.225125	21.519166	15.657175	0.000000	-0.090552	-0.277153	-0.341621	-0.168163	-0.368613	-0.362972	-0.148767	-0.673869	-0.362972	-0.103491	-0.673869	-0.298918	-0.084086	-0.565170	-0.277567	-0.051741	-0.429310	-0.256215	-0.646801	-3.135208	-1.899991	0.000000	0.000000	-6.200922	1.858693	4.412415	29.118062	11.556784	68.453317	122.919955	79.559705	-5.363618	23.590179	31.290834	-2.009015	75.185901	112.742715	52.418561	29.334226	17.889245
1.276596	-8.624525	-6.201832	78.700285	0.230937	0.420458	0.917135	4.166594	-5.796170	-19.028634	10.230583	0.178557	24.537894	16.507506	0.000000	6.596872	3.325555	-12.063259	12.881351	0.224822	21.573014	15.669354	0.000000	-0.085441	-0.271417	-0.490512	-0.158673	-0.360985	-0.521169	-0.140371	-0.659924	-0.521169	-0.097651	-0.659924	-0.429198	-0.079341	-0.553474	-0.398541	-0.048821	-0.420425	-0.367884	-0.610297	-3.070327	-2.728082	0.000000	0.000000	-6.896282	1.856331	4.931367	30.364847	11.115791	69.404343	122.821463	77.885153	-6.643253	22.913296	32.771492	-2.074482	75.976518	112.547416	52.454014	29.728680	16.777643
1.297872	-8.582790	-6.077275	79.197650	0.229756	0.420822	0.915790	3.851852	-5.856620	-19.585632	10.117819	0.176589	24.694259	16.660650	0.000000	6.425709	3.436346	-11.690145	12.870651	0.224635	21.578905	15.643326	0.000000	-0.080851	-0.270929	-0.617334	-0.150149	-0.360335	-0.655918	-0.132830	-0.658736	-0.655918	-0.092405	-0.658736	-0.540167	-0.075078	-0.552478	-0.501584	-0.046198	-0.419669	-0.463001	-0.577512	-3.064801	-3.433428	0.000000	0.000000	-7.610068	2.046396	5.408890	31.624575	10.639185	70.098396	122.759641	76.757395	-7.431144	22.384826	34.397676	-2.033656	77.105361	112.506740	52.243064	28.723904	15.393904
1.319149	-8.578513	-5.956728	79.608875	0.228721	0.421187	0.914681	3.557497	-5.937029	-19.995720	9.968602	0.173985	24.773574	16.725156	0.000000	6.275420	3.566375	-11.380660	12.870055	0.224625	21.541922	15.600716	0.000000	-0.077344	-0.278032	-0.712366	-0.143636	-0.369782	-0.756888	-0.127069	-0.676006	-0.756888	-0.088397	-0.676006	-0.623320	-0.071822	-0.566962	-0.578797	-0.044194	-0.430671	-0.534274	-0.552461	-3.145149	-3.961963	0.000000	0.000000	-8.295760	2.441468	5.751155	32.742318	10.163712	70.414545	122.733937	75.932920	-7.589516	22.074904	36.101283	-1.880780	78.674562	112.621944	51.854749	25.883260	13.572773
1.340426	-8.618667	-5.848118	79.931735	0.227849	0.421503	0.913788	3.295182	-6.041068	-20.239350	9.790730	0.170880	24.774892	16.663500	0.000000	6.150457	3.721418	-11.134768	12.864460	0.224527	21.464176	15.543626	0.000000	-0.072339	-0.293156	-0.774468	-0.134340	-0.389898	-0.822872	-0.118845	-0.712780	-0.822872	-0.082676	-0.712780	-0.677660	-0.067174	-0.597804	-0.629255	-0.041334	-0.454099	-0.580851	-0.516707	-3.316241	-4.307359	0.000000	0.000000	-8.948832	2.993932	5.967589	33.647561	9.716448	70.382415	122.731483	74.451822	-7.354845	22.160328	37.784920	-1.672642	80.627716	112.906114	51.415004	21.288124	11.460158
1.361702	-8.673294	-5.747351	80.172349	0.227121	0.421753	0.913076	3.056082	-6.148445	-20.382436	9.603222	0.167608	24.704795	16.563079	0.000000	6.043551	3.872699	-10.937403	12.868308	0.224594	21.383508	15.469204	0.000000	-0.067868	-0.311634	-0.808688	-0.126037	-0.414473	-0.859231	-0.111500	-0.757707	-0.859231	-0.077566	-0.757707	-0.707602	-0.063022	-0.635484	-0.657059	-0.038780	-0.482721	-0.606516	-0.484772	-3.525268	-4.497680	0.000000	0.000000	-9.542436	3.634765	6.117695	34.297152	9.316993	70.075267	122.739383	72.295142	-6.612110	22.641743	39.314905	-1.521364	82.714770	113.333638	51.326508	15.648729	9.140789
1.382979	-8.735923	-5.665917	80.343873	0.226511	0.421906	0.912444	2.844696	-6.252245	-20.440848	9.413451	0.164296	24.572951	16.410990	0.000000	5.954433	4.018136	-10.765178	12.866868	0.224569	21.313124	15.365888	0.000000	-0.061950	-0.330515	-0.823498	-0.115047	-0.439585	-0.874967	-0.101777	-0.803615	-0.874967	-0.070802	-0.803615	-0.720561	-0.057527	-0.673987	-0.669092	-0.035398	-0.511968	-0.617624	-0.442501	-3.738854	-4.580051	0.000000	0.000000	-10.063102	4.267519	6.265520	34.694344	8.984244	69.673828	122.711946	69.182819	-5.402471	23.380014	40.480967	-1.460988	84.568746	113.811107	51.588591	10.052397	7.039424
1.404255	-8.794185	-5.615795	80.454219	0.226005	0.421946	0.911815	2.666275	-6.338704	-20.435767	9.223732	0.160984	24.396366	16.228394	0.000000	5.885517	4.146655	-10.595365	12.851729	0.224305	21.266048	15.227318	0.000000	-0.053299	-0.346457	-0.830181	-0.098981	-0.460788	-0.882067	-0.087564	-0.842376	-0.882067	-0.060915	-0.842376	-0.726408	-0.049493	-0.706495	-0.674522	-0.030455	-0.536662	-0.622636	-0.380706	-3.919192	-4.617217	0.000000	0.000000	-10.495295	4.776197	6.458284	34.875257	8.735477	69.396897	122.610089	65.270015	-3.720331	23.948985	41.208667	-1.497381	86.015455	114.260015	52.076792	5.083616	5.309819
1.425532	-8.838673	-5.597034	80.498518	0.225580	0.421880	0.911163	2.529550	-6.397563	-20.314829	9.050301	0.157958	24.188317	15.963709	0.000000	5.833333	4.249242	-10.447082	12.822638	0.223797	21.253205	15.069338	0.000000	-0.042808	-0.356585	-0.836631	-0.079498	-0.474258	-0.888920	-0.070329	-0.867001	-0.888920	-0.048925	-0.867001	-0.732052	-0.039751	-0.727148	-0.679763	-0.024460	-0.552350	-0.627473	-0.305772	-4.033762	-4.653090	0.000000	0.000000	-10.830231	5.066983	6.755574	34.854707	8.570509	69.336083	122.422108	60.657217	-1.705004	24.230719	41.514727	-1.600715	86.970722	114.619168	52.564498	1.147221	4.130137
1.446809	-8.877538	-5.606105	80.507746	0.225233	0.421713	0.910510	2.419254	-6.437661	-20.150990	8.866875	0.154756	23.963826	15.688753	0.000000	5.798197	4.335523	-10.291141	12.781207	0.223074	21.263548	14.887885	0.000000	-0.031352	-0.364009	-0.854386	-0.058223	-0.484132	-0.907785	-0.051508	-0.885052	-0.907785	-0.035832	-0.885052	-0.747588	-0.029113	-0.742287	-0.694189	-0.017914	-0.563850	-0.640790	-0.223941	-4.117743	-4.751839	0.000000	0.000000	-11.035331	5.167831	7.072289	34.689570	8.443977	69.498789	122.178734	55.668261	0.306492	24.272649	41.499582	-1.775405	87.480987	114.889534	53.247854	-1.793021	3.287381
1.468085	-8.915078	-5.621444	80.446542	0.225037	0.421475	0.909867	2.325214	-6.463348	-19.877339	8.677473	0.151450	23.735320	15.367157	0.000000	5.749914	4.411553	-10.158415	12.713786	0.221897	21.288185	14.680405	0.000000	-0.021412	-0.372305	-0.865001	-0.039765	-0.495165	-0.919064	-0.035178	-0.905221	-0.919064	-0.024472	-0.905221	-0.756876	-0.019883	-0.759204	-0.702814	-0.012235	-0.576700	-0.648751	-0.152945	-4.211585	-4.810878	0.000000	0.000000	-11.123088	5.192933	7.241166	34.369471	8.302039	69.753015	121.936787	50.874007	2.119884	24.218877	41.310356	-1.961982	87.721920	115.047237	54.034119	-3.843374	2.578513
1.489362	-8.931735	-5.632283	80.359947	0.224878	0.421199	0.909257	2.235919	-6.464628	-19.573001	8.499410	0.148343	23.524654	15.041617	0.000000	5.689434	4.463637	-10.012728	12.649701	0.220779	21.337839	14.448818	0.000000	-0.013664	-0.377201	-0.886575	-0.025376	-0.501677	-0.941986	-0.022449	-0.917127	-0.941986	-0.015617	-0.917127	-0.775753	-0.012689	-0.769188	-0.720342	-0.007808	-0.584284	-0.664931	-0.097602	-4.266974	-4.930866	0.000000	0.000000	-11.120287	5.037661	7.430690	34.084648	8.161676	70.199463	121.610212	45.350335	3.814411	23.937720	40.838278	-2.154718	87.522792	115.106286	54.884527	-4.626465	2.386152
1.510638	-8.935175	-5.619969	80.245909	0.224801	0.420938	0.908677	2.125514	-6.446852	-19.193247	8.308775	0.145015	23.323366	14.667871	0.000000	5.592963	4.501959	-9.876548	12.575177	0.219478	21.397129	14.209571	0.000000	-0.009027	-0.383059	-0.903283	-0.016764	-0.509469	-0.959738	-0.014830	-0.931371	-0.959738	-0.010317	-0.931371	-0.790373	-0.008382	-0.781135	-0.733918	-0.005158	-0.593359	-0.677462	-0.064479	-4.333245	-5.023790	0.000000	0.000000	-11.076472	4.830815	7.491736	33.851577	7.989318	70.801650	121.309620	40.506750	4.836810	23.212981	40.278276	-2.344446	87.174448	115.105017	55.528586	-4.547511	2.450044
1.531915	-8.916391	-5.572116	80.134745	0.224749	0.420753	0.908127	1.972595	-6.405112	-18.769131	8.095035	0.141285	23.130973	14.256394	0.000000	5.450636	4.523983	-9.734044	12.493307	0.218049	21.461023	13.968339	0.000000	-0.007893	-0.389226	-0.912940	-0.014659	-0.517671	-0.969998	-0.012968	-0.946365	-0.969998	-0.009021	-0.946365	-0.798822	-0.007330	-0.793710	-0.741763	-0.004510	-0.602912	-0.684705	-0.056382	-4.403007	-5.077497	0.000000	0.000000	-11.056972	4.598129	7.434111	33.716143	7.783347	71.584929	121.046832	35.583394	4.952653	22.208791	39.748491	-2.504287	86.784899	115.001640	55.753447	-3.490572	2.592879
1.553191	-8.893671	-5.504076	80.003978	0.224777	0.420648	0.907594	1.801701	-6.351813	-18.285639	7.858351	0.137154	22.953906	13.821846	0.000000	5.278578	4.540309	-9.628487	12.397218	0.216372	21.514149	13.751791	0.000000	-0.006476	-0.398350	-0.896921	-0.012027	-0.529805	-0.952978	-0.010640	-0.968548	-0.952978	-0.007402	-0.968548	-0.784806	-0.006014	-0.812315	-0.728748	-0.003700	-0.617044	-0.672690	-0.046258	-4.506214	-4.988404	0.000000	0.000000	-11.108169	4.397455	7.170043	33.641518	7.520799	72.508239	120.859391	31.572955	4.050881	21.245545	39.358187	-2.608902	86.497938	114.803756	55.494626	-1.755421	2.564098
1.574468	-8.844445	-5.394300	79.910658	0.224759	0.420676	0.907046	1.571308	-6.275371	-17.844870	7.595881	0.132573	22.798808	13.419736	0.000000	5.057410	4.542934	-9.482032	12.298912	0.214657	21.567565	13.533121	0.000000	-0.009136	-0.405764	-0.867801	-0.016966	-0.539666	-0.922039	-0.015009	-0.986574	-0.922039	-0.010441	-0.986574	-0.759326	-0.008483	-0.827433	-0.705088	-0.005220	-0.628528	-0.650851	-0.065255	-4.590080	-4.826450	0.000000	0.000000	-11.233117	4.218306	6.841494	33.664662	7.205508	73.446672	120.767832	28.396520	2.700501	20.290808	38.974506	-2.648096	86.116102	114.429339	54.873120	0.900979	2.506072
1.595745	-8.775693	-5.264090	79.819302	0.224703	0.420822	0.906452	1.313473	-6.179928	-17.417401	7.317743	0.127719	22.672245	13.055702	0.000000	4.806724	4.532968	-9.353549	12.196014	0.212861	21.610721	13.331309	0.000000	-0.012968	-0.410845	-0.820917	-0.024083	-0.546424	-0.872224	-0.021305	-0.998929	-0.872224	-0.014821	-0.998929	-0.718302	-0.012042	-0.837796	-0.666995	-0.007410	-0.636399	-0.615688	-0.092629	-4.647564	-4.565695	0.000000	0.000000	-11.426055	4.035025	6.377282	33.711494	6.877283	74.128680	120.831209	26.947774	1.404323	19.576801	38.485501	-2.650737	85.584952	113.921454	54.635294	3.801781	2.502259
1.617021	-8.697000	-5.109570	79.768612	0.224553	0.421135	0.905792	1.014931	-6.075443	-17.048363	7.016211	0.122456	22.558257	12.736092	0.000000	4.522827	4.525654	-9.190025	12.079857	0.210833	21.620184	13.145364	0.000000	-0.019506	-0.412754	-0.772335	-0.036224	-0.548963	-0.820606	-0.032046	-1.003570	-0.820606	-0.022293	-1.003570	-0.675793	-0.018113	-0.841688	-0.627522	-0.011146	-0.639356	-0.579251	-0.139327	-4.669156	-4.295494	0.000000	0.000000	-11.719822	3.824434	5.938497	33.739466	6.589428	74.319166	121.042266	27.134625	0.464909	19.148327	37.785331	-2.642973	84.834227	113.266797	54.908411	6.864120	2.636474
1.638298	-8.604277	-4.951935	79.740801	0.224325	0.421583	0.905111	0.716966	-5.963397	-16.794026	6.725649	0.117385	22.481579	12.557300	0.000000	4.235796	4.502902	-9.074161	11.964692	0.208823	21.606602	13.063597	0.000000	-0.027843	-0.411237	-0.717150	-0.051707	-0.546945	-0.761972	-0.045743	-0.999881	-0.761972	-0.031822	-0.999881	-0.627507	-0.025855	-0.838594	-0.582685	-0.015909	-0.637006	-0.537863	-0.198879	-4.651992	-3.988576	0.000000	0.000000	-12.061233	3.614014	5.433752	33.609719	6.355286	73.751735	121.441966	29.344896	0.196966	19.205593	36.990938	-2.606187	83.993168	112.463366	55.798327	9.756144	2.651070
1.659574	-8.524959	-4.794270	79.738668	0.224070	0.422140	0.904407	0.427768	-5.863201	-16.558463	6.446806	0.112518	22.431084	12.368079	0.000000	3.950240	4.496662	-8.924736	11.839143	0.206632	21.547691	12.978733	0.000000	-0.037042	-0.410805	-0.658815	-0.068791	-0.546371	-0.699991	-0.060857	-0.998832	-0.699991	-0.042336	-0.998832	-0.576464	-0.034397	-0.837714	-0.535288	-0.021166	-0.636338	-0.494112	-0.264589	-4.647113	-3.664134	0.000000	0.000000	-12.427575	3.488772	4.838340	33.213414	6.207569	72.218347	121.949069	33.387560	1.268776	19.803978	36.097568	-2.575820	83.125608	111.597845	57.467758	12.048166	2.394665
1.680851	-8.446853	-4.639053	79.766707	0.223775	0.422770	0.903694	0.146971	-5.766378	-16.387113	6.185886	0.107964	22.403781	12.220658	0.000000	3.672237	4.490093	-8.771760	11.713265	0.204435	21.459727	12.939382	0.000000	-0.047403	-0.409561	-0.607077	-0.088033	-0.544717	-0.645020	-0.077879	-0.995808	-0.645020	-0.054177	-0.995808	-0.531193	-0.044019	-0.835178	-0.493250	-0.027086	-0.634411	-0.455308	-0.338598	-4.633040	-3.376382	0.000000	0.000000	-12.792241	3.460648	4.208178	32.611093	6.142747	69.762657	122.516054	39.337802	3.877006	20.872289	35.083537	-2.589299	82.347216	110.884593	60.136294	12.887025	1.960440
1.702128	-8.386325	-4.487895	79.823724	0.223481	0.423430	0.903002	-0.118028	-5.690695	-16.307247	5.957721	0.103982	22.399795	12.131375	0.000000	3.414845	4.495781	-8.611102	11.601135	0.202478	21.348715	12.925148	0.000000	-0.058395	-0.410180	-0.571940	-0.108446	-0.545539	-0.607686	-0.095937	-0.997312	-0.607686	-0.066740	-0.997312	-0.500447	-0.054226	-0.836439	-0.464701	-0.033367	-0.635369	-0.428955	-0.417111	-4.640038	-3.180956	0.000000	0.000000	-13.116874	3.540491	3.607864	31.739491	6.177876	66.290237	123.291317	51.674698	8.731385	22.065824	33.940537	-2.631774	81.750673	110.512217	63.762995	11.599573	1.789009
1.723404	-8.344315	-4.357459	79.885460	0.223183	0.424033	0.902297	-0.346794	-5.638333	-16.282946	5.772371	0.100747	22.412405	12.077272	0.000000	3.192033	4.515179	-8.441951	11.497812	0.200675	21.225753	12.895668	0.000000	-0.067668	-0.411994	-0.547141	-0.125667	-0.547953	-0.581337	-0.111172	-1.001723	-0.581337	-0.077338	-1.001723	-0.478748	-0.062837	-0.840139	-0.444552	-0.038666	-0.638179	-0.410356	-0.483348	-4.660563	-3.043034	0.000000	0.000000	-13.365796	3.730562	3.063930	30.996981	6.121806	62.880926	124.044860	62.228734	13.061765	23.588443	32.890673	-2.615619	81.622084	110.499075	67.496221	7.726155	1.669160
1.744681	-8.307503	-4.262863	79.948197	0.222851	0.424512	0.901587	-0.524959	-5.594976	-16.290209	5.631399	0.098286	22.434014	12.034507	0.000000	3.022234	4.533975	-8.254606	11.411912	0.199175	21.115693	12.830230	0.000000	-0.073330	-0.411957	-0.547998	-0.136181	-0.547903	-0.582248	-0.120474	-1.001632	-0.582248	-0.083809	-1.001632	-0.479498	-0.068094	-0.840063	-0.445248	-0.041901	-0.638121	-0.410998	-0.523788	-4.660140	-3.047799	0.000000	0.000000	-13.520565	3.942957	2.707598	30.414113	6.042941	59.925019	124.722292	69.937157	16.625467	25.513212	32.125843	-2.590545	82.036295	110.883578	70.525337	1.762371	1.243907
1.765957	-8.259626	-4.216867	80.007795	0.222457	0.424806	0.900866	-0.642075	-5.543330	-16.318368	5.532362	0.096558	22.462184	11.992521	0.000000	2.917226	4.535064	-8.042882	11.347724	0.198055	21.041934	12.717044	0.000000	-0.073960	-0.406147	-0.582373	-0.137351	-0.540176	-0.618772	-0.121508	-0.987506	-0.618772	-0.084529	-0.987506	-0.509577	-0.068679	-0.828215	-0.473178	-0.042261	-0.629122	-0.436780	-0.528287	-4.594417	-3.238985	0.000000	0.000000	-13.574377	4.090034	2.636210	30.081350	5.957150	57.805082	125.269435	74.222620	19.158620	27.518478	31.735372	-2.631543	82.922259	111.634347	72.420648	-5.289313	0.343584
1.787234	-8.188288	-4.221306	80.088509	0.221963	0.424919	0.900114	-0.705872	-5.470470	-16.384633	5.466943	0.095416	22.485996	11.944052	0.000000	2.873363	4.506788	-7.785666	11.304006	0.197292	21.013769	12.566644	0.000000	-0.069530	-0.391923	-0.653210	-0.129125	-0.521258	-0.694036	-0.114232	-0.952922	-0.694036	-0.079466	-0.952922	-0.571559	-0.064566	-0.799210	-0.530734	-0.039730	-0.607089	-0.489908	-0.496649	-4.433516	-3.632961	0.000000	0.000000	-13.535243	4.112698	2.862623	30.101724	5.834295	56.710081	125.588170	74.887779	20.551167	29.475407	31.604023	-2.781700	83.959991	112.597593	73.341366	-12.197722	-0.779936
1.808511	-8.095988	-4.273634	80.206909	0.221379	0.424890	0.899288	-0.725941	-5.376518	-16.515469	5.425934	0.094700	22.511394	11.893820	0.000000	2.881822	4.452177	-7.478045	11.276807	0.196817	21.022600	12.387067	0.000000	-0.059526	-0.369168	-0.759371	-0.110545	-0.490994	-0.806832	-0.097795	-0.897595	-0.806832	-0.068032	-0.897595	-0.664450	-0.055276	-0.752807	-0.616989	-0.034013	-0.571841	-0.569528	-0.425187	-4.176103	-4.223395	0.000000	0.000000	-13.420225	3.953915	3.375924	30.453015	5.691709	56.468922	125.554134	73.295899	21.548913	31.172366	31.528350	-3.000989	84.806213	113.620336	73.712033	-18.234353	-1.688673
1.829787	-7.992277	-4.362300	80.373678	0.220761	0.424771	0.898372	-0.717572	-5.268430	-16.696613	5.398826	0.094227	22.538952	11.831388	0.000000	2.926337	4.378543	-7.111870	11.260900	0.196540	21.059985	12.205284	0.000000	-0.045813	-0.340035	-0.898269	-0.085080	-0.452246	-0.954411	-0.075267	-0.826760	-0.954411	-0.052360	-0.826760	-0.785985	-0.042542	-0.693398	-0.729844	-0.026178	-0.526713	-0.673702	-0.327240	-3.846538	-4.995902	0.000000	0.000000	-13.237031	3.592482	4.143239	30.966189	5.607752	56.786528	125.208668	70.804033	22.748200	32.311287	31.402896	-3.242849	85.243447	114.618917	74.003340	-22.934765	-2.200319
1.851064	-7.899663	-4.496189	80.583425	0.220190	0.424566	0.897330	-0.678652	-5.162453	-16.915669	5.361442	0.093575	22.563793	11.769977	0.000000	3.003892	4.304229	-6.702102	11.230548	0.196010	21.095771	12.034604	0.000000	-0.024667	-0.309625	-1.066162	-0.045809	-0.411802	-1.132797	-0.040526	-0.752823	-1.132797	-0.028192	-0.752823	-0.932892	-0.022906	-0.631388	-0.866257	-0.014095	-0.479610	-0.799622	-0.176195	-3.502544	-5.929674	0.000000	0.000000	-13.020806	3.105947	5.026428	31.483816	5.627832	57.457469	124.638106	67.632981	24.076293	33.176550	31.233370	-3.508255	85.426562	115.541225	74.242071	-26.858301	-2.704041
1.872340	-7.830508	-4.631117	80.816674	0.219739	0.424324	0.896232	-0.641588	-5.077365	-17.156747	5.321239	0.092873	22.598790	11.718207	0.000000	3.072582	4.245336	-6.264059	11.189196	0.195288	21.126922	11.873789	0.000000	-0.003392	-0.282069	-1.246998	-0.006299	-0.375151	-1.324935	-0.005573	-0.685822	-1.324935	-0.003877	-0.685822	-1.091123	-0.003150	-0.575194	-1.013186	-0.001938	-0.436924	-0.935248	-0.024229	-3.190817	-6.935428	0.000000	0.000000	-12.750631	2.568657	5.945632	31.880430	5.786512	58.270844	123.928354	64.818796	25.614123	33.774723	30.981460	-3.775045	85.261087	116.330720	74.407778	-29.409724	-3.031862
1.893617	-7.774349	-4.761267	81.052744	0.219414	0.424076	0.895123	-0.612585	-5.002171	-17.364247	5.269721	0.091974	22.619804	11.638974	0.000000	3.125645	4.192728	-5.820732	11.137968	0.194394	21.147822	11.708896	0.000000	0.017261	-0.256836	-1.431390	0.032055	-0.341591	-1.520852	0.028357	-0.624470	-1.520852	0.019727	-0.624470	-1.252466	0.016028	-0.523739	-1.163004	0.009863	-0.397838	-1.073543	0.123291	-2.905375	-7.960962	0.000000	0.000000	-12.451551	2.047224	6.863038	32.156019	6.073428	59.337719	123.117939	61.639599	26.757372	34.215145	30.528891	-4.002368	84.679816	116.899074	74.434991	-30.164522	-3.235896
1.914894	-7.711956	-4.888234	81.283705	0.219164	0.423842	0.894085	-0.580500	-4.922762	-17.540116	5.224222	0.091180	22.615462	11.546371	0.000000	3.173379	4.126789	-5.400532	11.095714	0.193657	21.164264	11.546818	0.000000	0.036106	-0.229228	-1.619196	0.067053	-0.304874	-1.720395	0.059319	-0.557346	-1.720395	0.041266	-0.557346	-1.416796	0.033528	-0.467443	-1.315597	0.020631	-0.355075	-1.214397	0.257902	-2.593078	-9.005481	0.000000	0.000000	-12.121694	1.455482	7.909011	32.328146	6.495541	60.882121	122.265757	56.791630	26.883722	34.395366	29.714069	-4.214770	83.559100	117.241453	73.996701	-28.827492	-2.846290
1.936170	-7.657695	-5.016183	81.451361	0.219095	0.423631	0.893142	-0.541816	-4.844280	-17.583937	5.154165	0.089957	22.560788	11.406950	0.000000	3.208591	4.059591	-5.075752	11.032241	0.192549	21.153398	11.382616	0.000000	0.053180	-0.204178	-1.776038	0.098761	-0.271557	-1.887041	0.087369	-0.496439	-1.887041	0.060779	-0.496439	-1.554034	0.049383	-0.416360	-1.443031	0.030387	-0.316272	-1.332029	0.379859	-2.309706	-9.877793	0.000000	0.000000	-11.746403	0.951091	8.827806	32.190962	6.933468	62.916251	121.589905	51.641173	25.208590	34.123649	28.693716	-4.445842	82.278435	117.349313	72.625657	-26.138154	-2.231350
1.957447	-7.611009	-5.154135	81.532278	0.219188	0.423436	0.892320	-0.477640	-4.770355	-17.527303	5.074409	0.088565	22.468134	11.297326	0.000000	3.245779	3.989314	-4.877124	10.955261	0.191205	21.120273	11.216657	0.000000	0.068847	-0.180361	-1.895799	0.127856	-0.239880	-2.014287	0.113109	-0.438530	-2.014287	0.078685	-0.438530	-1.658824	0.063931	-0.367793	-1.540337	0.039339	-0.279379	-1.421849	0.491767	-2.040282	-10.543866	0.000000	0.000000	-11.304961	0.504090	9.619056	31.674936	7.275391	65.442080	121.074635	45.625102	21.868185	33.630349	27.374169	-4.737998	80.757276	117.167287	70.336163	-22.162736	-1.308184
1.978723	-7.566201	-5.313792	81.530502	0.219408	0.423260	0.891609	-0.382253	-4.692533	-17.404046	4.979560	0.086910	22.337335	11.248537	0.000000	3.298603	3.906755	-4.840146	10.870025	0.189718	21.074405	11.096136	0.000000	0.084117	-0.157241	-1.971299	0.156214	-0.209131	-2.094506	0.138196	-0.382316	-2.094506	0.096138	-0.382316	-1.724887	0.078111	-0.320646	-1.601681	0.048065	-0.243566	-1.478475	0.600841	-1.778743	-10.963776	0.000000	0.000000	-10.779530	0.145201	10.196406	30.696679	7.383983	68.141756	120.721645	40.624891	17.563060	33.195949	25.691283	-5.091606	78.894222	116.625780	68.022165	-17.198996	-0.430708
2.000000	-7.522555	-5.484455	81.452157	0.219730	0.423126	0.891029	-0.266289	-4.611939	-17.222437	4.873671	0.085062	22.164905	11.245324	0.000000	3.357118	3.814329	-4.965367	10.773001	0.188024	21.015028	11.047381	0.000000	0.097601	-0.135723	-1.992852	0.181255	-0.180512	-2.117405	0.160349	-0.329998	-2.117405	0.111548	-0.329998	-1.743745	0.090632	-0.276767	-1.619192	0.055769	-0.210236	-1.494639	0.697155	-1.535330	-11.083645	0.000000	0.000000	-10.154805	-0.098644	10.448526	29.175052	7.207342	70.421221	120.527743	38.038747	13.686138	32.719185	23.629491	-5.503600	76.571132	115.625089	66.664734	-11.423006	0.535154
2.021277	-7.481042	-5.650515	81.311768	0.220118	0.423055	0.890610	-0.142699	-4.532132	-16.968203	4.763555	0.083140	21.958692	11.236253	0.000000	3.409118	3.718013	-5.241877	10.664388	0.186129	20.938366	11.083837	0.000000	0.107380	-0.117555	-1.960846	0.199415	-0.156348	-2.083399	0.176414	-0.285823	-2.083399	0.122724	-0.285823	-1.715740	0.099713	-0.239718	-1.593187	0.061357	-0.182093	-1.470634	0.767002	-1.329804	-10.905636	0.000000	0.000000	-9.415378	-0.225575	10.289955	27.131290	6.775725	71.810441	120.385786	37.461181	11.086587	32.402390	21.315413	-5.941160	73.862390	114.083017	66.638478	-5.188453	1.960473
2.042553	-7.439140	-5.802484	81.149220	0.220539	0.423047	0.890367	-0.023524	-4.450023	-16.677905	4.653588	0.081220	21.733214	11.203224	0.000000	3.453463	3.615669	-5.623218	10.555569	0.184229	20.855541	11.224852	0.000000	0.113003	-0.103568	-1.897790	0.209858	-0.137746	-2.016402	0.185652	-0.251816	-2.016402	0.129151	-0.251816	-1.660567	0.104934	-0.211197	-1.541955	0.064570	-0.160427	-1.423343	0.807168	-1.171586	-10.554941	0.000000	0.000000	-8.561423	-0.254153	9.791549	24.681744	6.108561	72.178746	120.143767	38.936869	10.093115	32.136768	18.830375	-6.372868	70.675513	111.999235	67.703370	1.647691	4.160410
2.063830	-7.387207	-5.928072	80.960808	0.220972	0.423109	0.890340	0.084304	-4.356294	-16.287611	4.549092	0.079397	21.485011	11.052389	0.000000	3.478581	3.501472	-6.100733	10.445797	0.182314	20.766608	11.471057	0.000000	0.113881	-0.092502	-1.815035	0.211488	-0.123027	-1.928474	0.187094	-0.224909	-1.928474	0.130154	-0.224909	-1.588155	0.105749	-0.188630	-1.474716	0.065071	-0.143285	-1.361276	0.813437	-1.046399	-10.094678	0.000000	0.000000	-7.614614	-0.209745	9.036180	21.951942	5.217017	71.575309	119.728105	42.480150	10.662552	32.013456	16.344602	-6.844270	67.314835	109.357261	69.685205	8.243920	6.560853
2.085106	-7.322297	-6.018372	80.750047	0.221364	0.423225	0.890561	0.175737	-4.247503	-15.733552	4.455549	0.077764	21.219140	10.681892	0.000000	3.477912	3.384536	-6.588640	10.332857	0.180342	20.665402	11.719012	0.000000	0.110841	-0.082982	-1.735302	0.205842	-0.110366	-1.843758	0.182100	-0.201763	-1.843758	0.126680	-0.201763	-1.518389	0.102927	-0.169217	-1.409933	0.063334	-0.128540	-1.301477	0.791723	-0.938712	-9.651229	0.000000	0.000000	-6.608522	-0.124936	8.218598	19.165415	4.111202	70.269834	119.104814	48.100158	12.516005	32.016757	13.957214	-7.337367	63.982191	106.108564	72.530002	13.841153	8.719710
2.106383	-7.234570	-6.048894	80.510449	0.221726	0.423383	0.891090	0.237847	-4.125944	-15.111996	4.401622	0.076823	20.972549	10.236283	0.000000	3.433656	3.252410	-7.128860	10.229876	0.178545	20.577629	12.036186	0.000000	0.101382	-0.073912	-1.674999	0.188276	-0.098303	-1.779686	0.166560	-0.179709	-1.779686	0.115869	-0.179709	-1.465624	0.094143	-0.150721	-1.360937	0.057930	-0.114490	-1.256249	0.724160	-0.836107	-9.315841	0.000000	0.000000	-5.574168	-0.028160	7.512794	16.564937	2.797255	68.648003	118.283366	55.815508	15.004276	31.872625	11.800363	-7.825254	60.764103	102.315421	76.021531	18.246249	10.722190
2.127660	-7.150477	-6.024661	80.249321	0.222117	0.423536	0.891991	0.284375	-4.014029	-14.427784	4.392850	0.076670	20.768127	9.707293	0.000000	3.363482	3.129775	-7.672341	10.141268	0.176999	20.496942	12.369141	0.000000	0.087575	-0.069436	-1.637042	0.162636	-0.092351	-1.739357	0.143878	-0.168828	-1.739357	0.100090	-0.168828	-1.432412	0.081323	-0.141595	-1.330096	0.050041	-0.107557	-1.227781	0.625543	-0.785479	-9.104735	0.000000	0.000000	-4.521166	0.085748	6.955760	14.271161	1.312368	67.001476	117.280431	65.885811	17.348878	31.171039	10.088490	-8.294866	57.904074	98.061465	79.521726	21.175861	12.414992
2.148936	-7.080970	-5.950571	79.979097	0.222558	0.423621	0.893289	0.323061	-3.918866	-13.677488	4.428753	0.077296	20.629937	9.080485	0.000000	3.281566	3.025028	-8.201898	10.074760	0.175838	20.437088	12.719266	0.000000	0.069769	-0.071745	-1.617340	0.129567	-0.095421	-1.718424	0.114623	-0.174440	-1.718424	0.079738	-0.174440	-1.415173	0.064787	-0.146302	-1.314089	0.039866	-0.111133	-1.213005	0.498350	-0.811592	-8.995160	0.000000	0.000000	-3.425106	0.225670	6.500976	12.623735	-0.346993	66.081623	115.789581	71.017503	17.217118	29.917434	9.066293	-8.673599	55.671564	93.511919	82.200369	21.985744	13.139774
2.170213	-7.030844	-5.828809	79.710370	0.223074	0.423621	0.894996	0.357048	-3.843957	-12.888971	4.509444	0.078705	20.581563	8.388088	0.000000	3.192077	2.940633	-8.701636	10.029749	0.175052	20.405155	13.092924	0.000000	0.048805	-0.081655	-1.628354	0.090635	-0.108601	-1.730126	0.080181	-0.198535	-1.730126	0.055779	-0.198535	-1.424810	0.045320	-0.166510	-1.323037	0.027887	-0.126483	-1.221265	0.348608	-0.923692	-9.056415	0.000000	0.000000	-2.302057	0.405948	6.213291	11.427118	-1.893189	65.339683	113.771710	75.466153	16.488808	28.154054	8.669239	-8.970866	53.735724	88.770930	84.370127	21.568813	12.788733
2.191489	-6.995627	-5.667020	79.472195	0.223625	0.423518	0.897050	0.383869	-3.785498	-12.131639	4.629008	0.080791	20.640046	7.683692	0.000000	3.102032	2.871327	-9.145415	10.012020	0.174743	20.419306	13.503526	0.000000	0.025309	-0.097752	-1.667893	0.047002	-0.130010	-1.772136	0.041581	-0.237675	-1.772136	0.028926	-0.237675	-1.459406	0.023502	-0.199336	-1.355163	0.014462	-0.151418	-1.250919	0.180781	-1.105792	-9.276318	0.000000	0.000000	-1.148801	0.639055	6.087863	10.813885	-3.266919	64.804458	111.098002	78.445637	15.095870	25.855777	8.802028	-9.170559	52.039611	83.851518	86.041446	20.237945	11.539855
2.212766	-6.968266	-5.484183	79.283761	0.224161	0.423296	0.899361	0.414476	-3.736806	-11.464385	4.791683	0.083631	20.810323	7.019389	0.000000	3.025414	2.806908	-9.522583	10.026667	0.174998	20.492420	13.958770	0.000000	0.001125	-0.117461	-1.723103	0.002090	-0.156223	-1.830797	0.001849	-0.285594	-1.830797	0.001286	-0.285594	-1.507715	0.001045	-0.239526	-1.400021	0.000643	-0.181947	-1.292327	0.008039	-1.328740	-9.583380	0.000000	0.000000	0.041792	0.927310	6.075281	10.800204	-4.399079	64.155382	107.656558	79.961985	13.400179	23.463765	9.342191	-9.263996	50.689652	78.745826	87.043518	18.107811	9.851356
2.234043	-6.934475	-5.316899	79.152193	0.224620	0.422908	0.901802	0.475759	-3.680978	-10.930546	4.997386	0.087221	21.084805	6.436660	0.000000	2.987244	2.732418	-9.796068	10.070236	0.175759	20.631741	14.405725	0.000000	-0.020613	-0.135890	-1.787625	-0.038280	-0.180733	-1.899351	-0.033864	-0.330402	-1.899351	-0.023558	-0.330402	-1.564172	-0.019141	-0.277106	-1.452445	-0.011778	-0.210493	-1.340719	-0.147233	-1.537211	-9.942234	0.000000	0.000000	1.307729	1.251982	6.203098	11.307374	-5.177669	63.080102	103.417205	80.802721	12.101569	21.027325	10.117829	-9.207746	49.611576	73.544995	87.490683	15.277016	8.065486
2.255319	-6.874854	-5.196635	79.059741	0.224962	0.422299	0.904247	0.588217	-3.600466	-10.563120	5.239232	0.091442	21.454431	6.032875	0.000000	3.004670	2.618227	-10.034252	10.143809	0.177043	20.874271	14.916216	0.000000	-0.037308	-0.147279	-1.848442	-0.069284	-0.195881	-1.963969	-0.061293	-0.358094	-1.963969	-0.042639	-0.358094	-1.617387	-0.034644	-0.300331	-1.501859	-0.021318	-0.228135	-1.386331	-0.266486	-1.666050	-10.280478	0.000000	0.000000	2.685189	1.504519	6.457958	12.219056	-5.553735	61.780378	98.585223	77.864801	10.452336	18.678811	11.131969	-9.008434	49.187253	68.331581	86.373498	11.893633	6.201204
2.276596	-6.756784	-5.179583	79.004866	0.225079	0.421384	0.906496	0.777238	-3.452833	-10.297605	5.476535	0.095584	21.862809	5.732936	0.000000	3.107232	2.442831	-10.112800	10.219887	0.178371	21.205084	15.292533	0.000000	-0.043063	-0.143075	-1.910907	-0.079973	-0.190290	-2.030338	-0.070748	-0.347872	-2.030338	-0.049217	-0.347872	-1.672043	-0.039988	-0.291758	-1.552612	-0.024606	-0.221623	-1.433180	-0.307596	-1.618492	-10.627889	0.000000	0.000000	4.212915	1.679622	6.935820	13.439698	-5.514339	59.890238	93.177993	75.383574	9.169508	16.802678	12.177352	-8.581443	48.854483	63.313910	84.788833	7.965342	4.336774
2.297872	-6.553663	-5.251057	78.970235	0.224906	0.420186	0.908513	1.025550	-3.221079	-10.132185	5.716273	0.099768	22.290964	5.553452	0.000000	3.276499	2.184771	-10.043459	10.314308	0.180019	21.641704	15.506897	0.000000	-0.043254	-0.116902	-1.975362	-0.080327	-0.155480	-2.098822	-0.071062	-0.284236	-2.098822	-0.049435	-0.284236	-1.728442	-0.040166	-0.238387	-1.604982	-0.024715	-0.181081	-1.481522	-0.308958	-1.322419	-10.986371	0.000000	0.000000	5.902135	1.697500	7.760554	15.013554	-5.152723	57.903137	87.375758	73.755511	8.139336	15.183284	13.115440	-7.934507	48.215984	58.664309	83.263634	4.539168	2.964751
2.319149	-6.270545	-5.418149	78.929157	0.224466	0.418725	0.910248	1.334977	-2.910020	-10.033929	5.945468	0.103768	22.705716	5.496316	0.000000	3.506752	1.852168	-9.848171	10.405482	0.181610	22.155851	15.527542	0.000000	-0.035844	-0.068515	-2.048633	-0.066565	-0.091125	-2.176672	-0.058888	-0.166587	-2.176672	-0.040966	-0.166587	-1.792554	-0.033284	-0.139715	-1.664514	-0.020481	-0.106129	-1.536475	-0.256028	-0.775053	-11.393881	0.000000	0.000000	7.687432	1.544874	8.967635	16.998090	-4.546142	56.608959	81.312563	71.425069	6.608789	13.874514	13.864794	-7.162626	47.308681	54.521984	81.797360	1.596570	2.227754
2.340426	-5.922677	-5.658936	78.834463	0.223833	0.417054	0.911715	1.690730	-2.537385	-9.928303	6.163355	0.107571	23.088251	5.527435	0.000000	3.769331	1.463444	-9.581715	10.479166	0.182896	22.727375	15.348639	0.000000	-0.024102	-0.001085	-2.111362	-0.044760	-0.001443	-2.243322	-0.039597	-0.002638	-2.243322	-0.027546	-0.002638	-1.847441	-0.022381	-0.002212	-1.715481	-0.013772	-0.001680	-1.583521	-0.172158	-0.012272	-11.742760	0.000000	0.000000	9.574230	1.180526	10.413398	19.241868	-3.790433	56.288877	75.203279	68.400057	4.385206	12.678063	14.568455	-6.358611	46.608748	50.914251	80.111328	-1.104225	2.246474
2.361702	-5.531968	-5.989890	78.664629	0.223055	0.415197	0.912916	2.130054	-2.130537	-10.088425	6.400257	0.111706	23.510417	6.053710	0.000000	4.083060	1.036755	-9.256783	10.525571	0.183706	23.324061	14.931769	0.000000	-0.005339	0.083034	-2.159912	-0.009915	0.110436	-2.294906	-0.008771	0.201889	-2.294906	-0.006102	0.201889	-1.889923	-0.004958	0.169323	-1.754928	-0.003051	0.128620	-1.619934	-0.038135	0.939300	-12.012781	0.000000	0.000000	11.563708	0.640136	12.120632	21.579974	-2.995352	57.008580	69.155555	65.330060	1.612121	11.343964	15.215244	-5.609584	46.140579	47.898713	78.274035	-3.463872	3.062154
2.382979	-5.111607	-6.393311	78.411782	0.222258	0.413211	0.913802	2.592583	-1.679515	-10.072526	6.563858	0.114561	23.834572	6.485751	0.000000	4.421804	0.575660	-8.980683	10.531122	0.183803	23.945482	14.418479	0.000000	0.019976	0.178407	-2.177080	0.037098	0.237282	-2.313147	0.032819	0.433779	-2.313147	0.022831	0.433779	-1.904945	0.018550	0.363808	-1.768877	0.011414	0.276353	-1.632810	0.142688	2.018179	-12.108265	0.000000	0.000000	13.621808	-0.036367	13.878944	23.729261	-2.266961	58.145190	63.329666	62.915834	-1.233840	10.200532	15.872940	-4.918835	46.179683	45.377008	76.654917	-5.338035	4.428592
2.404255	-4.681661	-6.849883	78.094864	0.221514	0.411170	0.914357	3.055168	-1.202651	-9.933322	6.645779	0.115991	24.076400	6.865568	0.000000	4.771463	0.097507	-8.788858	10.499413	0.183249	24.567460	13.868973	0.000000	0.051150	0.279439	-2.155282	0.094991	0.371654	-2.289987	0.084034	0.679428	-2.289987	0.058459	0.679428	-1.885871	0.047498	0.569832	-1.751166	0.029227	0.432851	-1.616461	0.365360	3.161072	-11.987030	0.000000	0.000000	15.704976	-0.762677	15.598399	25.452481	-1.629921	59.026884	57.851990	61.756070	-3.492889	9.551995	16.556161	-4.289529	46.695538	43.283871	75.832188	-6.414834	5.979254
2.425532	-4.266898	-7.338764	77.741179	0.220922	0.409125	0.914564	3.480448	-0.717618	-9.575889	6.612573	0.115411	24.199894	7.019710	0.000000	5.112253	-0.373490	-8.649737	10.423985	0.181933	25.159958	13.293731	0.000000	0.087766	0.379566	-2.101575	0.162989	0.504822	-2.232924	0.144190	0.922876	-2.232924	0.100307	0.922876	-1.838878	0.081499	0.774010	-1.707530	0.050149	0.587947	-1.576181	0.626900	4.293723	-11.688331	0.000000	0.000000	17.767049	-1.395171	17.233101	26.672308	-1.080554	59.694430	52.816533	61.644786	-4.792929	9.287632	17.211166	-3.758589	47.377964	41.643221	75.679441	-6.555664	8.029908
2.446809	-3.891256	-7.833628	77.361634	0.220559	0.407141	0.914477	3.846607	-0.246695	-9.006164	6.459620	0.112742	24.205904	6.931765	0.000000	5.430817	-0.815044	-8.566443	10.315802	0.180045	25.702137	12.726117	0.000000	0.129033	0.472755	-2.024534	0.239627	0.628764	-2.151067	0.211988	1.149455	-2.151067	0.147471	1.149455	-1.771467	0.119820	0.964041	-1.644934	0.073729	0.732297	-1.518400	0.921667	5.347894	-11.259849	0.000000	0.000000	19.763408	-1.844235	18.765293	27.353737	-0.627579	60.017206	48.298770	62.110985	-5.036091	9.501921	17.874323	-3.358890	48.351421	40.378508	76.017419	-5.875482	10.575806
2.468085	-3.553912	-8.301396	76.977297	0.220411	0.405308	0.914137	4.125949	0.203714	-8.275113	6.199664	0.108205	24.110390	6.636028	0.000000	5.701536	-1.222211	-8.534636	10.186523	0.177788	26.186631	12.207516	0.000000	0.172653	0.557824	-1.943576	0.320633	0.741906	-2.065050	0.283651	1.356294	-2.065050	0.197325	1.356294	-1.700629	0.160325	1.137515	-1.579156	0.098654	0.864070	-1.457682	1.233241	6.310218	-10.809589	0.000000	0.000000	21.635961	-2.148406	20.232397	27.603330	-0.328096	60.228045	44.343493	62.813028	-4.306748	10.104488	18.485099	-3.119214	49.617941	39.435411	76.955268	-4.726891	13.197948
2.489362	-3.244902	-8.720035	76.589483	0.220460	0.403707	0.913634	4.312870	0.635991	-7.432982	5.856759	0.102220	23.939064	6.206963	0.000000	5.913463	-1.603074	-8.588505	10.052317	0.175446	26.609260	11.795114	0.000000	0.216146	0.634750	-1.859638	0.401405	0.844218	-1.975865	0.355107	1.543332	-1.975865	0.247034	1.543332	-1.627183	0.200713	1.294383	-1.510956	0.123506	0.983228	-1.394728	1.543911	7.180424	-10.342747	0.000000	0.000000	23.323557	-2.264371	21.603013	27.466237	-0.263710	60.446344	41.080338	64.315372	-2.963336	10.869214	19.019102	-3.030709	51.084709	38.683187	79.340223	-3.914105	15.038039
2.510638	-2.977009	-9.060786	76.206135	0.220709	0.402380	0.913021	4.384028	1.028313	-6.361156	5.434535	0.094851	23.649852	5.446508	0.000000	6.032991	-1.923098	-8.549870	9.888231	0.172582	26.910011	11.271781	0.000000	0.257908	0.700304	-1.781462	0.478961	0.931404	-1.892803	0.423717	1.702719	-1.892803	0.294763	1.702719	-1.558779	0.239493	1.428060	-1.447438	0.147369	1.084771	-1.336096	1.842210	7.921977	-9.907956	0.000000	0.000000	24.768759	-2.189160	22.876818	27.052309	-0.465461	60.973175	38.574167	66.869919	-1.397569	11.442319	19.424397	-3.020359	52.707523	37.959981	82.218990	-3.573516	16.050197
2.531915	-2.771212	-9.289861	75.844990	0.221222	0.401355	0.912405	4.323352	1.352133	-5.083789	4.956831	0.086513	23.267835	4.364124	0.000000	6.042586	-2.160634	-8.406443	9.709474	0.169462	27.080491	10.668845	0.000000	0.294781	0.748332	-1.712555	0.547437	0.995281	-1.819590	0.484295	1.819493	-1.819590	0.336905	1.819493	-1.498486	0.273733	1.525998	-1.391451	0.168438	1.159166	-1.284416	2.105588	8.465276	-9.524717	0.000000	0.000000	25.933019	-1.895858	23.979386	26.438354	-0.869268	62.183587	36.763285	70.507471	-0.095231	11.422460	19.688571	-3.089055	54.495608	37.282346	84.508108	-3.415359	16.481525
2.553191	-2.648657	-9.403916	75.531327	0.222019	0.400615	0.911827	4.136192	1.585687	-3.666787	4.432802	0.077367	22.823503	3.005360	0.000000	5.957784	-2.299072	-8.205303	9.536661	0.166446	27.127318	10.050676	0.000000	0.327661	0.774156	-1.653761	0.608499	1.029628	-1.757121	0.538314	1.882284	-1.757121	0.374484	1.882284	-1.447041	0.304266	1.578660	-1.343681	0.187226	1.199168	-1.240320	2.340451	8.757411	-9.197721	0.000000	0.000000	26.816862	-1.441931	24.756561	25.633680	-1.362961	64.156420	35.493473	75.176366	0.747868	10.653640	19.765458	-3.218204	56.273728	36.667697	86.089592	-3.308762	16.505058
2.574468	-2.609943	-9.395408	75.272415	0.223072	0.400129	0.911326	3.821529	1.721938	-2.127830	3.871411	0.067569	22.333880	1.390382	0.000000	5.781277	-2.334356	-7.920422	9.382002	0.163747	27.057197	9.389116	0.000000	0.353805	0.777591	-1.608430	0.657052	1.034196	-1.708957	0.581267	1.890636	-1.708957	0.404364	1.890636	-1.407376	0.328544	1.585664	-1.306849	0.202164	1.204489	-1.206322	2.527197	8.796269	-8.945604	0.000000	0.000000	27.441719	-0.856914	25.246375	24.680268	-1.876873	66.633847	34.645297	80.276697	1.295521	9.356942	19.588094	-3.388624	57.845681	36.175284	86.717887	-3.053784	16.236549
2.595745	-2.643893	-9.276851	75.084361	0.224324	0.399845	0.910928	3.389620	1.772484	-0.481737	3.269190	0.057058	21.802342	-0.472363	0.000000	5.542550	-2.292014	-7.665681	9.278774	0.161945	26.917811	8.845892	0.000000	0.373173	0.760688	-1.578747	0.693020	1.011715	-1.677419	0.613086	1.849537	-1.677419	0.426499	1.849537	-1.381404	0.346528	1.551195	-1.282732	0.213231	1.178306	-1.184060	2.665537	8.605057	-8.780519	0.000000	0.000000	27.839811	-0.193705	25.431639	23.682143	-2.271879	69.688271	33.988065	84.506028	1.571204	7.829506	19.162079	-3.562818	59.207591	35.760935	85.956256	-2.549681	15.788867
2.617021	-2.733128	-9.068636	74.990335	0.225680	0.399707	0.910666	2.865872	1.758284	1.172662	2.642575	0.046122	21.264669	-2.478271	0.000000	5.278032	-2.200810	-7.512887	9.259042	0.161601	26.758089	8.524019	0.000000	0.385163	0.727330	-1.563021	0.715286	0.967349	-1.660710	0.632784	1.768430	-1.660710	0.440203	1.768430	-1.367644	0.357662	1.483171	-1.269955	0.220082	1.126634	-1.172266	2.751181	8.227699	-8.693057	0.000000	0.000000	28.070066	0.475547	25.306366	22.765245	-2.496516	73.281638	33.405885	86.969395	1.295077	6.067471	18.535624	-3.724297	60.494621	35.346271	83.168133	-1.947851	15.205790
2.638298	-2.896137	-8.862792	74.945142	0.227153	0.399628	0.910516	2.398441	1.664401	2.700918	2.101860	0.036684	20.792776	-4.406820	0.000000	5.066474	-2.043526	-7.305290	9.287371	0.162095	26.541771	8.191984	0.000000	0.399507	0.679136	-1.569231	0.741925	0.903250	-1.667308	0.656350	1.651250	-1.667308	0.456597	1.651250	-1.373077	0.370982	1.384893	-1.275000	0.228278	1.051981	-1.176923	2.853639	7.682518	-8.727590	0.000000	0.000000	28.183403	1.328823	25.019598	21.824793	-2.563769	76.845703	32.961373	85.801998	0.138641	4.453097	17.545336	-3.872116	61.505766	35.025255	78.407371	-0.985611	14.614257
2.659574	-3.084486	-8.621061	74.949672	0.228540	0.399630	0.910560	1.950778	1.526883	4.046652	1.662994	0.029025	20.383159	-6.187257	0.000000	4.860591	-1.856509	-7.088683	9.356684	0.163305	26.306610	7.893270	0.000000	0.407949	0.624644	-1.577361	0.757602	0.830776	-1.675946	0.670219	1.518759	-1.675946	0.466245	1.518759	-1.380191	0.378821	1.273773	-1.281606	0.233102	0.967573	-1.183021	2.913939	7.066094	-8.772808	0.000000	0.000000	28.202957	2.111282	24.529944	20.993134	-2.514703	80.688627	32.506673	84.352799	-1.240868	2.786575	16.491238	-4.000274	62.270205	34.773454	73.456730	-0.090605	13.904222
2.680851	-3.287430	-8.351951	75.002180	0.229772	0.399690	0.910837	1.546413	1.353247	5.145786	1.358532	0.023711	20.058910	-7.736161	0.000000	4.669940	-1.649965	-6.864003	9.467277	0.165235	26.066016	7.625033	0.000000	0.409663	0.566666	-1.584107	0.760785	0.753666	-1.683113	0.673035	1.377792	-1.683113	0.468203	1.377792	-1.386093	0.380413	1.155546	-1.287087	0.234081	0.877766	-1.188080	2.926180	6.410241	-8.810325	0.000000	0.000000	28.153696	2.770316	23.846676	20.319686	-2.333642	84.779378	31.962385	82.904370	-2.781012	1.102349	15.425966	-4.098383	62.747468	34.585419	68.668935	0.670152	13.090972
2.702128	-3.494223	-8.063970	75.100921	0.230776	0.399786	0.911387	1.208877	1.151009	5.934244	1.221027	0.021311	19.843118	-8.970111	0.000000	4.504079	-1.434102	-6.632182	9.619443	0.167891	25.833403	7.384431	0.000000	0.403822	0.508015	-1.586162	0.749938	0.675660	-1.685297	0.663439	1.235189	-1.685297	0.461528	1.235189	-1.387892	0.374989	1.035945	-1.288757	0.230744	0.786916	-1.189622	2.884460	5.746771	-8.821758	0.000000	0.000000	28.060586	3.253319	22.979063	19.853864	-2.004912	89.086927	31.249108	81.739282	-4.419350	-0.565134	14.402153	-4.156055	62.897084	34.455702	64.396710	1.229639	12.189792
2.723404	-3.694123	-7.765625	75.244150	0.231482	0.399897	0.912248	0.961701	0.927685	6.347946	1.283036	0.022393	19.758876	-9.805686	0.000000	4.372567	-1.219127	-6.394155	9.813476	0.171277	25.622181	7.168621	0.000000	0.389601	0.451504	-1.580222	0.723528	0.600500	-1.678986	0.640075	1.097786	-1.678986	0.445275	1.097786	-1.382694	0.361783	0.920706	-1.283930	0.222618	0.699379	-1.185166	2.782880	5.107500	-8.788720	0.000000	0.000000	27.948593	3.507681	21.936377	19.645086	-1.512838	93.580243	30.287441	81.140108	-6.093442	-2.181429	13.472433	-4.162899	62.678584	34.378855	60.992779	1.520841	11.215967
2.744681	-3.876383	-7.465425	75.430122	0.231820	0.399999	0.913459	0.828416	0.690791	6.322816	1.577112	0.027526	19.829273	-10.159466	0.000000	4.284962	-1.015247	-6.150858	10.049670	0.175400	25.445762	6.974757	0.000000	0.366173	0.399943	-1.562981	0.680020	0.531925	-1.660667	0.601586	0.972422	-1.660667	0.418499	0.972422	-1.367608	0.340028	0.815565	-1.269922	0.209231	0.619512	-1.172235	2.615538	4.524240	-8.692829	0.000000	0.000000	27.842684	3.480796	20.727888	19.742768	-0.841743	98.228293	28.997984	81.389420	-7.740848	-3.712089	12.689442	-4.108527	62.051500	34.349429	58.809865	1.476739	10.184785
2.765957	-4.030261	-7.171876	75.657093	0.231717	0.400073	0.915060	0.832552	0.447845	5.794775	2.135810	0.037277	20.077400	-9.948028	0.000000	4.250823	-0.832668	-5.903224	10.328320	0.180263	25.317558	6.799998	0.000000	0.332712	0.356147	-1.531132	0.617880	0.473675	-1.626828	0.546613	0.865936	-1.626828	0.380257	0.865936	-1.339741	0.308957	0.726255	-1.244045	0.190112	0.551672	-1.148349	2.376532	4.028805	-8.515698	0.000000	0.000000	27.767826	3.120057	19.362868	20.196327	0.024048	103.000048	27.301336	82.769791	-9.299130	-5.122670	12.105813	-3.982552	60.975360	34.361978	58.200693	1.030316	9.111530
2.787234	-4.145011	-6.893487	75.923318	0.231104	0.400094	0.917089	0.997641	0.206362	4.699747	2.991686	0.052215	20.526348	-9.087953	0.000000	4.279708	-0.681597	-5.652189	10.649719	0.185873	25.250979	6.641500	0.000000	0.288393	0.322926	-1.481371	0.535575	0.429492	-1.573957	0.473801	0.785163	-1.573957	0.329604	0.785163	-1.296200	0.267802	0.658512	-1.203614	0.164788	0.500213	-1.111029	2.059963	3.653009	-8.238943	0.000000	0.000000	27.748985	2.372855	17.850586	21.055179	1.100209	107.864477	25.118096	85.563792	-10.705846	-6.378725	11.774182	-3.774583	59.409695	34.411051	59.517986	0.114553	8.011489
2.808511	-4.209889	-6.638765	76.227051	0.229910	0.400042	0.919586	1.347213	-0.026141	2.973653	4.177293	0.072908	21.199208	-7.495819	0.000000	4.381175	-0.572242	-5.398685	11.014161	0.192233	25.259437	6.496419	0.000000	0.232389	0.303094	-1.410392	0.431569	0.403116	-1.498542	0.381791	0.736944	-1.498542	0.265597	0.736944	-1.234093	0.215796	0.618070	-1.145944	0.132787	0.469493	-1.057794	1.659928	3.428665	-7.844180	0.000000	0.000000	27.811129	1.186584	16.200314	22.368742	2.402416	112.790547	22.368864	90.053995	-11.898556	-7.445809	11.747181	-3.474233	57.314037	34.491202	63.114467	-1.337567	6.899947
2.829787	-4.214150	-6.416217	76.566549	0.228063	0.399894	0.922590	1.904800	-0.242147	0.552415	5.725187	0.099923	22.119070	-5.088206	0.000000	4.564782	-0.514809	-5.143649	11.421941	0.199350	25.356345	6.361911	0.000000	0.163873	0.299463	-1.314890	0.304328	0.398286	-1.397071	0.269227	0.728115	-1.397071	0.187290	0.728115	-1.150529	0.152172	0.610665	-1.068348	0.093637	0.463869	-0.986167	1.170528	3.387588	-7.313023	0.000000	0.000000	27.979223	-0.491365	14.421323	24.186431	3.946345	117.747230	18.974238	96.522973	-12.814822	-8.289475	12.077447	-3.071113	54.647914	34.596981	69.342862	-3.393062	5.792191
