Model Marker Errors from IK
version=1
nRows=526
nColumns=4
inDegrees=no
endheader
time	total_squared_error	marker_error_RMS	marker_error_max
      0.00000000	      0.03063017	      0.03368161	      0.06124688
      0.01694915	      0.03021806	      0.03345426	      0.05902606
      0.03389831	      0.03002592	      0.03334773	      0.05743839
      0.05084746	      0.02984880	      0.03324923	      0.05608757
      0.06779661	      0.02966888	      0.03314887	      0.05572014
      0.08474576	      0.02950528	      0.03305735	      0.05555605
      0.10169492	      0.02923496	      0.03290556	      0.05541413
      0.11864407	      0.02894006	      0.03273918	      0.05514708
      0.13559322	      0.02852372	      0.03250283	      0.05495677
      0.15254237	      0.02803172	      0.03222129	      0.05488444
      0.16949153	      0.02756473	      0.03195177	      0.05485602
      0.18644068	      0.02721719	      0.03174971	      0.05500051
      0.20338983	      0.02707162	      0.03166469	      0.05505304
      0.22033898	      0.02719186	      0.03173493	      0.05527009
      0.23728814	      0.02697648	      0.03160900	      0.05504891
      0.25423729	      0.02700896	      0.03162802	      0.05496567
      0.27118644	      0.02693844	      0.03158671	      0.05475078
      0.28813559	      0.02674418	      0.03147261	      0.05460851
      0.30508475	      0.02643593	      0.03129071	      0.05459169
      0.32203390	      0.02618892	      0.03114418	      0.05433498
      0.33898305	      0.02573010	      0.03087016	      0.05436519
      0.35593220	      0.02582576	      0.03092749	      0.05427716
      0.37288136	      0.02576469	      0.03089090	      0.05434013
      0.38983051	      0.02619185	      0.03114592	      0.05468931
      0.40677966	      0.02628425	      0.03120082	      0.05480928
      0.42372881	      0.02667462	      0.03143165	      0.05524694
      0.44067797	      0.02682424	      0.03151968	      0.05537215
      0.45762712	      0.02691243	      0.03157145	      0.05529164
      0.47457627	      0.02693794	      0.03158641	      0.05521351
      0.49152542	      0.02663015	      0.03140545	      0.05474869
      0.50847458	      0.02639893	      0.03126881	      0.05454311
      0.52542373	      0.02622618	      0.03116633	      0.05423918
      0.54237288	      0.02609807	      0.03109011	      0.05435655
      0.55932203	      0.02606503	      0.03107043	      0.05446800
      0.57627119	      0.02609043	      0.03108556	      0.05453174
      0.59322034	      0.02615814	      0.03112588	      0.05427287
      0.61016949	      0.02619639	      0.03114862	      0.05517022
      0.62711864	      0.02621106	      0.03115734	      0.05610149
      0.64406780	      0.02624437	      0.03117713	      0.05697502
      0.66101695	      0.02637110	      0.03125232	      0.05804124
      0.67796610	      0.02657669	      0.03137390	      0.05856620
      0.69491525	      0.02680730	      0.03150973	      0.05884175
      0.71186441	      0.02694108	      0.03158825	      0.05881845
      0.72881356	      0.02691922	      0.03157543	      0.05847765
      0.74576271	      0.02668656	      0.03143869	      0.05857163
      0.76271186	      0.02635321	      0.03124172	      0.05908096
      0.77966102	      0.02593752	      0.03099434	      0.05926058
      0.79661017	      0.02562339	      0.03080608	      0.06033099
      0.81355932	      0.02542176	      0.03068463	      0.06168413
      0.83050847	      0.02535118	      0.03064201	      0.06353957
      0.84745763	      0.02545021	      0.03070180	      0.06548307
      0.86440678	      0.02578788	      0.03090480	      0.06745071
      0.88135593	      0.02622519	      0.03116574	      0.06901919
      0.89830508	      0.02667461	      0.03143165	      0.07043402
      0.91525424	      0.02695508	      0.03159646	      0.07156657
      0.93220339	      0.02708733	      0.03167387	      0.07204143
      0.94915254	      0.02715564	      0.03171379	      0.07278822
      0.96610169	      0.02724047	      0.03176329	      0.07313982
      0.98305085	      0.02742616	      0.03187136	      0.07385358
      1.00000000	      0.02765647	      0.03200490	      0.07417883
      1.01694915	      0.02794133	      0.03216930	      0.07475878
      1.03389831	      0.02829668	      0.03237322	      0.07517182
      1.05084746	      0.02867512	      0.03258898	      0.07588684
      1.06779661	      0.02902621	      0.03278788	      0.07656809
      1.08474576	      0.02928890	      0.03293591	      0.07726601
      1.10169492	      0.02941569	      0.03300712	      0.07746189
      1.11864407	      0.02937649	      0.03298512	      0.07732615
      1.13559322	      0.02898051	      0.03276205	      0.07837585
      1.15254237	      0.02850091	      0.03248984	      0.07746241
      1.16949153	      0.02794634	      0.03217219	      0.07832388
      1.18644068	      0.02485303	      0.03033946	      0.05980510
      1.20338983	      0.02444095	      0.03008688	      0.05818860
      1.22033898	      0.02395015	      0.02978326	      0.05665437
      1.23728814	      0.02328684	      0.02936793	      0.05534181
      1.25423729	      0.02287213	      0.02910526	      0.05392020
      1.27118644	      0.02280184	      0.02906050	      0.05294238
      1.28813559	      0.02305083	      0.02921873	      0.05181503
      1.30508475	      0.02334207	      0.02940274	      0.05150874
      1.32203390	      0.02339772	      0.02943777	      0.05025594
      1.33898305	      0.02317751	      0.02929891	      0.04904442
      1.35593220	      0.02280073	      0.02905979	      0.05077574
      1.37288136	      0.02243149	      0.02882353	      0.05204024
      1.38983051	      0.02228446	      0.02872891	      0.05314836
      1.40677966	      0.02235250	      0.02877274	      0.05389613
      1.42372881	      0.02248483	      0.02885778	      0.05426959
      1.44067797	      0.02258509	      0.02892205	      0.05414478
      1.45762712	      0.02262445	      0.02894724	      0.05399547
      1.47457627	      0.02243509	      0.02882584	      0.05414983
      1.49152542	      0.02243926	      0.02882852	      0.05458662
      1.50847458	      0.02238757	      0.02879530	      0.05443010
      1.52542373	      0.02233675	      0.02876260	      0.05480453
      1.54237288	      0.02210130	      0.02861060	      0.05428622
      1.55932203	      0.02188749	      0.02847188	      0.05373053
      1.57627119	      0.02164013	      0.02831053	      0.05276824
      1.59322034	      0.02135584	      0.02812396	      0.05151765
      1.61016949	      0.02097070	      0.02786920	      0.05054450
      1.62711864	      0.02073642	      0.02771309	      0.04950015
      1.64406780	      0.02060872	      0.02762763	      0.04976338
      1.66101695	      0.02047983	      0.02754110	      0.04989272
      1.67796610	      0.02020745	      0.02735734	      0.04994203
      1.69491525	      0.01984621	      0.02711171	      0.04985361
      1.71186441	      0.01954355	      0.02690419	      0.04958180
      1.72881356	      0.01939759	      0.02680353	      0.04963420
      1.74576271	      0.01933857	      0.02676272	      0.04952319
      1.76271186	      0.01920208	      0.02666811	      0.04961940
      1.77966102	      0.01889165	      0.02645167	      0.05014387
      1.79661017	      0.01856871	      0.02622460	      0.05074151
      1.81355932	      0.01848008	      0.02616195	      0.05166085
      1.83050847	      0.01888352	      0.02644597	      0.05227982
      1.84745763	      0.01961814	      0.02695548	      0.05270623
      1.86440678	      0.02028445	      0.02740941	      0.05311639
      1.88135593	      0.02057698	      0.02760634	      0.05313269
      1.89830508	      0.02055316	      0.02759036	      0.05332343
      1.91525424	      0.02044181	      0.02751552	      0.05328467
      1.93220339	      0.02040154	      0.02748841	      0.05341967
      1.94915254	      0.02049817	      0.02755343	      0.05335278
      1.96610169	      0.02071402	      0.02769812	      0.05336623
      1.98305085	      0.02094322	      0.02785094	      0.05349492
      2.00000000	      0.02117869	      0.02800707	      0.05339690
      2.01694915	      0.02144171	      0.02818044	      0.05312180
      2.03389831	      0.02177345	      0.02839761	      0.05295030
      2.05084746	      0.02207327	      0.02859245	      0.05279551
      2.06779661	      0.02218545	      0.02866502	      0.05285646
      2.08474576	      0.02198848	      0.02853749	      0.05289627
      2.10169492	      0.02167421	      0.02833281	      0.05295563
      2.11864407	      0.02150249	      0.02822036	      0.05311547
      2.13559322	      0.02151994	      0.02823180	      0.05343739
      2.15254237	      0.02158225	      0.02827265	      0.05358994
      2.16949153	      0.02155350	      0.02825381	      0.05363086
      2.18644068	      0.02122121	      0.02803517	      0.05267101
      2.20338983	      0.02105584	      0.02792572	      0.05183661
      2.22033898	      0.02111269	      0.02796340	      0.05080774
      2.23728814	      0.02136399	      0.02812932	      0.05014676
      2.25423729	      0.02174657	      0.02838008	      0.04959794
      2.27118644	      0.02221087	      0.02868144	      0.04942455
      2.28813559	      0.02267586	      0.02898011	      0.04989400
      2.30508475	      0.02305271	      0.02921992	      0.05103671
      2.32203390	      0.02338677	      0.02943088	      0.05221042
      2.33898305	      0.02369374	      0.02962340	      0.05368797
      2.35593220	      0.02401799	      0.02982541	      0.05447471
      2.37288136	      0.02428656	      0.02999170	      0.05486963
      2.38983051	      0.02443362	      0.03008237	      0.05488970
      2.40677966	      0.02443874	      0.03008552	      0.05457149
      2.42372881	      0.02424119	      0.02996367	      0.05471198
      2.44067797	      0.02390611	      0.02975587	      0.05524120
      2.45762712	      0.02346895	      0.02948255	      0.05526310
      2.47457627	      0.02306205	      0.02922585	      0.05579377
      2.49152542	      0.02276780	      0.02903880	      0.05668262
      2.50847458	      0.02267315	      0.02897837	      0.05788560
      2.52542373	      0.02268429	      0.02898550	      0.05832257
      2.54237288	      0.02277760	      0.02904505	      0.05913873
      2.55932203	      0.02271900	      0.02900766	      0.05983214
      2.57627119	      0.02241540	      0.02881319	      0.06004159
      2.59322034	      0.02198328	      0.02853411	      0.06014590
      2.61016949	      0.02157975	      0.02827101	      0.05908574
      2.62711864	      0.02149502	      0.02821545	      0.05943173
      2.64406780	      0.02165904	      0.02832290	      0.05991442
      2.66101695	      0.02166288	      0.02832541	      0.06107798
      2.67796610	      0.02125356	      0.02805653	      0.06230003
      2.69491525	      0.02049090	      0.02754854	      0.06295853
      2.71186441	      0.01958850	      0.02693511	      0.06210793
      2.72881356	      0.01882591	      0.02640560	      0.06051574
      2.74576271	      0.01839850	      0.02610413	      0.05809200
      2.76271186	      0.01847611	      0.02615913	      0.05524773
      2.77966102	      0.01891326	      0.02646679	      0.05614670
      2.79661017	      0.01942377	      0.02682161	      0.05762195
      2.81355932	      0.01972843	      0.02703114	      0.05865026
      2.83050847	      0.01970927	      0.02701801	      0.05925454
      2.84745763	      0.01942117	      0.02681981	      0.05951260
      2.86440678	      0.01905909	      0.02656863	      0.05962037
      2.88135593	      0.01864817	      0.02628066	      0.05974095
      2.89830508	      0.01817362	      0.02594412	      0.05971203
      2.91525424	      0.01774808	      0.02563857	      0.05971484
      2.93220339	      0.01744978	      0.02542219	      0.05932046
      2.94915254	      0.01748462	      0.02544756	      0.05912774
      2.96610169	      0.01784356	      0.02570745	      0.05902060
      2.98305085	      0.01840092	      0.02610585	      0.05906735
      3.00000000	      0.01894160	      0.02648661	      0.05903031
      3.01694915	      0.01917690	      0.02665062	      0.05893622
      3.03389831	      0.01922984	      0.02668738	      0.05872543
      3.05084746	      0.01932651	      0.02675438	      0.05828974
      3.06779661	      0.01969948	      0.02701130	      0.05819052
      3.08474576	      0.02034682	      0.02745152	      0.05844904
      3.10169492	      0.02116172	      0.02799585	      0.05895452
      3.11864407	      0.02193636	      0.02850365	      0.05983552
      3.13559322	      0.02249679	      0.02886545	      0.06078623
      3.15254237	      0.02263361	      0.02895310	      0.06164107
      3.16949153	      0.02227647	      0.02872376	      0.06193204
      3.18644068	      0.02172219	      0.02836416	      0.06222150
      3.20338983	      0.02100675	      0.02789315	      0.06173511
      3.22033898	      0.02026545	      0.02739657	      0.06087859
      3.23728814	      0.01956240	      0.02691715	      0.05989143
      3.25423729	      0.01895019	      0.02649262	      0.05894125
      3.27118644	      0.01852201	      0.02619161	      0.05812834
      3.28813559	      0.01830763	      0.02603959	      0.05750893
      3.30508475	      0.01842749	      0.02612470	      0.05696671
      3.32203390	      0.01877701	      0.02637129	      0.05654672
      3.33898305	      0.01914721	      0.02662998	      0.05630663
      3.35593220	      0.01945255	      0.02684148	      0.05609458
      3.37288136	      0.01969352	      0.02700722	      0.05610329
      3.38983051	      0.02005440	      0.02725354	      0.05617354
      3.40677966	      0.02059224	      0.02761658	      0.05624088
      3.42372881	      0.02112898	      0.02797418	      0.05635323
      3.44067797	      0.02149577	      0.02821595	      0.05664492
      3.45762712	      0.02153606	      0.02824237	      0.05663270
      3.47457627	      0.02127977	      0.02807382	      0.05643507
      3.49152542	      0.02080450	      0.02775855	      0.05604873
      3.50847458	      0.02021618	      0.02736325	      0.05542059
      3.52542373	      0.01968574	      0.02700188	      0.05471023
      3.54237288	      0.01933617	      0.02676106	      0.05459138
      3.55932203	      0.01921871	      0.02667966	      0.05470433
      3.57627119	      0.01915522	      0.02663555	      0.05526163
      3.59322034	      0.01891512	      0.02646810	      0.05609741
      3.61016949	      0.01837228	      0.02608553	      0.05705736
      3.62711864	      0.01759069	      0.02552463	      0.05778828
      3.64406780	      0.01686882	      0.02499542	      0.05829979
      3.66101695	      0.01648037	      0.02470595	      0.05858981
      3.67796610	      0.01640373	      0.02464844	      0.05837880
      3.69491525	      0.01640075	      0.02464620	      0.05783319
      3.71186441	      0.01631130	      0.02457890	      0.05726961
      3.72881356	      0.01630028	      0.02457059	      0.05696525
      3.74576271	      0.01662033	      0.02481064	      0.05822488
      3.76271186	      0.01735878	      0.02535582	      0.05859937
      3.77966102	      0.01841335	      0.02611467	      0.05854286
      3.79661017	      0.01960311	      0.02694515	      0.05906142
      3.81355932	      0.02094083	      0.02784935	      0.06470497
      3.83050847	      0.02226771	      0.02871811	      0.06963887
      3.84745763	      0.02328052	      0.02936395	      0.07339479
      3.86440678	      0.02431732	      0.03001069	      0.07526573
      3.88135593	      0.02558685	      0.03078411	      0.07585296
      3.89830508	      0.02725407	      0.03177122	      0.07595980
      3.91525424	      0.02911980	      0.03284069	      0.07590049
      3.93220339	      0.03064664	      0.03369067	      0.07566436
      3.94915254	      0.03131920	      0.03405834	      0.07511830
      3.96610169	      0.03097966	      0.03387321	      0.07395660
      3.98305085	      0.02994519	      0.03330287	      0.07271871
      4.00000000	      0.02861870	      0.03255690	      0.07185501
      4.01694915	      0.02734504	      0.03182419	      0.07131487
      4.03389831	      0.02635750	      0.03124426	      0.07125602
      4.05084746	      0.02571225	      0.03085945	      0.07188769
      4.06779661	      0.02531561	      0.03062050	      0.07314712
      4.08474576	      0.02504355	      0.03045552	      0.07444980
      4.10169492	      0.02414491	      0.02990411	      0.07470302
      4.11864407	      0.02365604	      0.02959983	      0.07387641
      4.13559322	      0.02278272	      0.02904831	      0.07184446
      4.15254237	      0.02184750	      0.02844586	      0.06869257
      4.16949153	      0.02078886	      0.02774811	      0.06491305
      4.18644068	      0.01970685	      0.02701635	      0.06170664
      4.20338983	      0.01879685	      0.02638522	      0.05885629
      4.22033898	      0.01832233	      0.02605005	      0.05646092
      4.23728814	      0.01835419	      0.02607268	      0.05413876
      4.25423729	      0.01857343	      0.02622794	      0.05186938
      4.27118644	      0.01874884	      0.02635150	      0.04917633
      4.28813559	      0.01870494	      0.02632063	      0.04830639
      4.30508475	      0.01856883	      0.02622469	      0.04743117
      4.32203390	      0.01848173	      0.02616312	      0.04712945
      4.33898305	      0.01860870	      0.02625283	      0.04796569
      4.35593220	      0.01905409	      0.02656514	      0.04903586
      4.37288136	      0.01980503	      0.02708357	      0.04972248
      4.38983051	      0.02064351	      0.02765094	      0.05003311
      4.40677966	      0.02121293	      0.02802970	      0.05032562
      4.42372881	      0.02124083	      0.02804813	      0.05021686
      4.44067797	      0.02065386	      0.02765787	      0.04919261
      4.45762712	      0.01964276	      0.02697239	      0.04907311
      4.47457627	      0.01850652	      0.02618065	      0.04942381
      4.49152542	      0.01754741	      0.02549322	      0.04973935
      4.50847458	      0.01683144	      0.02496771	      0.04943628
      4.52542373	      0.01642458	      0.02466410	      0.04940918
      4.54237288	      0.01623259	      0.02451953	      0.04955197
      4.55932203	      0.01615041	      0.02445738	      0.04992305
      4.57627119	      0.01608026	      0.02440420	      0.05033686
      4.59322034	      0.01599391	      0.02433859	      0.05090913
      4.61016949	      0.01589913	      0.02426637	      0.05144616
      4.62711864	      0.01582404	      0.02420900	      0.05205962
      4.64406780	      0.01575216	      0.02415395	      0.05220253
      4.66101695	      0.01563758	      0.02406595	      0.05214891
      4.67796610	      0.01547416	      0.02393987	      0.05202768
      4.69491525	      0.01538915	      0.02387401	      0.05183243
      4.71186441	      0.01548695	      0.02394976	      0.05211018
      4.72881356	      0.01577958	      0.02417496	      0.05268133
      4.74576271	      0.01623397	      0.02452056	      0.05344025
      4.76271186	      0.01676882	      0.02492123	      0.05427342
      4.77966102	      0.01723581	      0.02526586	      0.05513570
      4.79661017	      0.01750364	      0.02546140	      0.05581335
      4.81355932	      0.01761600	      0.02554299	      0.05617585
      4.83050847	      0.01769764	      0.02560211	      0.05612214
      4.84745763	      0.01775965	      0.02564693	      0.05608015
      4.86440678	      0.01778549	      0.02566558	      0.05599528
      4.88135593	      0.01773757	      0.02563098	      0.05597145
      4.89830508	      0.01762655	      0.02555064	      0.05588808
      4.91525424	      0.01754825	      0.02549383	      0.05567715
      4.93220339	      0.01753094	      0.02548125	      0.05511132
      4.94915254	      0.01752913	      0.02547993	      0.05437304
      4.96610169	      0.01746303	      0.02543185	      0.05366309
      4.98305085	      0.01733019	      0.02533493	      0.05305675
      5.00000000	      0.01719136	      0.02523325	      0.05252344
      5.01694915	      0.01713067	      0.02518867	      0.05226842
      5.03389831	      0.01720174	      0.02524087	      0.05209217
      5.05084746	      0.01730506	      0.02531656	      0.05214463
      5.06779661	      0.01735983	      0.02535659	      0.05221742
      5.08474576	      0.01735557	      0.02535348	      0.05237350
      5.10169492	      0.01731693	      0.02532524	      0.05226188
      5.11864407	      0.01721526	      0.02525079	      0.05219863
      5.13559322	      0.01711622	      0.02517805	      0.05200600
      5.15254237	      0.01697461	      0.02507367	      0.05215959
      5.16949153	      0.01692703	      0.02503851	      0.05204507
      5.18644068	      0.01696159	      0.02506406	      0.05196228
      5.20338983	      0.01707753	      0.02514957	      0.05170497
      5.22033898	      0.01723816	      0.02526758	      0.05143269
      5.23728814	      0.01742646	      0.02540520	      0.05109019
      5.25423729	      0.01758693	      0.02552191	      0.05088689
      5.27118644	      0.01763887	      0.02555957	      0.05061609
      5.28813559	      0.01763546	      0.02555710	      0.05030755
      5.30508475	      0.01755336	      0.02549754	      0.05020685
      5.32203390	      0.01747657	      0.02544171	      0.05002797
      5.33898305	      0.01736866	      0.02536304	      0.05020199
      5.35593220	      0.01727869	      0.02529726	      0.05049253
      5.37288136	      0.01712736	      0.02518624	      0.05093922
      5.38983051	      0.01691473	      0.02502941	      0.05154507
      5.40677966	      0.01663392	      0.02482078	      0.05226903
      5.42372881	      0.01633386	      0.02459589	      0.05280669
      5.44067797	      0.01602564	      0.02436272	      0.05286239
      5.45762712	      0.01583137	      0.02421460	      0.05243047
      5.47457627	      0.01577461	      0.02417115	      0.05156356
      5.49152542	      0.01584461	      0.02422472	      0.05047849
      5.50847458	      0.01595299	      0.02430743	      0.04962573
      5.52542373	      0.01602438	      0.02436177	      0.04910711
      5.54237288	      0.01592357	      0.02428501	      0.04921638
      5.55932203	      0.01568262	      0.02410058	      0.04965377
      5.57627119	      0.01528151	      0.02379038	      0.05067293
      5.59322034	      0.01480899	      0.02341968	      0.05166607
      5.61016949	      0.01442520	      0.02311421	      0.05250552
      5.62711864	      0.01428826	      0.02300424	      0.05288994
      5.64406780	      0.01439494	      0.02308995	      0.05319308
      5.66101695	      0.01467377	      0.02331251	      0.05336430
      5.67796610	      0.01498713	      0.02356012	      0.05368552
      5.69491525	      0.01523255	      0.02375223	      0.05375072
      5.71186441	      0.01537183	      0.02386058	      0.05423231
      5.72881356	      0.01538787	      0.02387302	      0.05460886
      5.74576271	      0.01535328	      0.02384617	      0.05486779
      5.76271186	      0.01539902	      0.02388167	      0.05518413
      5.77966102	      0.01555903	      0.02400542	      0.05559949
      5.79661017	      0.01576442	      0.02416335	      0.05596746
      5.81355932	      0.01604346	      0.02437627	      0.05626815
      5.83050847	      0.01628058	      0.02455574	      0.05682512
      5.84745763	      0.01646752	      0.02469632	      0.05701122
      5.86440678	      0.01660117	      0.02479633	      0.05754283
      5.88135593	      0.01667846	      0.02485399	      0.05760286
      5.89830508	      0.01671174	      0.02487877	      0.05754106
      5.91525424	      0.01671340	      0.02488001	      0.05753285
      5.93220339	      0.01669275	      0.02486464	      0.05737718
      5.94915254	      0.01668099	      0.02485587	      0.05733129
      5.96610169	      0.01666150	      0.02484135	      0.05722991
      5.98305085	      0.01658019	      0.02478066	      0.05714359
      6.00000000	      0.01638047	      0.02463096	      0.05714817
      6.01694915	      0.01609440	      0.02441493	      0.05685739
      6.03389831	      0.01576361	      0.02416273	      0.05636763
      6.05084746	      0.01547400	      0.02393974	      0.05578697
      6.06779661	      0.01527792	      0.02378758	      0.05521486
      6.08474576	      0.01523461	      0.02375384	      0.05442085
      6.10169492	      0.01521712	      0.02374020	      0.05341990
      6.11864407	      0.01540752	      0.02388826	      0.05254832
      6.13559322	      0.01576111	      0.02416081	      0.05145053
      6.15254237	      0.01609220	      0.02441326	      0.05094027
      6.16949153	      0.01643631	      0.02467290	      0.05108036
      6.18644068	      0.01666697	      0.02484542	      0.05129574
      6.20338983	      0.01674313	      0.02490213	      0.05095750
      6.22033898	      0.01665103	      0.02483354	      0.05056050
      6.23728814	      0.01661281	      0.02480502	      0.04976414
      6.25423729	      0.01660941	      0.02480249	      0.04877912
      6.27118644	      0.01672914	      0.02489172	      0.04754199
      6.28813559	      0.01696049	      0.02506324	      0.04628494
      6.30508475	      0.01721191	      0.02524833	      0.04540244
      6.32203390	      0.01762168	      0.02554711	      0.04623723
      6.33898305	      0.01803202	      0.02584284	      0.04690248
      6.35593220	      0.01838465	      0.02609431	      0.04832460
      6.37288136	      0.01873107	      0.02633900	      0.04992250
      6.38983051	      0.01915928	      0.02663837	      0.05156556
      6.40677966	      0.01969617	      0.02700903	      0.05274193
      6.42372881	      0.02035205	      0.02745505	      0.05336369
      6.44067797	      0.02081407	      0.02776493	      0.05496096
      6.45762712	      0.02118400	      0.02801058	      0.05484264
      6.47457627	      0.02139723	      0.02815120	      0.05506223
      6.49152542	      0.02139798	      0.02815169	      0.05458258
      6.50847458	      0.02121467	      0.02803085	      0.05403785
      6.52542373	      0.02092615	      0.02783959	      0.05345152
      6.54237288	      0.02060491	      0.02762507	      0.05234345
      6.55932203	      0.02030739	      0.02742491	      0.05226192
      6.57627119	      0.01995196	      0.02718385	      0.05219037
      6.59322034	      0.01959911	      0.02694240	      0.05230822
      6.61016949	      0.01928750	      0.02672736	      0.05205555
      6.62711864	      0.01911752	      0.02660933	      0.05219148
      6.64406780	      0.01902717	      0.02654637	      0.05206911
      6.66101695	      0.01893978	      0.02648534	      0.05109905
      6.67796610	      0.01881273	      0.02639636	      0.05046613
      6.69491525	      0.01863878	      0.02627404	      0.04992651
      6.71186441	      0.01849626	      0.02617340	      0.04955460
      6.72881356	      0.01845346	      0.02614310	      0.04937286
      6.74576271	      0.01842729	      0.02612455	      0.04919780
      6.76271186	      0.01831508	      0.02604489	      0.04940212
      6.77966102	      0.01804152	      0.02584965	      0.04901156
      6.79661017	      0.01776949	      0.02565403	      0.04892445
      6.81355932	      0.01765062	      0.02556808	      0.04875787
      6.83050847	      0.01769078	      0.02559715	      0.04872577
      6.84745763	      0.01779649	      0.02567351	      0.04935090
      6.86440678	      0.01779506	      0.02567248	      0.04957690
      6.88135593	      0.01767912	      0.02558871	      0.05038961
      6.89830508	      0.01742807	      0.02540638	      0.05045418
      6.91525424	      0.01720165	      0.02524081	      0.05055571
      6.93220339	      0.01690637	      0.02502323	      0.05090608
      6.94915254	      0.01675873	      0.02491373	      0.05081341
      6.96610169	      0.01666410	      0.02484329	      0.05055559
      6.98305085	      0.01655106	      0.02475888	      0.05037918
      7.00000000	      0.01636167	      0.02461682	      0.05016935
      7.01694915	      0.01604871	      0.02438025	      0.04984112
      7.03389831	      0.01560879	      0.02404378	      0.04969891
      7.05084746	      0.01506293	      0.02361962	      0.04927707
      7.06779661	      0.01460209	      0.02325550	      0.04869908
      7.08474576	      0.01438788	      0.02308429	      0.04818530
      7.10169492	      0.01453500	      0.02320201	      0.04837844
      7.11864407	      0.01518692	      0.02371663	      0.04855019
      7.13559322	      0.01618648	      0.02448468	      0.05234574
      7.15254237	      0.01739552	      0.02538265	      0.05598194
      7.16949153	      0.01854290	      0.02620637	      0.05927360
      7.18644068	      0.01952635	      0.02689234	      0.06115302
      7.20338983	      0.02015816	      0.02732396	      0.06186079
      7.22033898	      0.02052953	      0.02757450	      0.06178360
      7.23728814	      0.02068449	      0.02767837	      0.06148826
      7.25423729	      0.02075569	      0.02772597	      0.06097622
      7.27118644	      0.02080052	      0.02775589	      0.06032925
      7.28813559	      0.02096784	      0.02786730	      0.06087504
      7.30508475	      0.02127612	      0.02807142	      0.06140343
      7.32203390	      0.02174928	      0.02838184	      0.06257424
      7.33898305	      0.02226264	      0.02871484	      0.06357158
      7.35593220	      0.02274024	      0.02902122	      0.06451667
      7.37288136	      0.02314305	      0.02927713	      0.06517380
      7.38983051	      0.02350607	      0.02950585	      0.06575251
      7.40677966	      0.02383281	      0.02971021	      0.06629556
      7.42372881	      0.02410497	      0.02987937	      0.06676005
      7.44067797	      0.02431846	      0.03001139	      0.06713625
      7.45762712	      0.02444632	      0.03009019	      0.06725927
      7.47457627	      0.02447732	      0.03010926	      0.06725522
      7.49152542	      0.02442663	      0.03007807	      0.06699136
      7.50847458	      0.02418645	      0.02992983	      0.06591296
      7.52542373	      0.02380639	      0.02969374	      0.06491977
      7.54237288	      0.02332304	      0.02939075	      0.06282448
      7.55932203	      0.02326113	      0.02935172	      0.06182740
      7.57627119	      0.02362646	      0.02958131	      0.06232250
      7.59322034	      0.02449395	      0.03011948	      0.06364145
      7.61016949	      0.02549996	      0.03073179	      0.06569255
      7.62711864	      0.02617340	      0.03113495	      0.06784179
      7.64406780	      0.02651362	      0.03133665	      0.06910413
      7.66101695	      0.02664226	      0.03141258	      0.07000289
      7.67796610	      0.02665858	      0.03142220	      0.07088876
      7.69491525	      0.02655613	      0.03136177	      0.07166383
      7.71186441	      0.02642007	      0.03128132	      0.07213931
      7.72881356	      0.02638468	      0.03126037	      0.07280190
      7.74576271	      0.02649256	      0.03132420	      0.07293996
      7.76271186	      0.02638405	      0.03125999	      0.07331920
      7.77966102	      0.02610746	      0.03109570	      0.07322634
      7.79661017	      0.02561709	      0.03080229	      0.07203862
      7.81355932	      0.02505687	      0.03046362	      0.07095385
      7.83050847	      0.02464901	      0.03021467	      0.06979877
      7.84745763	      0.02451731	      0.03013384	      0.06875065
      7.86440678	      0.02465465	      0.03021813	      0.06799397
      7.88135593	      0.02505792	      0.03046426	      0.06749592
      7.89830508	      0.02566322	      0.03083001	      0.06775427
      7.91525424	      0.02650781	      0.03133322	      0.06774596
      7.93220339	      0.02749720	      0.03191261	      0.06812233
      7.94915254	      0.02836617	      0.03241295	      0.06826451
      7.96610169	      0.02886150	      0.03269472	      0.06847041
      7.98305085	      0.02883202	      0.03267801	      0.06877880
      8.00000000	      0.02837882	      0.03242017	      0.06912809
      8.01694915	      0.02777487	      0.03207334	      0.06969438
      8.03389831	      0.02710799	      0.03168595	      0.06967606
      8.05084746	      0.02658418	      0.03137833	      0.06913826
      8.06779661	      0.02613465	      0.03111189	      0.06775346
      8.08474576	      0.02576620	      0.03089181	      0.06578349
      8.10169492	      0.02566312	      0.03082995	      0.06382867
      8.11864407	      0.02597730	      0.03101809	      0.06251164
      8.13559322	      0.02678461	      0.03149639	      0.06364481
      8.15254237	      0.02793564	      0.03216603	      0.06598070
      8.16949153	      0.02906958	      0.03281236	      0.06857430
      8.18644068	      0.03001152	      0.03333973	      0.07135395
      8.20338983	      0.03089859	      0.03382887	      0.07448804
      8.22033898	      0.03176035	      0.03429736	      0.07744186
      8.23728814	      0.03226043	      0.03456633	      0.07917846
      8.25423729	      0.03200850	      0.03443109	      0.07944653
      8.27118644	      0.03085967	      0.03380756	      0.07691642
      8.28813559	      0.02933717	      0.03296304	      0.07458536
      8.30508475	      0.02805366	      0.03223390	      0.07166746
      8.32203390	      0.02759453	      0.03196904	      0.06932815
      8.33898305	      0.02799185	      0.03219837	      0.06775928
      8.35593220	      0.02870739	      0.03260731	      0.06595604
      8.37288136	      0.02946863	      0.03303681	      0.06525119
      8.38983051	      0.03000122	      0.03333401	      0.06448021
      8.40677966	      0.03030262	      0.03350103	      0.06424377
      8.42372881	      0.03046520	      0.03359078	      0.06430764
      8.44067797	      0.03058897	      0.03365895	      0.06403618
      8.45762712	      0.02943690	      0.03301902	      0.06361378
      8.47457627	      0.02952525	      0.03306853	      0.06321465
      8.49152542	      0.02966672	      0.03314766	      0.06314474
      8.50847458	      0.02986832	      0.03326010	      0.06331197
      8.52542373	      0.03020191	      0.03344532	      0.06357064
      8.54237288	      0.03068868	      0.03371376	      0.06379383
      8.55932203	      0.03124893	      0.03402011	      0.06396631
      8.57627119	      0.03168623	      0.03425732	      0.06322980
      8.59322034	      0.03187684	      0.03436021	      0.06234301
      8.61016949	      0.03183081	      0.03433539	      0.06205558
      8.62711864	      0.03162806	      0.03422586	      0.06138368
      8.64406780	      0.03149914	      0.03415603	      0.06134039
      8.66101695	      0.03151295	      0.03416352	      0.06114163
      8.67796610	      0.03170134	      0.03426549	      0.06134154
      8.69491525	      0.03204506	      0.03445075	      0.06197120
      8.71186441	      0.03241019	      0.03464646	      0.06301267
      8.72881356	      0.03278591	      0.03484670	      0.06399597
      8.74576271	      0.03284886	      0.03488014	      0.06404709
      8.76271186	      0.03276518	      0.03483569	      0.06339810
      8.77966102	      0.03267797	      0.03478930	      0.06299096
      8.79661017	      0.03251897	      0.03470456	      0.06271062
      8.81355932	      0.03249279	      0.03469058	      0.06227568
      8.83050847	      0.03253472	      0.03471296	      0.06170333
      8.84745763	      0.03267239	      0.03478633	      0.06132094
      8.86440678	      0.03292357	      0.03491979	      0.06132801
      8.88135593	      0.03333265	      0.03513606	      0.06179073
      8.89830508	      0.03402857	      0.03550095	      0.06315640
