Model Marker Errors from IK
version=1
nRows=315
nColumns=4
inDegrees=no
endheader
time	total_squared_error	marker_error_RMS	marker_error_max
      0.00000000	      0.04445515	      0.04057693	      0.07500676
      0.01960784	      0.04143145	      0.03917267	      0.06692729
      0.03921569	      0.03973516	      0.03836238	      0.06494557
      0.05882353	      0.03885020	      0.03793278	      0.06503028
      0.07843137	      0.03844421	      0.03773406	      0.06520094
      0.09803922	      0.03835722	      0.03769135	      0.06532652
      0.11764706	      0.03841422	      0.03771934	      0.06563501
      0.13725490	      0.03845390	      0.03773882	      0.06588674
      0.15686275	      0.03839213	      0.03770850	      0.06615490
      0.17647059	      0.03826567	      0.03764634	      0.06627140
      0.19607843	      0.03809843	      0.03756398	      0.06654507
      0.21568627	      0.03781746	      0.03742522	      0.06677140
      0.23529412	      0.03755362	      0.03729443	      0.06657383
      0.25490196	      0.03730758	      0.03717206	      0.06639268
      0.27450980	      0.03726770	      0.03715219	      0.06593317
      0.29411765	      0.03751961	      0.03727754	      0.06563782
      0.31372549	      0.03802034	      0.03752547	      0.06866084
      0.33333333	      0.03872861	      0.03787338	      0.07442269
      0.35294118	      0.03976113	      0.03837492	      0.08068367
      0.37254902	      0.04086743	      0.03890512	      0.08780312
      0.39215686	      0.04167435	      0.03928733	      0.09400166
      0.41176471	      0.04196199	      0.03942268	      0.09909316
      0.43137255	      0.04176511	      0.03933009	      0.10272612
      0.45098039	      0.04147306	      0.03919234	      0.10525130
      0.47058824	      0.04136369	      0.03914063	      0.10801299
      0.49019608	      0.04132975	      0.03912456	      0.11299705
      0.50980392	      0.04211272	      0.03949342	      0.12311357
      0.52941176	      0.02980911	      0.03322712	      0.07225835
      0.54901961	      0.02792466	      0.03215971	      0.06953204
      0.56862745	      0.02704725	      0.03165043	      0.06783254
      0.58823529	      0.02657726	      0.03137424	      0.06651791
      0.60784314	      0.02598428	      0.03102226	      0.06406918
      0.62745098	      0.02486407	      0.03034619	      0.05948932
      0.64705882	      0.02322488	      0.02932884	      0.05289317
      0.66666667	      0.02170713	      0.02835433	      0.04992797
      0.68627451	      0.02086129	      0.02779641	      0.04936931
      0.70588235	      0.02068298	      0.02767736	      0.04879970
      0.72549020	      0.02086136	      0.02779646	      0.04843125
      0.74509804	      0.02116924	      0.02800082	      0.04797342
      0.76470588	      0.02149796	      0.02821738	      0.04757782
      0.78431373	      0.02167885	      0.02833585	      0.04914733
      0.80392157	      0.02166420	      0.02832627	      0.05036225
      0.82352941	      0.02148962	      0.02821191	      0.05038308
      0.84313725	      0.02125467	      0.02805726	      0.04928308
      0.86274510	      0.02102971	      0.02790839	      0.04803086
      0.88235294	      0.02088001	      0.02780888	      0.04689755
      0.90196078	      0.02085001	      0.02778889	      0.04604047
      0.92156863	      0.02090629	      0.02782638	      0.04545303
      0.94117647	      0.02089899	      0.02782151	      0.04553510
      0.96078431	      0.02099114	      0.02788279	      0.04612493
      0.98039216	      0.02109509	      0.02795174	      0.04683238
      1.00000000	      0.02114753	      0.02798646	      0.04758017
      1.01960784	      0.02106916	      0.02793455	      0.04728864
      1.03921569	      0.02086693	      0.02780016	      0.04668207
      1.05882353	      0.02054639	      0.02758582	      0.04589723
      1.07843137	      0.02014114	      0.02731242	      0.04522042
      1.09803922	      0.01961513	      0.02695341	      0.04457839
      1.11764706	      0.01894877	      0.02649163	      0.04386693
      1.13725490	      0.01816540	      0.02593825	      0.04418311
      1.15686275	      0.01738340	      0.02537380	      0.04447221
      1.17647059	      0.01672494	      0.02488860	      0.04557770
      1.19607843	      0.01630121	      0.02457130	      0.04617401
      1.21568627	      0.01601508	      0.02435469	      0.04611190
      1.23529412	      0.01558522	      0.02402562	      0.04505088
      1.25490196	      0.01483454	      0.02343987	      0.04463207
      1.27450980	      0.01399410	      0.02276620	      0.04448885
      1.29411765	      0.01353287	      0.02238789	      0.04419406
      1.31372549	      0.01380115	      0.02260871	      0.04339853
      1.33333333	      0.01490455	      0.02349511	      0.04199716
      1.35294118	      0.01661221	      0.02480458	      0.04294583
      1.37254902	      0.01834314	      0.02606483	      0.04779049
      1.39215686	      0.01957283	      0.02692433	      0.05243272
      1.41176471	      0.02004631	      0.02724805	      0.05400546
      1.43137255	      0.02003914	      0.02724317	      0.05159476
      1.45098039	      0.01998256	      0.02720468	      0.04774898
      1.47058824	      0.01995386	      0.02718514	      0.05179689
      1.49019608	      0.02020342	      0.02735461	      0.06013520
      1.50980392	      0.02089030	      0.02781573	      0.06755268
      1.52941176	      0.02177675	      0.02839976	      0.07327130
      1.54901961	      0.02237031	      0.02878420	      0.07656524
      1.56862745	      0.02259975	      0.02893143	      0.07691515
      1.58823529	      0.02298501	      0.02917699	      0.07393065
      1.60784314	      0.02434262	      0.03002630	      0.06977749
      1.62745098	      0.02653373	      0.03134854	      0.08430387
      1.64705882	      0.02787052	      0.03212851	      0.09112168
      1.66666667	      0.02685082	      0.03153530	      0.08640195
      1.68627451	      0.02362396	      0.02957975	      0.07244286
      1.70588235	      0.01962097	      0.02695742	      0.05366070
      1.72549020	      0.01628092	      0.02455600	      0.04277025
      1.74509804	      0.01424704	      0.02297103	      0.04018092
      1.76470588	      0.01339716	      0.02227535	      0.04016607
      1.78431373	      0.01300842	      0.02194979	      0.03988490
      1.80392157	      0.01258823	      0.02159238	      0.04021758
      1.82352941	      0.01225209	      0.02130214	      0.03969414
      1.84313725	      0.01265422	      0.02164890	      0.03984346
      1.86274510	      0.01344527	      0.02231531	      0.04061793
      1.88235294	      0.01410791	      0.02285859	      0.04399061
      1.90196078	      0.01411437	      0.02286382	      0.04563634
      1.92156863	      0.01380543	      0.02261221	      0.04585410
      1.94117647	      0.01343418	      0.02230610	      0.04355778
      1.96078431	      0.01310619	      0.02203213	      0.03976530
      1.98039216	      0.01285016	      0.02181586	      0.04138434
      2.00000000	      0.01287021	      0.02183287	      0.04892003
      2.01960784	      0.01341205	      0.02228773	      0.05524988
      2.03921569	      0.01457224	      0.02323172	      0.05891614
      2.05882353	      0.01667633	      0.02485240	      0.06066773
      2.07843137	      0.01947889	      0.02685964	      0.06411470
      2.09803922	      0.02199002	      0.02853849	      0.06968110
      2.11764706	      0.02336314	      0.02941600	      0.07362016
      2.13725490	      0.02431956	      0.03001207	      0.07651325
      2.15686275	      0.02661991	      0.03139940	      0.08134182
      2.17647059	      0.03091869	      0.03383987	      0.08926595
      2.19607843	      0.03565078	      0.03633730	      0.09514252
      2.21568627	      0.03909989	      0.03805449	      0.09552562
      2.23529412	      0.04132359	      0.03912165	      0.09385738
      2.25490196	      0.04182292	      0.03935730	      0.08801171
      2.27450980	      0.04037742	      0.03867118	      0.08659461
      2.29411765	      0.03754085	      0.03728810	      0.09062923
      2.31372549	      0.03364713	      0.03530141	      0.09080954
      2.33333333	      0.02933684	      0.03296285	      0.07986745
      2.35294118	      0.02545581	      0.03070518	      0.06473448
      2.37254902	      0.02167039	      0.02833032	      0.05123148
      2.39215686	      0.01813994	      0.02592006	      0.04390231
      2.41176471	      0.01539903	      0.02388168	      0.04013732
      2.43137255	      0.01377099	      0.02258399	      0.04080523
      2.45098039	      0.01316955	      0.02208531	      0.04118166
      2.47058824	      0.01314489	      0.02206462	      0.04133375
      2.49019608	      0.01332580	      0.02221595	      0.04130157
      2.50980392	      0.01406715	      0.02282555	      0.04083795
      2.52941176	      0.01546729	      0.02393455	      0.04103443
      2.54901961	      0.01743182	      0.02540911	      0.04689906
      2.56862745	      0.01898604	      0.02651766	      0.05407093
      2.58823529	      0.01961324	      0.02695211	      0.05471200
      2.60784314	      0.01923021	      0.02668764	      0.05007637
      2.62745098	      0.01906257	      0.02657106	      0.04552215
      2.64705882	      0.02041151	      0.02749512	      0.06204417
      2.66666667	      0.02372512	      0.02964301	      0.08259578
      2.68627451	      0.02843351	      0.03245140	      0.10174613
      2.70588235	      0.03293102	      0.03492374	      0.11600611
      2.72549020	      0.03601986	      0.03652491	      0.12305983
      2.74509804	      0.03728117	      0.03715890	      0.12142354
      2.76470588	      0.03669331	      0.03686477	      0.11193508
      2.78431373	      0.03349982	      0.03522406	      0.09835079
      2.80392157	      0.02832401	      0.03238885	      0.08777939
      2.82352941	      0.02297767	      0.02917233	      0.07124938
      2.84313725	      0.01860101	      0.02624741	      0.05531009
      2.86274510	      0.01618706	      0.02448511	      0.04529517
      2.88235294	      0.01578982	      0.02418280	      0.04153479
      2.90196078	      0.01649779	      0.02471901	      0.04156390
      2.92156863	      0.01701021	      0.02509996	      0.04121240
      2.94117647	      0.01662841	      0.02481667	      0.03774609
      2.96078431	      0.01567323	      0.02409336	      0.04156413
      2.98039216	      0.01481566	      0.02342495	      0.05079893
      3.00000000	      0.01432830	      0.02303644	      0.05673672
      3.01960784	      0.01397286	      0.02274892	      0.05673900
      3.03921569	      0.01351902	      0.02237642	      0.05110181
      3.05882353	      0.01288255	      0.02184334	      0.04164224
      3.07843137	      0.01232508	      0.02136549	      0.03913984
      3.09803922	      0.01235574	      0.02139205	      0.03864725
      3.11764706	      0.01330242	      0.02219645	      0.03944592
      3.13725490	      0.01570485	      0.02411765	      0.04625482
      3.15686275	      0.01953313	      0.02689701	      0.05107644
      3.17647059	      0.02352640	      0.02951861	      0.05371010
      3.19607843	      0.02647106	      0.03131150	      0.05906779
      3.21568627	      0.02850889	      0.03249438	      0.06591476
      3.23529412	      0.03068742	      0.03371307	      0.07271814
      3.25490196	      0.03409451	      0.03553533	      0.08202905
      3.27450980	      0.03906701	      0.03803849	      0.09374451
      3.29411765	      0.04455345	      0.04062177	      0.10427915
      3.31372549	      0.04783311	      0.04209034	      0.11033446
      3.33333333	      0.04677296	      0.04162129	      0.10704651
      3.35294118	      0.04115530	      0.03904190	      0.09084928
      3.37254902	      0.03353474	      0.03524241	      0.07800018
      3.39215686	      0.02740055	      0.03185648	      0.06939538
      3.41176471	      0.02453542	      0.03014497	      0.06048190
      3.43137255	      0.02470600	      0.03024958	      0.05493166
      3.45098039	      0.02679351	      0.03150162	      0.05610667
      3.47058824	      0.02907023	      0.03281273	      0.05731398
      3.49019608	      0.03020366	      0.03344629	      0.06006900
      3.50980392	      0.02982133	      0.03323393	      0.05966547
      3.52941176	      0.02819167	      0.03231309	      0.06430092
      3.54901961	      0.02537810	      0.03065827	      0.06689651
      3.56862745	      0.02192986	      0.02849942	      0.06380514
      3.58823529	      0.01838061	      0.02609144	      0.05520298
      3.60784314	      0.01500148	      0.02357139	      0.04230332
      3.62745098	      0.01278342	      0.02175913	      0.04006367
      3.64705882	      0.01223709	      0.02128910	      0.04011737
      3.66666667	      0.01357978	      0.02242666	      0.04008613
      3.68627451	      0.01602951	      0.02436566	      0.04127205
      3.70588235	      0.01905910	      0.02656864	      0.05128367
      3.72549020	      0.02230464	      0.02874192	      0.05859589
      3.74509804	      0.02519750	      0.03054899	      0.06206248
      3.76470588	      0.02684787	      0.03153356	      0.06103606
      3.78431373	      0.02704097	      0.03164676	      0.05563600
      3.80392157	      0.02666691	      0.03142711	      0.05216444
      3.82352941	      0.02623031	      0.03116878	      0.05406234
      3.84313725	      0.02513034	      0.03050825	      0.05167876
      3.86274510	      0.02299818	      0.02918535	      0.04937662
      3.88235294	      0.02061381	      0.02763104	      0.05474469
      3.90196078	      0.01918506	      0.02665629	      0.06024466
      3.92156863	      0.01911819	      0.02660979	      0.06464489
      3.94117647	      0.01912931	      0.02661753	      0.06590569
      3.96078431	      0.01942421	      0.02682191	      0.06407317
      3.98039216	      0.02056067	      0.02759541	      0.06064806
      4.00000000	      0.02206507	      0.02858715	      0.05581830
      4.01960784	      0.02287955	      0.02910997	      0.05344684
      4.03921569	      0.02280190	      0.02906054	      0.04822178
      4.05882353	      0.02248872	      0.02886028	      0.05423942
      4.07843137	      0.02219341	      0.02867016	      0.05822169
      4.09803922	      0.02213657	      0.02863343	      0.06318556
      4.11764706	      0.02341143	      0.02944639	      0.07371927
      4.13725490	      0.02698514	      0.03161407	      0.09046862
      4.15686275	      0.03295205	      0.03493489	      0.10776863
      4.17647059	      0.04057931	      0.03876774	      0.12000473
      4.19607843	      0.04823109	      0.04226508	      0.12473483
      4.21568627	      0.05362393	      0.04456536	      0.12255955
      4.23529412	      0.05494691	      0.04511176	      0.11460860
      4.25490196	      0.05198795	      0.04388029	      0.11348970
      4.27450980	      0.04642450	      0.04146596	      0.10914346
      4.29411765	      0.04019767	      0.03858500	      0.09874041
      4.31372549	      0.03419143	      0.03558580	      0.08421982
      4.33333333	      0.02929923	      0.03294171	      0.06846257
      4.35294118	      0.02802329	      0.03221645	      0.06138480
      4.37254902	      0.03065732	      0.03369654	      0.06199944
      4.39215686	      0.03364770	      0.03530172	      0.07025661
      4.41176471	      0.03399146	      0.03548159	      0.07599005
      4.43137255	      0.03203458	      0.03444511	      0.07821027
      4.45098039	      0.02969584	      0.03316393	      0.07951567
      4.47058824	      0.02835306	      0.03240545	      0.08579273
      4.49019608	      0.02855250	      0.03251923	      0.09016490
      4.50980392	      0.02972133	      0.03317816	      0.09134352
      4.52941176	      0.03071964	      0.03373077	      0.09034034
      4.54901961	      0.03129337	      0.03404429	      0.08774085
      4.56862745	      0.03205939	      0.03445845	      0.08719648
      4.58823529	      0.03358198	      0.03526722	      0.09087044
      4.60784314	      0.03618523	      0.03660866	      0.09682437
      4.62745098	      0.03942158	      0.03821071	      0.10320856
      4.64705882	      0.04240087	      0.03962830	      0.10887088
      4.66666667	      0.04474073	      0.04070705	      0.11321627
      4.68627451	      0.04632300	      0.04142061	      0.11630270
      4.70588235	      0.04717634	      0.04180038	      0.11668366
      4.72549020	      0.04767983	      0.04202285	      0.11322312
      4.74509804	      0.04907001	      0.04263107	      0.10782277
      4.76470588	      0.05262284	      0.04414741	      0.10325801
      4.78431373	      0.05824963	      0.04644775	      0.10277176
      4.80392157	      0.06486712	      0.04901516	      0.10581711
      4.82352941	      0.07014481	      0.05097015	      0.10852227
      4.84313725	      0.07484508	      0.05265017	      0.11573595
      4.86274510	      0.07906223	      0.05411313	      0.10649355
      4.88235294	      0.08488779	      0.05607131	      0.09600845
      4.90196078	      0.09197481	      0.05836501	      0.10365670
      4.92156863	      0.09956420	      0.06072531	      0.11726718
      4.94117647	      0.10590716	      0.06262976	      0.12580565
      4.96078431	      0.10702238	      0.06295865	      0.12523465
      4.98039216	      0.10304364	      0.06177727	      0.11772326
      5.00000000	      0.09698643	      0.05993405	      0.10721565
      5.01960784	      0.09036729	      0.05785272	      0.10205358
      5.03921569	      0.08522103	      0.05618127	      0.10038576
      5.05882353	      0.08134591	      0.05488908	      0.10310416
      5.07843137	      0.07785195	      0.05369735	      0.09984915
      5.09803922	      0.07446573	      0.05251657	      0.09245077
      5.11764706	      0.07061047	      0.05113905	      0.08885807
      5.13725490	      0.06606961	      0.04946739	      0.08437442
      5.15686275	      0.06158797	      0.04776019	      0.07992691
      5.17647059	      0.05763215	      0.04620091	      0.07630737
      5.19607843	      0.05409676	      0.04476141	      0.07335961
      5.21568627	      0.05120660	      0.04354929	      0.07109759
      5.23529412	      0.04931564	      0.04273763	      0.07034881
      5.25490196	      0.04827941	      0.04228624	      0.07442726
      5.27450980	      0.04736985	      0.04188602	      0.07767420
      5.29411765	      0.04623792	      0.04138255	      0.07933786
      5.31372549	      0.04464394	      0.04066300	      0.08000256
      5.33333333	      0.04259913	      0.03972084	      0.07741285
      5.35294118	      0.04061269	      0.03878368	      0.07166780
      5.37254902	      0.03920073	      0.03810353	      0.06717282
      5.39215686	      0.03851417	      0.03776838	      0.06546512
      5.41176471	      0.03799249	      0.03751172	      0.06419095
      5.43137255	      0.03744880	      0.03724235	      0.06585095
      5.45098039	      0.03683786	      0.03693731	      0.06789897
      5.47058824	      0.03633488	      0.03668428	      0.06959244
      5.49019608	      0.03607735	      0.03655404	      0.07079674
      5.50980392	      0.03605989	      0.03654520	      0.07176394
      5.52941176	      0.03637440	      0.03670422	      0.07295819
      5.54901961	      0.03682400	      0.03693036	      0.07369765
      5.56862745	      0.03724176	      0.03713926	      0.07404462
      5.58823529	      0.03743482	      0.03723540	      0.07250348
      5.60784314	      0.03728003	      0.03715834	      0.07162580
      5.62745098	      0.03688286	      0.03695987	      0.07116025
      5.64705882	      0.03619432	      0.03661325	      0.07023029
      5.66666667	      0.03543898	      0.03622920	      0.06995687
      5.68627451	      0.03478987	      0.03589587	      0.06999234
      5.70588235	      0.03430248	      0.03564355	      0.07024495
      5.72549020	      0.03442965	      0.03570956	      0.07074348
      5.74509804	      0.03519393	      0.03610372	      0.07188718
      5.76470588	      0.03631838	      0.03667595	      0.07322602
      5.78431373	      0.03730029	      0.03716843	      0.07529479
      5.80392157	      0.03887316	      0.03794400	      0.07796350
      5.82352941	      0.04178084	      0.03933750	      0.08131058
      5.84313725	      0.04587158	      0.04121829	      0.08461869
      5.86274510	      0.04980998	      0.04295130	      0.08645002
      5.88235294	      0.05239139	      0.04405022	      0.08543480
      5.90196078	      0.05313860	      0.04436323	      0.08151933
      5.92156863	      0.05305289	      0.04432744	      0.07538913
      5.94117647	      0.05336503	      0.04445765	      0.07630245
      5.96078431	      0.05484485	      0.04506984	      0.07912503
      5.98039216	      0.05787462	      0.04629799	      0.08162686
      6.00000000	      0.06269967	      0.04818932	      0.08364844
      6.01960784	      0.06879378	      0.05047690	      0.08652546
      6.03921569	      0.07487975	      0.05266236	      0.09246482
      6.05882353	      0.07955911	      0.05428291	      0.09800501
      6.07843137	      0.08219157	      0.05517365	      0.10342180
      6.09803922	      0.08455868	      0.05596251	      0.10820281
      6.11764706	      0.08732193	      0.05686955	      0.11144657
      6.13725490	      0.09184623	      0.05832420	      0.11260471
      6.15686275	      0.10100687	      0.06116368	      0.11203859
