Model Marker Errors from IK
version=1
nRows=538
nColumns=4
inDegrees=no
endheader
time	total_squared_error	marker_error_RMS	marker_error_max
      0.00000000	      0.02060273	      0.02762361	      0.06127460
      0.01694915	      0.02008045	      0.02727124	      0.05800970
      0.03389831	      0.01994080	      0.02717624	      0.05633726
      0.05084746	      0.01995149	      0.02718352	      0.05568457
      0.06779661	      0.01899802	      0.02652603	      0.05147085
      0.08474576	      0.01877580	      0.02637044	      0.05052670
      0.10169492	      0.01839660	      0.02610279	      0.05137580
      0.11864407	      0.01805736	      0.02586100	      0.05210849
      0.13559322	      0.01776811	      0.02565303	      0.05186055
      0.15254237	      0.01742636	      0.02540513	      0.05076470
      0.16949153	      0.01710095	      0.02516681	      0.04920211
      0.18644068	      0.01683578	      0.02497093	      0.04826152
      0.20338983	      0.01646720	      0.02469608	      0.04791460
      0.22033898	      0.01630670	      0.02457543	      0.04813239
      0.23728814	      0.01604471	      0.02437722	      0.04776586
      0.25423729	      0.01587352	      0.02424682	      0.04722863
      0.27118644	      0.01575108	      0.02415312	      0.04676481
      0.28813559	      0.01568375	      0.02410144	      0.04695789
      0.30508475	      0.01566636	      0.02408808	      0.04668025
      0.32203390	      0.01569726	      0.02411182	      0.04708076
      0.33898305	      0.01571648	      0.02412658	      0.04756829
      0.35593220	      0.01571715	      0.02412709	      0.04810953
      0.37288136	      0.01571315	      0.02412403	      0.04842096
      0.38983051	      0.01567270	      0.02409296	      0.04947904
      0.40677966	      0.01568743	      0.02410427	      0.04956602
      0.42372881	      0.01575055	      0.02415272	      0.04992634
      0.44067797	      0.01593871	      0.02429655	      0.05011942
      0.45762712	      0.01621917	      0.02450939	      0.05061051
      0.47457627	      0.01658869	      0.02478701	      0.05086069
      0.49152542	      0.01700482	      0.02509598	      0.05060807
      0.50847458	      0.01750346	      0.02546127	      0.05059174
      0.52542373	      0.01794141	      0.02577784	      0.05003552
      0.54237288	      0.01823673	      0.02598912	      0.04897148
      0.55932203	      0.01831387	      0.02604403	      0.04841837
      0.57627119	      0.01819002	      0.02595582	      0.04802979
      0.59322034	      0.01796493	      0.02579472	      0.04797839
      0.61016949	      0.01772365	      0.02562092	      0.04814816
      0.62711864	      0.01756995	      0.02550958	      0.04860051
      0.64406780	      0.01750803	      0.02546459	      0.04888641
      0.66101695	      0.01751932	      0.02547280	      0.04914731
      0.67796610	      0.01756245	      0.02550414	      0.04897799
      0.69491525	      0.01763076	      0.02555369	      0.04869935
      0.71186441	      0.01771610	      0.02561546	      0.04845566
      0.72881356	      0.01779303	      0.02567101	      0.04836478
      0.74576271	      0.01784773	      0.02571045	      0.04850100
      0.76271186	      0.01787137	      0.02572747	      0.04873129
      0.77966102	      0.01780282	      0.02567808	      0.04810215
      0.79661017	      0.01770908	      0.02561039	      0.04800318
      0.81355932	      0.01756410	      0.02550534	      0.04812344
      0.83050847	      0.01738764	      0.02537689	      0.04800670
      0.84745763	      0.01714920	      0.02520230	      0.04790903
      0.86440678	      0.01691869	      0.02503234	      0.04793473
      0.88135593	      0.01673844	      0.02489864	      0.04801379
      0.89830508	      0.01661866	      0.02480939	      0.04762969
      0.91525424	      0.01664851	      0.02483167	      0.04738772
      0.93220339	      0.01676806	      0.02492066	      0.04705706
      0.94915254	      0.01701753	      0.02510536	      0.04698926
      0.96610169	      0.01727894	      0.02529745	      0.04731965
      0.98305085	      0.01758574	      0.02552104	      0.04849418
      1.00000000	      0.01792391	      0.02576526	      0.04986635
      1.01694915	      0.01830741	      0.02603944	      0.05157432
      1.03389831	      0.01876153	      0.02636042	      0.05363990
      1.05084746	      0.01917233	      0.02664744	      0.05426408
      1.06779661	      0.01958710	      0.02693414	      0.05528635
      1.08474576	      0.01994591	      0.02717972	      0.05535662
      1.10169492	      0.02028832	      0.02741202	      0.05550626
      1.11864407	      0.02058625	      0.02761257	      0.05533402
      1.13559322	      0.02076537	      0.02773243	      0.05479776
      1.15254237	      0.02078959	      0.02774860	      0.05393366
      1.16949153	      0.02056520	      0.02759845	      0.05310621
      1.18644068	      0.02017854	      0.02733777	      0.05158574
      1.20338983	      0.01970211	      0.02701311	      0.05081146
      1.22033898	      0.01930462	      0.02673922	      0.04946688
      1.23728814	      0.01909765	      0.02659550	      0.04849379
      1.25423729	      0.01909072	      0.02659067	      0.04784618
      1.27118644	      0.01926090	      0.02670892	      0.04751133
      1.28813559	      0.01952342	      0.02689032	      0.04719211
      1.30508475	      0.01983948	      0.02710711	      0.04703352
      1.32203390	      0.02010556	      0.02728828	      0.04681864
      1.33898305	      0.02031798	      0.02743206	      0.04667104
      1.35593220	      0.02047924	      0.02754071	      0.04651295
      1.37288136	      0.02053794	      0.02758015	      0.04633175
      1.38983051	      0.02040353	      0.02748975	      0.04649049
      1.40677966	      0.02014628	      0.02731590	      0.04650930
      1.42372881	      0.01985126	      0.02711516	      0.04643688
      1.44067797	      0.01957926	      0.02692875	      0.04667091
      1.45762712	      0.01935298	      0.02677269	      0.04720039
      1.47457627	      0.01914251	      0.02662672	      0.04728264
      1.49152542	      0.01898589	      0.02651756	      0.04729226
      1.50847458	      0.01887644	      0.02644102	      0.04715196
      1.52542373	      0.01882397	      0.02640424	      0.04700129
      1.54237288	      0.01882727	      0.02640656	      0.04654322
      1.55932203	      0.01883355	      0.02641096	      0.04600888
      1.57627119	      0.01881555	      0.02639834	      0.04603023
      1.59322034	      0.01882334	      0.02640380	      0.04633436
      1.61016949	      0.01882712	      0.02640645	      0.04632993
      1.62711864	      0.01895985	      0.02649937	      0.04670956
      1.64406780	      0.01910541	      0.02660090	      0.04695110
      1.66101695	      0.01921871	      0.02667966	      0.04684682
      1.67796610	      0.01920050	      0.02666701	      0.04687542
      1.69491525	      0.01906674	      0.02657397	      0.04691409
      1.71186441	      0.01891292	      0.02646656	      0.04653692
      1.72881356	      0.01881261	      0.02639628	      0.04643432
      1.74576271	      0.01875209	      0.02635379	      0.04638451
      1.76271186	      0.01868434	      0.02630613	      0.04647386
      1.77966102	      0.01857129	      0.02622643	      0.04653501
      1.79661017	      0.01841779	      0.02611782	      0.04652757
      1.81355932	      0.01826017	      0.02600582	      0.04666978
      1.83050847	      0.01814580	      0.02592425	      0.04684207
      1.84745763	      0.01807048	      0.02587039	      0.04712016
      1.86440678	      0.01803731	      0.02584664	      0.04717496
      1.88135593	      0.01801806	      0.02583284	      0.04723444
      1.89830508	      0.01799078	      0.02581328	      0.04718361
      1.91525424	      0.01799147	      0.02581377	      0.04751268
      1.93220339	      0.01804515	      0.02585225	      0.04756280
      1.94915254	      0.01821352	      0.02597258	      0.04765826
      1.96610169	      0.01846108	      0.02614849	      0.04780166
      1.98305085	      0.01874097	      0.02634597	      0.04769406
      2.00000000	      0.01896625	      0.02650385	      0.04795269
      2.01694915	      0.01908472	      0.02658649	      0.04739279
      2.03389831	      0.01907111	      0.02657701	      0.04731213
      2.05084746	      0.01894565	      0.02648944	      0.04734949
      2.06779661	      0.01872675	      0.02633597	      0.04698145
      2.08474576	      0.01843760	      0.02613186	      0.04688986
      2.10169492	      0.01820387	      0.02596570	      0.04687920
      2.11864407	      0.01802945	      0.02584100	      0.04688696
      2.13559322	      0.01795413	      0.02578697	      0.04715155
      2.15254237	      0.01795006	      0.02578404	      0.04722249
      2.16949153	      0.01798368	      0.02580818	      0.04749243
      2.18644068	      0.01807473	      0.02587343	      0.04765491
      2.20338983	      0.01818527	      0.02595243	      0.04791437
      2.22033898	      0.01834111	      0.02606339	      0.04797800
      2.23728814	      0.01854912	      0.02621077	      0.04802678
      2.25423729	      0.01879965	      0.02638718	      0.04791359
      2.27118644	      0.01901439	      0.02653746	      0.04818161
      2.28813559	      0.01916731	      0.02664396	      0.04835687
      2.30508475	      0.01921469	      0.02667687	      0.04841933
      2.32203390	      0.01918892	      0.02665897	      0.04843687
      2.33898305	      0.01913249	      0.02661974	      0.04853705
      2.35593220	      0.01906723	      0.02657431	      0.04815409
      2.37288136	      0.01897496	      0.02650993	      0.04816964
      2.38983051	      0.01881069	      0.02639493	      0.04836211
      2.40677966	      0.01852522	      0.02619388	      0.04759965
      2.42372881	      0.01823633	      0.02598884	      0.04765428
      2.44067797	      0.01798523	      0.02580930	      0.04745006
      2.45762712	      0.01777769	      0.02565995	      0.04710569
      2.47457627	      0.01768301	      0.02559152	      0.04672403
      2.49152542	      0.01767756	      0.02558758	      0.04677478
      2.50847458	      0.01775922	      0.02564662	      0.04668182
      2.52542373	      0.01790940	      0.02575483	      0.04682175
      2.54237288	      0.01812049	      0.02590616	      0.04684379
      2.55932203	      0.01834403	      0.02606547	      0.04714330
      2.57627119	      0.01857242	      0.02622723	      0.04780142
      2.59322034	      0.01879210	      0.02638188	      0.04797272
      2.61016949	      0.01896805	      0.02650510	      0.04855221
      2.62711864	      0.01901761	      0.02653971	      0.04890187
      2.64406780	      0.01907838	      0.02658208	      0.04872641
      2.66101695	      0.01906886	      0.02657544	      0.04932742
      2.67796610	      0.01902767	      0.02654673	      0.04954792
      2.69491525	      0.01887000	      0.02643651	      0.04916621
      2.71186441	      0.01865855	      0.02628797	      0.04928815
      2.72881356	      0.01843472	      0.02612982	      0.04952794
      2.74576271	      0.01827794	      0.02601847	      0.04904516
      2.76271186	      0.01819265	      0.02595770	      0.04918354
      2.77966102	      0.01814690	      0.02592504	      0.04861042
      2.79661017	      0.01807039	      0.02587032	      0.04742261
      2.81355932	      0.01794236	      0.02577851	      0.04597351
      2.83050847	      0.01780638	      0.02568065	      0.04476682
      2.84745763	      0.01765209	      0.02556914	      0.04359936
      2.86440678	      0.01744848	      0.02542125	      0.04275692
      2.88135593	      0.01726777	      0.02528927	      0.04252135
      2.89830508	      0.01711127	      0.02517441	      0.04259791
      2.91525424	      0.01704297	      0.02512411	      0.04263631
      2.93220339	      0.01709184	      0.02516011	      0.04299418
      2.94915254	      0.01722470	      0.02525771	      0.04354753
      2.96610169	      0.01737751	      0.02536950	      0.04389665
      2.98305085	      0.01754234	      0.02548953	      0.04439770
      3.00000000	      0.01768509	      0.02559304	      0.04410464
      3.01694915	      0.01782774	      0.02569605	      0.04422214
      3.03389831	      0.01794400	      0.02577969	      0.04389194
      3.05084746	      0.01803166	      0.02584259	      0.04390476
      3.06779661	      0.01820973	      0.02596987	      0.04484904
      3.08474576	      0.01824045	      0.02599177	      0.04534528
      3.10169492	      0.01841332	      0.02611465	      0.04540826
      3.11864407	      0.01856940	      0.02622510	      0.04520767
      3.13559322	      0.01881089	      0.02639507	      0.04595349
      3.15254237	      0.01913649	      0.02662253	      0.04657285
      3.16949153	      0.01949821	      0.02687296	      0.04720568
      3.18644068	      0.01981285	      0.02708891	      0.04763209
      3.20338983	      0.01999973	      0.02721637	      0.04799784
      3.22033898	      0.02007493	      0.02726749	      0.04814220
      3.23728814	      0.02002011	      0.02723023	      0.04739827
      3.25423729	      0.02011746	      0.02729636	      0.04729035
      3.27118644	      0.02000562	      0.02722038	      0.04655029
      3.28813559	      0.02012410	      0.02730086	      0.04630050
      3.30508475	      0.02033947	      0.02744656	      0.04623507
      3.32203390	      0.02056711	      0.02759973	      0.04609287
      3.33898305	      0.02083667	      0.02778000	      0.04701056
      3.35593220	      0.02106439	      0.02793139	      0.04824311
      3.37288136	      0.02117437	      0.02800421	      0.04975856
      3.38983051	      0.02120659	      0.02802551	      0.05054601
      3.40677966	      0.02112480	      0.02797141	      0.05080372
      3.42372881	      0.02093500	      0.02784547	      0.05060080
      3.44067797	      0.02073088	      0.02770939	      0.04982563
      3.45762712	      0.02051011	      0.02756145	      0.04875047
      3.47457627	      0.02029234	      0.02741474	      0.04717818
      3.49152542	      0.02022093	      0.02736647	      0.04586402
      3.50847458	      0.01985811	      0.02711984	      0.04378815
      3.52542373	      0.01972402	      0.02702812	      0.04293155
      3.54237288	      0.01979851	      0.02707911	      0.04292278
      3.55932203	      0.01971675	      0.02702314	      0.04296164
      3.57627119	      0.01974177	      0.02704028	      0.04358922
      3.59322034	      0.01975996	      0.02705273	      0.04410824
      3.61016949	      0.01981741	      0.02709203	      0.04458948
      3.62711864	      0.01952274	      0.02688986	      0.04434827
      3.64406780	      0.01933856	      0.02676272	      0.04476651
      3.66101695	      0.01935632	      0.02677500	      0.04506020
      3.67796610	      0.01914927	      0.02663142	      0.04587157
      3.69491525	      0.01915542	      0.02663569	      0.04606079
      3.71186441	      0.01917259	      0.02664763	      0.04623268
      3.72881356	      0.01916551	      0.02664271	      0.04612659
      3.74576271	      0.01907698	      0.02658110	      0.04571589
      3.76271186	      0.01899877	      0.02652655	      0.04544766
      3.77966102	      0.01895826	      0.02649826	      0.04522799
      3.79661017	      0.01889218	      0.02645204	      0.04501007
      3.81355932	      0.01887629	      0.02644091	      0.04451057
      3.83050847	      0.01861237	      0.02625542	      0.04453530
      3.84745763	      0.01840841	      0.02611117	      0.04460882
      3.86440678	      0.01831774	      0.02604678	      0.04456568
      3.88135593	      0.01831095	      0.02604195	      0.04451357
      3.89830508	      0.01836360	      0.02607937	      0.04447207
      3.91525424	      0.01837214	      0.02608543	      0.04447748
      3.93220339	      0.01829601	      0.02603132	      0.04461565
      3.94915254	      0.01814100	      0.02592082	      0.04448804
      3.96610169	      0.01795336	      0.02578642	      0.04447711
      3.98305085	      0.01780383	      0.02567881	      0.04425525
      4.00000000	      0.01772201	      0.02561973	      0.04417446
      4.01694915	      0.01771102	      0.02561179	      0.04416282
      4.03389831	      0.01773038	      0.02562578	      0.04416007
      4.05084746	      0.01780219	      0.02567762	      0.04413510
      4.06779661	      0.01786573	      0.02572341	      0.04418507
      4.08474576	      0.01793204	      0.02577110	      0.04432327
      4.10169492	      0.01793802	      0.02577539	      0.04427108
      4.11864407	      0.01794469	      0.02578019	      0.04438119
      4.13559322	      0.01818054	      0.02594905	      0.04447544
      4.15254237	      0.01796329	      0.02579355	      0.04493964
      4.16949153	      0.01806809	      0.02586868	      0.04512034
      4.18644068	      0.01828759	      0.02602533	      0.04537878
      4.20338983	      0.01837993	      0.02609096	      0.04563469
      4.22033898	      0.01856205	      0.02621990	      0.04580362
      4.23728814	      0.01872512	      0.02633482	      0.04588970
      4.25423729	      0.01886636	      0.02643396	      0.04597600
      4.27118644	      0.01899880	      0.02652658	      0.04616830
      4.28813559	      0.01908719	      0.02658821	      0.04640957
      4.30508475	      0.01924340	      0.02669679	      0.04644533
      4.32203390	      0.01919808	      0.02666533	      0.04656051
      4.33898305	      0.01932028	      0.02675007	      0.04606386
      4.35593220	      0.01923562	      0.02669139	      0.04601696
      4.37288136	      0.01942547	      0.02682279	      0.04568211
      4.38983051	      0.01937953	      0.02679105	      0.04565352
      4.40677966	      0.01945054	      0.02684009	      0.04555813
      4.42372881	      0.01967187	      0.02699236	      0.04582624
      4.44067797	      0.01934202	      0.02676511	      0.04576099
      4.45762712	      0.01922581	      0.02668459	      0.04603764
      4.47457627	      0.01911354	      0.02660656	      0.04631014
      4.49152542	      0.01904881	      0.02656147	      0.04661326
      4.50847458	      0.01906979	      0.02657609	      0.04690151
      4.52542373	      0.01928292	      0.02672418	      0.04769228
      4.54237288	      0.01918431	      0.02665577	      0.04801997
      4.55932203	      0.01920584	      0.02667072	      0.04865494
      4.57627119	      0.01923783	      0.02669292	      0.04951531
      4.59322034	      0.01933855	      0.02676271	      0.05031431
      4.61016949	      0.01950090	      0.02687481	      0.05102333
      4.62711864	      0.01968396	      0.02700066	      0.05121965
      4.64406780	      0.01981869	      0.02709291	      0.05098951
      4.66101695	      0.01988428	      0.02713770	      0.05026741
      4.67796610	      0.01985995	      0.02712109	      0.04944710
      4.69491525	      0.01979685	      0.02707798	      0.04863068
      4.71186441	      0.01968415	      0.02700079	      0.04791567
      4.72881356	      0.01958180	      0.02693050	      0.04754213
      4.74576271	      0.01954024	      0.02690191	      0.04759380
      4.76271186	      0.01965442	      0.02698039	      0.04792624
      4.77966102	      0.01997242	      0.02719778	      0.04829340
      4.79661017	      0.02034232	      0.02744848	      0.04879627
      4.81355932	      0.02064888	      0.02765453	      0.04887135
      4.83050847	      0.02074528	      0.02771901	      0.04884081
      4.84745763	      0.02063159	      0.02764296	      0.04862827
      4.86440678	      0.02046116	      0.02752854	      0.04851961
      4.88135593	      0.01991724	      0.02716018	      0.04829037
      4.89830508	      0.01967518	      0.02699463	      0.04868256
      4.91525424	      0.01930321	      0.02673825	      0.04883431
      4.93220339	      0.01909170	      0.02659135	      0.04888833
      4.94915254	      0.01888073	      0.02644402	      0.04865196
      4.96610169	      0.01868889	      0.02630934	      0.04772130
      4.98305085	      0.01857052	      0.02622588	      0.04742134
      5.00000000	      0.01854964	      0.02621114	      0.04717923
      5.01694915	      0.01865229	      0.02628356	      0.04731622
      5.03389831	      0.01888871	      0.02644961	      0.04741562
      5.05084746	      0.01919388	      0.02666242	      0.04775089
      5.06779661	      0.01952419	      0.02689086	      0.04807017
      5.08474576	      0.01988073	      0.02713528	      0.04867525
      5.10169492	      0.02019711	      0.02735034	      0.04923614
      5.11864407	      0.02038178	      0.02747510	      0.04960991
      5.13559322	      0.02048809	      0.02754665	      0.04984557
      5.15254237	      0.02049332	      0.02755017	      0.04989475
      5.16949153	      0.02042980	      0.02750744	      0.04978098
      5.18644068	      0.02036811	      0.02746588	      0.04964569
      5.20338983	      0.02029502	      0.02741655	      0.04948026
      5.22033898	      0.02027654	      0.02740407	      0.04924054
      5.23728814	      0.02023431	      0.02737552	      0.04879688
      5.25423729	      0.02014289	      0.02731360	      0.04825058
      5.27118644	      0.01998819	      0.02720851	      0.04760836
      5.28813559	      0.01980972	      0.02708678	      0.04753525
      5.30508475	      0.01968117	      0.02699875	      0.04805301
      5.32203390	      0.01955097	      0.02690930	      0.04880837
      5.33898305	      0.01944442	      0.02683587	      0.04951014
      5.35593220	      0.01938158	      0.02679246	      0.05044437
      5.37288136	      0.01938958	      0.02679800	      0.05144871
      5.38983051	      0.01949129	      0.02686819	      0.05227522
      5.40677966	      0.01963064	      0.02696407	      0.05354339
      5.42372881	      0.01972890	      0.02703146	      0.05407839
      5.44067797	      0.01972848	      0.02703118	      0.05477204
      5.45762712	      0.01968591	      0.02700199	      0.05562334
      5.47457627	      0.01968059	      0.02699835	      0.05652354
      5.49152542	      0.01977049	      0.02705994	      0.05758840
      5.50847458	      0.01990841	      0.02715416	      0.05881766
      5.52542373	      0.02004380	      0.02724634	      0.05980486
      5.54237288	      0.02014580	      0.02731557	      0.06039715
      5.55932203	      0.02016913	      0.02733139	      0.06048076
      5.57627119	      0.02011976	      0.02729792	      0.06068123
      5.59322034	      0.02004704	      0.02724854	      0.06048570
      5.61016949	      0.01995143	      0.02718349	      0.06030176
      5.62711864	      0.01985594	      0.02711836	      0.06016167
      5.64406780	      0.01973109	      0.02703297	      0.06037549
      5.66101695	      0.01959643	      0.02694056	      0.06048909
      5.67796610	      0.01943299	      0.02682798	      0.06063724
      5.69491525	      0.01926381	      0.02671094	      0.06109061
      5.71186441	      0.01907357	      0.02657872	      0.06176854
      5.72881356	      0.01898030	      0.02651365	      0.06243656
      5.74576271	      0.01891783	      0.02646999	      0.06315284
      5.76271186	      0.01895791	      0.02649801	      0.06397049
      5.77966102	      0.01904108	      0.02655608	      0.06462090
      5.79661017	      0.01919914	      0.02666607	      0.06527419
      5.81355932	      0.01945365	      0.02684223	      0.06585503
      5.83050847	      0.01972442	      0.02702840	      0.06643708
      5.84745763	      0.02004660	      0.02724824	      0.06693422
      5.86440678	      0.02040563	      0.02749116	      0.06744143
      5.88135593	      0.02076879	      0.02773471	      0.06796209
      5.89830508	      0.02120591	      0.02802506	      0.06827232
      5.91525424	      0.02144843	      0.02818486	      0.06747095
      5.93220339	      0.02166788	      0.02832868	      0.06741649
      5.94915254	      0.02177762	      0.02840032	      0.06650774
      5.96610169	      0.02179423	      0.02841116	      0.06624018
      5.98305085	      0.02176231	      0.02839034	      0.06543716
      6.00000000	      0.02170600	      0.02835358	      0.06510503
      6.01694915	      0.02164421	      0.02831320	      0.06472260
      6.03389831	      0.02156735	      0.02826289	      0.06439694
      6.05084746	      0.02149736	      0.02821699	      0.06415318
      6.06779661	      0.02140374	      0.02815548	      0.06370712
      6.08474576	      0.02126394	      0.02806338	      0.06335501
      6.10169492	      0.02111973	      0.02796806	      0.06309451
      6.11864407	      0.02101549	      0.02789895	      0.06285745
      6.13559322	      0.02096941	      0.02786835	      0.06268401
      6.15254237	      0.02095295	      0.02785741	      0.06257593
      6.16949153	      0.02094077	      0.02784931	      0.06237350
      6.18644068	      0.02093365	      0.02784457	      0.06216991
      6.20338983	      0.02091629	      0.02783303	      0.06184159
      6.22033898	      0.02094163	      0.02784988	      0.06166346
      6.23728814	      0.02091862	      0.02783458	      0.06130558
      6.25423729	      0.02084527	      0.02778574	      0.06127614
      6.27118644	      0.02069170	      0.02768319	      0.06103367
      6.28813559	      0.02056152	      0.02759597	      0.06092930
      6.30508475	      0.02044979	      0.02752090	      0.06048401
      6.32203390	      0.02041300	      0.02749613	      0.06023936
      6.33898305	      0.02039094	      0.02748126	      0.05991768
      6.35593220	      0.02039036	      0.02748087	      0.05989747
      6.37288136	      0.02029015	      0.02741326	      0.05973058
      6.38983051	      0.02015734	      0.02732340	      0.05975927
      6.40677966	      0.02000486	      0.02721986	      0.05993252
      6.42372881	      0.01989623	      0.02714586	      0.06018298
      6.44067797	      0.01984692	      0.02711220	      0.06045841
      6.45762712	      0.01984457	      0.02711059	      0.06067947
      6.47457627	      0.01985271	      0.02711615	      0.06056404
      6.49152542	      0.01984620	      0.02711170	      0.06094290
      6.50847458	      0.01979308	      0.02707539	      0.06088212
      6.52542373	      0.01972824	      0.02703101	      0.06042896
      6.54237288	      0.01963327	      0.02696587	      0.05995613
      6.55932203	      0.01944818	      0.02683846	      0.05896148
      6.57627119	      0.01927083	      0.02671581	      0.05756151
      6.59322034	      0.01912932	      0.02661754	      0.05629695
      6.61016949	      0.01904016	      0.02655543	      0.05503676
      6.62711864	      0.01892901	      0.02647781	      0.05398667
      6.64406780	      0.01889311	      0.02645269	      0.05296078
      6.66101695	      0.01887473	      0.02643982	      0.05256909
      6.67796610	      0.01894840	      0.02649137	      0.05254792
      6.69491525	      0.01885354	      0.02642498	      0.05212885
      6.71186441	      0.01875566	      0.02635629	      0.05134383
      6.72881356	      0.01856382	      0.02622115	      0.04959279
      6.74576271	      0.01832449	      0.02605158	      0.04703939
      6.76271186	      0.01803671	      0.02584620	      0.04470207
      6.77966102	      0.01771056	      0.02561145	      0.04404782
      6.79661017	      0.01744497	      0.02541870	      0.04405738
      6.81355932	      0.01729275	      0.02530755	      0.04456781
      6.83050847	      0.01728633	      0.02530285	      0.04557625
      6.84745763	      0.01739278	      0.02538065	      0.04674015
      6.86440678	      0.01755679	      0.02550003	      0.04769385
      6.88135593	      0.01763869	      0.02555944	      0.04801118
      6.89830508	      0.01758269	      0.02551883	      0.04789406
      6.91525424	      0.01740221	      0.02538752	      0.04708930
      6.93220339	      0.01712762	      0.02518643	      0.04604629
      6.94915254	      0.01678161	      0.02493073	      0.04487545
      6.96610169	      0.01640567	      0.02464990	      0.04381324
      6.98305085	      0.01604385	      0.02437656	      0.04295999
      7.00000000	      0.01576458	      0.02416347	      0.04229264
      7.01694915	      0.01561948	      0.02405201	      0.04193709
      7.03389831	      0.01558845	      0.02402811	      0.04175580
      7.05084746	      0.01566916	      0.02409023	      0.04193012
      7.06779661	      0.01579993	      0.02419055	      0.04281966
      7.08474576	      0.01595140	      0.02430623	      0.04380631
      7.10169492	      0.01612316	      0.02443674	      0.04482660
      7.11864407	      0.01613829	      0.02444820	      0.04499140
      7.13559322	      0.01624271	      0.02452717	      0.04518549
      7.15254237	      0.01640762	      0.02465136	      0.04522140
      7.16949153	      0.01646078	      0.02469127	      0.04537574
      7.18644068	      0.01665015	      0.02483288	      0.04555040
      7.20338983	      0.01662060	      0.02481084	      0.04580074
      7.22033898	      0.01677562	      0.02492628	      0.04561700
      7.23728814	      0.01683623	      0.02497126	      0.04566179
      7.25423729	      0.01697459	      0.02507366	      0.04570213
      7.27118644	      0.01703492	      0.02511818	      0.04578440
      7.28813559	      0.01692846	      0.02503957	      0.04581217
      7.30508475	      0.01674862	      0.02490621	      0.04601678
      7.32203390	      0.01653438	      0.02474640	      0.04635705
      7.33898305	      0.01634403	      0.02460355	      0.04650309
      7.35593220	      0.01618280	      0.02448189	      0.04682473
      7.37288136	      0.01607526	      0.02440041	      0.04697816
      7.38983051	      0.01607716	      0.02440185	      0.04705113
      7.40677966	      0.01620693	      0.02450014	      0.04734191
      7.42372881	      0.01643312	      0.02467051	      0.04729275
      7.44067797	      0.01671970	      0.02488470	      0.04737654
      7.45762712	      0.01686221	      0.02499052	      0.04730045
      7.47457627	      0.01692498	      0.02503699	      0.04729156
      7.49152542	      0.01685536	      0.02498545	      0.04715436
      7.50847458	      0.01677288	      0.02492424	      0.04712334
      7.52542373	      0.01671349	      0.02488008	      0.04751549
      7.54237288	      0.01671529	      0.02488141	      0.04799981
      7.55932203	      0.01676511	      0.02491846	      0.04871402
      7.57627119	      0.01687029	      0.02499651	      0.04935668
      7.59322034	      0.01701714	      0.02510507	      0.04987236
      7.61016949	      0.01717601	      0.02522198	      0.04998775
      7.62711864	      0.01726037	      0.02528385	      0.04979740
      7.64406780	      0.01727555	      0.02529497	      0.04922418
      7.66101695	      0.01719958	      0.02523929	      0.04845768
      7.67796610	      0.01703060	      0.02511499	      0.04761234
      7.69491525	      0.01681394	      0.02495473	      0.04661295
      7.71186441	      0.01656440	      0.02476886	      0.04578992
      7.72881356	      0.01646872	      0.02469722	      0.04666578
      7.74576271	      0.01663694	      0.02482304	      0.04781713
      7.76271186	      0.01702329	      0.02510960	      0.04874187
      7.77966102	      0.01750751	      0.02546421	      0.04965797
      7.79661017	      0.01803957	      0.02584826	      0.05081045
      7.81355932	      0.01844750	      0.02613888	      0.04988085
      7.83050847	      0.01878329	      0.02637570	      0.04884348
      7.84745763	      0.01895531	      0.02649620	      0.04842608
      7.86440678	      0.01900495	      0.02653087	      0.04862309
      7.88135593	      0.01905262	      0.02656412	      0.04848840
      7.89830508	      0.01918926	      0.02665920	      0.04845514
      7.91525424	      0.01945699	      0.02684454	      0.04873415
      7.93220339	      0.01963498	      0.02696705	      0.04904853
      7.94915254	      0.01955550	      0.02691241	      0.04937861
      7.96610169	      0.01922035	      0.02668080	      0.04974189
      7.98305085	      0.01887913	      0.02644290	      0.05018673
      8.00000000	      0.01846684	      0.02615257	      0.05068244
      8.01694915	      0.01792698	      0.02576746	      0.05117884
      8.03389831	      0.01760108	      0.02553217	      0.05163747
      8.05084746	      0.01766658	      0.02557964	      0.05208141
      8.06779661	      0.01804955	      0.02585540	      0.05244901
      8.08474576	      0.01853077	      0.02619780	      0.05278095
      8.10169492	      0.01885059	      0.02642291	      0.05282008
      8.11864407	      0.01898205	      0.02651488	      0.05278165
      8.13559322	      0.01941752	      0.02681730	      0.05285210
      8.15254237	      0.02050853	      0.02756039	      0.05313994
      8.16949153	      0.02137175	      0.02813443	      0.05292731
      8.18644068	      0.02302389	      0.02920166	      0.05340241
      8.20338983	      0.02594913	      0.03100127	      0.06277053
      8.22033898	      0.02871653	      0.03261250	      0.06783106
      8.23728814	      0.03075223	      0.03374865	      0.06865448
      8.25423729	      0.03199320	      0.03442286	      0.06767590
      8.27118644	      0.03233762	      0.03460765	      0.07332001
      8.28813559	      0.03010557	      0.03339193	      0.06937471
      8.30508475	      0.02841970	      0.03244351	      0.06793001
      8.32203390	      0.02789669	      0.03214360	      0.06945567
      8.33898305	      0.02798113	      0.03219220	      0.07127228
      8.35593220	      0.02803935	      0.03222568	      0.06727372
      8.37288136	      0.02825611	      0.03235000	      0.06836227
      8.38983051	      0.02890562	      0.03271969	      0.06692694
      8.40677966	      0.03005570	      0.03336426	      0.06572004
      8.42372881	      0.03092436	      0.03384297	      0.06856064
      8.44067797	      0.03047567	      0.03359656	      0.06739239
      8.45762712	      0.02856341	      0.03252544	      0.06345491
      8.47457627	      0.02627336	      0.03119435	      0.06239576
      8.49152542	      0.02464113	      0.03020984	      0.06275027
      8.50847458	      0.02384398	      0.02971717	      0.06422188
      8.52542373	      0.02346780	      0.02948182	      0.06427176
      8.54237288	      0.02330870	      0.02938172	      0.06172599
      8.55932203	      0.02338930	      0.02943247	      0.05890083
      8.57627119	      0.02354741	      0.02953178	      0.05655101
      8.59322034	      0.02351695	      0.02951268	      0.05668327
      8.61016949	      0.02310806	      0.02925498	      0.05708920
      8.62711864	      0.02263773	      0.02895573	      0.05790676
      8.64406780	      0.02252291	      0.02888221	      0.05752049
      8.66101695	      0.02222746	      0.02869215	      0.05597079
      8.67796610	      0.02215927	      0.02864810	      0.05276075
      8.69491525	      0.02212635	      0.02862681	      0.04871289
      8.71186441	      0.02232287	      0.02875366	      0.06044574
      8.72881356	      0.02279858	      0.02905842	      0.06992291
      8.74576271	      0.02326192	      0.02935221	      0.07573043
      8.76271186	      0.02351952	      0.02951429	      0.07765529
      8.77966102	      0.02365545	      0.02959946	      0.07713724
      8.79661017	      0.02210571	      0.02861346	      0.07525820
      8.81355932	      0.02172211	      0.02836411	      0.07366734
      8.83050847	      0.02196160	      0.02852004	      0.07311448
      8.84745763	      0.02305049	      0.02921852	      0.07549484
      8.86440678	      0.02383070	      0.02970890	      0.08646432
      8.88135593	      0.01314412	      0.02206398	      0.04424271
      8.89830508	      0.01314970	      0.02206866	      0.04386089
      8.91525424	      0.01371239	      0.02253589	      0.04349758
      8.93220339	      0.01462203	      0.02327137	      0.04308741
      8.94915254	      0.01545563	      0.02392553	      0.04283199
      8.96610169	      0.01640709	      0.02465096	      0.04264145
      8.98305085	      0.01756227	      0.02550401	      0.04745939
      9.00000000	      0.01887414	      0.02643941	      0.05529665
      9.01694915	      0.02005184	      0.02725180	      0.06158869
      9.03389831	      0.02069959	      0.02768847	      0.06509393
      9.05084746	      0.02076592	      0.02773280	      0.06616294
      9.06779661	      0.02012723	      0.02730298	      0.06481255
      9.08474576	      0.01873639	      0.02634275	      0.06017326
      9.10169492	      0.01675076	      0.02490780	      0.05426269
