Model Marker Errors from IK
version=1
nRows=357
nColumns=4
inDegrees=no
endheader
time	total_squared_error	marker_error_RMS	marker_error_max
      0.00000000	      0.02039773	      0.02748584	      0.06108678
      0.01694915	      0.02009543	      0.02728141	      0.05899707
      0.03389831	      0.02013405	      0.02730761	      0.05755967
      0.05084746	      0.02021981	      0.02736570	      0.05659260
      0.06779661	      0.02023905	      0.02737872	      0.05618875
      0.08474576	      0.02019800	      0.02735094	      0.05593366
      0.10169492	      0.02015765	      0.02732361	      0.05605184
      0.11864407	      0.02018162	      0.02733985	      0.05616321
      0.13559322	      0.02023051	      0.02737295	      0.05643628
      0.15254237	      0.02027087	      0.02740023	      0.05684097
      0.16949153	      0.02026801	      0.02739831	      0.05724034
      0.18644068	      0.02024710	      0.02738417	      0.05762851
      0.20338983	      0.02027655	      0.02740407	      0.05807736
      0.22033898	      0.02039757	      0.02748574	      0.05877665
      0.23728814	      0.02063022	      0.02764204	      0.05923945
      0.25423729	      0.02088231	      0.02781041	      0.05964346
      0.27118644	      0.02093912	      0.02784821	      0.06020513
      0.28813559	      0.02075101	      0.02772284	      0.06058408
      0.30508475	      0.02048293	      0.02754318	      0.06131251
      0.32203390	      0.02036540	      0.02746405	      0.06242042
      0.33898305	      0.02039451	      0.02748367	      0.06407791
      0.35593220	      0.02033902	      0.02744626	      0.06470267
      0.37288136	      0.02010578	      0.02728843	      0.06434774
      0.38983051	      0.01965165	      0.02697849	      0.06206439
      0.40677966	      0.01906392	      0.02657200	      0.05886622
      0.42372881	      0.01847856	      0.02616087	      0.05481810
      0.44067797	      0.01790355	      0.02575062	      0.05101417
      0.45762712	      0.01736327	      0.02535910	      0.04798670
      0.47457627	      0.01691507	      0.02502966	      0.04798035
      0.49152542	      0.01647868	      0.02470469	      0.04779416
      0.50847458	      0.01596754	      0.02431852	      0.04756222
      0.52542373	      0.01541971	      0.02389771	      0.04696121
      0.54237288	      0.01506291	      0.02361960	      0.04655901
      0.55932203	      0.01499255	      0.02356438	      0.04627998
      0.57627119	      0.01517457	      0.02370698	      0.04638884
      0.59322034	      0.01539456	      0.02387821	      0.04629453
      0.61016949	      0.01556395	      0.02400922	      0.04662283
      0.62711864	      0.01567463	      0.02409443	      0.04698628
      0.64406780	      0.01592279	      0.02428442	      0.04732077
      0.66101695	      0.01625284	      0.02453481	      0.04779248
      0.67796610	      0.01653512	      0.02474695	      0.04812577
      0.69491525	      0.01658816	      0.02478662	      0.04906432
      0.71186441	      0.01642023	      0.02466083	      0.04976407
      0.72881356	      0.01629880	      0.02456948	      0.05042553
      0.74576271	      0.01631693	      0.02458314	      0.05086855
      0.76271186	      0.01629281	      0.02456496	      0.05106346
      0.77966102	      0.01641040	      0.02465345	      0.05118852
      0.79661017	      0.01646361	      0.02469339	      0.05087537
      0.81355932	      0.01649116	      0.02471404	      0.05054179
      0.83050847	      0.01647402	      0.02470119	      0.05021360
      0.84745763	      0.01644284	      0.02467781	      0.05020153
      0.86440678	      0.01641900	      0.02465991	      0.04978065
      0.88135593	      0.01649428	      0.02471637	      0.04988516
      0.89830508	      0.01665378	      0.02483559	      0.04969862
      0.91525424	      0.01684991	      0.02498141	      0.04983651
      0.93220339	      0.01700954	      0.02509946	      0.05003139
      0.94915254	      0.01691996	      0.02503328	      0.04992131
      0.96610169	      0.01661908	      0.02480970	      0.04958043
      0.98305085	      0.01623053	      0.02451797	      0.04882044
      1.00000000	      0.01593531	      0.02429397	      0.04817825
      1.01694915	      0.01565829	      0.02408188	      0.04763966
      1.03389831	      0.01557035	      0.02401415	      0.04711306
      1.05084746	      0.01560164	      0.02403827	      0.04792626
      1.06779661	      0.01607926	      0.02440345	      0.04844373
      1.08474576	      0.01679168	      0.02493821	      0.04807492
      1.10169492	      0.01752149	      0.02547438	      0.04737167
      1.11864407	      0.01796591	      0.02579543	      0.04764724
      1.13559322	      0.01795931	      0.02579069	      0.04776284
      1.15254237	      0.01762400	      0.02554879	      0.04786632
      1.16949153	      0.01725841	      0.02528241	      0.04808113
      1.18644068	      0.01697415	      0.02507334	      0.04790983
      1.20338983	      0.01675514	      0.02491106	      0.04745729
      1.22033898	      0.01654232	      0.02475234	      0.04648055
      1.23728814	      0.01631288	      0.02458009	      0.04514533
      1.25423729	      0.01596773	      0.02431866	      0.04319771
      1.27118644	      0.01544489	      0.02391721	      0.04145435
      1.28813559	      0.01486063	      0.02346047	      0.04069849
      1.30508475	      0.01456247	      0.02322392	      0.04077017
      1.32203390	      0.01457398	      0.02323310	      0.03891647
      1.33898305	      0.01481234	      0.02342232	      0.03611870
      1.35593220	      0.01521241	      0.02373652	      0.03917308
      1.37288136	      0.01574944	      0.02415186	      0.04068482
      1.38983051	      0.01647207	      0.02469973	      0.04003390
      1.40677966	      0.01741619	      0.02539772	      0.04222028
      1.42372881	      0.01841446	      0.02611546	      0.04503168
      1.44067797	      0.01900071	      0.02652791	      0.04648160
      1.45762712	      0.01922820	      0.02668624	      0.04515407
      1.47457627	      0.01947792	      0.02685897	      0.04475986
      1.49152542	      0.01988797	      0.02714022	      0.04595467
      1.50847458	      0.02003754	      0.02724209	      0.04702450
      1.52542373	      0.01950097	      0.02687486	      0.04623128
      1.54237288	      0.01825490	      0.02600207	      0.04537700
      1.55932203	      0.01687201	      0.02499779	      0.04416499
      1.57627119	      0.01595278	      0.02430728	      0.04321734
      1.59322034	      0.01567803	      0.02409705	      0.04265935
      1.61016949	      0.01577391	      0.02417062	      0.04240469
      1.62711864	      0.01586923	      0.02424354	      0.04232153
      1.64406780	      0.01568383	      0.02410151	      0.04258070
      1.66101695	      0.01514560	      0.02368435	      0.04219352
      1.67796610	      0.01442425	      0.02311345	      0.04253066
      1.69491525	      0.01373268	      0.02255255	      0.04257631
      1.71186441	      0.01323610	      0.02214105	      0.04256177
      1.72881356	      0.01296901	      0.02191652	      0.04294654
      1.74576271	      0.01287792	      0.02183941	      0.04315284
      1.76271186	      0.01288253	      0.02184333	      0.04422546
      1.77966102	      0.01302636	      0.02196492	      0.04444070
      1.79661017	      0.01330900	      0.02220193	      0.04438478
      1.81355932	      0.01369459	      0.02252126	      0.04528712
      1.83050847	      0.01414252	      0.02288661	      0.04563810
      1.84745763	      0.01461590	      0.02326649	      0.04578918
      1.86440678	      0.01508266	      0.02363508	      0.04604440
      1.88135593	      0.01551219	      0.02396926	      0.04624658
      1.89830508	      0.01589751	      0.02426513	      0.04672402
      1.91525424	      0.01630593	      0.02457485	      0.04720388
      1.93220339	      0.01673897	      0.02489904	      0.04752126
      1.94915254	      0.01715152	      0.02520400	      0.04753209
      1.96610169	      0.01745125	      0.02542327	      0.04843459
      1.98305085	      0.01755474	      0.02549854	      0.04897814
      2.00000000	      0.01747322	      0.02543927	      0.04947847
      2.01694915	      0.01724265	      0.02527087	      0.04966922
      2.03389831	      0.01696422	      0.02506600	      0.04952369
      2.05084746	      0.01676245	      0.02491649	      0.04929361
      2.06779661	      0.01679010	      0.02493704	      0.04955689
      2.08474576	      0.01705788	      0.02513510	      0.04994265
      2.10169492	      0.01754122	      0.02548872	      0.05059407
      2.11864407	      0.01812073	      0.02590634	      0.05109646
      2.13559322	      0.01863518	      0.02627150	      0.05139790
      2.15254237	      0.01898444	      0.02651655	      0.05139395
      2.16949153	      0.01904439	      0.02655839	      0.05003914
      2.18644068	      0.01890351	      0.02645997	      0.04909038
      2.20338983	      0.01857902	      0.02623189	      0.04807988
      2.22033898	      0.01825733	      0.02600379	      0.04767269
      2.23728814	      0.01811867	      0.02590486	      0.04881288
      2.25423729	      0.01827109	      0.02601360	      0.04954924
      2.27118644	      0.01867613	      0.02630035	      0.05107249
      2.28813559	      0.01922264	      0.02668238	      0.05416261
      2.30508475	      0.01976599	      0.02705686	      0.05704788
      2.32203390	      0.02014302	      0.02731369	      0.05915165
      2.33898305	      0.02029325	      0.02741535	      0.06026490
      2.35593220	      0.02028939	      0.02741275	      0.06042786
      2.37288136	      0.02023952	      0.02737904	      0.05970390
      2.38983051	      0.02019361	      0.02734797	      0.05838524
      2.40677966	      0.02004585	      0.02724773	      0.05689875
      2.42372881	      0.01970701	      0.02701646	      0.05682335
      2.44067797	      0.01919825	      0.02666545	      0.05715452
      2.45762712	      0.01862500	      0.02626432	      0.05716664
      2.47457627	      0.01829988	      0.02603408	      0.05642062
      2.49152542	      0.01823012	      0.02598441	      0.05588319
      2.50847458	      0.01844414	      0.02613649	      0.05521152
      2.52542373	      0.01883461	      0.02641170	      0.05464703
      2.54237288	      0.01935044	      0.02677093	      0.05407020
      2.55932203	      0.01985842	      0.02712005	      0.05356583
      2.57627119	      0.02015734	      0.02732340	      0.05326281
      2.59322034	      0.02005526	      0.02725413	      0.05300782
      2.61016949	      0.01951616	      0.02688533	      0.05253076
      2.62711864	      0.01873124	      0.02633913	      0.05226259
      2.64406780	      0.01801955	      0.02583390	      0.05201688
      2.66101695	      0.01763344	      0.02555563	      0.05214846
      2.67796610	      0.01750158	      0.02545990	      0.05276542
      2.69491525	      0.01742814	      0.02540643	      0.05335882
      2.71186441	      0.01726176	      0.02528487	      0.05348349
      2.72881356	      0.01696892	      0.02506947	      0.05432211
      2.74576271	      0.01672374	      0.02488770	      0.05422870
      2.76271186	      0.01655332	      0.02476057	      0.05374232
      2.77966102	      0.01638392	      0.02463355	      0.05329438
      2.79661017	      0.01620289	      0.02449709	      0.05251795
      2.81355932	      0.01595908	      0.02431208	      0.05229952
      2.83050847	      0.01562673	      0.02405759	      0.05139469
      2.84745763	      0.01534092	      0.02383657	      0.05118337
      2.86440678	      0.01519192	      0.02372053	      0.05131234
      2.88135593	      0.01509489	      0.02364466	      0.05129125
      2.89830508	      0.01507866	      0.02363194	      0.05154444
      2.91525424	      0.01506310	      0.02361975	      0.05212376
      2.93220339	      0.01502103	      0.02358675	      0.05248762
      2.94915254	      0.01501812	      0.02358446	      0.05256592
      2.96610169	      0.01511905	      0.02366358	      0.05251122
      2.98305085	      0.01536463	      0.02385499	      0.05216788
      3.00000000	      0.01567888	      0.02409770	      0.05152538
      3.01694915	      0.01596178	      0.02431414	      0.05088883
      3.03389831	      0.01618140	      0.02448083	      0.05020520
      3.05084746	      0.01635262	      0.02461001	      0.04946392
      3.06779661	      0.01634119	      0.02460141	      0.04881183
      3.08474576	      0.01621879	      0.02450910	      0.04817108
      3.10169492	      0.01594285	      0.02429971	      0.04777239
      3.11864407	      0.01558585	      0.02402610	      0.04751078
      3.13559322	      0.01527820	      0.02378779	      0.04718829
      3.15254237	      0.01516333	      0.02369820	      0.04723068
      3.16949153	      0.01518218	      0.02371293	      0.04810063
      3.18644068	      0.01542194	      0.02389943	      0.04845709
      3.20338983	      0.01581285	      0.02420043	      0.04854465
      3.22033898	      0.01631080	      0.02457852	      0.04780623
      3.23728814	      0.01694434	      0.02505131	      0.04673082
      3.25423729	      0.01750061	      0.02545920	      0.04585170
      3.27118644	      0.01804205	      0.02585003	      0.04550141
      3.28813559	      0.01847734	      0.02616001	      0.04567399
      3.30508475	      0.01888511	      0.02644709	      0.04596987
      3.32203390	      0.01933601	      0.02676095	      0.04721867
      3.33898305	      0.01975349	      0.02704830	      0.04875204
      3.35593220	      0.01995672	      0.02718709	      0.05012120
      3.37288136	      0.01992525	      0.02716565	      0.05071894
      3.38983051	      0.01981330	      0.02708922	      0.05065096
      3.40677966	      0.01975030	      0.02704612	      0.05165371
      3.42372881	      0.01981616	      0.02709118	      0.05139133
      3.44067797	      0.01996896	      0.02719542	      0.05070197
      3.45762712	      0.02010242	      0.02728615	      0.04999621
      3.47457627	      0.02010030	      0.02728471	      0.05268309
      3.49152542	      0.01993495	      0.02717226	      0.05485822
      3.50847458	      0.01958117	      0.02693006	      0.05651120
      3.52542373	      0.01922978	      0.02668734	      0.05864355
      3.54237288	      0.01898306	      0.02651558	      0.06048971
      3.55932203	      0.01893299	      0.02648060	      0.06172105
      3.57627119	      0.01918156	      0.02665386	      0.06377116
      3.59322034	      0.01953956	      0.02690144	      0.06485430
      3.61016949	      0.01987557	      0.02713175	      0.06448054
      3.62711864	      0.02005322	      0.02725274	      0.06241301
      3.64406780	      0.02009944	      0.02728413	      0.05958042
      3.66101695	      0.02006192	      0.02725865	      0.05613459
      3.67796610	      0.01997414	      0.02719895	      0.05368278
      3.69491525	      0.01977952	      0.02706612	      0.05199458
      3.71186441	      0.01942923	      0.02682538	      0.05070348
      3.72881356	      0.01889342	      0.02645291	      0.04871085
      3.74576271	      0.01829236	      0.02602873	      0.04670457
      3.76271186	      0.01769819	      0.02560251	      0.04522114
      3.77966102	      0.01727476	      0.02529439	      0.04495031
      3.79661017	      0.01700889	      0.02509898	      0.04477194
      3.81355932	      0.01695166	      0.02505672	      0.04500054
      3.83050847	      0.01707262	      0.02514596	      0.04850464
      3.84745763	      0.01722789	      0.02526005	      0.05050451
      3.86440678	      0.01730920	      0.02531959	      0.04917912
      3.88135593	      0.01721130	      0.02524788	      0.04652249
      3.89830508	      0.01686544	      0.02499292	      0.04591712
      3.91525424	      0.01629657	      0.02456780	      0.04604110
      3.93220339	      0.01566146	      0.02408431	      0.04609303
      3.94915254	      0.01512598	      0.02366900	      0.04687672
      3.96610169	      0.01467816	      0.02331599	      0.04623235
      3.98305085	      0.01439081	      0.02308664	      0.04613997
      4.00000000	      0.01431201	      0.02302334	      0.04630557
      4.01694915	      0.01438900	      0.02308519	      0.04645824
      4.03389831	      0.01457349	      0.02323271	      0.04727335
      4.05084746	      0.01474921	      0.02337236	      0.04845249
      4.06779661	      0.01481510	      0.02342451	      0.04966332
      4.08474576	      0.01474102	      0.02336587	      0.05024019
      4.10169492	      0.01453248	      0.02320000	      0.05145990
      4.11864407	      0.01427447	      0.02299313	      0.05160230
      4.13559322	      0.01403565	      0.02279998	      0.05158733
      4.15254237	      0.01388800	      0.02267973	      0.05145846
      4.16949153	      0.01388481	      0.02267713	      0.05144285
      4.18644068	      0.01393332	      0.02271671	      0.05109492
      4.20338983	      0.01396275	      0.02274069	      0.05109277
      4.22033898	      0.01396219	      0.02274023	      0.05131061
      4.23728814	      0.01400425	      0.02277446	      0.05119495
      4.25423729	      0.01412023	      0.02286857	      0.05127281
      4.27118644	      0.01431987	      0.02302967	      0.05131224
      4.28813559	      0.01455546	      0.02321833	      0.05102633
      4.30508475	      0.01478131	      0.02339778	      0.05108517
      4.32203390	      0.01495797	      0.02353718	      0.05123533
      4.33898305	      0.01497579	      0.02355120	      0.05125906
      4.35593220	      0.01495299	      0.02353326	      0.05123465
      4.37288136	      0.01488708	      0.02348134	      0.05220069
      4.38983051	      0.01490399	      0.02349468	      0.05265100
      4.40677966	      0.01492970	      0.02351493	      0.05267879
      4.42372881	      0.01493196	      0.02351671	      0.05209265
      4.44067797	      0.01493992	      0.02352297	      0.05104647
      4.45762712	      0.01512002	      0.02366434	      0.04954378
      4.47457627	      0.01551816	      0.02397387	      0.04821299
      4.49152542	      0.01584725	      0.02422675	      0.05004851
      4.50847458	      0.01566934	      0.02409037	      0.04899604
      4.52542373	      0.01497418	      0.02354993	      0.04694134
      4.54237288	      0.01431342	      0.02302448	      0.04776868
      4.55932203	      0.01419530	      0.02292928	      0.04909402
      4.57627119	      0.01471093	      0.02334201	      0.05047452
      4.59322034	      0.01543246	      0.02390759	      0.05144118
      4.61016949	      0.01615392	      0.02446003	      0.05227161
      4.62711864	      0.01692954	      0.02504037	      0.05246830
      4.64406780	      0.01783791	      0.02570337	      0.05286901
      4.66101695	      0.01869875	      0.02631627	      0.05328290
      4.67796610	      0.01930267	      0.02673787	      0.05365157
      4.69491525	      0.01985375	      0.02711686	      0.05346371
      4.71186441	      0.02034657	      0.02745135	      0.05288875
      4.72881356	      0.02057725	      0.02760653	      0.05203995
      4.74576271	      0.02032126	      0.02743427	      0.05147246
      4.76271186	      0.01967495	      0.02699448	      0.05063637
      4.77966102	      0.01901579	      0.02653843	      0.05008519
      4.79661017	      0.01862618	      0.02626515	      0.05006523
      4.81355932	      0.01859646	      0.02624420	      0.04992840
      4.83050847	      0.01884146	      0.02641651	      0.05027057
      4.84745763	      0.01935294	      0.02677266	      0.05084383
      4.86440678	      0.02032645	      0.02743778	      0.05158795
      4.88135593	      0.02167237	      0.02833161	      0.05282728
      4.89830508	      0.02330446	      0.02937904	      0.05426449
      4.91525424	      0.02474099	      0.03027099	      0.05576311
      4.93220339	      0.02604004	      0.03105553	      0.05707970
      4.94915254	      0.02699970	      0.03162260	      0.05815321
      4.96610169	      0.02725597	      0.03177232	      0.06260833
      4.98305085	      0.02664550	      0.03141449	      0.06254542
      5.00000000	      0.02523437	      0.03057133	      0.05799849
      5.01694915	      0.02368869	      0.02962025	      0.05746134
      5.03389831	      0.02229621	      0.02873649	      0.05690062
      5.05084746	      0.02116284	      0.02799659	      0.05597950
      5.06779661	      0.02041565	      0.02749791	      0.05566006
      5.08474576	      0.01992873	      0.02716802	      0.05476373
      5.10169492	      0.01959885	      0.02694222	      0.05432822
      5.11864407	      0.01926759	      0.02671356	      0.05367548
      5.13559322	      0.01894383	      0.02648818	      0.05332558
      5.15254237	      0.01863049	      0.02626819	      0.05298239
      5.16949153	      0.01837755	      0.02608927	      0.05296284
      5.18644068	      0.01826879	      0.02601196	      0.05286331
      5.20338983	      0.01824590	      0.02599566	      0.05292338
      5.22033898	      0.01831651	      0.02604591	      0.05299356
      5.23728814	      0.01843829	      0.02613235	      0.05306557
      5.25423729	      0.01847558	      0.02615876	      0.05309940
      5.27118644	      0.01841515	      0.02611595	      0.05303373
      5.28813559	      0.01826444	      0.02600886	      0.05311477
      5.30508475	      0.01808391	      0.02588000	      0.05308570
      5.32203390	      0.01793281	      0.02577166	      0.05315709
      5.33898305	      0.01785269	      0.02571402	      0.05345304
      5.35593220	      0.01783940	      0.02570445	      0.05377527
      5.37288136	      0.01776145	      0.02564823	      0.05453052
      5.38983051	      0.01801542	      0.02583095	      0.05476705
      5.40677966	      0.01853987	      0.02620424	      0.05475562
      5.42372881	      0.01905993	      0.02656921	      0.05490468
      5.44067797	      0.01953306	      0.02689697	      0.05484986
      5.45762712	      0.01947354	      0.02685596	      0.05444003
      5.47457627	      0.01912489	      0.02661445	      0.05484952
      5.49152542	      0.01851289	      0.02618516	      0.05481601
      5.50847458	      0.01802301	      0.02583638	      0.05453004
      5.52542373	      0.01790854	      0.02575421	      0.05499817
      5.54237288	      0.01829523	      0.02603078	      0.05550116
      5.55932203	      0.01925206	      0.02670279	      0.05601538
      5.57627119	      0.02051106	      0.02756209	      0.05636110
      5.59322034	      0.02150814	      0.02822406	      0.05645399
      5.61016949	      0.02176112	      0.02838957	      0.05620795
      5.62711864	      0.02128379	      0.02807648	      0.05570800
      5.64406780	      0.02058639	      0.02761266	      0.05482264
      5.66101695	      0.02003069	      0.02723743	      0.05421074
      5.67796610	      0.01963058	      0.02696402	      0.05411940
      5.69491525	      0.01931441	      0.02674600	      0.05392471
      5.71186441	      0.01914717	      0.02662995	      0.05389963
      5.72881356	      0.01903717	      0.02655335	      0.05394833
      5.74576271	      0.01894163	      0.02648664	      0.05337517
      5.76271186	      0.01899616	      0.02652473	      0.05279207
      5.77966102	      0.01937411	      0.02678730	      0.05206219
      5.79661017	      0.02025474	      0.02738933	      0.05196112
      5.81355932	      0.02167991	      0.02833654	      0.05241405
      5.83050847	      0.02296905	      0.02916686	      0.05472530
      5.84745763	      0.02353194	      0.02952208	      0.05670967
      5.86440678	      0.02320583	      0.02931680	      0.05726304
      5.88135593	      0.02226546	      0.02871666	      0.05652423
      5.89830508	      0.02113244	      0.02797647	      0.05447432
      5.91525424	      0.02018477	      0.02734198	      0.05223900
      5.93220339	      0.01965252	      0.02697908	      0.05209592
      5.94915254	      0.01956583	      0.02691951	      0.05207418
      5.96610169	      0.01983038	      0.02710090	      0.05214961
      5.98305085	      0.02023992	      0.02737931	      0.05221439
      6.00000000	      0.02070452	      0.02769177	      0.05235291
      6.01694915	      0.02130805	      0.02809247	      0.05503512
      6.03389831	      0.02229712	      0.02873707	      0.05897587
