Model Marker Errors from IK
version=1
nRows=176
nColumns=4
inDegrees=no
endheader
time	total_squared_error	marker_error_RMS	marker_error_max
      0.00000000	      0.02543076	      0.03069006	      0.06982478
      0.01785714	      0.02433471	      0.03002142	      0.06899493
      0.03571429	      0.02393671	      0.02977490	      0.06939624
      0.05357143	      0.02388663	      0.02974374	      0.06938205
      0.07142857	      0.02403675	      0.02983705	      0.06951177
      0.08928571	      0.02424770	      0.02996770	      0.06941766
      0.10714286	      0.02448071	      0.03011134	      0.06942943
      0.12500000	      0.02463378	      0.03020534	      0.06933416
      0.14285714	      0.02469010	      0.03023985	      0.06918735
      0.16071429	      0.02464560	      0.03021258	      0.06878649
      0.17857143	      0.02454918	      0.03015342	      0.06799812
      0.19642857	      0.02449646	      0.03012103	      0.06764545
      0.21428571	      0.02439210	      0.03005680	      0.06734798
      0.23214286	      0.02418914	      0.02993149	      0.06710314
      0.25000000	      0.02387341	      0.02973550	      0.06635428
      0.26785714	      0.02351978	      0.02951445	      0.06482272
      0.28571429	      0.02319500	      0.02930997	      0.06244575
      0.30357143	      0.02288349	      0.02911248	      0.05926115
      0.32142857	      0.02250563	      0.02887113	      0.05509354
      0.33928571	      0.02184998	      0.02844747	      0.05084566
      0.35714286	      0.02107609	      0.02793915	      0.04690237
      0.37500000	      0.02044396	      0.02751697	      0.04560462
      0.39285714	      0.02042369	      0.02750332	      0.04835734
      0.41071429	      0.02124617	      0.02805165	      0.05508140
      0.42857143	      0.02284255	      0.02908643	      0.06361608
      0.44642857	      0.02485529	      0.03034084	      0.07087344
      0.46428571	      0.02666680	      0.03142705	      0.07503867
      0.48214286	      0.02758254	      0.03196210	      0.07594275
      0.50000000	      0.02717690	      0.03172620	      0.07388108
      0.51785714	      0.02571486	      0.03086102	      0.07059728
      0.53571429	      0.02402076	      0.02982713	      0.06724366
      0.55357143	      0.02281648	      0.02906982	      0.06614835
      0.57142857	      0.02214861	      0.02864121	      0.06518250
      0.58928571	      0.02152381	      0.02823435	      0.06251771
      0.60714286	      0.02065416	      0.02765807	      0.05638013
      0.62500000	      0.01977287	      0.02706157	      0.05627674
      0.64285714	      0.01905342	      0.02656468	      0.05310128
      0.66071429	      0.01833554	      0.02605944	      0.05071859
      0.67857143	      0.01759849	      0.02553029	      0.04788119
      0.69642857	      0.01704585	      0.02512623	      0.04677253
      0.71428571	      0.01672693	      0.02489008	      0.04802286
      0.73214286	      0.01644162	      0.02467689	      0.05026830
      0.75000000	      0.01616810	      0.02447077	      0.05209120
      0.76785714	      0.01648946	      0.02471276	      0.05374256
      0.78571429	      0.01687137	      0.02499731	      0.05209855
      0.80357143	      0.01682521	      0.02496309	      0.05097273
      0.82142857	      0.01619988	      0.02449481	      0.05085019
      0.83928571	      0.01559471	      0.02403293	      0.05024208
      0.85714286	      0.01542629	      0.02390280	      0.04869494
      0.87500000	      0.01581032	      0.02419850	      0.04672802
      0.89285714	      0.01663163	      0.02481907	      0.04516741
      0.91071429	      0.01784028	      0.02570508	      0.04668210
      0.92857143	      0.01941652	      0.02681660	      0.05166002
      0.94642857	      0.02067640	      0.02767296	      0.05466984
      0.96428571	      0.02060666	      0.02762625	      0.05528315
      0.98214286	      0.01953634	      0.02689922	      0.05301631
      1.00000000	      0.01829294	      0.02602915	      0.04834467
      1.01785714	      0.01734669	      0.02534699	      0.04599100
      1.03571429	      0.01697786	      0.02507608	      0.04606603
      1.05357143	      0.01747158	      0.02543807	      0.04719139
      1.07142857	      0.01882933	      0.02640800	      0.05659041
      1.08928571	      0.01979141	      0.02707425	      0.06045343
      1.10714286	      0.01895446	      0.02649561	      0.05700578
      1.12500000	      0.01683310	      0.02496895	      0.04610045
      1.14285714	      0.01478890	      0.02340378	      0.04477964
      1.16071429	      0.01398039	      0.02275505	      0.04545839
      1.17857143	      0.01541092	      0.02389089	      0.04619966
      1.19642857	      0.01815043	      0.02592756	      0.05007245
      1.21428571	      0.02008863	      0.02727679	      0.05284958
      1.23214286	      0.02003498	      0.02724034	      0.05524603
      1.25000000	      0.01856724	      0.02622357	      0.05585331
      1.26785714	      0.01705858	      0.02513561	      0.05340932
      1.28571429	      0.01645601	      0.02468769	      0.04957307
      1.30357143	      0.01731471	      0.02532362	      0.05641380
      1.32142857	      0.01829458	      0.02603031	      0.06479166
      1.33928571	      0.01803479	      0.02584483	      0.06097152
      1.35714286	      0.01687060	      0.02499674	      0.04782062
      1.37500000	      0.01554023	      0.02399091	      0.04589141
      1.39285714	      0.01449992	      0.02317400	      0.04583833
      1.41071429	      0.01448556	      0.02316251	      0.04630539
      1.42857143	      0.01552859	      0.02398193	      0.04815820
      1.44642857	      0.01700026	      0.02509261	      0.05056673
      1.46428571	      0.01776356	      0.02564975	      0.04875347
      1.48214286	      0.01757264	      0.02551153	      0.05177741
      1.50000000	      0.01710434	      0.02516931	      0.05278097
      1.51785714	      0.01676898	      0.02492134	      0.05040393
      1.53571429	      0.01745162	      0.02542354	      0.05669386
      1.55357143	      0.01919066	      0.02666018	      0.06886578
      1.57142857	      0.02123183	      0.02804218	      0.07431261
      1.58928571	      0.02195142	      0.02851343	      0.07145823
      1.60714286	      0.02040726	      0.02749226	      0.05881720
      1.62500000	      0.01718903	      0.02523154	      0.04639054
      1.64285714	      0.01421530	      0.02294542	      0.04598336
      1.66071429	      0.01418173	      0.02291831	      0.04600347
      1.67857143	      0.01741820	      0.02539919	      0.04620614
      1.69642857	      0.02152041	      0.02823211	      0.05144848
      1.71428571	      0.02384594	      0.02971839	      0.05018250
      1.73214286	      0.02352357	      0.02951683	      0.05557396
      1.75000000	      0.02145671	      0.02819030	      0.05582854
      1.76785714	      0.01942802	      0.02682455	      0.05258391
      1.78571429	      0.01845912	      0.02614710	      0.04862570
      1.80357143	      0.01871868	      0.02633029	      0.05524219
      1.82142857	      0.01938553	      0.02679520	      0.06324102
      1.83928571	      0.01919351	      0.02666216	      0.06297271
      1.85714286	      0.01772801	      0.02562407	      0.05444673
      1.87500000	      0.01610172	      0.02442048	      0.04928857
      1.89285714	      0.01546761	      0.02393479	      0.04627297
      1.91071429	      0.01653126	      0.02474407	      0.04768232
      1.92857143	      0.01937765	      0.02678975	      0.04938986
      1.94642857	      0.02266423	      0.02897267	      0.05232824
      1.96428571	      0.02463806	      0.03020796	      0.05807940
      1.98214286	      0.02453614	      0.03014541	      0.05803420
      2.00000000	      0.02299543	      0.02918360	      0.05811716
      2.01785714	      0.02104693	      0.02791981	      0.05680285
      2.03571429	      0.01921030	      0.02667382	      0.05258124
      2.05357143	      0.01785531	      0.02571591	      0.05212750
      2.07142857	      0.01746173	      0.02543090	      0.05033692
      2.08928571	      0.01769107	      0.02559736	      0.05028936
      2.10714286	      0.01741437	      0.02539639	      0.04869248
      2.12500000	      0.01632677	      0.02459055	      0.05050748
      2.14285714	      0.01544909	      0.02392046	      0.05184190
      2.16071429	      0.01556250	      0.02400810	      0.05094785
      2.17857143	      0.01715571	      0.02520707	      0.05175667
      2.19642857	      0.01884485	      0.02641888	      0.05290173
      2.21428571	      0.01888929	      0.02645002	      0.05360380
      2.23214286	      0.01777972	      0.02566141	      0.05383190
      2.25000000	      0.01684942	      0.02498104	      0.05361431
      2.26785714	      0.01681747	      0.02495735	      0.05441302
      2.28571429	      0.01717788	      0.02522336	      0.05530450
      2.30357143	      0.01724969	      0.02527602	      0.05519594
      2.32142857	      0.01690763	      0.02502416	      0.05376515
      2.33928571	      0.01680588	      0.02494874	      0.05163282
      2.35714286	      0.01744503	      0.02541874	      0.05204185
      2.37500000	      0.01854410	      0.02620723	      0.05228689
      2.39285714	      0.01934704	      0.02676859	      0.05213327
      2.41071429	      0.01936694	      0.02678234	      0.05185881
      2.42857143	      0.01861331	      0.02625608	      0.05127683
      2.44642857	      0.01741598	      0.02539756	      0.05064981
      2.46428571	      0.01623948	      0.02452473	      0.05004812
      2.48214286	      0.01579578	      0.02418737	      0.05027014
      2.50000000	      0.01644256	      0.02467759	      0.05586096
      2.51785714	      0.01806260	      0.02586474	      0.06222808
      2.53571429	      0.02010165	      0.02728563	      0.06695285
      2.55357143	      0.02242089	      0.02881672	      0.06794211
      2.57142857	      0.02475651	      0.03028048	      0.06514017
      2.58928571	      0.02692283	      0.03157755	      0.07526573
      2.60714286	      0.02876834	      0.03264191	      0.08971755
      2.62500000	      0.03015800	      0.03342100	      0.10163824
      2.64285714	      0.03062545	      0.03367901	      0.10824599
      2.66071429	      0.02985840	      0.03325457	      0.10782842
      2.67857143	      0.02830374	      0.03237726	      0.10164808
      2.69642857	      0.02683168	      0.03152405	      0.09299768
      2.71428571	      0.02626845	      0.03119143	      0.08597022
      2.73214286	      0.02682578	      0.03152058	      0.08228942
      2.75000000	      0.02825250	      0.03234793	      0.08145595
      2.76785714	      0.03005644	      0.03336468	      0.08177649
      2.78571429	      0.03156443	      0.03419141	      0.08206603
      2.80357143	      0.03208021	      0.03446964	      0.08183540
      2.82142857	      0.03129961	      0.03404768	      0.07996012
      2.83928571	      0.02980672	      0.03322578	      0.07683919
      2.85714286	      0.02869187	      0.03259849	      0.07321708
      2.87500000	      0.02861901	      0.03255708	      0.07058876
      2.89285714	      0.02940852	      0.03300310	      0.06982261
      2.91071429	      0.03042013	      0.03356593	      0.07087710
      2.92857143	      0.03114034	      0.03396095	      0.07212987
      2.94642857	      0.03156163	      0.03418990	      0.07407647
      2.96428571	      0.03168664	      0.03425754	      0.07482369
      2.98214286	      0.03176189	      0.03429820	      0.07613393
      3.00000000	      0.03182992	      0.03433491	      0.07667093
      3.01785714	      0.03205057	      0.03445371	      0.07667394
      3.03571429	      0.03237282	      0.03462649	      0.07590962
      3.05357143	      0.03278192	      0.03484459	      0.07558478
      3.07142857	      0.03320368	      0.03506802	      0.07570931
      3.08928571	      0.03353368	      0.03524185	      0.07671611
      3.10714286	      0.03382663	      0.03539546	      0.07919843
      3.12500000	      0.03430871	      0.03564678	      0.08360459
