Model Marker Errors from IK
version=1
nRows=386
nColumns=4
inDegrees=no
endheader
time	total_squared_error	marker_error_RMS	marker_error_max
      0.00000000	      0.01641284	      0.02465528	      0.04697643
      0.01666667	      0.01636265	      0.02461755	      0.04411283
      0.03333333	      0.01624250	      0.02452701	      0.04162405
      0.05000000	      0.01597119	      0.02432130	      0.03971513
      0.06666667	      0.01558333	      0.02402416	      0.03892276
      0.08333333	      0.01516681	      0.02370092	      0.04008747
      0.10000000	      0.01480385	      0.02341561	      0.04101615
      0.11666667	      0.01458616	      0.02324281	      0.04150806
      0.13333333	      0.01457619	      0.02323486	      0.04175749
      0.15000000	      0.01479247	      0.02340661	      0.04193197
      0.16666667	      0.01525057	      0.02376628	      0.04237303
      0.18333333	      0.01586289	      0.02423870	      0.04269193
      0.20000000	      0.01661435	      0.02480617	      0.04309826
      0.21666667	      0.01728897	      0.02530478	      0.04470367
      0.23333333	      0.01778500	      0.02566522	      0.04650960
      0.25000000	      0.01806706	      0.02586794	      0.04796567
      0.26666667	      0.01816529	      0.02593816	      0.04888742
      0.28333333	      0.01820244	      0.02596467	      0.04940707
      0.30000000	      0.01822379	      0.02597990	      0.04966618
      0.31666667	      0.01821655	      0.02597474	      0.04948735
      0.33333333	      0.01815288	      0.02592930	      0.04900956
      0.35000000	      0.01802414	      0.02583719	      0.04836867
      0.36666667	      0.01787972	      0.02573348	      0.04753728
      0.38333333	      0.01777972	      0.02566141	      0.04715976
      0.40000000	      0.01775892	      0.02564640	      0.04712903
      0.41666667	      0.01782414	      0.02569345	      0.04760377
      0.43333333	      0.01788888	      0.02574007	      0.04791011
      0.45000000	      0.01792582	      0.02576663	      0.04824278
      0.46666667	      0.01791168	      0.02575647	      0.04854423
      0.48333333	      0.01780849	      0.02568217	      0.04865798
      0.50000000	      0.01761582	      0.02554286	      0.04867129
      0.51666667	      0.01737031	      0.02536424	      0.04855310
      0.53333333	      0.01718224	      0.02522656	      0.04882169
      0.55000000	      0.01708075	      0.02515195	      0.04876565
      0.56666667	      0.01712240	      0.02518260	      0.04916297
      0.58333333	      0.01726774	      0.02528925	      0.04958630
      0.60000000	      0.01747527	      0.02544076	      0.05005267
      0.61666667	      0.01770083	      0.02560442	      0.05035087
      0.63333333	      0.01785534	      0.02571593	      0.05031304
      0.65000000	      0.01784083	      0.02570547	      0.04997653
      0.66666667	      0.01771039	      0.02561133	      0.04919519
      0.68333333	      0.01758243	      0.02551864	      0.04905030
      0.70000000	      0.01743721	      0.02541304	      0.04880015
      0.71666667	      0.01709474	      0.02516224	      0.04801451
      0.73333333	      0.01628885	      0.02456197	      0.04528974
      0.75000000	      0.01518701	      0.02371670	      0.04281314
      0.76666667	      0.01413315	      0.02287903	      0.04151546
      0.78333333	      0.01345614	      0.02232433	      0.04012313
      0.80000000	      0.01299608	      0.02193938	      0.03955554
      0.81666667	      0.01287922	      0.02184052	      0.03876231
      0.83333333	      0.01309309	      0.02202111	      0.03962693
      0.85000000	      0.01348960	      0.02235207	      0.04164656
      0.86666667	      0.01375353	      0.02256967	      0.04363304
      0.88333333	      0.01375038	      0.02256709	      0.04461852
      0.90000000	      0.01362834	      0.02246671	      0.04481116
      0.91666667	      0.01351829	      0.02237582	      0.04402997
      0.93333333	      0.01345008	      0.02231930	      0.04239763
      0.95000000	      0.01344750	      0.02231716	      0.04101925
      0.96666667	      0.01335775	      0.02224256	      0.03929074
      0.98333333	      0.01321512	      0.02212349	      0.03849667
      1.00000000	      0.01290890	      0.02186567	      0.03715084
      1.01666667	      0.01249826	      0.02151508	      0.03629492
      1.03333333	      0.01213805	      0.02120277	      0.03730888
      1.05000000	      0.01194500	      0.02103348	      0.03863515
      1.06666667	      0.01194950	      0.02103745	      0.04014825
      1.08333333	      0.01216463	      0.02122597	      0.04163256
      1.10000000	      0.01236828	      0.02140290	      0.04254809
      1.11666667	      0.01281506	      0.02178604	      0.04357200
      1.13333333	      0.01329204	      0.02218779	      0.04425393
      1.15000000	      0.01372709	      0.02254796	      0.04455618
      1.16666667	      0.01405670	      0.02281707	      0.04450531
      1.18333333	      0.01427131	      0.02299059	      0.04410267
      1.20000000	      0.01442053	      0.02311046	      0.04335661
      1.21666667	      0.01455415	      0.02321729	      0.04229740
      1.23333333	      0.01465452	      0.02329721	      0.04101742
      1.25000000	      0.01465375	      0.02329660	      0.03958044
      1.26666667	      0.01451358	      0.02318491	      0.03883019
      1.28333333	      0.01421354	      0.02294401	      0.03705956
      1.30000000	      0.01383441	      0.02263594	      0.03634181
      1.31666667	      0.01341984	      0.02229419	      0.03743882
      1.33333333	      0.01282925	      0.02179811	      0.03359475
      1.35000000	      0.01249766	      0.02151456	      0.03310775
      1.36666667	      0.01237957	      0.02141268	      0.03331694
      1.38333333	      0.01235829	      0.02139426	      0.03305712
      1.40000000	      0.01242552	      0.02145237	      0.03329551
      1.41666667	      0.01252010	      0.02153387	      0.03324592
      1.43333333	      0.01255190	      0.02156120	      0.03266572
      1.45000000	      0.01256754	      0.02157462	      0.03175586
      1.46666667	      0.01257193	      0.02157839	      0.03235477
      1.48333333	      0.01255400	      0.02156300	      0.03242786
      1.50000000	      0.01254459	      0.02155492	      0.03288531
      1.51666667	      0.01253826	      0.02154948	      0.03353388
      1.53333333	      0.01253320	      0.02154513	      0.03383813
      1.55000000	      0.01252072	      0.02153440	      0.03420114
      1.56666667	      0.01257722	      0.02158294	      0.03480713
      1.58333333	      0.01258954	      0.02159350	      0.03483874
      1.60000000	      0.01266403	      0.02165729	      0.03522754
      1.61666667	      0.01279230	      0.02176670	      0.03544538
      1.63333333	      0.01296229	      0.02191084	      0.03559748
      1.65000000	      0.01310566	      0.02203168	      0.03560690
      1.66666667	      0.01323604	      0.02214099	      0.03570415
      1.68333333	      0.01334138	      0.02222893	      0.03581439
      1.70000000	      0.01341296	      0.02228848	      0.03582843
      1.71666667	      0.01350064	      0.02236121	      0.03602408
      1.73333333	      0.01355546	      0.02240656	      0.03556821
      1.75000000	      0.01364648	      0.02248166	      0.03550501
      1.76666667	      0.01374246	      0.02256058	      0.03543121
      1.78333333	      0.01386268	      0.02265905	      0.03554103
      1.80000000	      0.01402442	      0.02279085	      0.03574496
      1.81666667	      0.01428092	      0.02299833	      0.03570225
      1.83333333	      0.01459759	      0.02325192	      0.03563699
      1.85000000	      0.01502287	      0.02358819	      0.03668347
      1.86666667	      0.01531324	      0.02381506	      0.03792085
      1.88333333	      0.01560511	      0.02404094	      0.03857491
      1.90000000	      0.01577188	      0.02416906	      0.03886870
      1.91666667	      0.01580303	      0.02419292	      0.03889329
      1.93333333	      0.01581263	      0.02420027	      0.03875254
      1.95000000	      0.01558911	      0.02402862	      0.03856846
      1.96666667	      0.01549072	      0.02395267	      0.03836400
      1.98333333	      0.01543257	      0.02390767	      0.03810182
      2.00000000	      0.01554987	      0.02399836	      0.03784607
      2.01666667	      0.01584866	      0.02422782	      0.03751691
      2.03333333	      0.01625260	      0.02453463	      0.03731450
      2.05000000	      0.01665370	      0.02483554	      0.03735583
      2.06666667	      0.01696254	      0.02506476	      0.03711422
      2.08333333	      0.01708658	      0.02515624	      0.03709100
      2.10000000	      0.01702029	      0.02510739	      0.03705443
      2.11666667	      0.01677584	      0.02492644	      0.03687114
      2.13333333	      0.01643156	      0.02466934	      0.03643354
      2.15000000	      0.01609182	      0.02441297	      0.03592474
      2.16666667	      0.01580954	      0.02419790	      0.03568220
      2.18333333	      0.01562163	      0.02405367	      0.03565821
      2.20000000	      0.01550767	      0.02396577	      0.03595592
      2.21666667	      0.01544141	      0.02391452	      0.03649536
      2.23333333	      0.01536303	      0.02385375	      0.03703917
      2.25000000	      0.01528323	      0.02379171	      0.03773773
      2.26666667	      0.01510161	      0.02364993	      0.03766094
      2.28333333	      0.01490299	      0.02349388	      0.03748367
      2.30000000	      0.01467064	      0.02331002	      0.03706378
      2.31666667	      0.01440597	      0.02309880	      0.03649843
      2.33333333	      0.01412626	      0.02287345	      0.03586851
      2.35000000	      0.01386455	      0.02266058	      0.03544484
      2.36666667	      0.01371175	      0.02253536	      0.03481530
      2.38333333	      0.01362648	      0.02246518	      0.03475040
      2.40000000	      0.01365090	      0.02248530	      0.03528255
      2.41666667	      0.01363628	      0.02247326	      0.03579362
      2.43333333	      0.01367480	      0.02250498	      0.03661007
      2.45000000	      0.01365455	      0.02248831	      0.03683675
      2.46666667	      0.01371422	      0.02253739	      0.03723594
      2.48333333	      0.01370583	      0.02253050	      0.03668434
      2.50000000	      0.01379367	      0.02260258	      0.03601125
      2.51666667	      0.01398331	      0.02275742	      0.03528975
      2.53333333	      0.01424275	      0.02296757	      0.03574263
      2.55000000	      0.01454878	      0.02321301	      0.03696441
      2.56666667	      0.01482098	      0.02342915	      0.03829608
      2.58333333	      0.01503381	      0.02359678	      0.03985712
      2.60000000	      0.01517693	      0.02370883	      0.04137376
      2.61666667	      0.01520308	      0.02372925	      0.04292394
      2.63333333	      0.01514860	      0.02368669	      0.04440092
      2.65000000	      0.01503929	      0.02360107	      0.04562307
      2.66666667	      0.01489366	      0.02348653	      0.04660272
      2.68333333	      0.01473973	      0.02336484	      0.04738861
      2.70000000	      0.01454867	      0.02321292	      0.04743451
      2.71666667	      0.01439638	      0.02309110	      0.04760470
      2.73333333	      0.01421855	      0.02294805	      0.04724062
      2.75000000	      0.01420738	      0.02293903	      0.04691201
      2.76666667	      0.01420132	      0.02293414	      0.04610501
      2.78333333	      0.01437231	      0.02307179	      0.04542227
      2.80000000	      0.01461224	      0.02326358	      0.04465119
      2.81666667	      0.01476871	      0.02338780	      0.04347368
      2.83333333	      0.01479770	      0.02341075	      0.04252799
      2.85000000	      0.01472006	      0.02334925	      0.04170319
      2.86666667	      0.01454798	      0.02321237	      0.04097771
      2.88333333	      0.01432626	      0.02303480	      0.04057135
      2.90000000	      0.01416542	      0.02290514	      0.04033658
      2.91666667	      0.01407638	      0.02283304	      0.04014103
      2.93333333	      0.01396227	      0.02274030	      0.04004115
      2.95000000	      0.01390965	      0.02269741	      0.04001647
      2.96666667	      0.01377028	      0.02258341	      0.03948303
      2.98333333	      0.01364207	      0.02247803	      0.03954353
      3.00000000	      0.01348262	      0.02234628	      0.03915679
      3.01666667	      0.01336473	      0.02224837	      0.03942410
      3.03333333	      0.01327625	      0.02217460	      0.03971962
      3.05000000	      0.01333290	      0.02222186	      0.04100165
      3.06666667	      0.01349662	      0.02235788	      0.04207800
      3.08333333	      0.01378603	      0.02259632	      0.04339278
      3.10000000	      0.01410041	      0.02285252	      0.04466988
      3.11666667	      0.01438759	      0.02308406	      0.04538620
      3.13333333	      0.01458860	      0.02324475	      0.04575901
      3.15000000	      0.01466648	      0.02330671	      0.04589200
      3.16666667	      0.01462947	      0.02327729	      0.04554719
      3.18333333	      0.01439155	      0.02308723	      0.04405057
      3.20000000	      0.01410934	      0.02285975	      0.04298324
      3.21666667	      0.01380926	      0.02261535	      0.04181701
      3.23333333	      0.01359976	      0.02244315	      0.04110689
      3.25000000	      0.01349884	      0.02235972	      0.04052186
      3.26666667	      0.01348036	      0.02234441	      0.04020139
      3.28333333	      0.01349810	      0.02235911	      0.03988773
      3.30000000	      0.01354214	      0.02239555	      0.03979042
      3.31666667	      0.01361810	      0.02245828	      0.04006110
      3.33333333	      0.01357037	      0.02241888	      0.03999936
      3.35000000	      0.01356780	      0.02241676	      0.04021646
      3.36666667	      0.01357724	      0.02242456	      0.04053032
      3.38333333	      0.01360035	      0.02244364	      0.04079258
      3.40000000	      0.01368729	      0.02251526	      0.04133286
      3.41666667	      0.01382643	      0.02262940	      0.04230407
      3.43333333	      0.01398504	      0.02275883	      0.04287823
      3.45000000	      0.01412761	      0.02287455	      0.04383464
      3.46666667	      0.01420793	      0.02293948	      0.04494439
      3.48333333	      0.01423475	      0.02296112	      0.04541160
      3.50000000	      0.01423164	      0.02295861	      0.04580427
      3.51666667	      0.01423382	      0.02296036	      0.04635838
      3.53333333	      0.01423134	      0.02295837	      0.04633399
      3.55000000	      0.01425510	      0.02297753	      0.04630761
      3.56666667	      0.01422162	      0.02295053	      0.04558839
      3.58333333	      0.01432440	      0.02303331	      0.04579227
      3.60000000	      0.01440635	      0.02309910	      0.04602772
      3.61666667	      0.01459042	      0.02324620	      0.04651808
      3.63333333	      0.01478375	      0.02339971	      0.04711594
      3.65000000	      0.01494572	      0.02352754	      0.04780345
      3.66666667	      0.01502316	      0.02358842	      0.04851452
      3.68333333	      0.01499956	      0.02356988	      0.04894572
      3.70000000	      0.01485325	      0.02345464	      0.04886710
      3.71666667	      0.01461032	      0.02326205	      0.04822798
      3.73333333	      0.01429374	      0.02300864	      0.04718292
      3.75000000	      0.01398430	      0.02275823	      0.04599133
      3.76666667	      0.01368264	      0.02251143	      0.04475363
      3.78333333	      0.01346387	      0.02233074	      0.04351484
      3.80000000	      0.01330667	      0.02219999	      0.04247193
      3.81666667	      0.01322841	      0.02213462	      0.04155217
      3.83333333	      0.01315933	      0.02207674	      0.04080031
      3.85000000	      0.01311146	      0.02203655	      0.04011556
      3.86666667	      0.01311724	      0.02204141	      0.03933279
      3.88333333	      0.01312263	      0.02204594	      0.03842717
      3.90000000	      0.01317336	      0.02208851	      0.03745740
      3.91666667	      0.01321381	      0.02212240	      0.03649066
      3.93333333	      0.01321393	      0.02212250	      0.03587726
      3.95000000	      0.01302699	      0.02196545	      0.03479534
      3.96666667	      0.01280352	      0.02177624	      0.03403903
      3.98333333	      0.01243353	      0.02145929	      0.03290309
      4.00000000	      0.01215006	      0.02121325	      0.03202024
      4.01666667	      0.01198370	      0.02106752	      0.03199441
      4.03333333	      0.01200138	      0.02108307	      0.03278423
      4.05000000	      0.01213517	      0.02120025	      0.03378033
      4.06666667	      0.01236615	      0.02140107	      0.03449292
      4.08333333	      0.01268208	      0.02167271	      0.03486475
      4.10000000	      0.01274495	      0.02172637	      0.03525072
      4.11666667	      0.01281128	      0.02178284	      0.03601533
      4.13333333	      0.01275674	      0.02173642	      0.03684132
      4.15000000	      0.01260887	      0.02161007	      0.03782378
      4.16666667	      0.01248401	      0.02150281	      0.03887381
      4.18333333	      0.01244229	      0.02146685	      0.03992782
      4.20000000	      0.01249558	      0.02151277	      0.04116051
      4.21666667	      0.01261464	      0.02161502	      0.04232748
      4.23333333	      0.01274091	      0.02172292	      0.04346851
      4.25000000	      0.01287761	      0.02183915	      0.04447415
      4.26666667	      0.01302161	      0.02196092	      0.04537130
      4.28333333	      0.01315038	      0.02206923	      0.04607770
      4.30000000	      0.01324523	      0.02214868	      0.04664778
      4.31666667	      0.01331808	      0.02220951	      0.04698586
      4.33333333	      0.01327865	      0.02217661	      0.04698907
      4.35000000	      0.01321180	      0.02212072	      0.04663848
      4.36666667	      0.01313108	      0.02205303	      0.04615771
      4.38333333	      0.01312531	      0.02204819	      0.04586019
      4.40000000	      0.01317133	      0.02208681	      0.04526317
      4.41666667	      0.01325568	      0.02215742	      0.04517625
      4.43333333	      0.01330676	      0.02220007	      0.04488620
      4.45000000	      0.01326520	      0.02216537	      0.04441042
      4.46666667	      0.01327964	      0.02217743	      0.04424961
      4.48333333	      0.01329469	      0.02219000	      0.04426151
      4.50000000	      0.01337118	      0.02225374	      0.04425288
      4.51666667	      0.01350287	      0.02236306	      0.04435501
      4.53333333	      0.01370973	      0.02253370	      0.04473377
      4.55000000	      0.01386847	      0.02266378	      0.04485401
      4.56666667	      0.01403376	      0.02279844	      0.04512937
      4.58333333	      0.01417852	      0.02291572	      0.04520165
      4.60000000	      0.01425915	      0.02298079	      0.04476364
      4.61666667	      0.01425805	      0.02297990	      0.04406490
      4.63333333	      0.01417789	      0.02291521	      0.04327880
      4.65000000	      0.01408426	      0.02283943	      0.04274060
      4.66666667	      0.01401340	      0.02278190	      0.04221391
      4.68333333	      0.01386398	      0.02266011	      0.04180864
      4.70000000	      0.01384882	      0.02264772	      0.04152815
      4.71666667	      0.01383854	      0.02263931	      0.04094327
      4.73333333	      0.01379931	      0.02260720	      0.04013735
      4.75000000	      0.01375551	      0.02257129	      0.03896391
      4.76666667	      0.01367133	      0.02250212	      0.03767984
      4.78333333	      0.01358741	      0.02243295	      0.03643107
      4.80000000	      0.01348222	      0.02234595	      0.03552772
      4.81666667	      0.01336151	      0.02224569	      0.03443410
      4.83333333	      0.01321569	      0.02212397	      0.03404785
      4.85000000	      0.01308058	      0.02201059	      0.03380126
      4.86666667	      0.01295454	      0.02190428	      0.03332306
      4.88333333	      0.01289023	      0.02184985	      0.03380665
      4.90000000	      0.01281636	      0.02178715	      0.03366584
      4.91666667	      0.01283880	      0.02180622	      0.03420807
      4.93333333	      0.01297034	      0.02191764	      0.03548137
      4.95000000	      0.01306390	      0.02199655	      0.03596098
      4.96666667	      0.01320883	      0.02211823	      0.03706424
      4.98333333	      0.01344474	      0.02231487	      0.03828607
      5.00000000	      0.01351978	      0.02237705	      0.03894189
      5.01666667	      0.01363430	      0.02247163	      0.03976011
      5.03333333	      0.01379305	      0.02260208	      0.04067085
      5.05000000	      0.01382117	      0.02262510	      0.04120319
      5.06666667	      0.01383509	      0.02263649	      0.04196639
      5.08333333	      0.01380700	      0.02261350	      0.04244508
      5.10000000	      0.01378355	      0.02259429	      0.04325010
      5.11666667	      0.01381543	      0.02262040	      0.04326223
      5.13333333	      0.01388580	      0.02267793	      0.04375198
      5.15000000	      0.01396808	      0.02274503	      0.04420197
      5.16666667	      0.01402236	      0.02278918	      0.04478830
      5.18333333	      0.01407248	      0.02282987	      0.04524084
      5.20000000	      0.01413307	      0.02287896	      0.04548443
      5.21666667	      0.01417790	      0.02291523	      0.04532282
      5.23333333	      0.01419688	      0.02293056	      0.04509250
      5.25000000	      0.01418390	      0.02292007	      0.04407973
      5.26666667	      0.01416906	      0.02290808	      0.04297189
      5.28333333	      0.01417703	      0.02291452	      0.04146947
      5.30000000	      0.01422151	      0.02295043	      0.04035585
      5.31666667	      0.01416932	      0.02290829	      0.03898007
      5.33333333	      0.01405295	      0.02281402	      0.03754551
      5.35000000	      0.01392764	      0.02271208	      0.03609667
      5.36666667	      0.01387166	      0.02266639	      0.03537906
      5.38333333	      0.01376620	      0.02258007	      0.03455243
      5.40000000	      0.01369248	      0.02251952	      0.03370948
      5.41666667	      0.01357018	      0.02241872	      0.03342643
      5.43333333	      0.01343894	      0.02231005	      0.03484863
      5.45000000	      0.01318306	      0.02209664	      0.03518053
      5.46666667	      0.01295873	      0.02190783	      0.03541537
      5.48333333	      0.01277078	      0.02174838	      0.03548939
      5.50000000	      0.01267933	      0.02167036	      0.03561425
      5.51666667	      0.01265783	      0.02165199	      0.03652483
      5.53333333	      0.01269299	      0.02168204	      0.03782274
      5.55000000	      0.01272985	      0.02171350	      0.03943310
      5.56666667	      0.01278726	      0.02176240	      0.04125228
      5.58333333	      0.01293249	      0.02188563	      0.04247103
      5.60000000	      0.01320994	      0.02211916	      0.04410509
      5.61666667	      0.01364718	      0.02248224	      0.04551596
      5.63333333	      0.01418079	      0.02291756	      0.04660669
      5.65000000	      0.01460037	      0.02325412	      0.04719904
      5.66666667	      0.01481102	      0.02342128	      0.04721988
      5.68333333	      0.01473812	      0.02336357	      0.04680279
      5.70000000	      0.01443761	      0.02312415	      0.04590292
      5.71666667	      0.01407575	      0.02283252	      0.04488741
      5.73333333	      0.01379078	      0.02260021	      0.04408542
      5.75000000	      0.01375620	      0.02257186	      0.04361489
      5.76666667	      0.01374926	      0.02256617	      0.04364744
      5.78333333	      0.01364396	      0.02247959	      0.04410445
      5.80000000	      0.01356920	      0.02241792	      0.04433851
      5.81666667	      0.01345853	      0.02232631	      0.04428590
      5.83333333	      0.01353958	      0.02239343	      0.04366374
      5.85000000	      0.01368147	      0.02251046	      0.04246698
      5.86666667	      0.01379604	      0.02260452	      0.04115648
      5.88333333	      0.01399326	      0.02276552	      0.03990274
      5.90000000	      0.01423697	      0.02296291	      0.03899525
      5.91666667	      0.01465445	      0.02329716	      0.04009680
      5.93333333	      0.01528802	      0.02379544	      0.04143921
      5.95000000	      0.01655437	      0.02476135	      0.04326532
      5.96666667	      0.01815583	      0.02593141	      0.04462688
      5.98333333	      0.01949596	      0.02687141	      0.04786511
      6.00000000	      0.01994511	      0.02717918	      0.05023365
      6.01666667	      0.01955610	      0.02691282	      0.04859903
      6.03333333	      0.01876271	      0.02636125	      0.04506137
      6.05000000	      0.01811206	      0.02590014	      0.04630508
      6.06666667	      0.01774812	      0.02563860	      0.04720570
      6.08333333	      0.01759492	      0.02552771	      0.04799589
      6.10000000	      0.01748105	      0.02544497	      0.04765659
      6.11666667	      0.01723686	      0.02526662	      0.04718533
      6.13333333	      0.01679570	      0.02494119	      0.04560108
      6.15000000	      0.01617384	      0.02447511	      0.04589731
      6.16666667	      0.01562013	      0.02405252	      0.04646384
      6.18333333	      0.01521459	      0.02373823	      0.04719059
      6.20000000	      0.01499175	      0.02356374	      0.04815136
      6.21666667	      0.01495937	      0.02353828	      0.04906493
      6.23333333	      0.01497870	      0.02355348	      0.04988755
      6.25000000	      0.01503184	      0.02359523	      0.05029313
      6.26666667	      0.01502755	      0.02359186	      0.05028339
      6.28333333	      0.01497971	      0.02355428	      0.04967166
      6.30000000	      0.01486494	      0.02346387	      0.04893038
      6.31666667	      0.01474330	      0.02336767	      0.04812587
      6.33333333	      0.01468448	      0.02332101	      0.04748517
      6.35000000	      0.01470957	      0.02334093	      0.04686663
      6.36666667	      0.01482683	      0.02343378	      0.04631639
      6.38333333	      0.01505644	      0.02361453	      0.04607330
      6.40000000	      0.01544541	      0.02391761	      0.04554475
      6.41666667	      0.01630895	      0.02457713	      0.04538168
