Model Marker Errors from IK
version=1
nRows=251
nColumns=4
inDegrees=no
endheader
time	total_squared_error	marker_error_RMS	marker_error_max
      0.00000000	      0.02692459	      0.03157858	      0.05704014
      0.01666667	      0.02698844	      0.03161601	      0.05569385
      0.03333333	      0.02711359	      0.03168922	      0.05473195
      0.05000000	      0.02735666	      0.03183096	      0.05404041
      0.06666667	      0.02761288	      0.03197967	      0.05348349
      0.08333333	      0.02767639	      0.03201643	      0.05296888
      0.10000000	      0.02774643	      0.03205691	      0.05259212
      0.11666667	      0.02770794	      0.03203467	      0.05218847
      0.13333333	      0.02746800	      0.03189567	      0.05176802
      0.15000000	      0.02700632	      0.03162648	      0.05136649
      0.16666667	      0.02638266	      0.03125917	      0.05087920
      0.18333333	      0.02578007	      0.03090012	      0.05045168
      0.20000000	      0.02533204	      0.03063044	      0.05053062
      0.21666667	      0.02497570	      0.03041424	      0.05061306
      0.23333333	      0.02467105	      0.03022818	      0.05012895
      0.25000000	      0.02439426	      0.03005813	      0.04940827
      0.26666667	      0.02415819	      0.02991233	      0.04856042
      0.28333333	      0.02394728	      0.02978148	      0.04757714
      0.30000000	      0.02368616	      0.02961866	      0.04641429
      0.31666667	      0.02321633	      0.02932344	      0.04596613
      0.33333333	      0.02243044	      0.02882286	      0.04613965
      0.35000000	      0.02137135	      0.02813417	      0.04626087
      0.36666667	      0.02013451	      0.02730792	      0.04614371
      0.38333333	      0.01904753	      0.02656058	      0.04609491
      0.40000000	      0.01838036	      0.02609126	      0.04618439
      0.41666667	      0.01797737	      0.02580365	      0.04665744
      0.43333333	      0.01764625	      0.02556491	      0.04747860
      0.45000000	      0.01722336	      0.02525673	      0.04812752
      0.46666667	      0.01687207	      0.02499783	      0.04840579
      0.48333333	      0.01681415	      0.02495489	      0.04785659
      0.50000000	      0.01700354	      0.02509503	      0.04963931
      0.51666667	      0.01705185	      0.02513066	      0.05098695
      0.53333333	      0.01670610	      0.02487457	      0.04779300
      0.55000000	      0.01614653	      0.02445444	      0.04191387
      0.56666667	      0.01559776	      0.02403529	      0.03900766
      0.58333333	      0.01537812	      0.02386545	      0.03939490
      0.60000000	      0.01551409	      0.02397073	      0.03973938
      0.61666667	      0.01602057	      0.02435887	      0.03986968
      0.63333333	      0.01688584	      0.02500803	      0.03980148
      0.65000000	      0.01791058	      0.02575567	      0.04202979
      0.66666667	      0.01905322	      0.02656454	      0.04486148
      0.68333333	      0.01872887	      0.02633746	      0.04216984
      0.70000000	      0.02026487	      0.02739618	      0.04522376
      0.71666667	      0.02186298	      0.02845593	      0.04805336
      0.73333333	      0.02309791	      0.02924856	      0.04972069
      0.75000000	      0.02379032	      0.02968372	      0.04962073
      0.76666667	      0.02414441	      0.02990380	      0.04804361
      0.78333333	      0.02445525	      0.03009568	      0.04740883
      0.80000000	      0.02487594	      0.03035344	      0.04809488
      0.81666667	      0.02500751	      0.03043360	      0.04821761
      0.83333333	      0.02524835	      0.03057980	      0.04729739
      0.85000000	      0.02535003	      0.03064131	      0.04740177
      0.86666667	      0.02540909	      0.03067698	      0.04832342
      0.88333333	      0.02540382	      0.03067380	      0.04946731
      0.90000000	      0.02546831	      0.03071272	      0.05033109
      0.91666667	      0.02561218	      0.03079934	      0.05149337
      0.93333333	      0.02573044	      0.03087036	      0.05166477
      0.95000000	      0.02583566	      0.03093342	      0.05251934
      0.96666667	      0.02578396	      0.03090245	      0.05234625
      0.98333333	      0.02543095	      0.03069018	      0.05281225
      1.00000000	      0.02474808	      0.03027533	      0.05337634
      1.01666667	      0.02375453	      0.02966138	      0.05264891
      1.03333333	      0.02263595	      0.02895460	      0.05149759
      1.05000000	      0.02158936	      0.02827730	      0.05049720
      1.06666667	      0.02073076	      0.02770931	      0.04892813
      1.08333333	      0.02019862	      0.02735136	      0.04760618
      1.10000000	      0.02005350	      0.02725293	      0.04694306
      1.11666667	      0.01942896	      0.02682519	      0.04714346
      1.13333333	      0.01946242	      0.02684828	      0.04799520
      1.15000000	      0.01950678	      0.02687887	      0.04907356
      1.16666667	      0.01944262	      0.02683462	      0.04942293
      1.18333333	      0.01893745	      0.02648371	      0.05031731
      1.20000000	      0.01832030	      0.02604860	      0.05121158
      1.21666667	      0.01759877	      0.02553049	      0.05173438
      1.23333333	      0.01690406	      0.02502152	      0.05211545
      1.25000000	      0.01622425	      0.02451323	      0.05207008
      1.26666667	      0.01568904	      0.02410551	      0.05201533
      1.28333333	      0.01522396	      0.02374553	      0.05186182
      1.30000000	      0.01491321	      0.02350194	      0.05168560
      1.31666667	      0.01472082	      0.02334985	      0.05128858
      1.33333333	      0.01472164	      0.02335050	      0.05096221
      1.35000000	      0.01491684	      0.02350480	      0.05058098
      1.36666667	      0.01531656	      0.02381764	      0.05012180
      1.38333333	      0.01592968	      0.02428967	      0.04976230
      1.40000000	      0.01673043	      0.02489268	      0.04937201
      1.41666667	      0.01762103	      0.02554664	      0.04909454
      1.43333333	      0.01846172	      0.02614895	      0.04886898
      1.45000000	      0.01911310	      0.02660625	      0.04862503
      1.46666667	      0.01948697	      0.02686521	      0.04836649
      1.48333333	      0.01965148	      0.02697837	      0.04804009
      1.50000000	      0.01958977	      0.02693598	      0.04771943
      1.51666667	      0.01946355	      0.02684907	      0.04729363
      1.53333333	      0.01924579	      0.02669845	      0.04701542
      1.55000000	      0.01891730	      0.02646962	      0.04700716
      1.56666667	      0.01848342	      0.02616431	      0.04669003
      1.58333333	      0.01803584	      0.02584558	      0.04624930
      1.60000000	      0.01767224	      0.02558374	      0.04604034
      1.61666667	      0.01752837	      0.02547938	      0.04605778
      1.63333333	      0.01752402	      0.02547622	      0.04607278
      1.65000000	      0.01755268	      0.02549705	      0.04584827
      1.66666667	      0.01758463	      0.02552024	      0.04599151
      1.68333333	      0.01756723	      0.02550761	      0.04610326
      1.70000000	      0.01757827	      0.02551562	      0.04619601
      1.71666667	      0.01767741	      0.02558748	      0.04632208
      1.73333333	      0.01781140	      0.02568426	      0.04639316
      1.75000000	      0.01792955	      0.02576931	      0.04634216
      1.76666667	      0.01806384	      0.02586563	      0.04623090
      1.78333333	      0.01829069	      0.02602754	      0.04793980
      1.80000000	      0.01637133	      0.02462409	      0.04724458
      1.81666667	      0.01631100	      0.02457867	      0.04678836
      1.83333333	      0.01622851	      0.02451644	      0.04649953
      1.85000000	      0.01609694	      0.02441686	      0.04635300
      1.86666667	      0.01594472	      0.02430114	      0.04633344
      1.88333333	      0.01584002	      0.02422122	      0.04633010
      1.90000000	      0.01574718	      0.02415013	      0.04596401
      1.91666667	      0.01583453	      0.02421702	      0.04571897
      1.93333333	      0.01611060	      0.02442722	      0.04550685
      1.95000000	      0.01645303	      0.02468545	      0.04540994
      1.96666667	      0.01678895	      0.02493618	      0.04531555
      1.98333333	      0.01585569	      0.02423320	      0.04615750
      2.00000000	      0.01596465	      0.02431632	      0.04739426
      2.01666667	      0.01610107	      0.02441999	      0.04796500
      2.03333333	      0.01618335	      0.02448230	      0.04798969
      2.05000000	      0.01623517	      0.02452147	      0.04763053
      2.06666667	      0.01631726	      0.02458339	      0.04786943
      2.08333333	      0.01653480	      0.02474672	      0.04887327
      2.10000000	      0.01691578	      0.02503019	      0.05140582
      2.11666667	      0.01745875	      0.02542873	      0.05458672
      2.13333333	      0.01802877	      0.02584052	      0.05754956
      2.15000000	      0.01843230	      0.02612811	      0.05892700
      2.16666667	      0.01868545	      0.02630692	      0.05827953
      2.18333333	      0.01864321	      0.02627717	      0.05596662
      2.20000000	      0.01847579	      0.02615891	      0.05262322
      2.21666667	      0.01817562	      0.02594554	      0.04893642
      2.23333333	      0.01782631	      0.02569501	      0.04591807
      2.25000000	      0.01759595	      0.02552845	      0.04370143
      2.26666667	      0.01752367	      0.02547597	      0.04262409
      2.28333333	      0.01762996	      0.02555311	      0.04237200
      2.30000000	      0.01784983	      0.02571196	      0.04274383
      2.31666667	      0.01808063	      0.02587765	      0.04370912
      2.33333333	      0.01825458	      0.02600184	      0.04406709
      2.35000000	      0.01839769	      0.02610356	      0.04378887
      2.36666667	      0.01855026	      0.02621157	      0.04271577
      2.38333333	      0.01879302	      0.02638253	      0.04348473
      2.40000000	      0.01911770	      0.02660945	      0.04412046
      2.41666667	      0.01939972	      0.02680500	      0.04426014
      2.43333333	      0.01947303	      0.02685560	      0.04372838
      2.45000000	      0.01923098	      0.02668817	      0.04286320
      2.46666667	      0.01871464	      0.02632745	      0.04334404
      2.48333333	      0.01801638	      0.02583163	      0.04403279
      2.50000000	      0.01728688	      0.02530326	      0.04479146
      2.51666667	      0.01662204	      0.02481192	      0.04573914
      2.53333333	      0.01627526	      0.02455173	      0.04668338
      2.55000000	      0.01632360	      0.02458817	      0.04754207
      2.56666667	      0.01666569	      0.02484447	      0.04823126
      2.58333333	      0.01719272	      0.02523425	      0.04884171
      2.60000000	      0.01760540	      0.02553531	      0.04895276
      2.61666667	      0.01806781	      0.02586848	      0.04914068
      2.63333333	      0.01832090	      0.02604903	      0.04936934
      2.65000000	      0.01852744	      0.02619545	      0.04944856
      2.66666667	      0.01858417	      0.02623552	      0.04960555
      2.68333333	      0.01843921	      0.02613300	      0.04978132
      2.70000000	      0.01836843	      0.02608280	      0.05007642
      2.71666667	      0.01833027	      0.02605569	      0.05025472
      2.73333333	      0.01839646	      0.02610269	      0.05051651
      2.75000000	      0.01854459	      0.02620757	      0.05067810
      2.76666667	      0.01872749	      0.02633649	      0.05078320
      2.78333333	      0.01892060	      0.02647193	      0.05079687
      2.80000000	      0.01902658	      0.02654597	      0.05073775
      2.81666667	      0.01912432	      0.02661406	      0.05060616
      2.83333333	      0.01891649	      0.02646906	      0.05057086
      2.85000000	      0.01871672	      0.02632892	      0.05049789
      2.86666667	      0.01853751	      0.02620257	      0.05053799
      2.88333333	      0.01831858	      0.02604738	      0.05062654
      2.90000000	      0.01818115	      0.02594949	      0.05076016
      2.91666667	      0.01809727	      0.02588956	      0.05089032
      2.93333333	      0.01807411	      0.02587299	      0.05098545
      2.95000000	      0.01810431	      0.02589460	      0.05096499
      2.96666667	      0.01818127	      0.02594957	      0.05099640
      2.98333333	      0.01825490	      0.02600207	      0.05100208
      3.00000000	      0.01828076	      0.02602048	      0.05097781
      3.01666667	      0.01822684	      0.02598207	      0.05107790
      3.03333333	      0.01812417	      0.02590879	      0.05098235
      3.05000000	      0.01796456	      0.02579446	      0.05084288
      3.06666667	      0.01779644	      0.02567348	      0.05065321
      3.08333333	      0.01755570	      0.02549924	      0.05040283
      3.10000000	      0.01728393	      0.02530110	      0.05006957
      3.11666667	      0.01697989	      0.02507758	      0.04981726
      3.13333333	      0.01667998	      0.02485512	      0.04952237
      3.15000000	      0.01638018	      0.02463074	      0.04934053
      3.16666667	      0.01611661	      0.02443177	      0.04901604
      3.18333333	      0.01591536	      0.02427875	      0.04864340
      3.20000000	      0.01576676	      0.02416514	      0.04808346
      3.21666667	      0.01566038	      0.02408348	      0.04739911
      3.23333333	      0.01557864	      0.02402054	      0.04647221
      3.25000000	      0.01548889	      0.02395125	      0.04544969
      3.26666667	      0.01542413	      0.02390113	      0.04441340
      3.28333333	      0.01541285	      0.02389239	      0.04353052
      3.30000000	      0.01542616	      0.02390271	      0.04264838
      3.31666667	      0.01548890	      0.02395126	      0.04212056
      3.33333333	      0.01558028	      0.02402181	      0.04184649
      3.35000000	      0.01564883	      0.02407460	      0.04194893
      3.36666667	      0.01571067	      0.02412212	      0.04215418
      3.38333333	      0.01555022	      0.02399862	      0.04228806
      3.40000000	      0.01529446	      0.02380045	      0.04232035
      3.41666667	      0.01481296	      0.02342282	      0.04239017
      3.43333333	      0.01442588	      0.02311475	      0.04230121
      3.45000000	      0.01421110	      0.02294204	      0.04202128
      3.46666667	      0.01424160	      0.02296664	      0.04161546
      3.48333333	      0.01455394	      0.02321712	      0.04116716
      3.50000000	      0.01513115	      0.02367304	      0.04062440
      3.51666667	      0.01581709	      0.02420368	      0.03997860
      3.53333333	      0.01645573	      0.02468748	      0.04078474
      3.55000000	      0.01702932	      0.02511405	      0.04194217
      3.56666667	      0.01742075	      0.02540104	      0.04382246
      3.58333333	      0.01770668	      0.02560865	      0.04625890
      3.60000000	      0.01792675	      0.02576730	      0.04826692
      3.61666667	      0.01825276	      0.02600054	      0.04986491
      3.63333333	      0.01891236	      0.02646617	      0.05169060
      3.65000000	      0.01970222	      0.02701318	      0.05261801
      3.66666667	      0.01981793	      0.02709239	      0.05318748
      3.68333333	      0.02000598	      0.02722062	      0.05088457
      3.70000000	      0.02002691	      0.02723486	      0.04943540
      3.71666667	      0.01973682	      0.02703689	      0.05350439
      3.73333333	      0.01957981	      0.02692913	      0.05056631
      3.75000000	      0.01962325	      0.02695899	      0.04912672
      3.76666667	      0.01984918	      0.02711374	      0.04973292
      3.78333333	      0.02007549	      0.02726787	      0.05343935
      3.80000000	      0.02019043	      0.02734582	      0.05413520
      3.81666667	      0.02050522	      0.02755817	      0.05155945
      3.83333333	      0.02138378	      0.02814235	      0.05181745
      3.85000000	      0.02300077	      0.02918699	      0.05940460
      3.86666667	      0.02508865	      0.03048294	      0.06631813
      3.88333333	      0.02647718	      0.03131511	      0.06966468
      3.90000000	      0.02663121	      0.03140607	      0.06589261
      3.91666667	      0.02569676	      0.03085015	      0.05815564
      3.93333333	      0.02429489	      0.02999684	      0.05640191
      3.95000000	      0.02128546	      0.02807758	      0.05239254
      3.96666667	      0.02078146	      0.02774317	      0.04881238
      3.98333333	      0.02063347	      0.02764421	      0.04600494
      4.00000000	      0.02034105	      0.02744762	      0.04401769
      4.01666667	      0.01979443	      0.02707632	      0.04271519
      4.03333333	      0.01920390	      0.02666937	      0.04228565
      4.05000000	      0.01887250	      0.02643826	      0.04244776
      4.06666667	      0.01877477	      0.02636971	      0.04262939
      4.08333333	      0.01853728	      0.02620240	      0.04319360
      4.10000000	      0.01816800	      0.02594010	      0.04293503
      4.11666667	      0.01768023	      0.02558951	      0.04233914
      4.13333333	      0.01701501	      0.02510350	      0.04129901
      4.15000000	      0.01619718	      0.02449277	      0.04152371
      4.16666667	      0.01532756	      0.02382619	      0.04157170
