Model Marker Errors from IK
version=1
nRows=310
nColumns=4
inDegrees=no
endheader
time	total_squared_error	marker_error_RMS	marker_error_max
      0.00000000	      0.02741011	      0.03186204	      0.06263673
      0.01666667	      0.02772601	      0.03204512	      0.06284165
      0.03333333	      0.02839447	      0.03242911	      0.06261831
      0.05000000	      0.02899849	      0.03277222	      0.06199836
      0.06666667	      0.02944119	      0.03302143	      0.06056807
      0.08333333	      0.02964350	      0.03313468	      0.05898774
      0.10000000	      0.02972322	      0.03317921	      0.05791409
      0.11666667	      0.02971426	      0.03317421	      0.05651647
      0.13333333	      0.02961427	      0.03311835	      0.05966045
      0.15000000	      0.02914438	      0.03285455	      0.06178394
      0.16666667	      0.02835792	      0.03240823	      0.06213786
      0.18333333	      0.02753955	      0.03193718	      0.06056481
      0.20000000	      0.02681284	      0.03151298	      0.05752123
      0.21666667	      0.02604763	      0.03106006	      0.05333613
      0.23333333	      0.02520073	      0.03055095	      0.04961345
      0.25000000	      0.02428243	      0.02998915	      0.04720432
      0.26666667	      0.02362223	      0.02957867	      0.04711478
      0.28333333	      0.02367529	      0.02961186	      0.05001326
      0.30000000	      0.02470437	      0.03024858	      0.05545600
      0.31666667	      0.02672114	      0.03145905	      0.06285156
      0.33333333	      0.02955303	      0.03308408	      0.07154689
      0.35000000	      0.02662911	      0.03140483	      0.05316035
      0.36666667	      0.02638903	      0.03126294	      0.05382520
      0.38333333	      0.02599843	      0.03103070	      0.05373036
      0.40000000	      0.02563079	      0.03081052	      0.05289450
      0.41666667	      0.02532331	      0.03062516	      0.05152562
      0.43333333	      0.02511235	      0.03049733	      0.05340461
      0.45000000	      0.02502347	      0.03044331	      0.05514580
      0.46666667	      0.02507978	      0.03047754	      0.05632826
      0.48333333	      0.02549704	      0.03073003	      0.05737045
      0.50000000	      0.02634684	      0.03123794	      0.05797300
      0.51666667	      0.02740967	      0.03186178	      0.05811779
      0.53333333	      0.02857009	      0.03252924	      0.05785867
      0.55000000	      0.02977107	      0.03320591	      0.05721317
      0.56666667	      0.03083374	      0.03379335	      0.05615572
      0.58333333	      0.03161716	      0.03421996	      0.05760220
      0.60000000	      0.03210862	      0.03448490	      0.05909897
      0.61666667	      0.03207939	      0.03446920	      0.06084526
      0.63333333	      0.03132207	      0.03405990	      0.06152592
      0.65000000	      0.02988899	      0.03327160	      0.06173497
      0.66666667	      0.02814274	      0.03228504	      0.06099497
      0.68333333	      0.02654543	      0.03135545	      0.05964395
      0.70000000	      0.02534591	      0.03063882	      0.05810810
      0.71666667	      0.02454496	      0.03015083	      0.05688117
      0.73333333	      0.02407920	      0.02986339	      0.05625643
      0.75000000	      0.02387024	      0.02973353	      0.05609195
      0.76666667	      0.02396921	      0.02979511	      0.05599993
      0.78333333	      0.02436783	      0.03004184	      0.05584663
      0.80000000	      0.02497273	      0.03041243	      0.05569556
      0.81666667	      0.02570408	      0.03085454	      0.05555039
      0.83333333	      0.02648105	      0.03131740	      0.05528116
      0.85000000	      0.02703941	      0.03164585	      0.05495973
      0.86666667	      0.02766810	      0.03201163	      0.05399147
      0.88333333	      0.02834884	      0.03240304	      0.05287973
      0.90000000	      0.02916818	      0.03286796	      0.05569821
      0.91666667	      0.02995784	      0.03330990	      0.05858350
      0.93333333	      0.03035940	      0.03353241	      0.06110390
      0.95000000	      0.03014668	      0.03341472	      0.06079318
      0.96666667	      0.02943541	      0.03301818	      0.06095563
      0.98333333	      0.02836109	      0.03241004	      0.05784254
      1.00000000	      0.02693215	      0.03158302	      0.05250944
      1.01666667	      0.02517321	      0.03053426	      0.04843309
      1.03333333	      0.02330979	      0.02938240	      0.04283538
      1.05000000	      0.02179373	      0.02841083	      0.04151096
      1.06666667	      0.02096830	      0.02786761	      0.04072235
      1.08333333	      0.02078060	      0.02774260	      0.04093334
      1.10000000	      0.02084878	      0.02778807	      0.04124275
      1.11666667	      0.02098486	      0.02787861	      0.04244718
      1.13333333	      0.02096669	      0.02786654	      0.04304217
      1.15000000	      0.02085739	      0.02779381	      0.04412350
      1.16666667	      0.02086932	      0.02780176	      0.04507591
      1.18333333	      0.02099003	      0.02788204	      0.04695007
      1.20000000	      0.02124876	      0.02805336	      0.04977305
      1.21666667	      0.02162385	      0.02829988	      0.05284340
      1.23333333	      0.02219634	      0.02867205	      0.05535461
      1.25000000	      0.02290773	      0.02912790	      0.05621809
      1.26666667	      0.02350331	      0.02950412	      0.05547456
      1.28333333	      0.02382686	      0.02970650	      0.05568434
      1.30000000	      0.02388725	      0.02974412	      0.05627674
      1.31666667	      0.02364154	      0.02959075	      0.05642290
      1.33333333	      0.02299660	      0.02918435	      0.05620969
      1.35000000	      0.02189981	      0.02847989	      0.05571359
      1.36666667	      0.02044311	      0.02751640	      0.05504208
      1.38333333	      0.01878384	      0.02637608	      0.05387824
      1.40000000	      0.01745578	      0.02542657	      0.05297632
      1.41666667	      0.01668425	      0.02485830	      0.05204497
      1.43333333	      0.01670345	      0.02487260	      0.05115431
      1.45000000	      0.01762093	      0.02554657	      0.05024985
      1.46666667	      0.01934795	      0.02676921	      0.04964239
      1.48333333	      0.02143322	      0.02817486	      0.04917130
      1.50000000	      0.02337843	      0.02942563	      0.05117830
      1.51666667	      0.02473022	      0.03026440	      0.05235558
      1.53333333	      0.02516578	      0.03052976	      0.05212393
      1.55000000	      0.02487000	      0.03034981	      0.05286055
      1.56666667	      0.02416259	      0.02991506	      0.05074839
      1.58333333	      0.02344844	      0.02946966	      0.05012875
      1.60000000	      0.02289294	      0.02911849	      0.05356605
      1.61666667	      0.02244715	      0.02883359	      0.05668995
      1.63333333	      0.02191457	      0.02848949	      0.05859205
      1.65000000	      0.02116406	      0.02799740	      0.05890209
      1.66666667	      0.02029926	      0.02741942	      0.05792767
      1.68333333	      0.01933343	      0.02675916	      0.05591746
      1.70000000	      0.01838581	      0.02609513	      0.05268372
      1.71666667	      0.01765568	      0.02557174	      0.05227467
      1.73333333	      0.01738038	      0.02537159	      0.05197379
      1.75000000	      0.01791628	      0.02575977	      0.05206105
      1.76666667	      0.01927382	      0.02671788	      0.05288791
      1.78333333	      0.02110413	      0.02795773	      0.05442677
      1.80000000	      0.02273946	      0.02902072	      0.05616381
      1.81666667	      0.02360351	      0.02956694	      0.05679856
      1.83333333	      0.02373642	      0.02965007	      0.06113261
      1.85000000	      0.02410381	      0.02987865	      0.06747818
      1.86666667	      0.02565732	      0.03082647	      0.07457605
      1.88333333	      0.02835879	      0.03240873	      0.08187207
      1.90000000	      0.03156885	      0.03419381	      0.08861385
      1.91666667	      0.03448079	      0.03573606	      0.09470591
      1.93333333	      0.03643624	      0.03673541	      0.09993926
      1.95000000	      0.03730693	      0.03717174	      0.10435263
      1.96666667	      0.03751036	      0.03727295	      0.10789795
      1.98333333	      0.03779798	      0.03741557	      0.11079855
      2.00000000	      0.03862357	      0.03782198	      0.11247604
      2.01666667	      0.03962523	      0.03830928	      0.11299749
      2.03333333	      0.03997651	      0.03847871	      0.11254551
      2.05000000	      0.03908169	      0.03804563	      0.11174713
      2.06666667	      0.03709148	      0.03706425	      0.11067547
      2.08333333	      0.03475543	      0.03587810	      0.10960524
      2.10000000	      0.03269196	      0.03479674	      0.10839195
      2.11666667	      0.03106598	      0.03392038	      0.10704991
      2.13333333	      0.02971038	      0.03317204	      0.10541288
      2.15000000	      0.02843871	      0.03245436	      0.10387147
      2.16666667	      0.02734224	      0.03182256	      0.10252502
      2.18333333	      0.02666191	      0.03142417	      0.10124366
      2.20000000	      0.02644818	      0.03129796	      0.09951923
      2.21666667	      0.02635816	      0.03124465	      0.09756498
      2.23333333	      0.02602180	      0.03104465	      0.09463593
      2.25000000	      0.02517761	      0.03053693	      0.09154361
      2.26666667	      0.02399101	      0.02980865	      0.08757978
      2.28333333	      0.02275427	      0.02903017	      0.08323548
      2.30000000	      0.02175268	      0.02838406	      0.07916872
      2.31666667	      0.02109003	      0.02794838	      0.07612705
      2.33333333	      0.02089786	      0.02782076	      0.07458648
      2.35000000	      0.02127067	      0.02806782	      0.07446838
      2.36666667	      0.02222658	      0.02869158	      0.07558637
      2.38333333	      0.02364411	      0.02959236	      0.07758908
      2.40000000	      0.02525962	      0.03058663	      0.08021856
      2.41666667	      0.02669311	      0.03144254	      0.08354135
      2.43333333	      0.02766329	      0.03200885	      0.08644751
      2.45000000	      0.02818929	      0.03231173	      0.08882878
      2.46666667	      0.02841804	      0.03244256	      0.09089993
      2.48333333	      0.02902426	      0.03278678	      0.09267259
      2.50000000	      0.03028394	      0.03349071	      0.09434275
      2.51666667	      0.03155150	      0.03418441	      0.09609918
      2.53333333	      0.03184877	      0.03434507	      0.09854494
      2.55000000	      0.03131716	      0.03405723	      0.10170813
      2.56666667	      0.03130836	      0.03405245	      0.10610631
      2.58333333	      0.03264502	      0.03477175	      0.11138027
      2.60000000	      0.03591636	      0.03647239	      0.11674507
      2.61666667	      0.04161311	      0.03925845	      0.12119860
      2.63333333	      0.04916594	      0.04267272	      0.12376851
      2.65000000	      0.05634299	      0.04568126	      0.12399533
      2.66666667	      0.06112397	      0.04757994	      0.12385308
      2.68333333	      0.06457588	      0.04890500	      0.12391528
      2.70000000	      0.06669278	      0.04970013	      0.12442288
      2.71666667	      0.06794891	      0.05016599	      0.12557197
      2.73333333	      0.06911817	      0.05059577	      0.12686100
      2.75000000	      0.07103085	      0.05129105	      0.12673224
      2.76666667	      0.07463146	      0.05257498	      0.13132640
      2.78333333	      0.07959301	      0.05429447	      0.14468548
      2.80000000	      0.08399222	      0.05577475	      0.15396294
      2.81666667	      0.08725298	      0.05684709	      0.15959765
      2.83333333	      0.09065519	      0.05794480	      0.16590814
      2.85000000	      0.09466723	      0.05921312	      0.17382603
      2.86666667	      0.09733810	      0.06004261	      0.17938284
      2.88333333	      0.09518742	      0.05937558	      0.17571634
      2.90000000	      0.08653448	      0.05661255	      0.15884507
      2.91666667	      0.07381155	      0.05228538	      0.13596968
      2.93333333	      0.06194571	      0.04789870	      0.11178400
      2.95000000	      0.05496648	      0.04511979	      0.10465920
      2.96666667	      0.05277145	      0.04420970	      0.11251713
      2.98333333	      0.05323155	      0.04440201	      0.11340145
      3.00000000	      0.05541973	      0.04530543	      0.10877581
      3.01666667	      0.05742901	      0.04611941	      0.10924205
      3.03333333	      0.05943207	      0.04691682	      0.11318432
      3.05000000	      0.06231189	      0.04804006	      0.11688876
      3.06666667	      0.06584513	      0.04938328	      0.11972607
      3.08333333	      0.06899973	      0.05055241	      0.12143692
      3.10000000	      0.07088138	      0.05123706	      0.12213310
      3.11666667	      0.07161411	      0.05150121	      0.12177121
      3.13333333	      0.07176328	      0.05155482	      0.12119710
      3.15000000	      0.07173427	      0.05154440	      0.11980691
      3.16666667	      0.07171157	      0.05153624	      0.11797666
      3.18333333	      0.07183696	      0.05158128	      0.11670200
      3.20000000	      0.07226920	      0.05173623	      0.11409420
      3.21666667	      0.07333297	      0.05211560	      0.11319344
      3.23333333	      0.07489127	      0.05266641	      0.11327898
      3.25000000	      0.07630046	      0.05315960	      0.11438851
      3.26666667	      0.07696727	      0.05339138	      0.11555028
      3.28333333	      0.07651285	      0.05323353	      0.11660741
      3.30000000	      0.07476728	      0.05262280	      0.11705544
      3.31666667	      0.07168536	      0.05152682	      0.11684215
      3.33333333	      0.06750228	      0.05000084	      0.11519505
      3.35000000	      0.06278189	      0.04822090	      0.11240386
      3.36666667	      0.05818317	      0.04642125	      0.10859746
      3.38333333	      0.05397341	      0.04471035	      0.10443272
      3.40000000	      0.04958740	      0.04285522	      0.10054319
      3.41666667	      0.04604879	      0.04129783	      0.09742539
      3.43333333	      0.04410655	      0.04041752	      0.09467440
      3.45000000	      0.04313350	      0.03996920	      0.09246742
      3.46666667	      0.04211974	      0.03949671	      0.09048917
      3.48333333	      0.04036469	      0.03866508	      0.08868566
      3.50000000	      0.03797746	      0.03750430	      0.08724349
      3.51666667	      0.03553446	      0.03627797	      0.08635076
      3.53333333	      0.03373751	      0.03534880	      0.08642072
      3.55000000	      0.03275091	      0.03482810	      0.08742185
      3.56666667	      0.03234672	      0.03461252	      0.08864334
      3.58333333	      0.03224244	      0.03455668	      0.08918838
      3.60000000	      0.03206345	      0.03446063	      0.08844552
      3.61666667	      0.03138157	      0.03409224	      0.08571596
      3.63333333	      0.02988820	      0.03327116	      0.08092182
      3.65000000	      0.02774253	      0.03205466	      0.07430407
      3.66666667	      0.02526155	      0.03058779	      0.06652068
      3.68333333	      0.02304974	      0.02921805	      0.05870974
      3.70000000	      0.02139695	      0.02815102	      0.05191351
      3.71666667	      0.02032947	      0.02743981	      0.04960698
      3.73333333	      0.01968998	      0.02700479	      0.04754749
      3.75000000	      0.01942857	      0.02682493	      0.04649793
      3.76666667	      0.01960422	      0.02694592	      0.04616931
      3.78333333	      0.02017889	      0.02733800	      0.04596952
      3.80000000	      0.02092493	      0.02783878	      0.04626669
      3.81666667	      0.02143366	      0.02817515	      0.04750325
      3.83333333	      0.02139669	      0.02815084	      0.04854701
      3.85000000	      0.02087015	      0.02780231	      0.04935189
      3.86666667	      0.02013564	      0.02730869	      0.04985167
      3.88333333	      0.01945463	      0.02684291	      0.04964773
      3.90000000	      0.01890598	      0.02646170	      0.04952598
      3.91666667	      0.01864643	      0.02627943	      0.04910062
      3.93333333	      0.01859237	      0.02624131	      0.04898233
      3.95000000	      0.01864032	      0.02627513	      0.04939063
      3.96666667	      0.01853476	      0.02620062	      0.05041700
      3.98333333	      0.01847286	      0.02615683	      0.05201321
      4.00000000	      0.01867259	      0.02629786	      0.05456512
      4.01666667	      0.01928494	      0.02672559	      0.05703971
      4.03333333	      0.02023266	      0.02737440	      0.06089350
      4.05000000	      0.01900374	      0.02653003	      0.05016796
      4.06666667	      0.01971010	      0.02701858	      0.04706038
      4.08333333	      0.02047938	      0.02754080	      0.04421829
      4.10000000	      0.02127439	      0.02807027	      0.04157708
      4.11666667	      0.02210997	      0.02861622	      0.04072079
      4.13333333	      0.02291809	      0.02913448	      0.04089031
      4.15000000	      0.02354925	      0.02953294	      0.04309490
      4.16666667	      0.02394496	      0.02978003	      0.04692053
      4.18333333	      0.02397763	      0.02980034	      0.04980754
      4.20000000	      0.02370425	      0.02962997	      0.05171144
      4.21666667	      0.02317433	      0.02929690	      0.05392869
      4.23333333	      0.02304212	      0.02921321	      0.05588996
      4.25000000	      0.02372224	      0.02964122	      0.05738339
      4.26666667	      0.02472829	      0.03026322	      0.05916966
      4.28333333	      0.02584730	      0.03094039	      0.06011816
      4.30000000	      0.02623500	      0.03117157	      0.06032389
      4.31666667	      0.02557548	      0.03077726	      0.05992221
      4.33333333	      0.02461097	      0.03019135	      0.05905458
      4.35000000	      0.02387345	      0.02973553	      0.05800926
      4.36666667	      0.02334941	      0.02940736	      0.05677579
      4.38333333	      0.02284395	      0.02908732	      0.05573641
      4.40000000	      0.02239471	      0.02879989	      0.05475155
      4.41666667	      0.02230194	      0.02874018	      0.05399762
      4.43333333	      0.02270986	      0.02900183	      0.05338243
      4.45000000	      0.02363487	      0.02958657	      0.05301551
      4.46666667	      0.02485813	      0.03034257	      0.05261105
      4.48333333	      0.02613783	      0.03111379	      0.05360006
      4.50000000	      0.02743995	      0.03187937	      0.05488817
      4.51666667	      0.02841752	      0.03244227	      0.05537173
      4.53333333	      0.02907420	      0.03281497	      0.05483949
      4.55000000	      0.02933751	      0.03296323	      0.05300927
      4.56666667	      0.02926970	      0.03292511	      0.05193897
      4.58333333	      0.02893553	      0.03273662	      0.05214314
      4.60000000	      0.02840295	      0.03243395	      0.05247757
      4.61666667	      0.02789300	      0.03214147	      0.05236229
      4.63333333	      0.02718150	      0.03172889	      0.05073531
      4.65000000	      0.02626615	      0.03119007	      0.04945630
      4.66666667	      0.02529831	      0.03061004	      0.04736198
      4.68333333	      0.02442720	      0.03007841	      0.04490125
      4.70000000	      0.02412761	      0.02989340	      0.04316976
      4.71666667	      0.02418506	      0.02992897	      0.04266515
      4.73333333	      0.02447491	      0.03010778	      0.04331744
      4.75000000	      0.02483560	      0.03032882	      0.04487309
      4.76666667	      0.02538381	      0.03066172	      0.04616599
      4.78333333	      0.02628614	      0.03120193	      0.04684241
      4.80000000	      0.02753253	      0.03193311	      0.04725941
      4.81666667	      0.02878204	      0.03264968	      0.04762738
      4.83333333	      0.02950359	      0.03305640	      0.04987411
      4.85000000	      0.03005609	      0.03336448	      0.05299812
      4.86666667	      0.03052133	      0.03362171	      0.05543308
      4.88333333	      0.03098540	      0.03387636	      0.05726329
      4.90000000	      0.03134659	      0.03407323	      0.05839428
      4.91666667	      0.03147481	      0.03414284	      0.05929244
      4.93333333	      0.03148989	      0.03415102	      0.05986476
      4.95000000	      0.03153125	      0.03417344	      0.06026214
      4.96666667	      0.03183624	      0.03433832	      0.06286683
      4.98333333	      0.03202559	      0.03444028	      0.06319138
      5.00000000	      0.03211752	      0.03448968	      0.06262440
      5.01666667	      0.03209308	      0.03447655	      0.06276215
      5.03333333	      0.03203225	      0.03444386	      0.06251498
      5.05000000	      0.03190483	      0.03437529	      0.06194495
      5.06666667	      0.03043806	      0.03357582	      0.06080446
      5.08333333	      0.03004327	      0.03335736	      0.05938749
      5.10000000	      0.02985038	      0.03325011	      0.05750517
      5.11666667	      0.03000001	      0.03333334	      0.05499707
      5.13333333	      0.03074154	      0.03374279	      0.05439790
      5.15000000	      0.03229162	      0.03458303	      0.05539490
