Model Marker Errors from IK
version=1
nRows=303
nColumns=4
inDegrees=no
endheader
time	total_squared_error	marker_error_RMS	marker_error_max
      0.00000000	      0.04748230	      0.04193571	      0.08455212
      0.01666667	      0.04633844	      0.04142751	      0.08433264
      0.03333333	      0.04534789	      0.04098233	      0.08340869
      0.05000000	      0.04436665	      0.04053652	      0.08173548
      0.06666667	      0.04333744	      0.04006358	      0.07978989
      0.08333333	      0.04247538	      0.03966311	      0.07759717
      0.10000000	      0.04210977	      0.03949204	      0.07548908
      0.11666667	      0.04208343	      0.03947968	      0.07376616
      0.13333333	      0.04227403	      0.03956899	      0.07249644
      0.15000000	      0.04243975	      0.03964647	      0.07131115
      0.16666667	      0.04224933	      0.03955743	      0.07057190
      0.18333333	      0.04153326	      0.03922077	      0.06985381
      0.20000000	      0.04042644	      0.03869465	      0.06976780
      0.21666667	      0.03941398	      0.03820703	      0.06952282
      0.23333333	      0.03894698	      0.03798000	      0.06999627
      0.25000000	      0.03916830	      0.03808776	      0.07099191
      0.26666667	      0.03995420	      0.03846798	      0.07277176
      0.28333333	      0.04106236	      0.03899780	      0.07538128
      0.30000000	      0.04229394	      0.03957830	      0.07823159
      0.31666667	      0.04334793	      0.04006843	      0.08053355
      0.33333333	      0.04388487	      0.04031582	      0.08166000
      0.35000000	      0.04347563	      0.04012740	      0.08060741
      0.36666667	      0.04190707	      0.03939688	      0.07780151
      0.38333333	      0.03944157	      0.03822040	      0.07438046
      0.40000000	      0.03700898	      0.03702301	      0.07140139
      0.41666667	      0.03502856	      0.03601880	      0.06909897
      0.43333333	      0.03358830	      0.03527054	      0.06772508
      0.45000000	      0.03229971	      0.03458736	      0.06537889
      0.46666667	      0.03110037	      0.03393915	      0.06198080
      0.48333333	      0.03023118	      0.03346152	      0.05762337
      0.50000000	      0.02999344	      0.03332969	      0.06085746
      0.51666667	      0.03053934	      0.03363163	      0.06635993
      0.53333333	      0.03157952	      0.03419959	      0.07297081
      0.55000000	      0.03294441	      0.03493084	      0.08012733
      0.56666667	      0.03279527	      0.03485168	      0.06659121
      0.58333333	      0.03332593	      0.03513251	      0.06938116
      0.60000000	      0.03325605	      0.03509566	      0.07100874
      0.61666667	      0.03260317	      0.03474946	      0.07082650
      0.63333333	      0.02936282	      0.03297745	      0.06929353
      0.65000000	      0.02746379	      0.03189322	      0.06667551
      0.66666667	      0.02605413	      0.03106393	      0.06435706
      0.68333333	      0.02523883	      0.03057403	      0.06258036
      0.70000000	      0.02492618	      0.03038407	      0.06171257
      0.71666667	      0.02484733	      0.03033598	      0.06137899
      0.73333333	      0.02480152	      0.03030800	      0.06133397
      0.75000000	      0.02450578	      0.03012676	      0.06007573
      0.76666667	      0.02397780	      0.02980045	      0.05833000
      0.78333333	      0.02323388	      0.02933452	      0.05562633
      0.80000000	      0.02206714	      0.02858849	      0.05278504
      0.81666667	      0.02088059	      0.02780927	      0.05236215
      0.83333333	      0.01975835	      0.02705163	      0.05272939
      0.85000000	      0.01869776	      0.02631557	      0.05217561
      0.86666667	      0.01796187	      0.02579253	      0.05169567
      0.88333333	      0.01783037	      0.02569794	      0.05084089
      0.90000000	      0.01872060	      0.02633164	      0.04988046
      0.91666667	      0.02055536	      0.02759184	      0.04945040
      0.93333333	      0.02282722	      0.02907667	      0.05068988
      0.95000000	      0.02464200	      0.03021037	      0.05376534
      0.96666667	      0.02583388	      0.03093235	      0.05788754
      0.98333333	      0.02649062	      0.03132306	      0.06247895
      1.00000000	      0.02678739	      0.03149802	      0.06642862
      1.01666667	      0.02761667	      0.03198186	      0.06976015
      1.03333333	      0.02905465	      0.03280394	      0.07176920
      1.05000000	      0.03057341	      0.03365039	      0.07177761
      1.06666667	      0.03152259	      0.03416875	      0.06949523
      1.08333333	      0.03148687	      0.03414938	      0.06708371
      1.10000000	      0.03075629	      0.03375088	      0.06747452
      1.11666667	      0.02977741	      0.03320944	      0.06634645
      1.13333333	      0.02884282	      0.03268413	      0.06449947
      1.15000000	      0.02798492	      0.03219439	      0.06213368
      1.16666667	      0.02725415	      0.03177126	      0.05936795
      1.18333333	      0.02684287	      0.03153063	      0.05683921
      1.20000000	      0.02676755	      0.03148636	      0.05471577
      1.21666667	      0.02685687	      0.03153885	      0.05600425
      1.23333333	      0.02696195	      0.03160049	      0.05697841
      1.25000000	      0.02717159	      0.03172310	      0.05890337
      1.26666667	      0.02773655	      0.03205120	      0.06191709
      1.28333333	      0.02884220	      0.03268378	      0.06513823
      1.30000000	      0.03038366	      0.03354580	      0.06801613
      1.31666667	      0.03183484	      0.03433756	      0.06921985
      1.33333333	      0.03287146	      0.03489214	      0.06778251
      1.35000000	      0.03352096	      0.03523517	      0.07008980
      1.36666667	      0.03385331	      0.03540941	      0.07239429
      1.38333333	      0.03371995	      0.03533959	      0.07200839
      1.40000000	      0.03315024	      0.03503979	      0.06877886
      1.41666667	      0.03226982	      0.03457135	      0.06393764
      1.43333333	      0.03154573	      0.03418129	      0.05883308
      1.45000000	      0.03108264	      0.03392947	      0.05642615
      1.46666667	      0.03082115	      0.03378645	      0.05575936
      1.48333333	      0.03093899	      0.03385097	      0.05494875
      1.50000000	      0.03120192	      0.03399451	      0.05483478
      1.51666667	      0.03154968	      0.03418343	      0.05659561
      1.53333333	      0.03199564	      0.03442418	      0.05750065
      1.55000000	      0.03258464	      0.03473958	      0.05746669
      1.56666667	      0.03328991	      0.03511352	      0.05999957
      1.58333333	      0.03414264	      0.03556040	      0.06318806
      1.60000000	      0.03507263	      0.03604145	      0.06568806
      1.61666667	      0.03603433	      0.03653225	      0.06838102
      1.63333333	      0.03682081	      0.03692876	      0.07045412
      1.65000000	      0.03725419	      0.03714546	      0.07179849
      1.66666667	      0.03722275	      0.03712978	      0.07194848
      1.68333333	      0.03695744	      0.03699722	      0.07122087
      1.70000000	      0.03670914	      0.03687272	      0.06996763
      1.71666667	      0.03671544	      0.03687589	      0.06876221
      1.73333333	      0.03700322	      0.03702013	      0.06749503
      1.75000000	      0.03747822	      0.03725698	      0.06582171
      1.76666667	      0.03784358	      0.03743814	      0.06388733
      1.78333333	      0.03811021	      0.03756979	      0.06353094
      1.80000000	      0.03802594	      0.03752823	      0.06190816
      1.81666667	      0.03786864	      0.03745053	      0.06005012
      1.83333333	      0.03777900	      0.03740618	      0.06120140
      1.85000000	      0.03809435	      0.03756197	      0.06434522
      1.86666667	      0.03880495	      0.03791069	      0.06799113
      1.88333333	      0.03967183	      0.03833180	      0.07145116
      1.90000000	      0.04034973	      0.03865792	      0.07347932
      1.91666667	      0.04065282	      0.03880284	      0.07327428
      1.93333333	      0.04065453	      0.03880365	      0.07090342
      1.95000000	      0.04046049	      0.03871094	      0.06675193
      1.96666667	      0.04021318	      0.03859245	      0.06261754
      1.98333333	      0.03984221	      0.03841402	      0.05897809
      2.00000000	      0.03939082	      0.03819580	      0.06008422
      2.01666667	      0.03903069	      0.03802080	      0.06278294
      2.03333333	      0.03901211	      0.03801175	      0.06544533
      2.05000000	      0.03935381	      0.03817785	      0.06779294
      2.06666667	      0.03992595	      0.03845437	      0.06879679
      2.08333333	      0.04075519	      0.03885166	      0.06869331
      2.10000000	      0.04181128	      0.03935182	      0.06843277
      2.11666667	      0.04295310	      0.03988553	      0.06839966
      2.13333333	      0.04375040	      0.04025401	      0.06856395
      2.15000000	      0.04395355	      0.04034736	      0.06859352
      2.16666667	      0.04365415	      0.04020971	      0.06826743
      2.18333333	      0.04294399	      0.03988130	      0.06992284
      2.20000000	      0.04215013	      0.03951096	      0.07184112
      2.21666667	      0.04134150	      0.03913013	      0.07358681
      2.23333333	      0.04060324	      0.03877917	      0.07471076
      2.25000000	      0.03995305	      0.03846742	      0.07488661
      2.26666667	      0.03938725	      0.03819407	      0.07403675
      2.28333333	      0.03895000	      0.03798148	      0.07223168
      2.30000000	      0.03875312	      0.03788536	      0.07046210
      2.31666667	      0.03871210	      0.03786531	      0.06872655
      2.33333333	      0.03884308	      0.03792931	      0.06737604
      2.35000000	      0.03906112	      0.03803562	      0.06623379
      2.36666667	      0.03952110	      0.03825891	      0.06527657
      2.38333333	      0.04026469	      0.03861716	      0.06472674
      2.40000000	      0.04134454	      0.03913157	      0.06467082
      2.41666667	      0.04267982	      0.03975845	      0.06518837
      2.43333333	      0.04392062	      0.04033224	      0.06619136
      2.45000000	      0.04475059	      0.04071154	      0.06747281
      2.46666667	      0.04503237	      0.04083951	      0.06848519
      2.48333333	      0.04466606	      0.04067307	      0.06887304
      2.50000000	      0.04377805	      0.04026673	      0.06827765
      2.51666667	      0.04270590	      0.03977059	      0.06685646
      2.53333333	      0.04183867	      0.03936471	      0.06468688
      2.55000000	      0.04151018	      0.03920987	      0.06544520
      2.56666667	      0.04164547	      0.03927372	      0.06763868
      2.58333333	      0.04189491	      0.03939116	      0.07029187
      2.60000000	      0.04190166	      0.03939433	      0.07314796
      2.61666667	      0.04147388	      0.03919272	      0.07560321
      2.63333333	      0.04051855	      0.03873870	      0.07728104
      2.65000000	      0.03884045	      0.03792803	      0.07703890
      2.66666667	      0.03658235	      0.03680899	      0.07616873
      2.68333333	      0.03399417	      0.03548300	      0.07436613
      2.70000000	      0.03150875	      0.03416125	      0.07293544
      2.71666667	      0.02930059	      0.03294248	      0.07121329
      2.73333333	      0.02737326	      0.03184061	      0.06924180
      2.75000000	      0.02568078	      0.03084056	      0.06755544
      2.76666667	      0.02429829	      0.02999894	      0.06621024
      2.78333333	      0.02337271	      0.02942203	      0.06542019
      2.80000000	      0.02292827	      0.02914095	      0.06482676
      2.81666667	      0.02282084	      0.02907260	      0.06422416
      2.83333333	      0.02288499	      0.02911343	      0.06402986
      2.85000000	      0.02300665	      0.02919072	      0.06278674
      2.86666667	      0.02323164	      0.02933311	      0.06107049
      2.88333333	      0.02344352	      0.02946656	      0.05732195
      2.90000000	      0.02349777	      0.02950064	      0.05243511
      2.91666667	      0.02324376	      0.02934075	      0.05062248
      2.93333333	      0.02280640	      0.02906341	      0.05097342
      2.95000000	      0.02252792	      0.02888542	      0.05105014
      2.96666667	      0.02273900	      0.02902043	      0.05131570
      2.98333333	      0.02351745	      0.02951299	      0.05217690
      3.00000000	      0.02464112	      0.03020984	      0.05415258
      3.01666667	      0.02564759	      0.03082062	      0.05723812
      3.03333333	      0.02637721	      0.03125594	      0.05995359
      3.05000000	      0.02691776	      0.03157458	      0.06201493
      3.06666667	      0.02729746	      0.03179650	      0.06299489
      3.08333333	      0.02741281	      0.03186360	      0.06279154
      3.10000000	      0.02735502	      0.03183000	      0.06157207
      3.11666667	      0.02733799	      0.03182009	      0.05967207
      3.13333333	      0.02741960	      0.03186755	      0.05731872
      3.15000000	      0.02744460	      0.03188208	      0.05459750
      3.16666667	      0.02718715	      0.03173218	      0.05182042
      3.18333333	      0.02666015	      0.03142313	      0.05096900
      3.20000000	      0.02588883	      0.03096523	      0.04907820
      3.21666667	      0.02530256	      0.03061261	      0.04902889
      3.23333333	      0.02503564	      0.03045071	      0.04897786
      3.25000000	      0.02497332	      0.03041279	      0.04903800
      3.26666667	      0.02508166	      0.03047868	      0.04969115
      3.28333333	      0.02560473	      0.03079486	      0.05348337
      3.30000000	      0.02650620	      0.03133227	      0.05655813
      3.31666667	      0.02766530	      0.03201001	      0.05903959
      3.33333333	      0.02884214	      0.03268375	      0.06145637
      3.35000000	      0.02992484	      0.03329155	      0.06380599
      3.36666667	      0.03079668	      0.03377303	      0.06599609
      3.38333333	      0.03121729	      0.03400288	      0.06699831
      3.40000000	      0.03097623	      0.03387134	      0.06622701
      3.41666667	      0.02995268	      0.03330704	      0.06432525
      3.43333333	      0.02859229	      0.03254188	      0.06127424
      3.45000000	      0.02726790	      0.03177928	      0.05778929
      3.46666667	      0.02616739	      0.03113138	      0.05508496
      3.48333333	      0.02556121	      0.03076868	      0.05257823
      3.50000000	      0.02545769	      0.03070631	      0.05090097
      3.51666667	      0.02576340	      0.03089013	      0.04975099
      3.53333333	      0.02621079	      0.03115718	      0.04879757
      3.55000000	      0.02654143	      0.03135308	      0.04887975
      3.56666667	      0.02663386	      0.03140763	      0.04777832
      3.58333333	      0.02648883	      0.03132200	      0.04782945
      3.60000000	      0.02625893	      0.03118578	      0.04871639
      3.61666667	      0.02618045	      0.03113915	      0.05012916
      3.63333333	      0.02646488	      0.03130784	      0.05241970
      3.65000000	      0.02725378	      0.03177105	      0.05488918
      3.66666667	      0.02842242	      0.03244506	      0.05721273
      3.68333333	      0.02983038	      0.03323897	      0.05929477
      3.70000000	      0.03110713	      0.03394283	      0.06084610
      3.71666667	      0.03211667	      0.03448922	      0.06216847
      3.73333333	      0.03277647	      0.03484169	      0.06387608
      3.75000000	      0.03321464	      0.03507380	      0.06633124
      3.76666667	      0.03343067	      0.03518768	      0.06878717
      3.78333333	      0.03331946	      0.03512910	      0.07002580
      3.80000000	      0.03272236	      0.03481292	      0.06898845
      3.81666667	      0.03159589	      0.03420845	      0.06646655
      3.83333333	      0.02994546	      0.03330302	      0.06399924
      3.85000000	      0.02816392	      0.03229718	      0.06195666
      3.86666667	      0.02650915	      0.03133401	      0.06012382
      3.88333333	      0.02515431	      0.03052280	      0.05807116
      3.90000000	      0.02442310	      0.03007589	      0.05553414
      3.91666667	      0.02408596	      0.02986759	      0.05434058
      3.93333333	      0.02432974	      0.03001835	      0.05358714
      3.95000000	      0.02493697	      0.03039065	      0.05363767
      3.96666667	      0.02569550	      0.03084939	      0.05351252
      3.98333333	      0.02644792	      0.03129780	      0.05292500
      4.00000000	      0.02685043	      0.03153506	      0.05421781
      4.01666667	      0.02722422	      0.03175381	      0.05811537
      4.03333333	      0.02764084	      0.03199586	      0.06292443
      4.05000000	      0.02833106	      0.03239288	      0.06893852
      4.06666667	      0.02950539	      0.03305741	      0.07549659
      4.08333333	      0.03045560	      0.03358549	      0.06690059
      4.10000000	      0.03220465	      0.03453643	      0.06860564
      4.11666667	      0.03418497	      0.03558244	      0.07058877
      4.13333333	      0.03602123	      0.03652560	      0.07268309
      4.15000000	      0.03724597	      0.03714135	      0.07421266
      4.16666667	      0.03771032	      0.03737216	      0.07527620
      4.18333333	      0.03754169	      0.03728851	      0.07529198
      4.20000000	      0.03725464	      0.03714568	      0.07590915
      4.21666667	      0.03693466	      0.03698581	      0.07639749
      4.23333333	      0.03400253	      0.03548736	      0.07568533
      4.25000000	      0.03357638	      0.03526428	      0.07561591
      4.26666667	      0.03333066	      0.03513501	      0.07647094
      4.28333333	      0.03316854	      0.03504945	      0.07607696
      4.30000000	      0.03308177	      0.03500358	      0.07540554
      4.31666667	      0.03297709	      0.03494816	      0.07402523
      4.33333333	      0.03281177	      0.03486044	      0.07233488
      4.35000000	      0.03261833	      0.03475753	      0.07059527
      4.36666667	      0.03246123	      0.03467373	      0.06931142
      4.38333333	      0.03237430	      0.03462728	      0.06792994
      4.40000000	      0.03237262	      0.03462638	      0.06758547
      4.41666667	      0.03229820	      0.03458655	      0.06705946
      4.43333333	      0.03215807	      0.03451144	      0.06645597
      4.45000000	      0.03197286	      0.03441192	      0.06640783
      4.46666667	      0.03192981	      0.03438874	      0.06646089
      4.48333333	      0.03199278	      0.03442264	      0.06668407
      4.50000000	      0.03206576	      0.03446188	      0.06678055
      4.51666667	      0.03197106	      0.03441095	      0.06630150
      4.53333333	      0.03196095	      0.03440551	      0.06654918
      4.55000000	      0.03183626	      0.03433833	      0.06696598
      4.56666667	      0.03192560	      0.03438647	      0.06744681
      4.58333333	      0.03212863	      0.03449564	      0.06810539
      4.60000000	      0.03246677	      0.03467669	      0.06850602
      4.61666667	      0.03302754	      0.03497488	      0.06967709
      4.63333333	      0.03379248	      0.03537758	      0.07075672
      4.65000000	      0.03469874	      0.03584883	      0.07171226
      4.66666667	      0.03562106	      0.03632215	      0.07263424
      4.68333333	      0.03658032	      0.03680797	      0.07340630
      4.70000000	      0.03739962	      0.03721789	      0.07396731
      4.71666667	      0.03806100	      0.03754553	      0.07438081
      4.73333333	      0.03853012	      0.03777620	      0.07448281
      4.75000000	      0.03880784	      0.03791210	      0.07454735
      4.76666667	      0.03887439	      0.03794459	      0.07391426
      4.78333333	      0.03886393	      0.03793949	      0.07373391
      4.80000000	      0.03893901	      0.03797612	      0.07322539
      4.81666667	      0.03888269	      0.03794865	      0.07302315
      4.83333333	      0.03895624	      0.03798452	      0.07278478
      4.85000000	      0.03914595	      0.03807689	      0.07268188
      4.86666667	      0.03951728	      0.03825706	      0.07289041
      4.88333333	      0.04011378	      0.03854472	      0.07326514
      4.90000000	      0.04077449	      0.03886086	      0.07404338
      4.91666667	      0.04129843	      0.03910974	      0.07569243
      4.93333333	      0.04150522	      0.03920753	      0.07615366
      4.95000000	      0.04135963	      0.03913870	      0.07585739
      4.96666667	      0.04082201	      0.03888350	      0.07503471
      4.98333333	      0.04014947	      0.03856187	      0.07464814
      5.00000000	      0.03944276	      0.03822098	      0.07421278
      5.01666667	      0.03882089	      0.03791847	      0.07404155
      5.03333333	      0.03867093	      0.03784517	      0.07452081
